{
"type": "FeatureCollection",
"name": "ARQUE",
"crs": { "type": "name", "properties": { "name": "urn:ogc:def:crs:OGC:1.3:CRS84" } },
"bbox": [ -66.772415, -17.981860, -66.255714, -17.652674 ],                                                                        
"features": [
{ "type": "Feature", "properties": { "NOMBRE": "Arque", "NIVEL": "Provincias", "PROVINCIA": "", "REGION": "Andina", "DEPARTAMENTO": "Cochabamba" }, "bbox": [ -66.772415, -17.98186, -66.255714, -17.652674 ], "geometry": { "type": "MultiPolygon", "coordinates": [ [ [ [ -66.611039, -17.741415 ], [ -66.611039, -17.741415 ], [ -66.606432, -17.73987 ], [ -66.606432, -17.73987 ], [ -66.600216, -17.734874 ], [ -66.597876, -17.725454 ], [ -66.597875, -17.725454 ], [ -66.59402, -17.723336 ], [ -66.582941, -17.723685 ], [ -66.577182, -17.727498 ], [ -66.577182, -17.727498 ], [ -66.571144, -17.723175 ], [ -66.57089, -17.722994 ], [ -66.570484, -17.722538 ], [ -66.570464, -17.72253 ], [ -66.570443, -17.722519 ], [ -66.570422, -17.722506 ], [ -66.570401, -17.72249 ], [ -66.570358, -17.722451 ], [ -66.570297, -17.722386 ], [ -66.57026, -17.722346 ], [ -66.57024, -17.722323 ], [ -66.57022, -17.722295 ], [ -66.570207, -17.72227 ], [ -66.570199, -17.722249 ], [ -66.570181, -17.722188 ], [ -66.570164, -17.722146 ], [ -66.570149, -17.722116 ], [ -66.570126, -17.722081 ], [ -66.570098, -17.722044 ], [ -66.570062, -17.722 ], [ -66.570038, -17.721972 ], [ -66.569997, -17.721933 ], [ -66.569978, -17.721912 ], [ -66.569966, -17.721896 ], [ -66.569949, -17.72186 ], [ -66.569941, -17.721849 ], [ -66.569932, -17.72184 ], [ -66.569919, -17.721831 ], [ -66.569882, -17.721811 ], [ -66.56984, -17.721795 ], [ -66.569816, -17.721784 ], [ -66.569799, -17.721774 ], [ -66.569778, -17.721757 ], [ -66.569761, -17.721739 ], [ -66.569737, -17.721693 ], [ -66.569721, -17.721676 ], [ -66.569691, -17.721651 ], [ -66.569666, -17.72163 ], [ -66.569638, -17.72161 ], [ -66.569618, -17.721596 ], [ -66.569597, -17.721586 ], [ -66.569579, -17.721578 ], [ -66.569555, -17.721572 ], [ -66.569523, -17.721568 ], [ -66.569484, -17.721566 ], [ -66.569471, -17.721567 ], [ -66.56946, -17.72157 ], [ -66.569444, -17.72158 ], [ -66.569438, -17.721582 ], [ -66.569431, -17.721581 ], [ -66.569422, -17.721583 ], [ -66.569406, -17.721596 ], [ -66.569399, -17.7216 ], [ -66.569381, -17.721602 ], [ -66.569352, -17.721597 ], [ -66.569325, -17.721592 ], [ -66.569318, -17.721588 ], [ -66.569313, -17.721584 ], [ -66.569312, -17.721578 ], [ -66.569313, -17.72157 ], [ -66.569312, -17.721565 ], [ -66.56931, -17.721563 ], [ -66.569306, -17.721562 ], [ -66.569302, -17.72156 ], [ -66.569299, -17.721555 ], [ -66.569297, -17.72153 ], [ -66.569294, -17.721522 ], [ -66.569284, -17.721509 ], [ -66.569269, -17.721495 ], [ -66.569247, -17.721481 ], [ -66.569242, -17.721472 ], [ -66.569238, -17.721454 ], [ -66.569233, -17.721424 ], [ -66.569234, -17.721417 ], [ -66.56924, -17.721397 ], [ -66.569238, -17.721388 ], [ -66.569234, -17.721379 ], [ -66.569212, -17.721354 ], [ -66.569188, -17.721332 ], [ -66.569171, -17.721321 ], [ -66.569153, -17.721312 ], [ -66.569132, -17.721304 ], [ -66.569111, -17.721298 ], [ -66.56909, -17.721294 ], [ -66.569078, -17.721294 ], [ -66.569067, -17.721296 ], [ -66.569061, -17.721296 ], [ -66.569054, -17.721294 ], [ -66.569029, -17.721278 ], [ -66.568996, -17.721258 ], [ -66.568981, -17.721251 ], [ -66.568923, -17.721238 ], [ -66.568898, -17.721227 ], [ -66.568875, -17.721213 ], [ -66.568859, -17.721201 ], [ -66.568848, -17.72119 ], [ -66.56884, -17.721179 ], [ -66.568823, -17.721147 ], [ -66.5688, -17.721118 ], [ -66.568776, -17.72109 ], [ -66.568756, -17.721074 ], [ -66.568738, -17.721063 ], [ -66.568711, -17.72105 ], [ -66.568671, -17.721036 ], [ -66.568656, -17.72103 ], [ -66.568641, -17.721018 ], [ -66.568615, -17.720989 ], [ -66.568604, -17.720978 ], [ -66.568578, -17.720959 ], [ -66.568557, -17.720946 ], [ -66.568543, -17.72094 ], [ -66.568507, -17.72093 ], [ -66.568491, -17.720925 ], [ -66.568463, -17.720909 ], [ -66.568441, -17.720894 ], [ -66.568428, -17.72088 ], [ -66.56841, -17.720857 ], [ -66.568379, -17.72081 ], [ -66.568355, -17.720776 ], [ -66.568336, -17.720752 ], [ -66.568307, -17.720722 ], [ -66.568273, -17.720692 ], [ -66.568228, -17.720661 ], [ -66.568212, -17.720647 ], [ -66.568183, -17.720618 ], [ -66.568177, -17.720608 ], [ -66.568175, -17.7206 ], [ -66.568176, -17.720597 ], [ -66.56818, -17.72059 ], [ -66.568197, -17.720573 ], [ -66.5682, -17.720566 ], [ -66.568201, -17.72056 ], [ -66.5682, -17.72055 ], [ -66.568196, -17.720538 ], [ -66.56819, -17.720528 ], [ -66.568184, -17.72052 ], [ -66.568178, -17.720517 ], [ -66.56817, -17.720515 ], [ -66.568132, -17.720512 ], [ -66.568093, -17.720502 ], [ -66.567981, -17.72047 ], [ -66.567881, -17.720449 ], [ -66.56781, -17.720439 ], [ -66.567757, -17.720423 ], [ -66.567709, -17.720403 ], [ -66.567692, -17.720392 ], [ -66.567651, -17.720358 ], [ -66.567638, -17.720351 ], [ -66.567626, -17.720347 ], [ -66.56761, -17.720346 ], [ -66.567592, -17.720348 ], [ -66.567572, -17.720352 ], [ -66.567549, -17.72036 ], [ -66.567514, -17.720379 ], [ -66.567502, -17.720384 ], [ -66.567484, -17.720388 ], [ -66.567464, -17.720388 ], [ -66.567448, -17.720386 ], [ -66.567434, -17.720382 ], [ -66.567421, -17.720372 ], [ -66.567401, -17.720345 ], [ -66.567393, -17.720336 ], [ -66.567377, -17.720324 ], [ -66.56736, -17.720313 ], [ -66.56734, -17.720303 ], [ -66.567318, -17.720294 ], [ -66.567269, -17.72028 ], [ -66.567213, -17.72027 ], [ -66.567164, -17.720267 ], [ -66.567125, -17.720269 ], [ -66.56709, -17.720276 ], [ -66.567062, -17.720286 ], [ -66.567033, -17.720303 ], [ -66.567019, -17.720304 ], [ -66.567002, -17.720301 ], [ -66.56694, -17.720273 ], [ -66.566865, -17.720247 ], [ -66.566821, -17.720228 ], [ -66.566792, -17.720211 ], [ -66.566728, -17.720163 ], [ -66.56671, -17.720153 ], [ -66.566693, -17.720146 ], [ -66.566676, -17.720141 ], [ -66.566655, -17.720138 ], [ -66.566568, -17.720136 ], [ -66.566531, -17.720131 ], [ -66.566506, -17.720124 ], [ -66.566479, -17.720114 ], [ -66.566399, -17.720079 ], [ -66.56633, -17.720049 ], [ -66.56631, -17.720039 ], [ -66.566293, -17.720028 ], [ -66.56628, -17.720017 ], [ -66.566252, -17.71999 ], [ -66.566239, -17.719979 ], [ -66.566221, -17.71997 ], [ -66.566171, -17.719956 ], [ -66.56616, -17.71995 ], [ -66.566152, -17.719942 ], [ -66.566146, -17.71993 ], [ -66.566137, -17.719899 ], [ -66.566131, -17.719887 ], [ -66.566117, -17.719869 ], [ -66.566089, -17.719842 ], [ -66.566035, -17.719796 ], [ -66.56601, -17.719771 ], [ -66.565998, -17.719762 ], [ -66.565984, -17.719755 ], [ -66.565966, -17.71975 ], [ -66.565908, -17.719745 ], [ -66.565858, -17.719745 ], [ -66.565786, -17.719752 ], [ -66.565744, -17.719757 ], [ -66.565717, -17.719762 ], [ -66.565661, -17.719779 ], [ -66.565625, -17.719785 ], [ -66.565535, -17.719792 ], [ -66.56544, -17.719808 ], [ -66.565378, -17.719819 ], [ -66.56536, -17.719824 ], [ -66.565346, -17.719831 ], [ -66.565335, -17.719837 ], [ -66.565322, -17.719842 ], [ -66.565306, -17.719845 ], [ -66.56525, -17.719845 ], [ -66.56523, -17.719846 ], [ -66.565205, -17.719852 ], [ -66.565147, -17.719869 ], [ -66.56512, -17.719875 ], [ -66.565063, -17.719883 ], [ -66.565002, -17.719887 ], [ -66.564936, -17.719887 ], [ -66.564863, -17.719882 ], [ -66.564798, -17.719878 ], [ -66.564766, -17.719875 ], [ -66.564736, -17.719869 ], [ -66.56471, -17.71986 ], [ -66.564664, -17.719835 ], [ -66.564622, -17.719815 ], [ -66.56459, -17.719802 ], [ -66.564548, -17.719788 ], [ -66.564509, -17.719783 ], [ -66.564469, -17.719783 ], [ -66.564428, -17.719789 ], [ -66.564391, -17.719801 ], [ -66.564364, -17.719814 ], [ -66.564339, -17.719822 ], [ -66.564313, -17.719827 ], [ -66.564284, -17.719828 ], [ -66.564253, -17.719825 ], [ -66.564221, -17.71982 ], [ -66.564185, -17.719811 ], [ -66.564089, -17.71978 ], [ -66.564067, -17.719773 ], [ -66.564057, -17.719768 ], [ -66.564051, -17.719762 ], [ -66.564042, -17.719744 ], [ -66.564036, -17.719738 ], [ -66.564029, -17.719733 ], [ -66.56402, -17.719729 ], [ -66.563977, -17.719719 ], [ -66.563933, -17.719698 ], [ -66.563914, -17.719692 ], [ -66.563896, -17.71969 ], [ -66.563851, -17.719691 ], [ -66.563832, -17.719688 ], [ -66.563812, -17.719683 ], [ -66.56377, -17.719667 ], [ -66.56373, -17.719646 ], [ -66.563637, -17.719589 ], [ -66.563612, -17.719576 ], [ -66.56359, -17.719567 ], [ -66.563566, -17.719559 ], [ -66.563504, -17.71959 ], [ -66.56346, -17.719576 ], [ -66.563399, -17.719611 ], [ -66.563349, -17.719646 ], [ -66.563325, -17.719657 ], [ -66.563302, -17.719663 ], [ -66.563273, -17.719665 ], [ -66.563245, -17.719664 ], [ -66.563224, -17.719659 ], [ -66.563172, -17.719639 ], [ -66.563127, -17.719628 ], [ -66.563088, -17.719623 ], [ -66.563044, -17.719622 ], [ -66.563012, -17.719626 ], [ -66.562985, -17.719635 ], [ -66.562956, -17.719649 ], [ -66.562942, -17.719659 ], [ -66.562908, -17.719685 ], [ -66.562866, -17.719713 ], [ -66.562829, -17.719734 ], [ -66.562769, -17.719762 ], [ -66.562747, -17.71977 ], [ -66.562727, -17.719775 ], [ -66.562703, -17.719777 ], [ -66.56265, -17.719776 ], [ -66.562585, -17.719779 ], [ -66.562524, -17.719782 ], [ -66.562487, -17.719786 ], [ -66.562465, -17.719791 ], [ -66.562416, -17.719805 ], [ -66.562395, -17.719809 ], [ -66.562348, -17.719814 ], [ -66.562319, -17.719821 ], [ -66.56229, -17.719831 ], [ -66.562264, -17.719844 ], [ -66.562231, -17.719865 ], [ -66.562189, -17.719895 ], [ -66.562172, -17.719905 ], [ -66.562125, -17.719928 ], [ -66.562112, -17.719936 ], [ -66.562102, -17.719945 ], [ -66.562091, -17.71996 ], [ -66.562072, -17.719998 ], [ -66.562061, -17.720012 ], [ -66.562048, -17.720022 ], [ -66.562012, -17.720043 ], [ -66.561974, -17.720069 ], [ -66.561943, -17.720095 ], [ -66.561917, -17.72012 ], [ -66.561895, -17.720145 ], [ -66.561884, -17.720163 ], [ -66.561862, -17.720204 ], [ -66.561851, -17.72022 ], [ -66.561815, -17.720259 ], [ -66.5618, -17.720285 ], [ -66.561793, -17.720294 ], [ -66.56178, -17.720303 ], [ -66.56176, -17.720312 ], [ -66.561734, -17.72032 ], [ -66.561665, -17.720351 ], [ -66.56161, -17.72037 ], [ -66.561562, -17.720387 ], [ -66.561534, -17.7204 ], [ -66.561499, -17.72042 ], [ -66.561458, -17.720454 ], [ -66.561417, -17.720484 ], [ -66.561387, -17.720503 ], [ -66.561374, -17.720507 ], [ -66.561335, -17.720514 ], [ -66.561312, -17.720521 ], [ -66.5613, -17.720528 ], [ -66.561293, -17.720535 ], [ -66.561287, -17.720545 ], [ -66.56128, -17.720565 ], [ -66.561272, -17.720571 ], [ -66.561263, -17.720575 ], [ -66.561244, -17.720573 ], [ -66.561224, -17.720574 ], [ -66.561214, -17.720578 ], [ -66.561191, -17.72059 ], [ -66.561181, -17.720594 ], [ -66.561142, -17.720596 ], [ -66.561114, -17.720602 ], [ -66.561103, -17.720603 ], [ -66.561074, -17.720592 ], [ -66.561059, -17.720592 ], [ -66.561037, -17.720596 ], [ -66.560989, -17.720615 ], [ -66.560966, -17.720618 ], [ -66.560925, -17.72062 ], [ -66.560862, -17.720623 ], [ -66.560811, -17.720624 ], [ -66.560784, -17.720622 ], [ -66.560738, -17.720607 ], [ -66.560721, -17.720605 ], [ -66.560702, -17.720606 ], [ -66.560636, -17.72062 ], [ -66.560611, -17.720622 ], [ -66.560579, -17.720623 ], [ -66.560559, -17.720622 ], [ -66.560532, -17.720616 ], [ -66.560507, -17.720607 ], [ -66.560463, -17.72058 ], [ -66.560418, -17.720555 ], [ -66.560387, -17.72054 ], [ -66.560349, -17.720527 ], [ -66.560301, -17.720513 ], [ -66.560256, -17.720504 ], [ -66.560224, -17.720493 ], [ -66.56021, -17.720491 ], [ -66.560195, -17.720492 ], [ -66.560165, -17.7205 ], [ -66.560151, -17.720502 ], [ -66.560129, -17.720503 ], [ -66.560107, -17.720501 ], [ -66.560089, -17.720497 ], [ -66.56007, -17.72049 ], [ -66.56003, -17.720471 ], [ -66.560016, -17.72046 ], [ -66.559986, -17.720433 ], [ -66.559972, -17.720423 ], [ -66.559939, -17.72041 ], [ -66.559924, -17.720406 ], [ -66.55991, -17.720405 ], [ -66.559883, -17.720408 ], [ -66.55985, -17.720419 ], [ -66.559821, -17.720434 ], [ -66.559789, -17.720459 ], [ -66.559771, -17.720471 ], [ -66.559765, -17.720472 ], [ -66.559761, -17.720472 ], [ -66.559756, -17.720469 ], [ -66.559746, -17.720458 ], [ -66.559736, -17.720451 ], [ -66.559724, -17.720447 ], [ -66.55967, -17.720436 ], [ -66.559596, -17.720411 ], [ -66.559546, -17.72039 ], [ -66.559493, -17.720361 ], [ -66.559463, -17.720351 ], [ -66.559392, -17.720333 ], [ -66.559326, -17.720312 ], [ -66.559253, -17.720296 ], [ -66.559223, -17.720285 ], [ -66.559206, -17.720274 ], [ -66.559162, -17.72024 ], [ -66.559122, -17.720214 ], [ -66.55911, -17.720209 ], [ -66.559098, -17.720206 ], [ -66.559056, -17.72021 ], [ -66.559039, -17.720208 ], [ -66.55902, -17.720203 ], [ -66.559001, -17.720196 ], [ -66.55898, -17.720187 ], [ -66.558957, -17.720173 ], [ -66.558936, -17.720157 ], [ -66.558925, -17.720144 ], [ -66.558902, -17.720109 ], [ -66.558895, -17.720101 ], [ -66.558888, -17.720096 ], [ -66.558871, -17.72009 ], [ -66.55885, -17.720088 ], [ -66.558826, -17.720089 ], [ -66.558802, -17.720094 ], [ -66.558786, -17.720099 ], [ -66.558773, -17.720099 ], [ -66.558758, -17.720096 ], [ -66.558742, -17.720088 ], [ -66.558713, -17.720072 ], [ -66.558678, -17.720048 ], [ -66.558637, -17.720019 ], [ -66.558625, -17.720008 ], [ -66.558617, -17.719998 ], [ -66.558597, -17.719956 ], [ -66.558578, -17.719936 ], [ -66.558559, -17.719923 ], [ -66.558537, -17.719916 ], [ -66.558519, -17.719915 ], [ -66.558496, -17.719925 ], [ -66.558484, -17.719925 ], [ -66.558471, -17.719923 ], [ -66.558458, -17.719918 ], [ -66.558447, -17.719911 ], [ -66.558438, -17.7199 ], [ -66.558428, -17.719872 ], [ -66.558422, -17.719862 ], [ -66.558387, -17.719829 ], [ -66.558366, -17.719793 ], [ -66.558358, -17.719783 ], [ -66.55834, -17.719768 ], [ -66.558294, -17.719741 ], [ -66.558243, -17.719705 ], [ -66.558208, -17.719676 ], [ -66.558188, -17.719658 ], [ -66.558147, -17.719615 ], [ -66.558127, -17.719597 ], [ -66.558086, -17.719566 ], [ -66.558065, -17.719554 ], [ -66.558002, -17.719522 ], [ -66.557967, -17.719501 ], [ -66.557939, -17.719482 ], [ -66.557887, -17.719439 ], [ -66.557846, -17.719419 ], [ -66.557832, -17.71941 ], [ -66.55782, -17.719395 ], [ -66.557801, -17.719363 ], [ -66.557786, -17.719334 ], [ -66.557778, -17.719322 ], [ -66.557763, -17.719308 ], [ -66.557743, -17.719296 ], [ -66.557722, -17.719287 ], [ -66.557671, -17.719269 ], [ -66.557648, -17.719258 ], [ -66.557581, -17.719219 ], [ -66.5575, -17.719168 ], [ -66.557449, -17.719132 ], [ -66.557403, -17.719091 ], [ -66.557361, -17.719047 ], [ -66.557318, -17.718998 ], [ -66.557289, -17.718974 ], [ -66.557253, -17.718952 ], [ -66.557229, -17.71894 ], [ -66.55717, -17.718918 ], [ -66.557107, -17.718891 ], [ -66.557073, -17.718873 ], [ -66.557034, -17.718844 ], [ -66.557002, -17.718814 ], [ -66.556992, -17.7188 ], [ -66.55697, -17.718765 ], [ -66.556959, -17.71875 ], [ -66.556931, -17.718721 ], [ -66.556903, -17.718699 ], [ -66.556883, -17.718686 ], [ -66.556851, -17.718669 ], [ -66.556802, -17.718646 ], [ -66.556773, -17.718625 ], [ -66.556747, -17.7186 ], [ -66.556724, -17.718571 ], [ -66.556706, -17.71854 ], [ -66.556701, -17.718525 ], [ -66.556692, -17.718489 ], [ -66.556685, -17.718473 ], [ -66.556674, -17.718456 ], [ -66.55666, -17.718441 ], [ -66.556638, -17.718383 ], [ -66.556236, -17.718017 ], [ -66.556136, -17.717955 ], [ -66.556084, -17.717834 ], [ -66.556024, -17.717758 ], [ -66.555937, -17.717664 ], [ -66.555898, -17.717564 ], [ -66.555905, -17.717442 ], [ -66.555892, -17.717382 ], [ -66.55586, -17.717309 ], [ -66.555853, -17.717212 ], [ -66.555817, -17.717126 ], [ -66.555735, -17.717022 ], [ -66.55573, -17.716907 ], [ -66.555706, -17.716828 ], [ -66.555677, -17.716731 ], [ -66.555658, -17.716638 ], [ -66.555621, -17.716543 ], [ -66.555632, -17.716462 ], [ -66.555621, -17.716395 ], [ -66.555577, -17.716355 ], [ -66.555563, -17.716267 ], [ -66.555524, -17.716157 ], [ -66.555497, -17.716083 ], [ -66.555455, -17.715979 ], [ -66.555429, -17.715886 ], [ -66.55538, -17.715804 ], [ -66.555304, -17.715736 ], [ -66.555257, -17.715634 ], [ -66.555223, -17.715563 ], [ -66.555153, -17.715533 ], [ -66.555066, -17.715449 ], [ -66.554989, -17.715383 ], [ -66.554946, -17.715278 ], [ -66.55492, -17.715145 ], [ -66.554891, -17.715054 ], [ -66.554834, -17.71496 ], [ -66.554787, -17.714913 ], [ -66.55482, -17.714857 ], [ -66.554817, -17.714824 ], [ -66.554785, -17.714739 ], [ -66.554729, -17.714663 ], [ -66.554651, -17.714369 ], [ -66.554596, -17.714257 ], [ -66.554492, -17.714176 ], [ -66.554346, -17.714102 ], [ -66.554037, -17.713953 ], [ -66.553725, -17.713779 ], [ -66.553576, -17.713662 ], [ -66.553461, -17.713557 ], [ -66.553389, -17.713451 ], [ -66.553313, -17.713383 ], [ -66.553121, -17.712983 ], [ -66.55288, -17.712741 ], [ -66.55268, -17.712592 ], [ -66.552605, -17.71256 ], [ -66.551889, -17.712046 ], [ -66.551541, -17.71163 ], [ -66.551432, -17.711499 ], [ -66.550925, -17.711291 ], [ -66.549958, -17.709626 ], [ -66.549132, -17.707295 ], [ -66.547604, -17.705839 ], [ -66.546561, -17.706304 ], [ -66.54259, -17.707632 ], [ -66.541666, -17.707798 ], [ -66.540388, -17.707745 ], [ -66.53963, -17.708792 ], [ -66.537706, -17.709127 ], [ -66.537599, -17.709146 ], [ -66.534439, -17.713496 ], [ -66.526496, -17.712141 ], [ -66.527153, -17.709603 ], [ -66.527022, -17.709335 ], [ -66.526392, -17.708058 ], [ -66.524582, -17.708098 ], [ -66.52278, -17.707606 ], [ -66.521703, -17.707131 ], [ -66.520029, -17.706866 ], [ -66.519257, -17.70682 ], [ -66.518293, -17.706836 ], [ -66.515479, -17.706506 ], [ -66.514095, -17.706384 ], [ -66.512755, -17.706613 ], [ -66.506779, -17.709053 ], [ -66.506786, -17.708789 ], [ -66.505302, -17.707521 ], [ -66.504477, -17.7075 ], [ -66.503715, -17.707365 ], [ -66.503682, -17.707358 ], [ -66.503545, -17.707328 ], [ -66.500678, -17.706704 ], [ -66.501193, -17.702432 ], [ -66.501212, -17.702274 ], [ -66.501418, -17.700566 ], [ -66.501429, -17.700475 ], [ -66.501465, -17.700179 ], [ -66.501498, -17.70002 ], [ -66.501566, -17.699711 ], [ -66.501747, -17.699056 ], [ -66.501968, -17.698273 ], [ -66.50221, -17.697342 ], [ -66.503127, -17.696275 ], [ -66.503718, -17.695703 ], [ -66.504155, -17.694976 ], [ -66.504972, -17.692952 ], [ -66.505233, -17.691842 ], [ -66.505296, -17.691573 ], [ -66.505662, -17.689849 ], [ -66.50641, -17.68845 ], [ -66.503938, -17.687276 ], [ -66.498335, -17.683779 ], [ -66.49725, -17.682931 ], [ -66.497085, -17.682801 ], [ -66.493731, -17.680178 ], [ -66.493226, -17.679851 ], [ -66.490779, -17.678664 ], [ -66.488335, -17.676861 ], [ -66.488132, -17.676711 ], [ -66.48634, -17.675389 ], [ -66.486289, -17.675352 ], [ -66.486175, -17.675268 ], [ -66.486108, -17.675218 ], [ -66.485282, -17.674608 ], [ -66.484948, -17.674362 ], [ -66.484671, -17.67336 ], [ -66.484362, -17.673108 ], [ -66.48397, -17.672888 ], [ -66.483575, -17.672689 ], [ -66.483291, -17.672405 ], [ -66.482807, -17.671256 ], [ -66.482616, -17.67102 ], [ -66.482304, -17.670633 ], [ -66.48278, -17.670627 ], [ -66.483011, -17.670623 ], [ -66.482896, -17.670343 ], [ -66.482588, -17.669589 ], [ -66.482558, -17.669554 ], [ -66.482534, -17.669542 ], [ -66.482521, -17.669523 ], [ -66.482504, -17.669513 ], [ -66.482486, -17.669507 ], [ -66.48248, -17.669489 ], [ -66.48247, -17.669473 ], [ -66.48245, -17.66947 ], [ -66.482439, -17.669455 ], [ -66.482421, -17.669449 ], [ -66.482407, -17.669434 ], [ -66.482391, -17.669424 ], [ -66.482376, -17.669408 ], [ -66.482365, -17.669394 ], [ -66.482355, -17.669378 ], [ -66.482329, -17.669349 ], [ -66.482314, -17.669336 ], [ -66.482299, -17.669323 ], [ -66.482276, -17.6693 ], [ -66.482276, -17.669298 ], [ -66.482263, -17.669284 ], [ -66.482247, -17.669274 ], [ -66.482235, -17.66926 ], [ -66.48222, -17.669248 ], [ -66.482204, -17.669237 ], [ -66.482192, -17.669222 ], [ -66.482163, -17.669198 ], [ -66.482146, -17.669189 ], [ -66.482129, -17.66918 ], [ -66.482115, -17.669168 ], [ -66.4821, -17.669152 ], [ -66.482078, -17.669148 ], [ -66.48206, -17.669144 ], [ -66.482036, -17.669113 ], [ -66.482003, -17.66909 ], [ -66.481993, -17.669074 ], [ -66.481978, -17.669063 ], [ -66.481963, -17.669051 ], [ -66.481949, -17.669037 ], [ -66.481931, -17.669029 ], [ -66.481913, -17.669024 ], [ -66.4819, -17.669011 ], [ -66.481893, -17.668994 ], [ -66.481875, -17.668986 ], [ -66.481859, -17.668975 ], [ -66.481855, -17.668957 ], [ -66.481837, -17.668947 ], [ -66.481818, -17.668944 ], [ -66.481802, -17.668935 ], [ -66.481784, -17.668929 ], [ -66.481763, -17.668922 ], [ -66.481739, -17.668915 ], [ -66.481714, -17.668912 ], [ -66.481697, -17.668905 ], [ -66.481683, -17.668892 ], [ -66.481666, -17.668882 ], [ -66.481643, -17.668876 ], [ -66.481625, -17.668867 ], [ -66.481607, -17.66886 ], [ -66.481585, -17.66887 ], [ -66.481581, -17.66887 ], [ -66.481563, -17.668865 ], [ -66.481543, -17.668866 ], [ -66.48152, -17.668865 ], [ -66.481501, -17.668864 ], [ -66.481481, -17.668862 ], [ -66.481463, -17.668857 ], [ -66.481443, -17.668849 ], [ -66.481423, -17.668849 ], [ -66.481405, -17.668844 ], [ -66.481391, -17.668831 ], [ -66.481388, -17.668813 ], [ -66.481378, -17.668798 ], [ -66.481365, -17.668785 ], [ -66.481353, -17.66877 ], [ -66.481346, -17.668753 ], [ -66.481335, -17.668735 ], [ -66.481321, -17.668722 ], [ -66.481307, -17.668709 ], [ -66.481295, -17.668695 ], [ -66.481279, -17.668684 ], [ -66.481262, -17.668674 ], [ -66.48124, -17.668672 ], [ -66.481224, -17.668662 ], [ -66.481206, -17.668656 ], [ -66.481184, -17.668652 ], [ -66.481164, -17.668652 ], [ -66.481145, -17.668652 ], [ -66.481126, -17.668646 ], [ -66.481107, -17.668639 ], [ -66.481088, -17.668633 ], [ -66.481087, -17.668614 ], [ -66.481091, -17.668596 ], [ -66.481097, -17.668579 ], [ -66.481106, -17.668562 ], [ -66.481116, -17.668545 ], [ -66.481121, -17.668526 ], [ -66.481122, -17.668488 ], [ -66.481125, -17.66847 ], [ -66.481106, -17.668459 ], [ -66.481102, -17.668441 ], [ -66.481087, -17.668423 ], [ -66.481077, -17.668405 ], [ -66.481056, -17.668394 ], [ -66.481051, -17.668376 ], [ -66.48104, -17.668361 ], [ -66.481037, -17.668343 ], [ -66.481031, -17.668326 ], [ -66.481027, -17.668308 ], [ -66.481014, -17.668294 ], [ -66.480994, -17.668287 ], [ -66.480973, -17.668281 ], [ -66.480954, -17.66828 ], [ -66.480928, -17.668279 ], [ -66.480912, -17.668269 ], [ -66.480891, -17.668264 ], [ -66.480874, -17.668256 ], [ -66.480856, -17.668249 ], [ -66.480838, -17.668242 ], [ -66.480825, -17.668227 ], [ -66.480807, -17.668221 ], [ -66.480792, -17.668209 ], [ -66.480775, -17.668196 ], [ -66.480761, -17.668184 ], [ -66.480742, -17.668179 ], [ -66.480723, -17.668172 ], [ -66.480704, -17.66817 ], [ -66.48068, -17.66817 ], [ -66.480665, -17.668168 ], [ -66.480662, -17.668165 ], [ -66.480643, -17.66816 ], [ -66.480629, -17.668147 ], [ -66.480608, -17.668141 ], [ -66.480594, -17.668129 ], [ -66.480594, -17.66811 ], [ -66.480588, -17.668093 ], [ -66.480586, -17.668074 ], [ -66.480588, -17.668055 ], [ -66.480594, -17.668037 ], [ -66.480604, -17.66802 ], [ -66.48061, -17.668002 ], [ -66.48061, -17.667984 ], [ -66.480609, -17.667965 ], [ -66.480598, -17.66795 ], [ -66.480587, -17.667935 ], [ -66.480575, -17.667919 ], [ -66.480565, -17.667904 ], [ -66.480553, -17.66789 ], [ -66.480539, -17.667876 ], [ -66.480511, -17.667855 ], [ -66.480492, -17.667839 ], [ -66.480476, -17.667827 ], [ -66.480458, -17.667819 ], [ -66.480402, -17.667769 ], [ -66.480343, -17.667853 ], [ -66.480326, -17.667863 ], [ -66.480306, -17.667866 ], [ -66.480282, -17.667869 ], [ -66.480261, -17.667869 ], [ -66.480238, -17.667863 ], [ -66.480217, -17.667857 ], [ -66.480196, -17.667852 ], [ -66.480178, -17.667846 ], [ -66.480158, -17.667845 ], [ -66.480139, -17.667842 ], [ -66.480125, -17.667829 ], [ -66.480113, -17.667815 ], [ -66.480097, -17.667805 ], [ -66.480078, -17.667801 ], [ -66.480065, -17.667788 ], [ -66.480049, -17.667778 ], [ -66.480031, -17.667772 ], [ -66.48001, -17.667772 ], [ -66.47999, -17.66777 ], [ -66.479974, -17.667758 ], [ -66.479953, -17.667749 ], [ -66.479936, -17.667741 ], [ -66.479917, -17.667732 ], [ -66.479898, -17.667728 ], [ -66.47988, -17.667725 ], [ -66.479851, -17.667714 ], [ -66.479835, -17.667705 ], [ -66.479818, -17.667695 ], [ -66.479802, -17.667682 ], [ -66.479789, -17.667667 ], [ -66.479774, -17.667656 ], [ -66.479759, -17.667644 ], [ -66.479754, -17.667621 ], [ -66.479743, -17.667602 ], [ -66.479727, -17.667591 ], [ -66.479718, -17.667575 ], [ -66.479704, -17.667562 ], [ -66.47969, -17.667549 ], [ -66.479681, -17.667533 ], [ -66.479657, -17.667503 ], [ -66.479649, -17.667486 ], [ -66.479641, -17.667468 ], [ -66.479631, -17.667452 ], [ -66.479625, -17.667435 ], [ -66.479611, -17.667422 ], [ -66.479596, -17.667411 ], [ -66.479576, -17.667411 ], [ -66.479558, -17.667404 ], [ -66.47954, -17.667399 ], [ -66.479525, -17.667387 ], [ -66.479505, -17.667386 ], [ -66.479487, -17.667396 ], [ -66.479468, -17.667404 ], [ -66.479449, -17.667406 ], [ -66.479429, -17.667407 ], [ -66.479406, -17.667412 ], [ -66.479388, -17.66742 ], [ -66.47937, -17.667427 ], [ -66.479354, -17.667438 ], [ -66.479334, -17.667439 ], [ -66.479316, -17.667434 ], [ -66.479164, -17.667392 ], [ -66.479101, -17.667426 ], [ -66.479089, -17.667442 ], [ -66.479091, -17.66746 ], [ -66.479082, -17.667478 ], [ -66.479077, -17.667496 ], [ -66.47906, -17.667505 ], [ -66.479051, -17.667522 ], [ -66.47904, -17.667537 ], [ -66.479033, -17.66755 ], [ -66.479026, -17.667553 ], [ -66.479019, -17.66757 ], [ -66.479, -17.667577 ], [ -66.478982, -17.667591 ], [ -66.478979, -17.667609 ], [ -66.47897, -17.667627 ], [ -66.478952, -17.667635 ], [ -66.478943, -17.667653 ], [ -66.478923, -17.667711 ], [ -66.478894, -17.6678 ], [ -66.478205, -17.668092 ], [ -66.476932, -17.668224 ], [ -66.476619, -17.668162 ], [ -66.475779, -17.667496 ], [ -66.475767, -17.667486 ], [ -66.47571, -17.667434 ], [ -66.475585, -17.66732 ], [ -66.474117, -17.665945 ], [ -66.472568, -17.664688 ], [ -66.471838, -17.663763 ], [ -66.471618, -17.662965 ], [ -66.471579, -17.662822 ], [ -66.470928, -17.660452 ], [ -66.469259, -17.657671 ], [ -66.46857, -17.656805 ], [ -66.468507, -17.65675 ], [ -66.468315, -17.656604 ], [ -66.46814, -17.656372 ], [ -66.468109, -17.656331 ], [ -66.468025, -17.656185 ], [ -66.468106, -17.655771 ], [ -66.467438, -17.655049 ], [ -66.46532, -17.654245 ], [ -66.463515, -17.653978 ], [ -66.462486, -17.653459 ], [ -66.460871, -17.653162 ], [ -66.460593, -17.653099 ], [ -66.459739, -17.652946 ], [ -66.459289, -17.652934 ], [ -66.459089, -17.652915 ], [ -66.458829, -17.652891 ], [ -66.457928, -17.652674 ], [ -66.45764, -17.653089 ], [ -66.457513, -17.653368 ], [ -66.457355, -17.653898 ], [ -66.457327, -17.654245 ], [ -66.457966, -17.655587 ], [ -66.457988, -17.656105 ], [ -66.457991, -17.656163 ], [ -66.45802, -17.656864 ], [ -66.458023, -17.656931 ], [ -66.458041, -17.657339 ], [ -66.45669, -17.658691 ], [ -66.455624, -17.660187 ], [ -66.45478, -17.660775 ], [ -66.453496, -17.662431 ], [ -66.453457, -17.662481 ], [ -66.4534, -17.662554 ], [ -66.45285, -17.663507 ], [ -66.452794, -17.663604 ], [ -66.451944, -17.665077 ], [ -66.448815, -17.668321 ], [ -66.446138, -17.669856 ], [ -66.445957, -17.672754 ], [ -66.442442, -17.675241 ], [ -66.440859, -17.676641 ], [ -66.440687, -17.676869 ], [ -66.440063, -17.677302 ], [ -66.439613, -17.677245 ], [ -66.438648, -17.676945 ], [ -66.4373, -17.676435 ], [ -66.436542, -17.676763 ], [ -66.435968, -17.677029 ], [ -66.435096, -17.678143 ], [ -66.433795, -17.67942 ], [ -66.433283, -17.680705 ], [ -66.4331, -17.681246 ], [ -66.432221, -17.682441 ], [ -66.432146, -17.682645 ], [ -66.43192, -17.683136 ], [ -66.431561, -17.68368 ], [ -66.43134, -17.683936 ], [ -66.431066, -17.684221 ], [ -66.430898, -17.684394 ], [ -66.430623, -17.684685 ], [ -66.430363, -17.685066 ], [ -66.430005, -17.685532 ], [ -66.429582, -17.686015 ], [ -66.429294, -17.686093 ], [ -66.428803, -17.686297 ], [ -66.427968, -17.686641 ], [ -66.427646, -17.686673 ], [ -66.426989, -17.687261 ], [ -66.426917, -17.687412 ], [ -66.42672, -17.687759 ], [ -66.426481, -17.688026 ], [ -66.426254, -17.688439 ], [ -66.425845, -17.689251 ], [ -66.425686, -17.689604 ], [ -66.425174, -17.690292 ], [ -66.4249, -17.690554 ], [ -66.42412, -17.69121 ], [ -66.423531, -17.691974 ], [ -66.423397, -17.692132 ], [ -66.423458, -17.692584 ], [ -66.423061, -17.693115 ], [ -66.422835, -17.693517 ], [ -66.422325, -17.694159 ], [ -66.422095, -17.694738 ], [ -66.421945, -17.695112 ], [ -66.42202, -17.695599 ], [ -66.421952, -17.695886 ], [ -66.421603, -17.696231 ], [ -66.421399, -17.696815 ], [ -66.421495, -17.6972 ], [ -66.42158, -17.698002 ], [ -66.42145, -17.698268 ], [ -66.416428, -17.703328 ], [ -66.416904, -17.704188 ], [ -66.416537, -17.707207 ], [ -66.416193, -17.710626 ], [ -66.41607, -17.711688 ], [ -66.418332, -17.711634 ], [ -66.418333, -17.711634 ], [ -66.418751, -17.711846 ], [ -66.419784, -17.712468 ], [ -66.421129, -17.71306 ], [ -66.422607, -17.713539 ], [ -66.423896, -17.713878 ], [ -66.42547, -17.71448 ], [ -66.427004, -17.715125 ], [ -66.428484, -17.71549 ], [ -66.429616, -17.715908 ], [ -66.429402, -17.71641 ], [ -66.429008, -17.716483 ], [ -66.426805, -17.717956 ], [ -66.425974, -17.718667 ], [ -66.42531, -17.719404 ], [ -66.425298, -17.720184 ], [ -66.425406, -17.721011 ], [ -66.425293, -17.722088 ], [ -66.42502, -17.722715 ], [ -66.424164, -17.723896 ], [ -66.423392, -17.725044 ], [ -66.422791, -17.725874 ], [ -66.422485, -17.726408 ], [ -66.422204, -17.726817 ], [ -66.421943, -17.727444 ], [ -66.421488, -17.728161 ], [ -66.420962, -17.728899 ], [ -66.420654, -17.729491 ], [ -66.420537, -17.730086 ], [ -66.42056, -17.731715 ], [ -66.420791, -17.733355 ], [ -66.420768, -17.733607 ], [ -66.420676, -17.733799 ], [ -66.420299, -17.73396 ], [ -66.419876, -17.734206 ], [ -66.419221, -17.73469 ], [ -66.418559, -17.734945 ], [ -66.418446, -17.734959 ], [ -66.418445, -17.734959 ], [ -66.417304, -17.734813 ], [ -66.417303, -17.734813 ], [ -66.416352, -17.735109 ], [ -66.415912, -17.73576 ], [ -66.415552, -17.736474 ], [ -66.415118, -17.737478 ], [ -66.415283, -17.738421 ], [ -66.416113, -17.739006 ], [ -66.41644, -17.739549 ], [ -66.416137, -17.739809 ], [ -66.416137, -17.739809 ], [ -66.415443, -17.739719 ], [ -66.414837, -17.739516 ], [ -66.414835, -17.739516 ], [ -66.414147, -17.739861 ], [ -66.413539, -17.739853 ], [ -66.413536, -17.739853 ], [ -66.413351, -17.740194 ], [ -66.413668, -17.740623 ], [ -66.413653, -17.740864 ], [ -66.410967, -17.741779 ], [ -66.409807, -17.742416 ], [ -66.409207, -17.743291 ], [ -66.409154, -17.745148 ], [ -66.408891, -17.745902 ], [ -66.40828, -17.746719 ], [ -66.408076, -17.747496 ], [ -66.409395, -17.749052 ], [ -66.409277, -17.749738 ], [ -66.409401, -17.750022 ], [ -66.409617, -17.750069 ], [ -66.410187, -17.750421 ], [ -66.410988, -17.751315 ], [ -66.411343, -17.752387 ], [ -66.411447, -17.753432 ], [ -66.411209, -17.754129 ], [ -66.409633, -17.756917 ], [ -66.408839, -17.757858 ], [ -66.407277, -17.760295 ], [ -66.406659, -17.761751 ], [ -66.406444, -17.763263 ], [ -66.406238, -17.7642 ], [ -66.405731, -17.765249 ], [ -66.405375, -17.76584 ], [ -66.403923, -17.766939 ], [ -66.402662, -17.768558 ], [ -66.401242, -17.769856 ], [ -66.39929, -17.77038 ], [ -66.398568, -17.771411 ], [ -66.399401, -17.773355 ], [ -66.399319, -17.774481 ], [ -66.3992, -17.775848 ], [ -66.399133, -17.777426 ], [ -66.398589, -17.77886 ], [ -66.398285, -17.780193 ], [ -66.397691, -17.780677 ], [ -66.396924, -17.781558 ], [ -66.396068, -17.782522 ], [ -66.395607, -17.783581 ], [ -66.395871, -17.784373 ], [ -66.395872, -17.785419 ], [ -66.395657, -17.786616 ], [ -66.395345, -17.787337 ], [ -66.394183, -17.787764 ], [ -66.393554, -17.788959 ], [ -66.393099, -17.790333 ], [ -66.393199, -17.791833 ], [ -66.392477, -17.794124 ], [ -66.392542, -17.795704 ], [ -66.392056, -17.796125 ], [ -66.390794, -17.796405 ], [ -66.388868, -17.799136 ], [ -66.387164, -17.800793 ], [ -66.386396, -17.802273 ], [ -66.386035, -17.803197 ], [ -66.385558, -17.803775 ], [ -66.384964, -17.804249 ], [ -66.384293, -17.805161 ], [ -66.383062, -17.80787 ], [ -66.382455, -17.808531 ], [ -66.381835, -17.808965 ], [ -66.379457, -17.810011 ], [ -66.378609, -17.810572 ], [ -66.376419, -17.812698 ], [ -66.374691, -17.815186 ], [ -66.373915, -17.815737 ], [ -66.37299, -17.816619 ], [ -66.37209, -17.817724 ], [ -66.37205, -17.81926 ], [ -66.372456, -17.8203 ], [ -66.370444, -17.820489 ], [ -66.370443, -17.820489 ], [ -66.370214, -17.82047 ], [ -66.369162, -17.820382 ], [ -66.368996, -17.820273 ], [ -66.36823, -17.82 ], [ -66.367179, -17.819745 ], [ -66.367178, -17.819744 ], [ -66.365993, -17.820204 ], [ -66.365211, -17.821223 ], [ -66.364888, -17.822618 ], [ -66.364525, -17.824209 ], [ -66.364368, -17.824763 ], [ -66.363904, -17.825909 ], [ -66.363627, -17.827545 ], [ -66.363117, -17.828742 ], [ -66.362321, -17.829844 ], [ -66.361473, -17.830383 ], [ -66.360979, -17.830548 ], [ -66.360153, -17.830559 ], [ -66.360152, -17.830559 ], [ -66.359147, -17.830499 ], [ -66.359146, -17.830499 ], [ -66.358054, -17.830575 ], [ -66.357139, -17.830803 ], [ -66.356175, -17.831168 ], [ -66.355267, -17.831706 ], [ -66.354358, -17.832511 ], [ -66.35393, -17.832921 ], [ -66.353954, -17.833649 ], [ -66.353671, -17.834872 ], [ -66.353249, -17.83583 ], [ -66.352785, -17.836339 ], [ -66.35205, -17.836604 ], [ -66.351557, -17.836701 ], [ -66.351019, -17.837005 ], [ -66.350756, -17.837237 ], [ -66.35039, -17.837659 ], [ -66.349789, -17.838158 ], [ -66.349466, -17.83854 ], [ -66.349057, -17.83894 ], [ -66.348791, -17.839312 ], [ -66.348582, -17.839525 ], [ -66.348321, -17.839863 ], [ -66.347986, -17.840269 ], [ -66.347777, -17.840459 ], [ -66.347617, -17.840628 ], [ -66.347398, -17.841645 ], [ -66.347045, -17.84228 ], [ -66.346953, -17.842588 ], [ -66.346924, -17.84303 ], [ -66.347053, -17.844302 ], [ -66.347053, -17.84475 ], [ -66.346996, -17.845093 ], [ -66.346855, -17.845445 ], [ -66.346643, -17.845751 ], [ -66.346142, -17.846108 ], [ -66.346015, -17.846827 ], [ -66.346056, -17.84708 ], [ -66.346157, -17.847359 ], [ -66.346106, -17.847874 ], [ -66.346041, -17.848181 ], [ -66.345675, -17.848849 ], [ -66.345489, -17.849491 ], [ -66.345265, -17.849795 ], [ -66.344893, -17.850257 ], [ -66.345001, -17.85072 ], [ -66.345091, -17.850963 ], [ -66.345129, -17.85132 ], [ -66.344965, -17.852545 ], [ -66.345016, -17.852891 ], [ -66.345125, -17.853319 ], [ -66.345166, -17.853618 ], [ -66.345157, -17.853963 ], [ -66.345113, -17.854272 ], [ -66.345074, -17.854374 ], [ -66.345, -17.854889 ], [ -66.345026, -17.855303 ], [ -66.344881, -17.855938 ], [ -66.344798, -17.856383 ], [ -66.344787, -17.85663 ], [ -66.344716, -17.857065 ], [ -66.344555, -17.857596 ], [ -66.344453, -17.857748 ], [ -66.344256, -17.85814 ], [ -66.344063, -17.858339 ], [ -66.343925, -17.858856 ], [ -66.343737, -17.859615 ], [ -66.343556, -17.860081 ], [ -66.343342, -17.86049 ], [ -66.342808, -17.861143 ], [ -66.342441, -17.861658 ], [ -66.342349, -17.861801 ], [ -66.342084, -17.862038 ], [ -66.341861, -17.862189 ], [ -66.34159, -17.862233 ], [ -66.341165, -17.862467 ], [ -66.340963, -17.862822 ], [ -66.340694, -17.863011 ], [ -66.340256, -17.864172 ], [ -66.340223, -17.864493 ], [ -66.340023, -17.864798 ], [ -66.339717, -17.865009 ], [ -66.339483, -17.865245 ], [ -66.339272, -17.865527 ], [ -66.339181, -17.865777 ], [ -66.338905, -17.866252 ], [ -66.338772, -17.866535 ], [ -66.33859, -17.866989 ], [ -66.338304, -17.86764 ], [ -66.338101, -17.868968 ], [ -66.33791, -17.869377 ], [ -66.337849, -17.870095 ], [ -66.336829, -17.870214 ], [ -66.335566, -17.870323 ], [ -66.333941, -17.870644 ], [ -66.332664, -17.870854 ], [ -66.332664, -17.870854 ], [ -66.331286, -17.870818 ], [ -66.331284, -17.870818 ], [ -66.330625, -17.871106 ], [ -66.329968, -17.871325 ], [ -66.329967, -17.871325 ], [ -66.328401, -17.870877 ], [ -66.326186, -17.87057 ], [ -66.323802, -17.870238 ], [ -66.322112, -17.869916 ], [ -66.320718, -17.869285 ], [ -66.319352, -17.868979 ], [ -66.31796, -17.868722 ], [ -66.316592, -17.868464 ], [ -66.314953, -17.868152 ], [ -66.313677, -17.86805 ], [ -66.312137, -17.867777 ], [ -66.311482, -17.867476 ], [ -66.310934, -17.867389 ], [ -66.310632, -17.86733 ], [ -66.310323, -17.867196 ], [ -66.310016, -17.867016 ], [ -66.309564, -17.866914 ], [ -66.309562, -17.866914 ], [ -66.308642, -17.867213 ], [ -66.307789, -17.867307 ], [ -66.307787, -17.867307 ], [ -66.307154, -17.8671 ], [ -66.307153, -17.8671 ], [ -66.306359, -17.867145 ], [ -66.306358, -17.867145 ], [ -66.305662, -17.867079 ], [ -66.30498, -17.866968 ], [ -66.304672, -17.866815 ], [ -66.304672, -17.866815 ], [ -66.303769, -17.866831 ], [ -66.303767, -17.866831 ], [ -66.303539, -17.866716 ], [ -66.303132, -17.86671 ], [ -66.303129, -17.86671 ], [ -66.302648, -17.866838 ], [ -66.302647, -17.866838 ], [ -66.302115, -17.86678 ], [ -66.302113, -17.86678 ], [ -66.30177, -17.866896 ], [ -66.301212, -17.866928 ], [ -66.300952, -17.866993 ], [ -66.30095, -17.866993 ], [ -66.300787, -17.866956 ], [ -66.300374, -17.866929 ], [ -66.300053, -17.866909 ], [ -66.300051, -17.866909 ], [ -66.299967, -17.866982 ], [ -66.299967, -17.866982 ], [ -66.299412, -17.866863 ], [ -66.298847, -17.866762 ], [ -66.298152, -17.866716 ], [ -66.29815, -17.866716 ], [ -66.297491, -17.866799 ], [ -66.29749, -17.866799 ], [ -66.297142, -17.866739 ], [ -66.296542, -17.866712 ], [ -66.296006, -17.866614 ], [ -66.296005, -17.866613 ], [ -66.295749, -17.866645 ], [ -66.295748, -17.866645 ], [ -66.295209, -17.866601 ], [ -66.29478, -17.865891 ], [ -66.294058, -17.864971 ], [ -66.293313, -17.864637 ], [ -66.292966, -17.864548 ], [ -66.292318, -17.864339 ], [ -66.291667, -17.864298 ], [ -66.291107, -17.864124 ], [ -66.290076, -17.863883 ], [ -66.289817, -17.863789 ], [ -66.289474, -17.863676 ], [ -66.28886, -17.863494 ], [ -66.288457, -17.863414 ], [ -66.287979, -17.863408 ], [ -66.287977, -17.863408 ], [ -66.287269, -17.863269 ], [ -66.287267, -17.863269 ], [ -66.286863, -17.863386 ], [ -66.286862, -17.863387 ], [ -66.286444, -17.863367 ], [ -66.286005, -17.863022 ], [ -66.285293, -17.862598 ], [ -66.282355, -17.861476 ], [ -66.27994, -17.860033 ], [ -66.278198, -17.858761 ], [ -66.276976, -17.856713 ], [ -66.268455, -17.872742 ], [ -66.26627, -17.876851 ], [ -66.265537, -17.878775 ], [ -66.264347, -17.881898 ], [ -66.264044, -17.882678 ], [ -66.264646, -17.887622 ], [ -66.265453, -17.894274 ], [ -66.266267, -17.901012 ], [ -66.263277, -17.907083 ], [ -66.25613, -17.921586 ], [ -66.255714, -17.922407 ], [ -66.257057, -17.932479 ], [ -66.257546, -17.936144 ], [ -66.258731, -17.945026 ], [ -66.259404, -17.955238 ], [ -66.259527, -17.955572 ], [ -66.259731, -17.955882 ], [ -66.260385, -17.956627 ], [ -66.260533, -17.956901 ], [ -66.260894, -17.957748 ], [ -66.261115, -17.958114 ], [ -66.261215, -17.958377 ], [ -66.261338, -17.95856 ], [ -66.261533, -17.95873 ], [ -66.261835, -17.958865 ], [ -66.262042, -17.959001 ], [ -66.262349, -17.959481 ], [ -66.262547, -17.959858 ], [ -66.262858, -17.960625 ], [ -66.263129, -17.961082 ], [ -66.263398, -17.961424 ], [ -66.263776, -17.961777 ], [ -66.263801, -17.961834 ], [ -66.264531, -17.96247 ], [ -66.26509, -17.962879 ], [ -66.265346, -17.963117 ], [ -66.265468, -17.963197 ], [ -66.265651, -17.96339 ], [ -66.265882, -17.963549 ], [ -66.266148, -17.963684 ], [ -66.266245, -17.963706 ], [ -66.266911, -17.964042 ], [ -66.267299, -17.964258 ], [ -66.267539, -17.964475 ], [ -66.267726, -17.964761 ], [ -66.267864, -17.964918 ], [ -66.268972, -17.966012 ], [ -66.269238, -17.96617 ], [ -66.270455, -17.967169 ], [ -66.270504, -17.967238 ], [ -66.270807, -17.96735 ], [ -66.27111, -17.967496 ], [ -66.271474, -17.967757 ], [ -66.271803, -17.968052 ], [ -66.2726, -17.968568 ], [ -66.273186, -17.9691 ], [ -66.273669, -17.969335 ], [ -66.27392, -17.969433 ], [ -66.274237, -17.969658 ], [ -66.285045, -17.962855 ], [ -66.286277, -17.962514 ], [ -66.286494, -17.962512 ], [ -66.28779, -17.962269 ], [ -66.288139, -17.962266 ], [ -66.288139, -17.962266 ], [ -66.288212, -17.962322 ], [ -66.288442, -17.9624 ], [ -66.289492, -17.96262 ], [ -66.289494, -17.96262 ], [ -66.289612, -17.962618 ], [ -66.289613, -17.962618 ], [ -66.28983, -17.962662 ], [ -66.289832, -17.962662 ], [ -66.289974, -17.962661 ], [ -66.289974, -17.962661 ], [ -66.290336, -17.962726 ], [ -66.29095, -17.962754 ], [ -66.290951, -17.962754 ], [ -66.291551, -17.962725 ], [ -66.292725, -17.962322 ], [ -66.293109, -17.962215 ], [ -66.293205, -17.962214 ], [ -66.293229, -17.962191 ], [ -66.294023, -17.962159 ], [ -66.294024, -17.96216 ], [ -66.294757, -17.962186 ], [ -66.294757, -17.962186 ], [ -66.294949, -17.962161 ], [ -66.295236, -17.962044 ], [ -66.296016, -17.96184 ], [ -66.296388, -17.961767 ], [ -66.298239, -17.961611 ], [ -66.29944, -17.961414 ], [ -66.299692, -17.961354 ], [ -66.300221, -17.961349 ], [ -66.300221, -17.961349 ], [ -66.300451, -17.961404 ], [ -66.300717, -17.961516 ], [ -66.301261, -17.961671 ], [ -66.302188, -17.961765 ], [ -66.30219, -17.961765 ], [ -66.302537, -17.961762 ], [ -66.302922, -17.9617 ], [ -66.304064, -17.961654 ], [ -66.304064, -17.961654 ], [ -66.304065, -17.961677 ], [ -66.304067, -17.961677 ], [ -66.304137, -17.961676 ], [ -66.304137, -17.961676 ], [ -66.304475, -17.961753 ], [ -66.304477, -17.961753 ], [ -66.305281, -17.961734 ], [ -66.306085, -17.96161 ], [ -66.307876, -17.961442 ], [ -66.308057, -17.961441 ], [ -66.308663, -17.961424 ], [ -66.309112, -17.961369 ], [ -66.309666, -17.961312 ], [ -66.30986, -17.961131 ], [ -66.309997, -17.960831 ], [ -66.310208, -17.960351 ], [ -66.310366, -17.959578 ], [ -66.310543, -17.959334 ], [ -66.311041, -17.958824 ], [ -66.311934, -17.958125 ], [ -66.312531, -17.957751 ], [ -66.313031, -17.957378 ], [ -66.313471, -17.956982 ], [ -66.313826, -17.956519 ], [ -66.314651, -17.955292 ], [ -66.315513, -17.954122 ], [ -66.315643, -17.953902 ], [ -66.315714, -17.953821 ], [ -66.316079, -17.953208 ], [ -66.316578, -17.951881 ], [ -66.316942, -17.951268 ], [ -66.317274, -17.950885 ], [ -66.317583, -17.950618 ], [ -66.318143, -17.950233 ], [ -66.318395, -17.950138 ], [ -66.318491, -17.950137 ], [ -66.318755, -17.950077 ], [ -66.319428, -17.950047 ], [ -66.319825, -17.949985 ], [ -66.320269, -17.949946 ], [ -66.320271, -17.949946 ], [ -66.320908, -17.949997 ], [ -66.32091, -17.949997 ], [ -66.321148, -17.949994 ], [ -66.321149, -17.949995 ], [ -66.321269, -17.950016 ], [ -66.321644, -17.950173 ], [ -66.322008, -17.950365 ], [ -66.322117, -17.950387 ], [ -66.322554, -17.950658 ], [ -66.323196, -17.950985 ], [ -66.323812, -17.951139 ], [ -66.32433, -17.951226 ], [ -66.325811, -17.951291 ], [ -66.32662, -17.951466 ], [ -66.326669, -17.951512 ], [ -66.326798, -17.952177 ], [ -66.326836, -17.95228 ], [ -66.32698, -17.952436 ], [ -66.327134, -17.952559 ], [ -66.335246, -17.959101 ], [ -66.33749, -17.96058 ], [ -66.362118, -17.961627 ], [ -66.36919, -17.9621 ], [ -66.369287, -17.962134 ], [ -66.384596, -17.96295 ], [ -66.384712, -17.962998 ], [ -66.38482, -17.963091 ], [ -66.384875, -17.963138 ], [ -66.385018, -17.963226 ], [ -66.385167, -17.963359 ], [ -66.385276, -17.963466 ], [ -66.385364, -17.963533 ], [ -66.385459, -17.963593 ], [ -66.385534, -17.963647 ], [ -66.386295, -17.964067 ], [ -66.387983, -17.96513 ], [ -66.389781, -17.966318 ], [ -66.390149, -17.966576 ], [ -66.390367, -17.966684 ], [ -66.390599, -17.966779 ], [ -66.390983, -17.96685 ], [ -66.391272, -17.966881 ], [ -66.391272, -17.96688 ], [ -66.391561, -17.966832 ], [ -66.391562, -17.966832 ], [ -66.392247, -17.966946 ], [ -66.392561, -17.967082 ], [ -66.393024, -17.967501 ], [ -66.393109, -17.967558 ], [ -66.393109, -17.967581 ], [ -66.393378, -17.967877 ], [ -66.393563, -17.96822 ], [ -66.394311, -17.970039 ], [ -66.394337, -17.970154 ], [ -66.395831, -17.973656 ], [ -66.395945, -17.974045 ], [ -66.396037, -17.97455 ], [ -66.396212, -17.97587 ], [ -66.396328, -17.976398 ], [ -66.39655, -17.976809 ], [ -66.397408, -17.977903 ], [ -66.39777, -17.978819 ], [ -66.398485, -17.979973 ], [ -66.398865, -17.98044 ], [ -66.399414, -17.980986 ], [ -66.399755, -17.981269 ], [ -66.400362, -17.981596 ], [ -66.401099, -17.981795 ], [ -66.401521, -17.98186 ], [ -66.401523, -17.98186 ], [ -66.401858, -17.981856 ], [ -66.402434, -17.981781 ], [ -66.404807, -17.980999 ], [ -66.405668, -17.980406 ], [ -66.406099, -17.980102 ], [ -66.406929, -17.979663 ], [ -66.407206, -17.979483 ], [ -66.410526, -17.977432 ], [ -66.431439, -17.973363 ], [ -66.431464, -17.973288 ], [ -66.432572, -17.969904 ], [ -66.432883, -17.966421 ], [ -66.433381, -17.963211 ], [ -66.435049, -17.962199 ], [ -66.440129, -17.958378 ], [ -66.442774, -17.956997 ], [ -66.44567, -17.956559 ], [ -66.446914, -17.954764 ], [ -66.453976, -17.950916 ], [ -66.455282, -17.950035 ], [ -66.456132, -17.947082 ], [ -66.456941, -17.944967 ], [ -66.457136, -17.944455 ], [ -66.459031, -17.939497 ], [ -66.459286, -17.938807 ], [ -66.457993, -17.938328 ], [ -66.456928, -17.936896 ], [ -66.455051, -17.933602 ], [ -66.451791, -17.931275 ], [ -66.451029, -17.930488 ], [ -66.449577, -17.929069 ], [ -66.445927, -17.927034 ], [ -66.441433, -17.923968 ], [ -66.43884, -17.921188 ], [ -66.438977, -17.918941 ], [ -66.43919, -17.91786 ], [ -66.438311, -17.915429 ], [ -66.436779, -17.916464 ], [ -66.43358, -17.917163 ], [ -66.431159, -17.918251 ], [ -66.428718, -17.921334 ], [ -66.426466, -17.923752 ], [ -66.42373, -17.925666 ], [ -66.423034, -17.926226 ], [ -66.423032, -17.926225 ], [ -66.423031, -17.926226 ], [ -66.421028, -17.925161 ], [ -66.41839, -17.924223 ], [ -66.4185, -17.923767 ], [ -66.418665, -17.923293 ], [ -66.418662, -17.923235 ], [ -66.418793, -17.922532 ], [ -66.418854, -17.922143 ], [ -66.41885, -17.92166 ], [ -66.418847, -17.921524 ], [ -66.418728, -17.920858 ], [ -66.418816, -17.920454 ], [ -66.418892, -17.920165 ], [ -66.418839, -17.91978 ], [ -66.418859, -17.919049 ], [ -66.418845, -17.919002 ], [ -66.418808, -17.918941 ], [ -66.418698, -17.918746 ], [ -66.418568, -17.918638 ], [ -66.417804, -17.918417 ], [ -66.417186, -17.917721 ], [ -66.41682, -17.917362 ], [ -66.416808, -17.91733 ], [ -66.416661, -17.917236 ], [ -66.416623, -17.917031 ], [ -66.416542, -17.916923 ], [ -66.416496, -17.916772 ], [ -66.41655, -17.916687 ], [ -66.416544, -17.916634 ], [ -66.416503, -17.916526 ], [ -66.416451, -17.916432 ], [ -66.416291, -17.916373 ], [ -66.416232, -17.916133 ], [ -66.416109, -17.916009 ], [ -66.416037, -17.915788 ], [ -66.415956, -17.915735 ], [ -66.415946, -17.915651 ], [ -66.415919, -17.915551 ], [ -66.41594, -17.915467 ], [ -66.415946, -17.915338 ], [ -66.415823, -17.91529 ], [ -66.415729, -17.915202 ], [ -66.415656, -17.915002 ], [ -66.415636, -17.914739 ], [ -66.41565, -17.914635 ], [ -66.415633, -17.914458 ], [ -66.415591, -17.91434 ], [ -66.415661, -17.914129 ], [ -66.415674, -17.913669 ], [ -66.415778, -17.913568 ], [ -66.415857, -17.913354 ], [ -66.415853, -17.913215 ], [ -66.415819, -17.912854 ], [ -66.41566, -17.912704 ], [ -66.415541, -17.912526 ], [ -66.415546, -17.912379 ], [ -66.415582, -17.912223 ], [ -66.4157, -17.912034 ], [ -66.41581, -17.91185 ], [ -66.415896, -17.911756 ], [ -66.415961, -17.911688 ], [ -66.415941, -17.911638 ], [ -66.415707, -17.911445 ], [ -66.415673, -17.911323 ], [ -66.415601, -17.911188 ], [ -66.415487, -17.910936 ], [ -66.415312, -17.910828 ], [ -66.414963, -17.910739 ], [ -66.414786, -17.910661 ], [ -66.414765, -17.910538 ], [ -66.41474, -17.910414 ], [ -66.414754, -17.910107 ], [ -66.414706, -17.909932 ], [ -66.414744, -17.909781 ], [ -66.414734, -17.909645 ], [ -66.414693, -17.909499 ], [ -66.414681, -17.909358 ], [ -66.414664, -17.909228 ], [ -66.41459, -17.909084 ], [ -66.414613, -17.908977 ], [ -66.414634, -17.908879 ], [ -66.414696, -17.90875 ], [ -66.414777, -17.908605 ], [ -66.414779, -17.908606 ], [ -66.414779, -17.908605 ], [ -66.417667, -17.909894 ], [ -66.417775, -17.909925 ], [ -66.420164, -17.909293 ], [ -66.420166, -17.909293 ], [ -66.421162, -17.909416 ], [ -66.421163, -17.909416 ], [ -66.422112, -17.909109 ], [ -66.4247, -17.908273 ], [ -66.424702, -17.908273 ], [ -66.426435, -17.908392 ], [ -66.426436, -17.908392 ], [ -66.429762, -17.907444 ], [ -66.43097, -17.906423 ], [ -66.432508, -17.904874 ], [ -66.43414, -17.902855 ], [ -66.435088, -17.902646 ], [ -66.435367, -17.902285 ], [ -66.436906, -17.900905 ], [ -66.438022, -17.89999 ], [ -66.441337, -17.897116 ], [ -66.452251, -17.887848 ], [ -66.461012, -17.881361 ], [ -66.462328, -17.880379 ], [ -66.46233, -17.88038 ], [ -66.467078, -17.884401 ], [ -66.46708, -17.884401 ], [ -66.471336, -17.883956 ], [ -66.472351, -17.882736 ], [ -66.475065, -17.881311 ], [ -66.478615, -17.880784 ], [ -66.481111, -17.880764 ], [ -66.488788, -17.888045 ], [ -66.491852, -17.890475 ], [ -66.492738, -17.891434 ], [ -66.495276, -17.893171 ], [ -66.496158, -17.894007 ], [ -66.497181, -17.894847 ], [ -66.497683, -17.894326 ], [ -66.498263, -17.894868 ], [ -66.498411, -17.895181 ], [ -66.498793, -17.895735 ], [ -66.499396, -17.895906 ], [ -66.499679, -17.896485 ], [ -66.499681, -17.896516 ], [ -66.499724, -17.89654 ], [ -66.500501, -17.896898 ], [ -66.501541, -17.897253 ], [ -66.506924, -17.898729 ], [ -66.508894, -17.898503 ], [ -66.510384, -17.898761 ], [ -66.511176, -17.899016 ], [ -66.511397, -17.899247 ], [ -66.511616, -17.899344 ], [ -66.511848, -17.899119 ], [ -66.512082, -17.899242 ], [ -66.513421, -17.899429 ], [ -66.51359, -17.898931 ], [ -66.513608, -17.896406 ], [ -66.517065, -17.895276 ], [ -66.519832, -17.894286 ], [ -66.520176, -17.894471 ], [ -66.522508, -17.898742 ], [ -66.5241, -17.90053 ], [ -66.524949, -17.900948 ], [ -66.525419, -17.901402 ], [ -66.525896, -17.901711 ], [ -66.526012, -17.901254 ], [ -66.526158, -17.901028 ], [ -66.526111, -17.900819 ], [ -66.526163, -17.900694 ], [ -66.526395, -17.900589 ], [ -66.526842, -17.900201 ], [ -66.527184, -17.900089 ], [ -66.527811, -17.899789 ], [ -66.529311, -17.899393 ], [ -66.529377, -17.898945 ], [ -66.529984, -17.898516 ], [ -66.530949, -17.897045 ], [ -66.531801, -17.896149 ], [ -66.532527, -17.895932 ], [ -66.532567, -17.895296 ], [ -66.533099, -17.89437 ], [ -66.533802, -17.894275 ], [ -66.533721, -17.893759 ], [ -66.53445, -17.89327 ], [ -66.534415, -17.892965 ], [ -66.534584, -17.892125 ], [ -66.534812, -17.892197 ], [ -66.535083, -17.892141 ], [ -66.53534, -17.891936 ], [ -66.535259, -17.891358 ], [ -66.53502, -17.890504 ], [ -66.535035, -17.890438 ], [ -66.535303, -17.890657 ], [ -66.536197, -17.891137 ], [ -66.537086, -17.892585 ], [ -66.539552, -17.895112 ], [ -66.5449, -17.894713 ], [ -66.545209, -17.891862 ], [ -66.546174, -17.890292 ], [ -66.548729, -17.888765 ], [ -66.551718, -17.888659 ], [ -66.553945, -17.889153 ], [ -66.555166, -17.889074 ], [ -66.559351, -17.889968 ], [ -66.558864, -17.89021 ], [ -66.558026, -17.893317 ], [ -66.560109, -17.896504 ], [ -66.559715, -17.89686 ], [ -66.562751, -17.898574 ], [ -66.571826, -17.902281 ], [ -66.583771, -17.906795 ], [ -66.59685, -17.911594 ], [ -66.604355, -17.914402 ], [ -66.604933, -17.914399 ], [ -66.609695, -17.915546 ], [ -66.614497, -17.915252 ], [ -66.617882, -17.918459 ], [ -66.618182, -17.918453 ], [ -66.626402, -17.917879 ], [ -66.630521, -17.921879 ], [ -66.633783, -17.924483 ], [ -66.635977, -17.926036 ], [ -66.637316, -17.925397 ], [ -66.639125, -17.926943 ], [ -66.640607, -17.926285 ], [ -66.642174, -17.92779 ], [ -66.646428, -17.929295 ], [ -66.65148, -17.928338 ], [ -66.658143, -17.927467 ], [ -66.663018, -17.928894 ], [ -66.667822, -17.929838 ], [ -66.674485, -17.934983 ], [ -66.679619, -17.938625 ], [ -66.686816, -17.942481 ], [ -66.693686, -17.946101 ], [ -66.696707, -17.947179 ], [ -66.701174, -17.948772 ], [ -66.714277, -17.951575 ], [ -66.730433, -17.951349 ], [ -66.741326, -17.946232 ], [ -66.742792, -17.945384 ], [ -66.73757, -17.939575 ], [ -66.730764, -17.931592 ], [ -66.72758, -17.925232 ], [ -66.721656, -17.911867 ], [ -66.716568, -17.902422 ], [ -66.715126, -17.900075 ], [ -66.714145, -17.897895 ], [ -66.71484, -17.890804 ], [ -66.713845, -17.884505 ], [ -66.714833, -17.881735 ], [ -66.712781, -17.8806 ], [ -66.711889, -17.880336 ], [ -66.713451, -17.877681 ], [ -66.714172, -17.872225 ], [ -66.716326, -17.86749 ], [ -66.718057, -17.858983 ], [ -66.718128, -17.857864 ], [ -66.717423, -17.854017 ], [ -66.719223, -17.851897 ], [ -66.719225, -17.850253 ], [ -66.721537, -17.844273 ], [ -66.721066, -17.842678 ], [ -66.721743, -17.83994 ], [ -66.722938, -17.834922 ], [ -66.7239, -17.823019 ], [ -66.731856, -17.809156 ], [ -66.737004, -17.803959 ], [ -66.74403, -17.797157 ], [ -66.752223, -17.791199 ], [ -66.75844, -17.792445 ], [ -66.761379, -17.79041 ], [ -66.76737, -17.789421 ], [ -66.772415, -17.781791 ], [ -66.762591, -17.769851 ], [ -66.758661, -17.7552 ], [ -66.758164, -17.752079 ], [ -66.757557, -17.751051 ], [ -66.75801, -17.746 ], [ -66.757144, -17.744008 ], [ -66.757305, -17.742416 ], [ -66.756572, -17.739853 ], [ -66.75573, -17.738208 ], [ -66.751557, -17.724543 ], [ -66.755474, -17.718024 ], [ -66.759611, -17.711339 ], [ -66.746421, -17.69686 ], [ -66.746421, -17.696859 ], [ -66.728252, -17.686085 ], [ -66.724444, -17.682739 ], [ -66.713498, -17.689734 ], [ -66.707856, -17.691255 ], [ -66.700396, -17.70429 ], [ -66.675929, -17.73392 ], [ -66.655716, -17.734651 ], [ -66.645142, -17.742579 ], [ -66.623442, -17.74352 ], [ -66.613461, -17.746312 ], [ -66.613461, -17.746312 ], [ -66.611039, -17.741415 ] ], [ [ -66.483445, -17.824939 ], [ -66.481949, -17.825779 ], [ -66.481949, -17.825899 ], [ -66.481949, -17.826019 ], [ -66.481452, -17.826737 ], [ -66.480705, -17.827576 ], [ -66.480705, -17.827696 ], [ -66.479957, -17.828295 ], [ -66.479833, -17.828296 ], [ -66.479833, -17.828415 ], [ -66.479085, -17.828895 ], [ -66.479085, -17.829015 ], [ -66.47896, -17.829015 ], [ -66.478462, -17.829614 ], [ -66.477715, -17.830094 ], [ -66.476605, -17.830363 ], [ -66.476396, -17.830133 ], [ -66.478106, -17.829028 ], [ -66.480077, -17.82681 ], [ -66.481735, -17.82528 ], [ -66.483832, -17.824561 ], [ -66.485795, -17.824558 ], [ -66.483445, -17.824939 ] ] ] ] } }
]
}
