{
"type": "FeatureCollection",
"name": "AYOPAYA",
"crs": { "type": "name", "properties": { "name": "urn:ogc:def:crs:OGC:1.3:CRS84" } },
"bbox": [ -67.005947, -17.448457, -66.113714, -15.778190 ],                                                                        
"features": [
{ "type": "Feature", "properties": { "NOMBRE": "Ayopaya", "NIVEL": "Provincias", "PROVINCIA": "", "REGION": "Andina", "DEPARTAMENTO": "Cochabamba" }, "bbox": [ -67.005947, -17.448457, -66.113714, -15.77819 ], "geometry": { "type": "MultiPolygon", "coordinates": [ [ [ [ -66.434877, -17.098362 ], [ -66.437724, -17.106534 ], [ -66.438097, -17.107242 ], [ -66.438256, -17.107389 ], [ -66.438551, -17.107763 ], [ -66.438836, -17.108817 ], [ -66.438921, -17.109414 ], [ -66.438924, -17.109563 ], [ -66.438992, -17.109953 ], [ -66.439044, -17.110148 ], [ -66.439045, -17.110217 ], [ -66.439082, -17.110274 ], [ -66.439088, -17.110527 ], [ -66.439134, -17.111021 ], [ -66.439161, -17.111159 ], [ -66.439177, -17.111906 ], [ -66.439146, -17.11216 ], [ -66.439147, -17.112758 ], [ -66.439098, -17.113265 ], [ -66.4391, -17.113369 ], [ -66.439088, -17.113369 ], [ -66.439089, -17.113427 ], [ -66.439022, -17.113635 ], [ -66.439034, -17.114198 ], [ -66.438953, -17.114361 ], [ -66.438884, -17.114454 ], [ -66.438719, -17.114595 ], [ -66.438684, -17.114641 ], [ -66.438567, -17.114735 ], [ -66.438473, -17.11484 ], [ -66.438416, -17.114968 ], [ -66.438395, -17.115072 ], [ -66.4384, -17.115313 ], [ -66.438308, -17.115522 ], [ -66.438309, -17.115557 ], [ -66.438251, -17.115615 ], [ -66.438228, -17.115661 ], [ -66.438192, -17.115674 ], [ -66.438075, -17.115791 ], [ -66.437865, -17.116024 ], [ -66.437778, -17.11644 ], [ -66.43778, -17.116555 ], [ -66.437891, -17.116714 ], [ -66.437915, -17.116714 ], [ -66.438024, -17.116781 ], [ -66.438169, -17.116836 ], [ -66.438279, -17.116972 ], [ -66.438282, -17.117099 ], [ -66.438248, -17.117168 ], [ -66.438166, -17.11725 ], [ -66.438142, -17.117251 ], [ -66.438084, -17.117344 ], [ -66.438051, -17.117494 ], [ -66.43815, -17.117665 ], [ -66.438321, -17.117823 ], [ -66.438359, -17.117891 ], [ -66.43842, -17.117948 ], [ -66.438471, -17.11812 ], [ -66.438475, -17.118304 ], [ -66.438552, -17.118567 ], [ -66.438685, -17.118611 ], [ -66.438792, -17.118609 ], [ -66.438817, -17.118632 ], [ -66.438865, -17.118631 ], [ -66.438865, -17.118654 ], [ -66.438889, -17.118653 ], [ -66.438987, -17.118755 ], [ -66.439035, -17.118778 ], [ -66.439038, -17.118904 ], [ -66.439016, -17.119031 ], [ -66.438993, -17.119054 ], [ -66.438999, -17.119353 ], [ -66.439063, -17.119525 ], [ -66.43916, -17.119615 ], [ -66.439223, -17.119729 ], [ -66.439224, -17.11981 ], [ -66.439263, -17.119947 ], [ -66.439267, -17.120108 ], [ -66.43929, -17.120108 ], [ -66.439389, -17.120233 ], [ -66.439437, -17.120267 ], [ -66.439461, -17.120266 ], [ -66.439461, -17.120278 ], [ -66.439704, -17.120423 ], [ -66.439803, -17.120583 ], [ -66.439841, -17.120709 ], [ -66.439848, -17.121008 ], [ -66.43986, -17.121019 ], [ -66.439863, -17.12118 ], [ -66.439876, -17.121214 ], [ -66.439886, -17.121686 ], [ -66.43969, -17.122057 ], [ -66.43968, -17.122138 ], [ -66.439657, -17.122184 ], [ -66.439658, -17.122219 ], [ -66.439829, -17.122412 ], [ -66.43989, -17.122457 ], [ -66.439964, -17.122547 ], [ -66.440188, -17.122981 ], [ -66.440471, -17.123356 ], [ -66.440509, -17.123424 ], [ -66.440549, -17.123473 ], [ -66.440619, -17.12356 ], [ -66.44068, -17.123605 ], [ -66.440705, -17.123663 ], [ -66.440791, -17.123776 ], [ -66.440935, -17.123874 ], [ -66.440986, -17.123934 ], [ -66.441011, -17.123991 ], [ -66.441, -17.124037 ], [ -66.440871, -17.124143 ], [ -66.440689, -17.124285 ], [ -66.440625, -17.1244 ], [ -66.44058, -17.124511 ], [ -66.44058, -17.124551 ], [ -66.440607, -17.124677 ], [ -66.440656, -17.124722 ], [ -66.440764, -17.124766 ], [ -66.440886, -17.124856 ], [ -66.440815, -17.124915 ], [ -66.440804, -17.12495 ], [ -66.440675, -17.125055 ], [ -66.440523, -17.12523 ], [ -66.440389, -17.125324 ], [ -66.440309, -17.125384 ], [ -66.440194, -17.125489 ], [ -66.440135, -17.125547 ], [ -66.440019, -17.125722 ], [ -66.439926, -17.125827 ], [ -66.439833, -17.125929 ], [ -66.439786, -17.126025 ], [ -66.439578, -17.12633 ], [ -66.439474, -17.126637 ], [ -66.439463, -17.12678 ], [ -66.439528, -17.127023 ], [ -66.439587, -17.127121 ], [ -66.439727, -17.12718 ], [ -66.439867, -17.127221 ], [ -66.440167, -17.127244 ], [ -66.440506, -17.127267 ], [ -66.441905, -17.127255 ], [ -66.44235, -17.127351 ], [ -66.442663, -17.127461 ], [ -66.443161, -17.127798 ], [ -66.443441, -17.128058 ], [ -66.4436, -17.12824 ], [ -66.443881, -17.128511 ], [ -66.444004, -17.128659 ], [ -66.444126, -17.128772 ], [ -66.444311, -17.129022 ], [ -66.444545, -17.129235 ], [ -66.444603, -17.129293 ], [ -66.445294, -17.129719 ], [ -66.445475, -17.129796 ], [ -66.445621, -17.129886 ], [ -66.445803, -17.130032 ], [ -66.445999, -17.130225 ], [ -66.446097, -17.130349 ], [ -66.446219, -17.130451 ], [ -66.446219, -17.130474 ], [ -66.446305, -17.130565 ], [ -66.446736, -17.13058 ], [ -66.446808, -17.130602 ], [ -66.446869, -17.13067 ], [ -66.446933, -17.130876 ], [ -66.447019, -17.13099 ], [ -66.44707, -17.131104 ], [ -66.447361, -17.131283 ], [ -66.44747, -17.131385 ], [ -66.447546, -17.131579 ], [ -66.44755, -17.131763 ], [ -66.447577, -17.13189 ], [ -66.447676, -17.13206 ], [ -66.447835, -17.132219 ], [ -66.448078, -17.132399 ], [ -66.448319, -17.13251 ], [ -66.448489, -17.132611 ], [ -66.448672, -17.132769 ], [ -66.448721, -17.13286 ], [ -66.449041, -17.13328 ], [ -66.449254, -17.133737 ], [ -66.449365, -17.133896 ], [ -66.449502, -17.134159 ], [ -66.449576, -17.134249 ], [ -66.449673, -17.134282 ], [ -66.449866, -17.134383 ], [ -66.449938, -17.134393 ], [ -66.450047, -17.134449 ], [ -66.450143, -17.13447 ], [ -66.450252, -17.134526 ], [ -66.450336, -17.134547 ], [ -66.450409, -17.134615 ], [ -66.450433, -17.134615 ], [ -66.450579, -17.134727 ], [ -66.450579, -17.13475 ], [ -66.450787, -17.134942 ], [ -66.451045, -17.13526 ], [ -66.451118, -17.135317 ], [ -66.451167, -17.135385 ], [ -66.451252, -17.135429 ], [ -66.451605, -17.135723 ], [ -66.451774, -17.135812 ], [ -66.451822, -17.135811 ], [ -66.451895, -17.135856 ], [ -66.451979, -17.135878 ], [ -66.4521, -17.135956 ], [ -66.452257, -17.136011 ], [ -66.452354, -17.136067 ], [ -66.452391, -17.136124 ], [ -66.452396, -17.136354 ], [ -66.452469, -17.136433 ], [ -66.452915, -17.136587 ], [ -66.453267, -17.136845 ], [ -66.45339, -17.136993 ], [ -66.453501, -17.137175 ], [ -66.453747, -17.137459 ], [ -66.454112, -17.137775 ], [ -66.454199, -17.137923 ], [ -66.454322, -17.138082 ], [ -66.454529, -17.138274 ], [ -66.454894, -17.138533 ], [ -66.455137, -17.138747 ], [ -66.455672, -17.139152 ], [ -66.45588, -17.139368 ], [ -66.456102, -17.139697 ], [ -66.456178, -17.139857 ], [ -66.456339, -17.140119 ], [ -66.456501, -17.14045 ], [ -66.45654, -17.140588 ], [ -66.456552, -17.140587 ], [ -66.456582, -17.140863 ], [ -66.45662, -17.140989 ], [ -66.456662, -17.141264 ], [ -66.456589, -17.141634 ], [ -66.456463, -17.14196 ], [ -66.456335, -17.142425 ], [ -66.456011, -17.143052 ], [ -66.455734, -17.143727 ], [ -66.45566, -17.143842 ], [ -66.455607, -17.144122 ], [ -66.455589, -17.144251 ], [ -66.455565, -17.144251 ], [ -66.455428, -17.144564 ], [ -66.455384, -17.144726 ], [ -66.455361, -17.144761 ], [ -66.455381, -17.145163 ], [ -66.455371, -17.145232 ], [ -66.455312, -17.145279 ], [ -66.455193, -17.145316 ], [ -66.455104, -17.145383 ], [ -66.45504, -17.145456 ], [ -66.455019, -17.145584 ], [ -66.455022, -17.14571 ], [ -66.45498, -17.145964 ], [ -66.454946, -17.146068 ], [ -66.454864, -17.14615 ], [ -66.454771, -17.146278 ], [ -66.454724, -17.146313 ], [ -66.454704, -17.146509 ], [ -66.454533, -17.14688 ], [ -66.454383, -17.147136 ], [ -66.454326, -17.147263 ], [ -66.454364, -17.147366 ], [ -66.454437, -17.147457 ], [ -66.454512, -17.147594 ], [ -66.454528, -17.147778 ], [ -66.454375, -17.147895 ], [ -66.454351, -17.147896 ], [ -66.454294, -17.148035 ], [ -66.454295, -17.148069 ], [ -66.454178, -17.148221 ], [ -66.454076, -17.148487 ], [ -66.454021, -17.148707 ], [ -66.453975, -17.148788 ], [ -66.453753, -17.14901 ], [ -66.453625, -17.149185 ], [ -66.453589, -17.149197 ], [ -66.45351, -17.149394 ], [ -66.453514, -17.14959 ], [ -66.453412, -17.149879 ], [ -66.453241, -17.15025 ], [ -66.453199, -17.15055 ], [ -66.453202, -17.150676 ], [ -66.453229, -17.150837 ], [ -66.453356, -17.151157 ], [ -66.453408, -17.151363 ], [ -66.453415, -17.15172 ], [ -66.453529, -17.151994 ], [ -66.453578, -17.152074 ], [ -66.453705, -17.152405 ], [ -66.45372, -17.152555 ], [ -66.453732, -17.152554 ], [ -66.453962, -17.153229 ], [ -66.454017, -17.153562 ], [ -66.454066, -17.154171 ], [ -66.454103, -17.154263 ], [ -66.454105, -17.154355 ], [ -66.454184, -17.154675 ], [ -66.454187, -17.154802 ], [ -66.454341, -17.155329 ], [ -66.454343, -17.155398 ], [ -66.454381, -17.155524 ], [ -66.454402, -17.155937 ], [ -66.454428, -17.156029 ], [ -66.454435, -17.156374 ], [ -66.454461, -17.156454 ], [ -66.454463, -17.156546 ], [ -66.454475, -17.156546 ], [ -66.454526, -17.156683 ], [ -66.454698, -17.156899 ], [ -66.454784, -17.157036 ], [ -66.454894, -17.15716 ], [ -66.454925, -17.157346 ], [ -66.454822, -17.157538 ], [ -66.454843, -17.157802 ], [ -66.454904, -17.157947 ], [ -66.455033, -17.158155 ], [ -66.455215, -17.158269 ], [ -66.4554, -17.158413 ], [ -66.455413, -17.158437 ], [ -66.45565, -17.158671 ], [ -66.455935, -17.158906 ], [ -66.45613, -17.159027 ], [ -66.456131, -17.159073 ], [ -66.456304, -17.159311 ], [ -66.45634, -17.159334 ], [ -66.456879, -17.159946 ], [ -66.457249, -17.160458 ], [ -66.457578, -17.160751 ], [ -66.458129, -17.16134 ], [ -66.45835, -17.161613 ], [ -66.458448, -17.161692 ], [ -66.458472, -17.161737 ], [ -66.458679, -17.161906 ], [ -66.458778, -17.162043 ], [ -66.458839, -17.162088 ], [ -66.458839, -17.162111 ], [ -66.459036, -17.162361 ], [ -66.459195, -17.162531 ], [ -66.459598, -17.162904 ], [ -66.459856, -17.163221 ], [ -66.459868, -17.163256 ], [ -66.460077, -17.163494 ], [ -66.46026, -17.163675 ], [ -66.46047, -17.16397 ], [ -66.460693, -17.164346 ], [ -66.46089, -17.164608 ], [ -66.461063, -17.164881 ], [ -66.461136, -17.164926 ], [ -66.461222, -17.165051 ], [ -66.461449, -17.165314 ], [ -66.461612, -17.165475 ], [ -66.461794, -17.165637 ], [ -66.461957, -17.165816 ], [ -66.462083, -17.16603 ], [ -66.462151, -17.166473 ], [ -66.462008, -17.16712 ], [ -66.461945, -17.167298 ], [ -66.461907, -17.167433 ], [ -66.461885, -17.167525 ], [ -66.461867, -17.167819 ], [ -66.46152, -17.169848 ], [ -66.461435, -17.170547 ], [ -66.461423, -17.170547 ], [ -66.458936, -17.181552 ], [ -66.445868, -17.191598 ], [ -66.435384, -17.19477 ], [ -66.43493, -17.194937 ], [ -66.427987, -17.212944 ], [ -66.416059, -17.21773 ], [ -66.400007, -17.213291 ], [ -66.397876, -17.222497 ], [ -66.397983, -17.235394 ], [ -66.393974, -17.247705 ], [ -66.417478, -17.250601 ], [ -66.418162, -17.250687 ], [ -66.433309, -17.261402 ], [ -66.45382, -17.265402 ], [ -66.453766, -17.27422 ], [ -66.466683, -17.291909 ], [ -66.484423, -17.296106 ], [ -66.493166, -17.317934 ], [ -66.498944, -17.324722 ], [ -66.493034, -17.337131 ], [ -66.490231, -17.341523 ], [ -66.502101, -17.365643 ], [ -66.517434, -17.400187 ], [ -66.546881, -17.383189 ], [ -66.565527, -17.36739 ], [ -66.571357, -17.376828 ], [ -66.576693, -17.376613 ], [ -66.614325, -17.422671 ], [ -66.659561, -17.414048 ], [ -66.681345, -17.405713 ], [ -66.712861, -17.409003 ], [ -66.719081, -17.425605 ], [ -66.715322, -17.440322 ], [ -66.733149, -17.448457 ], [ -66.745931, -17.444474 ], [ -66.775513, -17.441112 ], [ -66.78335, -17.431949 ], [ -66.794575, -17.430574 ], [ -66.808097, -17.415665 ], [ -66.814471, -17.422501 ], [ -66.825629, -17.425857 ], [ -66.83392, -17.418675 ], [ -66.843073, -17.412487 ], [ -66.846086, -17.400297 ], [ -66.854565, -17.39214 ], [ -66.863858, -17.388313 ], [ -66.862239, -17.387586 ], [ -66.860576, -17.387269 ], [ -66.859641, -17.386949 ], [ -66.858655, -17.386852 ], [ -66.8578, -17.385808 ], [ -66.856583, -17.384962 ], [ -66.854584, -17.384424 ], [ -66.852278, -17.3846 ], [ -66.850541, -17.384782 ], [ -66.848198, -17.385533 ], [ -66.846257, -17.385398 ], [ -66.847973, -17.38434 ], [ -66.8497, -17.383471 ], [ -66.8502, -17.380242 ], [ -66.85049, -17.378026 ], [ -66.850317, -17.375932 ], [ -66.850348, -17.373269 ], [ -66.849239, -17.372116 ], [ -66.84846, -17.370966 ], [ -66.847877, -17.369945 ], [ -66.847163, -17.368923 ], [ -66.846782, -17.367587 ], [ -66.84642, -17.366885 ], [ -66.845887, -17.365104 ], [ -66.845707, -17.363581 ], [ -66.845863, -17.36149 ], [ -66.846486, -17.359428 ], [ -66.845954, -17.353692 ], [ -66.847099, -17.351802 ], [ -66.848374, -17.35004 ], [ -66.849119, -17.348463 ], [ -66.850701, -17.34867 ], [ -66.852087, -17.348685 ], [ -66.853671, -17.348765 ], [ -66.856379, -17.348667 ], [ -66.857847, -17.347352 ], [ -66.85853, -17.345393 ], [ -66.858999, -17.34313 ], [ -66.859242, -17.340962 ], [ -66.855639, -17.338514 ], [ -66.852286, -17.337273 ], [ -66.850039, -17.337503 ], [ -66.84874, -17.338123 ], [ -66.847143, -17.336711 ], [ -66.84631, -17.334546 ], [ -66.846127, -17.333276 ], [ -66.846207, -17.332072 ], [ -66.845306, -17.330033 ], [ -66.844144, -17.327801 ], [ -66.843968, -17.325897 ], [ -66.843656, -17.324372 ], [ -66.843938, -17.322853 ], [ -66.844047, -17.320981 ], [ -66.843119, -17.31942 ], [ -66.842617, -17.317259 ], [ -66.843758, -17.315622 ], [ -66.84502, -17.314938 ], [ -66.847202, -17.314645 ], [ -66.849588, -17.313783 ], [ -66.851386, -17.31247 ], [ -66.853704, -17.311798 ], [ -66.855252, -17.31176 ], [ -66.859008, -17.309889 ], [ -66.864582, -17.307348 ], [ -66.866722, -17.303501 ], [ -66.869595, -17.301948 ], [ -66.873356, -17.302052 ], [ -66.877423, -17.298544 ], [ -66.880643, -17.294076 ], [ -66.88265, -17.291751 ], [ -66.885955, -17.289649 ], [ -66.888237, -17.288005 ], [ -66.888576, -17.281414 ], [ -66.888566, -17.276531 ], [ -66.888078, -17.273038 ], [ -66.886529, -17.270092 ], [ -66.885909, -17.267435 ], [ -66.877724, -17.231938 ], [ -66.888688, -17.201012 ], [ -66.886086, -17.17783 ], [ -66.885227, -17.171334 ], [ -66.88462, -17.165383 ], [ -66.890399, -17.139596 ], [ -66.910845, -17.114312 ], [ -66.935145, -17.100006 ], [ -66.954971, -17.07014 ], [ -66.975911, -17.050479 ], [ -66.985862, -17.028212 ], [ -67.002839, -16.983845 ], [ -67.005947, -16.954038 ], [ -66.991966, -16.933018 ], [ -66.973304, -16.924829 ], [ -66.976823, -16.907424 ], [ -66.960746, -16.882521 ], [ -66.958836, -16.880181 ], [ -66.928978, -16.844466 ], [ -66.906661, -16.839429 ], [ -66.883234, -16.838916 ], [ -66.834755, -16.84168 ], [ -66.831641, -16.837231 ], [ -66.829465, -16.836686 ], [ -66.827494, -16.835446 ], [ -66.826645, -16.834415 ], [ -66.82474, -16.833239 ], [ -66.821703, -16.83287 ], [ -66.821124, -16.831272 ], [ -66.819532, -16.830229 ], [ -66.815851, -16.829722 ], [ -66.813064, -16.82763 ], [ -66.811186, -16.826046 ], [ -66.808667, -16.823384 ], [ -66.805459, -16.819748 ], [ -66.802692, -16.817694 ], [ -66.799733, -16.815497 ], [ -66.79863, -16.813323 ], [ -66.797053, -16.810991 ], [ -66.795185, -16.810644 ], [ -66.791011, -16.809085 ], [ -66.78952, -16.80701 ], [ -66.78792, -16.806489 ], [ -66.785151, -16.806743 ], [ -66.781875, -16.803524 ], [ -66.780951, -16.799825 ], [ -66.781953, -16.798187 ], [ -66.784308, -16.795342 ], [ -66.783834, -16.793573 ], [ -66.783193, -16.791626 ], [ -66.781959, -16.790328 ], [ -66.780374, -16.78851 ], [ -66.778695, -16.787124 ], [ -66.776744, -16.785996 ], [ -66.775701, -16.783661 ], [ -66.772937, -16.783393 ], [ -66.770957, -16.784596 ], [ -66.769157, -16.785799 ], [ -66.767382, -16.784843 ], [ -66.763825, -16.784559 ], [ -66.760566, -16.779721 ], [ -66.760869, -16.776872 ], [ -66.759462, -16.774966 ], [ -66.760118, -16.772463 ], [ -66.759876, -16.770303 ], [ -66.757925, -16.769085 ], [ -66.753282, -16.768893 ], [ -66.7509, -16.767777 ], [ -66.750482, -16.763956 ], [ -66.748093, -16.761958 ], [ -66.744896, -16.760301 ], [ -66.743151, -16.756837 ], [ -66.74194, -16.753462 ], [ -66.743805, -16.749831 ], [ -66.743007, -16.746556 ], [ -66.744558, -16.743972 ], [ -66.745749, -16.741559 ], [ -66.745604, -16.738793 ], [ -66.742667, -16.737742 ], [ -66.740716, -16.736436 ], [ -66.741182, -16.734883 ], [ -66.743991, -16.731701 ], [ -66.743943, -16.728332 ], [ -66.744554, -16.722668 ], [ -66.74468, -16.719091 ], [ -66.746946, -16.716511 ], [ -66.747776, -16.714356 ], [ -66.749551, -16.71401 ], [ -66.758585, -16.698352 ], [ -66.75506, -16.680162 ], [ -66.744089, -16.652857 ], [ -66.742288, -16.6279 ], [ -66.738539, -16.583166 ], [ -66.74201, -16.577673 ], [ -66.743023, -16.576591 ], [ -66.742295, -16.574714 ], [ -66.741643, -16.571748 ], [ -66.742976, -16.570064 ], [ -66.743319, -16.567528 ], [ -66.745707, -16.566454 ], [ -66.748554, -16.56357 ], [ -66.749284, -16.560009 ], [ -66.751911, -16.557625 ], [ -66.752898, -16.55574 ], [ -66.753672, -16.554413 ], [ -66.75413, -16.55206 ], [ -66.755654, -16.550015 ], [ -66.758449, -16.546223 ], [ -66.760039, -16.543876 ], [ -66.762986, -16.543107 ], [ -66.765058, -16.542272 ], [ -66.765381, -16.541367 ], [ -66.765029, -16.539484 ], [ -66.766466, -16.537112 ], [ -66.768538, -16.533348 ], [ -66.77069, -16.531003 ], [ -66.772834, -16.529383 ], [ -66.773242, -16.526545 ], [ -66.774274, -16.523892 ], [ -66.775935, -16.520758 ], [ -66.774493, -16.515977 ], [ -66.770966, -16.513566 ], [ -66.768192, -16.509961 ], [ -66.769188, -16.505072 ], [ -66.76946, -16.5032 ], [ -66.77136, -16.501035 ], [ -66.775032, -16.498608 ], [ -66.779012, -16.494883 ], [ -66.782987, -16.491521 ], [ -66.787108, -16.486469 ], [ -66.788904, -16.482614 ], [ -66.788388, -16.478744 ], [ -66.78831, -16.474817 ], [ -66.788111, -16.470526 ], [ -66.786469, -16.46677 ], [ -66.784088, -16.463476 ], [ -66.794098, -16.462675 ], [ -66.790096, -16.4561 ], [ -66.788207, -16.45204 ], [ -66.787932, -16.448896 ], [ -66.788095, -16.445635 ], [ -66.78783, -16.441646 ], [ -66.787573, -16.438076 ], [ -66.786876, -16.43545 ], [ -66.786116, -16.43372 ], [ -66.785384, -16.433172 ], [ -66.78498, -16.431674 ], [ -66.785068, -16.430247 ], [ -66.785717, -16.428824 ], [ -66.785363, -16.426137 ], [ -66.784087, -16.423987 ], [ -66.782694, -16.419968 ], [ -66.783075, -16.41749 ], [ -66.784651, -16.414985 ], [ -66.787097, -16.413302 ], [ -66.788834, -16.41209 ], [ -66.78938, -16.410497 ], [ -66.789437, -16.408696 ], [ -66.789395, -16.406283 ], [ -66.790726, -16.403777 ], [ -66.792011, -16.401343 ], [ -66.792175, -16.400254 ], [ -66.793037, -16.398731 ], [ -66.793727, -16.396867 ], [ -66.794554, -16.395378 ], [ -66.794258, -16.393642 ], [ -66.793634, -16.393102 ], [ -66.793194, -16.391604 ], [ -66.794059, -16.389877 ], [ -66.795064, -16.388185 ], [ -66.794813, -16.385601 ], [ -66.794806, -16.383188 ], [ -66.794831, -16.381115 ], [ -66.794991, -16.379451 ], [ -66.795422, -16.378707 ], [ -66.79599, -16.377968 ], [ -66.796222, -16.376504 ], [ -66.796242, -16.374839 ], [ -66.796043, -16.37375 ], [ -66.796551, -16.372462 ], [ -66.797048, -16.371198 ], [ -66.797326, -16.369438 ], [ -66.796266, -16.366853 ], [ -66.795398, -16.365895 ], [ -66.795026, -16.364634 ], [ -66.795283, -16.363685 ], [ -66.796212, -16.362469 ], [ -66.796482, -16.360466 ], [ -66.796453, -16.357989 ], [ -66.797765, -16.356092 ], [ -66.798569, -16.353515 ], [ -66.798352, -16.351067 ], [ -66.797824, -16.348072 ], [ -66.796336, -16.346021 ], [ -66.79488, -16.344175 ], [ -66.795183, -16.341356 ], [ -66.795664, -16.337735 ], [ -66.796638, -16.334661 ], [ -66.796912, -16.332609 ], [ -66.797069, -16.329892 ], [ -66.798213, -16.32833 ], [ -66.798604, -16.327004 ], [ -66.797872, -16.325428 ], [ -66.797457, -16.323491 ], [ -66.797866, -16.320655 ], [ -66.798711, -16.317943 ], [ -66.799793, -16.31632 ], [ -66.801132, -16.314096 ], [ -66.802479, -16.312468 ], [ -66.802728, -16.31133 ], [ -66.802494, -16.309999 ], [ -66.801826, -16.308241 ], [ -66.802292, -16.305889 ], [ -66.80331, -16.303275 ], [ -66.802956, -16.301399 ], [ -66.802119, -16.299217 ], [ -66.802229, -16.297596 ], [ -66.80189, -16.296315 ], [ -66.801909, -16.294744 ], [ -66.802362, -16.293419 ], [ -66.803881, -16.291861 ], [ -66.806584, -16.290736 ], [ -66.807482, -16.28881 ], [ -66.806953, -16.285906 ], [ -66.808111, -16.283137 ], [ -66.811514, -16.280992 ], [ -66.813589, -16.280104 ], [ -66.814955, -16.280962 ], [ -66.816573, -16.281762 ], [ -66.818404, -16.280269 ], [ -66.817675, -16.278449 ], [ -66.816879, -16.276932 ], [ -66.817846, -16.274464 ], [ -66.818495, -16.272476 ], [ -66.820271, -16.270438 ], [ -66.822676, -16.268044 ], [ -66.824743, -16.267943 ], [ -66.826739, -16.268505 ], [ -66.828616, -16.268523 ], [ -66.829258, -16.26708 ], [ -66.829229, -16.264179 ], [ -66.830951, -16.261477 ], [ -66.834983, -16.25916 ], [ -66.837936, -16.258163 ], [ -66.840387, -16.257402 ], [ -66.841901, -16.256451 ], [ -66.843405, -16.256347 ], [ -66.846303, -16.254868 ], [ -66.84898, -16.250971 ], [ -66.850324, -16.24851 ], [ -66.852108, -16.245933 ], [ -66.853195, -16.244012 ], [ -66.852341, -16.242008 ], [ -66.852682, -16.239534 ], [ -66.853236, -16.236238 ], [ -66.852801, -16.234962 ], [ -66.852211, -16.234173 ], [ -66.851657, -16.233283 ], [ -66.850465, -16.232691 ], [ -66.849769, -16.231901 ], [ -66.848624, -16.230325 ], [ -66.847303, -16.22878 ], [ -66.84669, -16.22687 ], [ -66.847382, -16.224974 ], [ -66.848876, -16.223666 ], [ -66.849314, -16.222345 ], [ -66.848801, -16.22098 ], [ -66.848248, -16.220022 ], [ -66.847664, -16.218792 ], [ -66.847292, -16.21736 ], [ -66.847491, -16.215425 ], [ -66.847191, -16.213858 ], [ -66.848227, -16.212612 ], [ -66.848282, -16.210947 ], [ -66.847485, -16.209749 ], [ -66.84528, -16.208501 ], [ -66.845436, -16.207177 ], [ -66.845594, -16.205683 ], [ -66.845822, -16.20419 ], [ -66.845765, -16.203034 ], [ -66.845498, -16.201773 ], [ -66.845121, -16.200818 ], [ -66.844395, -16.199654 ], [ -66.843212, -16.19835 ], [ -66.843457, -16.196472 ], [ -66.844923, -16.194131 ], [ -66.847764, -16.192108 ], [ -66.849729, -16.190076 ], [ -66.85163, -16.184854 ], [ -66.851708, -16.181337 ], [ -66.852803, -16.178691 ], [ -66.854266, -16.176653 ], [ -66.855221, -16.175274 ], [ -66.85681, -16.173298 ], [ -66.858017, -16.171802 ], [ -66.858982, -16.169516 ], [ -66.860754, -16.167966 ], [ -66.861462, -16.166221 ], [ -66.862679, -16.163879 ], [ -66.864514, -16.162877 ], [ -66.865954, -16.162285 ], [ -66.867966, -16.161583 ], [ -66.870426, -16.160101 ], [ -66.870331, -16.15738 ], [ -66.870302, -16.153002 ], [ -66.869669, -16.151579 ], [ -66.869209, -16.150713 ], [ -66.869975, -16.149453 ], [ -66.871777, -16.147932 ], [ -66.873568, -16.147409 ], [ -66.87447, -16.146513 ], [ -66.875146, -16.144844 ], [ -66.875259, -16.143168 ], [ -66.874917, -16.140082 ], [ -66.876021, -16.137964 ], [ -66.877775, -16.136534 ], [ -66.880178, -16.135882 ], [ -66.882638, -16.134324 ], [ -66.884274, -16.132786 ], [ -66.885338, -16.131245 ], [ -66.884708, -16.130059 ], [ -66.883821, -16.12908 ], [ -66.883671, -16.128236 ], [ -66.883762, -16.127166 ], [ -66.884331, -16.125898 ], [ -66.884995, -16.125574 ], [ -66.887145, -16.125066 ], [ -66.888577, -16.123874 ], [ -66.889179, -16.122349 ], [ -66.889527, -16.121064 ], [ -66.893488, -16.118445 ], [ -66.894386, -16.112013 ], [ -66.897394, -16.111887 ], [ -66.898905, -16.111099 ], [ -66.899346, -16.109009 ], [ -66.900123, -16.1066 ], [ -66.902247, -16.10332 ], [ -66.904335, -16.103264 ], [ -66.906743, -16.104581 ], [ -66.908326, -16.104922 ], [ -66.911094, -16.103745 ], [ -66.911201, -16.10157 ], [ -66.911383, -16.100202 ], [ -66.912655, -16.098444 ], [ -66.914595, -16.096613 ], [ -66.920348, -16.097527 ], [ -66.91961, -16.096268 ], [ -66.919204, -16.095135 ], [ -66.9188, -16.093921 ], [ -66.919335, -16.090703 ], [ -66.918944, -16.0882 ], [ -66.9188, -16.086103 ], [ -66.919085, -16.082801 ], [ -66.918859, -16.080541 ], [ -66.918642, -16.077395 ], [ -66.918341, -16.074329 ], [ -66.917954, -16.071423 ], [ -66.916233, -16.06842 ], [ -66.913239, -16.067338 ], [ -66.911512, -16.067106 ], [ -66.911997, -16.066233 ], [ -66.9113, -16.065545 ], [ -66.910698, -16.064722 ], [ -66.910096, -16.063944 ], [ -66.910529, -16.062951 ], [ -66.911615, -16.06242 ], [ -66.912564, -16.061479 ], [ -66.912815, -16.05994 ], [ -66.912049, -16.056984 ], [ -66.911127, -16.055341 ], [ -66.910057, -16.054468 ], [ -66.909275, -16.052917 ], [ -66.909572, -16.05147 ], [ -66.910523, -16.050347 ], [ -66.910776, -16.048718 ], [ -66.910176, -16.047759 ], [ -66.908868, -16.047109 ], [ -66.908979, -16.045479 ], [ -66.909598, -16.044715 ], [ -66.91111, -16.043825 ], [ -66.912528, -16.04298 ], [ -66.912819, -16.042031 ], [ -66.912414, -16.04044 ], [ -66.912326, -16.038897 ], [ -66.912302, -16.037763 ], [ -66.912405, -16.036148 ], [ -66.911206, -16.034849 ], [ -66.911221, -16.033489 ], [ -66.911563, -16.032178 ], [ -66.911952, -16.030958 ], [ -66.912571, -16.030195 ], [ -66.912535, -16.029106 ], [ -66.912617, -16.025888 ], [ -66.913383, -16.024446 ], [ -66.914756, -16.023418 ], [ -66.915379, -16.022201 ], [ -66.915512, -16.019467 ], [ -66.914698, -16.017604 ], [ -66.913215, -16.015814 ], [ -66.913729, -16.01453 ], [ -66.915753, -16.012538 ], [ -66.916779, -16.010293 ], [ -66.915964, -16.00843 ], [ -66.916322, -16.006177 ], [ -66.917344, -16.004254 ], [ -66.920366, -16.002514 ], [ -66.92148, -15.999786 ], [ -66.920299, -15.997447 ], [ -66.919356, -15.996941 ], [ -66.917858, -15.996562 ], [ -66.916552, -15.995776 ], [ -66.91562, -15.995176 ], [ -66.914828, -15.994669 ], [ -66.914221, -15.994299 ], [ -66.912958, -15.993968 ], [ -66.911693, -15.993727 ], [ -66.910248, -15.992759 ], [ -66.909599, -15.992027 ], [ -66.90969, -15.990998 ], [ -66.911254, -15.989601 ], [ -66.911795, -15.988446 ], [ -66.911424, -15.987235 ], [ -66.911827, -15.985429 ], [ -66.912671, -15.982931 ], [ -66.913511, -15.980804 ], [ -66.913463, -15.979227 ], [ -66.910169, -15.974174 ], [ -66.909364, -15.973098 ], [ -66.90779, -15.971966 ], [ -66.906175, -15.970231 ], [ -66.905043, -15.968222 ], [ -66.905017, -15.966225 ], [ -66.90513, -15.964648 ], [ -66.904516, -15.963667 ], [ -66.902988, -15.962722 ], [ -66.902084, -15.961923 ], [ -66.90103, -15.961679 ], [ -66.900265, -15.96094 ], [ -66.899409, -15.960501 ], [ -66.899042, -15.958919 ], [ -66.898581, -15.957103 ], [ -66.897541, -15.955513 ], [ -66.895966, -15.954568 ], [ -66.894588, -15.953161 ], [ -66.893154, -15.952496 ], [ -66.890756, -15.952145 ], [ -66.889207, -15.951141 ], [ -66.888571, -15.950169 ], [ -66.887954, -15.949904 ], [ -66.887309, -15.948854 ], [ -66.886773, -15.947905 ], [ -66.886102, -15.94661 ], [ -66.885184, -15.944964 ], [ -66.884276, -15.943156 ], [ -66.883632, -15.941971 ], [ -66.882915, -15.941089 ], [ -66.881856, -15.941409 ], [ -66.880531, -15.942483 ], [ -66.879443, -15.943378 ], [ -66.878313, -15.943363 ], [ -66.877213, -15.942689 ], [ -66.87647, -15.941428 ], [ -66.875443, -15.939851 ], [ -66.874591, -15.938763 ], [ -66.873626, -15.938057 ], [ -66.871433, -15.937756 ], [ -66.868353, -15.937016 ], [ -66.867563, -15.936458 ], [ -66.866961, -15.934409 ], [ -66.868929, -15.932989 ], [ -66.871986, -15.930819 ], [ -66.87661, -15.927639 ], [ -66.878264, -15.925492 ], [ -66.878138, -15.923145 ], [ -66.876146, -15.921511 ], [ -66.874334, -15.920687 ], [ -66.873751, -15.918974 ], [ -66.876218, -15.916638 ], [ -66.879648, -15.913001 ], [ -66.880343, -15.909925 ], [ -66.883104, -15.907003 ], [ -66.885299, -15.904665 ], [ -66.887098, -15.901404 ], [ -66.888761, -15.898143 ], [ -66.888248, -15.895384 ], [ -66.886511, -15.893005 ], [ -66.883949, -15.891668 ], [ -66.881537, -15.889022 ], [ -66.880759, -15.885736 ], [ -66.88121, -15.883161 ], [ -66.882064, -15.880767 ], [ -66.882842, -15.87872 ], [ -66.885432, -15.875578 ], [ -66.887547, -15.873057 ], [ -66.888642, -15.871745 ], [ -66.8915, -15.870499 ], [ -66.894068, -15.871312 ], [ -66.898228, -15.875419 ], [ -66.901219, -15.874663 ], [ -66.903009, -15.872189 ], [ -66.90263, -15.869562 ], [ -66.903206, -15.86642 ], [ -66.903248, -15.862486 ], [ -66.9007, -15.858461 ], [ -66.899993, -15.85727 ], [ -66.89993, -15.856399 ], [ -66.900343, -15.855112 ], [ -66.901097, -15.853703 ], [ -66.901477, -15.852316 ], [ -66.901449, -15.851121 ], [ -66.901365, -15.849712 ], [ -66.902406, -15.848438 ], [ -66.902492, -15.848149 ], [ -66.90232, -15.84735 ], [ -66.902444, -15.847097 ], [ -66.902919, -15.84622 ], [ -66.903075, -15.844996 ], [ -66.903282, -15.844402 ], [ -66.903329, -15.843874 ], [ -66.903293, -15.843364 ], [ -66.903278, -15.842953 ], [ -66.90351, -15.841997 ], [ -66.903298, -15.84027 ], [ -66.90239, -15.839204 ], [ -66.901879, -15.838587 ], [ -66.901551, -15.836915 ], [ -66.900994, -15.835241 ], [ -66.900141, -15.834342 ], [ -66.899172, -15.833554 ], [ -66.899181, -15.832218 ], [ -66.899106, -15.831649 ], [ -66.899093, -15.830944 ], [ -66.898798, -15.830279 ], [ -66.898953, -15.829594 ], [ -66.898911, -15.828983 ], [ -66.898652, -15.828431 ], [ -66.896764, -15.827523 ], [ -66.896316, -15.826406 ], [ -66.896844, -15.825466 ], [ -66.896913, -15.824354 ], [ -66.896004, -15.823344 ], [ -66.895155, -15.822112 ], [ -66.893894, -15.821766 ], [ -66.892078, -15.820038 ], [ -66.891458, -15.818405 ], [ -66.890556, -15.816783 ], [ -66.889616, -15.816123 ], [ -66.888994, -15.815686 ], [ -66.888372, -15.815132 ], [ -66.888114, -15.81466 ], [ -66.887676, -15.814048 ], [ -66.88752, -15.813459 ], [ -66.887223, -15.812889 ], [ -66.886704, -15.812159 ], [ -66.886181, -15.811919 ], [ -66.885639, -15.811503 ], [ -66.883893, -15.810115 ], [ -66.882712, -15.808949 ], [ -66.882513, -15.809489 ], [ -66.882395, -15.81016 ], [ -66.881603, -15.810247 ], [ -66.880979, -15.809462 ], [ -66.881622, -15.808467 ], [ -66.881463, -15.807242 ], [ -66.879193, -15.804607 ], [ -66.877103, -15.801906 ], [ -66.876467, -15.800843 ], [ -66.874388, -15.798572 ], [ -66.87323, -15.797113 ], [ -66.872366, -15.796635 ], [ -66.871882, -15.796454 ], [ -66.870733, -15.79615 ], [ -66.868365, -15.794446 ], [ -66.866758, -15.793453 ], [ -66.866075, -15.792996 ], [ -66.865671, -15.792934 ], [ -66.863999, -15.792375 ], [ -66.859099, -15.792996 ], [ -66.857734, -15.792103 ], [ -66.856978, -15.791001 ], [ -66.856274, -15.790623 ], [ -66.855647, -15.790676 ], [ -66.854478, -15.790334 ], [ -66.851069, -15.787938 ], [ -66.849998, -15.78791 ], [ -66.84951, -15.788102 ], [ -66.849005, -15.788137 ], [ -66.848511, -15.788877 ], [ -66.848129, -15.788785 ], [ -66.847414, -15.788455 ], [ -66.846929, -15.789008 ], [ -66.84633, -15.790203 ], [ -66.844501, -15.791959 ], [ -66.84291, -15.792922 ], [ -66.840835, -15.794298 ], [ -66.839774, -15.794231 ], [ -66.807244, -15.778696 ], [ -66.800029, -15.77819 ], [ -66.787098, -15.808162 ], [ -66.77293, -15.838212 ], [ -66.713369, -15.891057 ], [ -66.615125, -15.955427 ], [ -66.484567, -16.086256 ], [ -66.50015, -16.135569 ], [ -66.488051, -16.227707 ], [ -66.446498, -16.259168 ], [ -66.401303, -16.258681 ], [ -66.379172, -16.284656 ], [ -66.367435, -16.32174 ], [ -66.337176, -16.334285 ], [ -66.308457, -16.357095 ], [ -66.289454, -16.360771 ], [ -66.113714, -16.534419 ], [ -66.140491, -16.559061 ], [ -66.142966, -16.560384 ], [ -66.144939, -16.562118 ], [ -66.146414, -16.564256 ], [ -66.147142, -16.566005 ], [ -66.148399, -16.567413 ], [ -66.149374, -16.568184 ], [ -66.15068, -16.568803 ], [ -66.151308, -16.569635 ], [ -66.152169, -16.570281 ], [ -66.15405, -16.571713 ], [ -66.15637, -16.574095 ], [ -66.157291, -16.575886 ], [ -66.159155, -16.577859 ], [ -66.160137, -16.58325 ], [ -66.161249, -16.58437 ], [ -66.162844, -16.585206 ], [ -66.163219, -16.585638 ], [ -66.163684, -16.586807 ], [ -66.164516, -16.587574 ], [ -66.165729, -16.588463 ], [ -66.165881, -16.589008 ], [ -66.165737, -16.590614 ], [ -66.165938, -16.591792 ], [ -66.16713, -16.593349 ], [ -66.168225, -16.594435 ], [ -66.169153, -16.595051 ], [ -66.170577, -16.595037 ], [ -66.172655, -16.597009 ], [ -66.174972, -16.597542 ], [ -66.177478, -16.597783 ], [ -66.180043, -16.598172 ], [ -66.182814, -16.599095 ], [ -66.184389, -16.600239 ], [ -66.186305, -16.601033 ], [ -66.187304, -16.601784 ], [ -66.188703, -16.604461 ], [ -66.188608, -16.605547 ], [ -66.188541, -16.607807 ], [ -66.189049, -16.609003 ], [ -66.188982, -16.610015 ], [ -66.188753, -16.611302 ], [ -66.188255, -16.612512 ], [ -66.188251, -16.615354 ], [ -66.189356, -16.617301 ], [ -66.190964, -16.618416 ], [ -66.190513, -16.620364 ], [ -66.189846, -16.626966 ], [ -66.186632, -16.629126 ], [ -66.184362, -16.633739 ], [ -66.182308, -16.634735 ], [ -66.180304, -16.637934 ], [ -66.179866, -16.639676 ], [ -66.180287, -16.641356 ], [ -66.18032, -16.642552 ], [ -66.179444, -16.644789 ], [ -66.178007, -16.647728 ], [ -66.17828, -16.64955 ], [ -66.179507, -16.6506 ], [ -66.179869, -16.652175 ], [ -66.179533, -16.65465 ], [ -66.179761, -16.656637 ], [ -66.180375, -16.658629 ], [ -66.179206, -16.660545 ], [ -66.176854, -16.66219 ], [ -66.174789, -16.66321 ], [ -66.173106, -16.663666 ], [ -66.172119, -16.66533 ], [ -66.172151, -16.666438 ], [ -66.172377, -16.666831 ], [ -66.173693, -16.668107 ], [ -66.174989, -16.668663 ], [ -66.177129, -16.670251 ], [ -66.177942, -16.670862 ], [ -66.178059, -16.671998 ], [ -66.177334, -16.672952 ], [ -66.177281, -16.673551 ], [ -66.177627, -16.674156 ], [ -66.179342, -16.675335 ], [ -66.179937, -16.676586 ], [ -66.180098, -16.677669 ], [ -66.18088, -16.678283 ], [ -66.181367, -16.678835 ], [ -66.181589, -16.679641 ], [ -66.18148, -16.680946 ], [ -66.180912, -16.682137 ], [ -66.180164, -16.68309 ], [ -66.179486, -16.683474 ], [ -66.178734, -16.684703 ], [ -66.178177, -16.687072 ], [ -66.177285, -16.687909 ], [ -66.176695, -16.689668 ], [ -66.176633, -16.691501 ], [ -66.175141, -16.694776 ], [ -66.174963, -16.69688 ], [ -66.175299, -16.698827 ], [ -66.17533, -16.699634 ], [ -66.174906, -16.700785 ], [ -66.17449, -16.701379 ], [ -66.173391, -16.702235 ], [ -66.172782, -16.705221 ], [ -66.17152, -16.706619 ], [ -66.17031, -16.708263 ], [ -66.17029, -16.709624 ], [ -66.17181, -16.711849 ], [ -66.172876, -16.713525 ], [ -66.17273, -16.714644 ], [ -66.172006, -16.715599 ], [ -66.17211, -16.717282 ], [ -66.173116, -16.719133 ], [ -66.174085, -16.721326 ], [ -66.174189, -16.723009 ], [ -66.173984, -16.723146 ], [ -66.173825, -16.723822 ], [ -66.173814, -16.724137 ], [ -66.174017, -16.724639 ], [ -66.175038, -16.725722 ], [ -66.175495, -16.726806 ], [ -66.175575, -16.728337 ], [ -66.175122, -16.729457 ], [ -66.174411, -16.730607 ], [ -66.174158, -16.732031 ], [ -66.174303, -16.733171 ], [ -66.174383, -16.73402 ], [ -66.173809, -16.735328 ], [ -66.172736, -16.735916 ], [ -66.171089, -16.736205 ], [ -66.170253, -16.736439 ], [ -66.169861, -16.73743 ], [ -66.169369, -16.740999 ], [ -66.169585, -16.744503 ], [ -66.168896, -16.746545 ], [ -66.169057, -16.74767 ], [ -66.170416, -16.749936 ], [ -66.170554, -16.750939 ], [ -66.170677, -16.752203 ], [ -66.171272, -16.753393 ], [ -66.171023, -16.755415 ], [ -66.169126, -16.759356 ], [ -66.167226, -16.763228 ], [ -66.170885, -16.763511 ], [ -66.173197, -16.763676 ], [ -66.174619, -16.764412 ], [ -66.175012, -16.765773 ], [ -66.174689, -16.767123 ], [ -66.175067, -16.76766 ], [ -66.176963, -16.768004 ], [ -66.178137, -16.768711 ], [ -66.179493, -16.770191 ], [ -66.18082, -16.77175 ], [ -66.181902, -16.77256 ], [ -66.183742, -16.773707 ], [ -66.184723, -16.773914 ], [ -66.186969, -16.774894 ], [ -66.188227, -16.774545 ], [ -66.190966, -16.77387 ], [ -66.192674, -16.773311 ], [ -66.193426, -16.772736 ], [ -66.193874, -16.772211 ], [ -66.194489, -16.772054 ], [ -66.195368, -16.772219 ], [ -66.197027, -16.772631 ], [ -66.199924, -16.773157 ], [ -66.203219, -16.773594 ], [ -66.204159, -16.773558 ], [ -66.20575, -16.772404 ], [ -66.207307, -16.771862 ], [ -66.208998, -16.770857 ], [ -66.210811, -16.770123 ], [ -66.211462, -16.770076 ], [ -66.212638, -16.770242 ], [ -66.214088, -16.77069 ], [ -66.214266, -16.770716 ], [ -66.214782, -16.770662 ], [ -66.215614, -16.770518 ], [ -66.215803, -16.770446 ], [ -66.216178, -16.770109 ], [ -66.216957, -16.769935 ], [ -66.217794, -16.770001 ], [ -66.220782, -16.770616 ], [ -66.223261, -16.770612 ], [ -66.224521, -16.771185 ], [ -66.22658, -16.771595 ], [ -66.227505, -16.771519 ], [ -66.228473, -16.77171 ], [ -66.229264, -16.772001 ], [ -66.230119, -16.772241 ], [ -66.231315, -16.772317 ], [ -66.233167, -16.772764 ], [ -66.23342, -16.772786 ], [ -66.233707, -16.772594 ], [ -66.234231, -16.772051 ], [ -66.234896, -16.771056 ], [ -66.236162, -16.769489 ], [ -66.237359, -16.768756 ], [ -66.238517, -16.768155 ], [ -66.240182, -16.767843 ], [ -66.240639, -16.767797 ], [ -66.241889, -16.767145 ], [ -66.242916, -16.766789 ], [ -66.244308, -16.766275 ], [ -66.244564, -16.766031 ], [ -66.244789, -16.765756 ], [ -66.245257, -16.765246 ], [ -66.246061, -16.764817 ], [ -66.246809, -16.764265 ], [ -66.247528, -16.763725 ], [ -66.248099, -16.763471 ], [ -66.249045, -16.7632 ], [ -66.250522, -16.762888 ], [ -66.2517, -16.762904 ], [ -66.253529, -16.762468 ], [ -66.254388, -16.762146 ], [ -66.254701, -16.76162 ], [ -66.255542, -16.76118 ], [ -66.256219, -16.760836 ], [ -66.256913, -16.760688 ], [ -66.257768, -16.760699 ], [ -66.258978, -16.760107 ], [ -66.260276, -16.760419 ], [ -66.261416, -16.760473 ], [ -66.262959, -16.760157 ], [ -66.264248, -16.760202 ], [ -66.266672, -16.760856 ], [ -66.267842, -16.761013 ], [ -66.270217, -16.760988 ], [ -66.271033, -16.761366 ], [ -66.272653, -16.762886 ], [ -66.273793, -16.764025 ], [ -66.275588, -16.76489 ], [ -66.276039, -16.765377 ], [ -66.276587, -16.766246 ], [ -66.277701, -16.766841 ], [ -66.278224, -16.76809 ], [ -66.278296, -16.768873 ], [ -66.278658, -16.769659 ], [ -66.279213, -16.770087 ], [ -66.28124, -16.770795 ], [ -66.28259, -16.771155 ], [ -66.284969, -16.771186 ], [ -66.285551, -16.771774 ], [ -66.285777, -16.772543 ], [ -66.286768, -16.774049 ], [ -66.287582, -16.774522 ], [ -66.288813, -16.774571 ], [ -66.289405, -16.775074 ], [ -66.289873, -16.775789 ], [ -66.290807, -16.776329 ], [ -66.29188, -16.776623 ], [ -66.293077, -16.776672 ], [ -66.293817, -16.776319 ], [ -66.294824, -16.775986 ], [ -66.29556, -16.776162 ], [ -66.297101, -16.776989 ], [ -66.297614, -16.777281 ], [ -66.29919, -16.777302 ], [ -66.300293, -16.777696 ], [ -66.302049, -16.77893 ], [ -66.30242, -16.77944 ], [ -66.302762, -16.780477 ], [ -66.303385, -16.781142 ], [ -66.305764, -16.782996 ], [ -66.306872, -16.788268 ], [ -66.308558, -16.791558 ], [ -66.308368, -16.794314 ], [ -66.309379, -16.79745 ], [ -66.309421, -16.799774 ], [ -66.310848, -16.802743 ], [ -66.311741, -16.805569 ], [ -66.312473, -16.808275 ], [ -66.31285, -16.810273 ], [ -66.311528, -16.812015 ], [ -66.310948, -16.81331 ], [ -66.31173, -16.81542 ], [ -66.311345, -16.816398 ], [ -66.311244, -16.817022 ], [ -66.311529, -16.818143 ], [ -66.311937, -16.818818 ], [ -66.311974, -16.819489 ], [ -66.311512, -16.820201 ], [ -66.311312, -16.820831 ], [ -66.311246, -16.822089 ], [ -66.311167, -16.823491 ], [ -66.310953, -16.824963 ], [ -66.311008, -16.826571 ], [ -66.311645, -16.828347 ], [ -66.311377, -16.830324 ], [ -66.311652, -16.831772 ], [ -66.311547, -16.832662 ], [ -66.310947, -16.833243 ], [ -66.30953, -16.833956 ], [ -66.30898, -16.834894 ], [ -66.308675, -16.835887 ], [ -66.308429, -16.837424 ], [ -66.307808, -16.838402 ], [ -66.306195, -16.839337 ], [ -66.305131, -16.840001 ], [ -66.304265, -16.840174 ], [ -66.303979, -16.840567 ], [ -66.303833, -16.841309 ], [ -66.303639, -16.841925 ], [ -66.302726, -16.842476 ], [ -66.302416, -16.843072 ], [ -66.302515, -16.844072 ], [ -66.302746, -16.845074 ], [ -66.302225, -16.845921 ], [ -66.3014, -16.846981 ], [ -66.300523, -16.847678 ], [ -66.299238, -16.847934 ], [ -66.298004, -16.848553 ], [ -66.296098, -16.849741 ], [ -66.29566, -16.850739 ], [ -66.296035, -16.851874 ], [ -66.296348, -16.852788 ], [ -66.296287, -16.854765 ], [ -66.296207, -16.8558 ], [ -66.295708, -16.856546 ], [ -66.294363, -16.85725 ], [ -66.292919, -16.857985 ], [ -66.291973, -16.858098 ], [ -66.290978, -16.857049 ], [ -66.290137, -16.85663 ], [ -66.289215, -16.857339 ], [ -66.273222, -16.879336 ], [ -66.270101, -16.881581 ], [ -66.265938, -16.883469 ], [ -66.264136, -16.884903 ], [ -66.262685, -16.88524 ], [ -66.25986, -16.885267 ], [ -66.258312, -16.885343 ], [ -66.257476, -16.885073 ], [ -66.257062, -16.884412 ], [ -66.256399, -16.885548 ], [ -66.25444, -16.886298 ], [ -66.2523, -16.888016 ], [ -66.250512, -16.888542 ], [ -66.249999, -16.889215 ], [ -66.246645, -16.891208 ], [ -66.24382, -16.893823 ], [ -66.242508, -16.893999 ], [ -66.240385, -16.894488 ], [ -66.238127, -16.895073 ], [ -66.236435, -16.895956 ], [ -66.234722, -16.898642 ], [ -66.233257, -16.900378 ], [ -66.232278, -16.902663 ], [ -66.232329, -16.903834 ], [ -66.231866, -16.904695 ], [ -66.229954, -16.905658 ], [ -66.228696, -16.90654 ], [ -66.228097, -16.907618 ], [ -66.228118, -16.908817 ], [ -66.226971, -16.910188 ], [ -66.225811, -16.912382 ], [ -66.22492, -16.912936 ], [ -66.224293, -16.913712 ], [ -66.223508, -16.914394 ], [ -66.222916, -16.91475 ], [ -66.22226, -16.91496 ], [ -66.221744, -16.915263 ], [ -66.220417, -16.917385 ], [ -66.217789, -16.919571 ], [ -66.219517, -16.921284 ], [ -66.219649, -16.923749 ], [ -66.218931, -16.924485 ], [ -66.218681, -16.925455 ], [ -66.218768, -16.92873 ], [ -66.219427, -16.92968 ], [ -66.219616, -16.930558 ], [ -66.219232, -16.931468 ], [ -66.219152, -16.931988 ], [ -66.21914, -16.932533 ], [ -66.219244, -16.932673 ], [ -66.219315, -16.932726 ], [ -66.219498, -16.932872 ], [ -66.219863, -16.933008 ], [ -66.219985, -16.933119 ], [ -66.220126, -16.933477 ], [ -66.220494, -16.933667 ], [ -66.221247, -16.93372 ], [ -66.221515, -16.933865 ], [ -66.221954, -16.934618 ], [ -66.222377, -16.935697 ], [ -66.222741, -16.936211 ], [ -66.223154, -16.936401 ], [ -66.223535, -16.936536 ], [ -66.224271, -16.937663 ], [ -66.225249, -16.939259 ], [ -66.225656, -16.939695 ], [ -66.226191, -16.940363 ], [ -66.226475, -16.940858 ], [ -66.226872, -16.941987 ], [ -66.227357, -16.942265 ], [ -66.228066, -16.942673 ], [ -66.228889, -16.94301 ], [ -66.229456, -16.942855 ], [ -66.231319, -16.94404 ], [ -66.232183, -16.94416 ], [ -66.232891, -16.944641 ], [ -66.233528, -16.944813 ], [ -66.233883, -16.944962 ], [ -66.234163, -16.945287 ], [ -66.234964, -16.945646 ], [ -66.235817, -16.94584 ], [ -66.236965, -16.946157 ], [ -66.238524, -16.946485 ], [ -66.240304, -16.947303 ], [ -66.241212, -16.947466 ], [ -66.243249, -16.948206 ], [ -66.244986, -16.948159 ], [ -66.246332, -16.94858 ], [ -66.247601, -16.949189 ], [ -66.249584, -16.949713 ], [ -66.250119, -16.950122 ], [ -66.250497, -16.951145 ], [ -66.251102, -16.951816 ], [ -66.252425, -16.953823 ], [ -66.253714, -16.954787 ], [ -66.254954, -16.955727 ], [ -66.256347, -16.955773 ], [ -66.257324, -16.955786 ], [ -66.258363, -16.957314 ], [ -66.259655, -16.959049 ], [ -66.260646, -16.960985 ], [ -66.261425, -16.962959 ], [ -66.262208, -16.964606 ], [ -66.263378, -16.965931 ], [ -66.263113, -16.966664 ], [ -66.262126, -16.967305 ], [ -66.261787, -16.968888 ], [ -66.262009, -16.969381 ], [ -66.263392, -16.970135 ], [ -66.264282, -16.970595 ], [ -66.267948, -16.973042 ], [ -66.268343, -16.973507 ], [ -66.269018, -16.974483 ], [ -66.269471, -16.974903 ], [ -66.269632, -16.975652 ], [ -66.270458, -16.976049 ], [ -66.272291, -16.97624 ], [ -66.27409, -16.976789 ], [ -66.275006, -16.976966 ], [ -66.276143, -16.977645 ], [ -66.27747, -16.978817 ], [ -66.27814, -16.979227 ], [ -66.279102, -16.980204 ], [ -66.280449, -16.981487 ], [ -66.280794, -16.981943 ], [ -66.282355, -16.982764 ], [ -66.29458, -16.985636 ], [ -66.31086, -16.971402 ], [ -66.350068, -16.995523 ], [ -66.312678, -17.011037 ], [ -66.300057, -17.026466 ], [ -66.301906, -17.041573 ], [ -66.318316, -17.052772 ], [ -66.323525, -17.068718 ], [ -66.325157, -17.072095 ], [ -66.326146, -17.071658 ], [ -66.328339, -17.072092 ], [ -66.33078, -17.071584 ], [ -66.333337, -17.071725 ], [ -66.334493, -17.072314 ], [ -66.336444, -17.07419 ], [ -66.337732, -17.075015 ], [ -66.340024, -17.073216 ], [ -66.340776, -17.076129 ], [ -66.341632, -17.076865 ], [ -66.343218, -17.075817 ], [ -66.344101, -17.074629 ], [ -66.344678, -17.074063 ], [ -66.345321, -17.072387 ], [ -66.345731, -17.069967 ], [ -66.346168, -17.068362 ], [ -66.346512, -17.067932 ], [ -66.34802, -17.067662 ], [ -66.349477, -17.066186 ], [ -66.350405, -17.064216 ], [ -66.350599, -17.062619 ], [ -66.350495, -17.061183 ], [ -66.350641, -17.059632 ], [ -66.350712, -17.055121 ], [ -66.352053, -17.056425 ], [ -66.352981, -17.056616 ], [ -66.353851, -17.056627 ], [ -66.354783, -17.05658 ], [ -66.355606, -17.056346 ], [ -66.355938, -17.055163 ], [ -66.356728, -17.054032 ], [ -66.357508, -17.053576 ], [ -66.358618, -17.052951 ], [ -66.358738, -17.052717 ], [ -66.358938, -17.050877 ], [ -66.359153, -17.050588 ], [ -66.360324, -17.0503 ], [ -66.361319, -17.050009 ], [ -66.361921, -17.049523 ], [ -66.362718, -17.049081 ], [ -66.363107, -17.048662 ], [ -66.363459, -17.047847 ], [ -66.363981, -17.047142 ], [ -66.36474, -17.04666 ], [ -66.365309, -17.046599 ], [ -66.365837, -17.046428 ], [ -66.366734, -17.046262 ], [ -66.36743, -17.046257 ], [ -66.367988, -17.045991 ], [ -66.369396, -17.045886 ], [ -66.370913, -17.04593 ], [ -66.37271, -17.045908 ], [ -66.375025, -17.046074 ], [ -66.377673, -17.046131 ], [ -66.379588, -17.046156 ], [ -66.380106, -17.046299 ], [ -66.380431, -17.046759 ], [ -66.380119, -17.047096 ], [ -66.379994, -17.04755 ], [ -66.380698, -17.049653 ], [ -66.380951, -17.050134 ], [ -66.382165, -17.053018 ], [ -66.382834, -17.053748 ], [ -66.385079, -17.054787 ], [ -66.385605, -17.055264 ], [ -66.386452, -17.056248 ], [ -66.386781, -17.056773 ], [ -66.3875, -17.057422 ], [ -66.387985, -17.057591 ], [ -66.389096, -17.057428 ], [ -66.389469, -17.057614 ], [ -66.389679, -17.057952 ], [ -66.390115, -17.05841 ], [ -66.390701, -17.058766 ], [ -66.391437, -17.058904 ], [ -66.393045, -17.058964 ], [ -66.394173, -17.05894 ], [ -66.39464, -17.0591 ], [ -66.395275, -17.059715 ], [ -66.39576, -17.060561 ], [ -66.395928, -17.061339 ], [ -66.396443, -17.06205 ], [ -66.397049, -17.062849 ], [ -66.39767, -17.063052 ], [ -66.398302, -17.063129 ], [ -66.400192, -17.063615 ], [ -66.401323, -17.0644 ], [ -66.401904, -17.065331 ], [ -66.402765, -17.066272 ], [ -66.404187, -17.067807 ], [ -66.404973, -17.068347 ], [ -66.40606, -17.068647 ], [ -66.406918, -17.068754 ], [ -66.407973, -17.069141 ], [ -66.409672, -17.070369 ], [ -66.412194, -17.072053 ], [ -66.413645, -17.073695 ], [ -66.414197, -17.074883 ], [ -66.414517, -17.075156 ], [ -66.415691, -17.075815 ], [ -66.416301, -17.076154 ], [ -66.417596, -17.076533 ], [ -66.418429, -17.076956 ], [ -66.419083, -17.077369 ], [ -66.419359, -17.077738 ], [ -66.419464, -17.078252 ], [ -66.419781, -17.078621 ], [ -66.420046, -17.079171 ], [ -66.422951, -17.080483 ], [ -66.424495, -17.081515 ], [ -66.424521, -17.082491 ], [ -66.425092, -17.083473 ], [ -66.426393, -17.085215 ], [ -66.428836, -17.086109 ], [ -66.429051, -17.087462 ], [ -66.430038, -17.089387 ], [ -66.431504, -17.093268 ], [ -66.433857, -17.095434 ], [ -66.434877, -17.098362 ] ], [ [ -66.673991, -17.247063 ], [ -66.675683, -17.242079 ], [ -66.673991, -17.247062 ], [ -66.64978, -17.280058 ], [ -66.673991, -17.247063 ] ], [ [ -66.677958, -17.126233 ], [ -66.680499, -17.121769 ], [ -66.677605, -17.127054 ], [ -66.677958, -17.126233 ] ] ] ] } }
]
}
