{
"type": "FeatureCollection",
"name": "CAPINOTA",
"crs": { "type": "name", "properties": { "name": "urn:ogc:def:crs:OGC:1.3:CRS84" } },
"bbox": [ -66.429616, -17.957332, -66.108036, -17.467773 ],                                                                        
"features": [
{ "type": "Feature", "properties": { "NOMBRE": "Capinota", "NIVEL": "Provincias", "PROVINCIA": "", "REGION": "Valles", "DEPARTAMENTO": "Cochabamba" }, "bbox": [ -66.429616, -17.957332, -66.108036, -17.467773 ], "geometry": { "type": "MultiPolygon", "coordinates": [ [ [ [ -66.163509, -17.6628 ], [ -66.158292, -17.670454 ], [ -66.152454, -17.678443 ], [ -66.152893, -17.67892 ], [ -66.160461, -17.686024 ], [ -66.160418, -17.686038 ], [ -66.160419, -17.686039 ], [ -66.159977, -17.68618 ], [ -66.159507, -17.686592 ], [ -66.158819, -17.687904 ], [ -66.158281, -17.688808 ], [ -66.157927, -17.689259 ], [ -66.157891, -17.689267 ], [ -66.157886, -17.689273 ], [ -66.157658, -17.689326 ], [ -66.156915, -17.689373 ], [ -66.156475, -17.689496 ], [ -66.156246, -17.689612 ], [ -66.155701, -17.690003 ], [ -66.154756, -17.690879 ], [ -66.153112, -17.692883 ], [ -66.152397, -17.693512 ], [ -66.152043, -17.694031 ], [ -66.151809, -17.694517 ], [ -66.151564, -17.694924 ], [ -66.150811, -17.695722 ], [ -66.149443, -17.696842 ], [ -66.149248, -17.697124 ], [ -66.148924, -17.698031 ], [ -66.148826, -17.699157 ], [ -66.148818, -17.699737 ], [ -66.14885, -17.700034 ], [ -66.149095, -17.700561 ], [ -66.150519, -17.702515 ], [ -66.151332, -17.703517 ], [ -66.151567, -17.703907 ], [ -66.151832, -17.704696 ], [ -66.151932, -17.705312 ], [ -66.15214, -17.70585 ], [ -66.152479, -17.706527 ], [ -66.152603, -17.707098 ], [ -66.153295, -17.708268 ], [ -66.153469, -17.708646 ], [ -66.153524, -17.709034 ], [ -66.153518, -17.709546 ], [ -66.153485, -17.709683 ], [ -66.153529, -17.710529 ], [ -66.153534, -17.710625 ], [ -66.153106, -17.711252 ], [ -66.153087, -17.711328 ], [ -66.153081, -17.711818 ], [ -66.15293, -17.712317 ], [ -66.152698, -17.712689 ], [ -66.151517, -17.71412 ], [ -66.15045, -17.715119 ], [ -66.149244, -17.716617 ], [ -66.148455, -17.717415 ], [ -66.148018, -17.717796 ], [ -66.147083, -17.718786 ], [ -66.146708, -17.719065 ], [ -66.146104, -17.719433 ], [ -66.145959, -17.719567 ], [ -66.145678, -17.719962 ], [ -66.145401, -17.72005 ], [ -66.145368, -17.720054 ], [ -66.145363, -17.720056 ], [ -66.144482, -17.720187 ], [ -66.143719, -17.720403 ], [ -66.143687, -17.720408 ], [ -66.143682, -17.720409 ], [ -66.143235, -17.720477 ], [ -66.14295, -17.720575 ], [ -66.142696, -17.720788 ], [ -66.142523, -17.721172 ], [ -66.142477, -17.721946 ], [ -66.14234, -17.722297 ], [ -66.142035, -17.722783 ], [ -66.141849, -17.723213 ], [ -66.141699, -17.724645 ], [ -66.141587, -17.724951 ], [ -66.141557, -17.725384 ], [ -66.141599, -17.725874 ], [ -66.141768, -17.726627 ], [ -66.141774, -17.727106 ], [ -66.141732, -17.727583 ], [ -66.141593, -17.728105 ], [ -66.141347, -17.728569 ], [ -66.140751, -17.729267 ], [ -66.139335, -17.730352 ], [ -66.139079, -17.730667 ], [ -66.138773, -17.731142 ], [ -66.138173, -17.733103 ], [ -66.137622, -17.733961 ], [ -66.136981, -17.735364 ], [ -66.136638, -17.735906 ], [ -66.136382, -17.736199 ], [ -66.136068, -17.736445 ], [ -66.135716, -17.736793 ], [ -66.135191, -17.737469 ], [ -66.134389, -17.738335 ], [ -66.133127, -17.739559 ], [ -66.133093, -17.739562 ], [ -66.133093, -17.739562 ], [ -66.132166, -17.739626 ], [ -66.131807, -17.739712 ], [ -66.131565, -17.739869 ], [ -66.131468, -17.739993 ], [ -66.131442, -17.74014 ], [ -66.131658, -17.741031 ], [ -66.131758, -17.742479 ], [ -66.13175, -17.743093 ], [ -66.131624, -17.743592 ], [ -66.131526, -17.743751 ], [ -66.131125, -17.744178 ], [ -66.130774, -17.744458 ], [ -66.130603, -17.74466 ], [ -66.130456, -17.74492 ], [ -66.130303, -17.745647 ], [ -66.129924, -17.746211 ], [ -66.129812, -17.746517 ], [ -66.12978, -17.747074 ], [ -66.129822, -17.747553 ], [ -66.130013, -17.748489 ], [ -66.130493, -17.749373 ], [ -66.130866, -17.750163 ], [ -66.130811, -17.75072 ], [ -66.130454, -17.751399 ], [ -66.130365, -17.752718 ], [ -66.130596, -17.754258 ], [ -66.130588, -17.754839 ], [ -66.130435, -17.755577 ], [ -66.130052, -17.756448 ], [ -66.129452, -17.758262 ], [ -66.12903, -17.760283 ], [ -66.129026, -17.760625 ], [ -66.12918, -17.761629 ], [ -66.129135, -17.762345 ], [ -66.129019, -17.762959 ], [ -66.128993, -17.764028 ], [ -66.129092, -17.764633 ], [ -66.12945, -17.765708 ], [ -66.129505, -17.766051 ], [ -66.129474, -17.766597 ], [ -66.128766, -17.768466 ], [ -66.128719, -17.769296 ], [ -66.128834, -17.769685 ], [ -66.128888, -17.770096 ], [ -66.128856, -17.77071 ], [ -66.128679, -17.771402 ], [ -66.12821, -17.772398 ], [ -66.128122, -17.772704 ], [ -66.127856, -17.774704 ], [ -66.127875, -17.775991 ], [ -66.127988, -17.776482 ], [ -66.128479, -17.777445 ], [ -66.12866, -17.779144 ], [ -66.12889, -17.779853 ], [ -66.129135, -17.780426 ], [ -66.129392, -17.780873 ], [ -66.129758, -17.781345 ], [ -66.130054, -17.781577 ], [ -66.130494, -17.781833 ], [ -66.130837, -17.782156 ], [ -66.131155, -17.782639 ], [ -66.131767, -17.783444 ], [ -66.132337, -17.784773 ], [ -66.133015, -17.786057 ], [ -66.133356, -17.786551 ], [ -66.133604, -17.786828 ], [ -66.134105, -17.787215 ], [ -66.135166, -17.787821 ], [ -66.135667, -17.788044 ], [ -66.136444, -17.788202 ], [ -66.137496, -17.788341 ], [ -66.138057, -17.788485 ], [ -66.138688, -17.788801 ], [ -66.138705, -17.788814 ], [ -66.138719, -17.788821 ], [ -66.139431, -17.789377 ], [ -66.140034, -17.79 ], [ -66.140274, -17.790361 ], [ -66.140528, -17.790963 ], [ -66.14058, -17.791588 ], [ -66.14058, -17.791589 ], [ -66.140581, -17.791599 ], [ -66.140474, -17.792053 ], [ -66.140119, -17.792553 ], [ -66.139061, -17.793276 ], [ -66.137953, -17.793197 ], [ -66.138846, -17.794624 ], [ -66.138985, -17.795103 ], [ -66.13908, -17.7966 ], [ -66.139362, -17.797832 ], [ -66.139765, -17.799166 ], [ -66.139556, -17.799603 ], [ -66.139562, -17.799969 ], [ -66.139601, -17.80014 ], [ -66.139821, -17.800492 ], [ -66.140259, -17.800923 ], [ -66.140296, -17.801037 ], [ -66.140268, -17.80154 ], [ -66.140056, -17.802526 ], [ -66.139964, -17.802778 ], [ -66.139949, -17.803327 ], [ -66.139903, -17.803488 ], [ -66.139715, -17.803684 ], [ -66.139586, -17.803891 ], [ -66.139473, -17.804292 ], [ -66.139464, -17.805253 ], [ -66.139546, -17.805927 ], [ -66.139512, -17.806065 ], [ -66.139323, -17.806238 ], [ -66.138802, -17.806586 ], [ -66.13865, -17.806805 ], [ -66.138389, -17.807711 ], [ -66.138235, -17.808628 ], [ -66.13824, -17.808913 ], [ -66.138367, -17.809404 ], [ -66.138359, -17.809656 ], [ -66.137809, -17.810484 ], [ -66.137496, -17.811162 ], [ -66.137294, -17.812022 ], [ -66.137289, -17.812445 ], [ -66.137224, -17.812915 ], [ -66.137168, -17.813921 ], [ -66.137002, -17.814838 ], [ -66.136448, -17.816913 ], [ -66.136362, -17.818321 ], [ -66.136347, -17.819866 ], [ -66.13637, -17.820517 ], [ -66.136492, -17.820558 ], [ -66.137056, -17.82059 ], [ -66.138267, -17.820568 ], [ -66.139558, -17.820759 ], [ -66.139859, -17.820916 ], [ -66.140101, -17.821108 ], [ -66.140395, -17.821494 ], [ -66.140532, -17.82187 ], [ -66.140562, -17.822259 ], [ -66.140498, -17.822797 ], [ -66.140647, -17.823161 ], [ -66.140793, -17.82332 ], [ -66.140856, -17.823502 ], [ -66.140858, -17.82364 ], [ -66.140421, -17.824765 ], [ -66.140377, -17.825017 ], [ -66.140421, -17.825565 ], [ -66.140544, -17.825781 ], [ -66.140981, -17.826189 ], [ -66.141117, -17.826462 ], [ -66.14106, -17.82668 ], [ -66.140944, -17.826898 ], [ -66.140865, -17.827219 ], [ -66.140869, -17.827459 ], [ -66.141202, -17.828096 ], [ -66.141364, -17.828518 ], [ -66.141366, -17.829455 ], [ -66.141264, -17.829799 ], [ -66.141244, -17.83084 ], [ -66.141332, -17.831137 ], [ -66.141262, -17.831443 ], [ -66.141219, -17.831888 ], [ -66.140558, -17.832873 ], [ -66.139978, -17.833345 ], [ -66.139071, -17.833871 ], [ -66.138372, -17.834556 ], [ -66.137497, -17.836082 ], [ -66.136861, -17.837821 ], [ -66.136223, -17.839656 ], [ -66.135799, -17.840815 ], [ -66.135273, -17.841973 ], [ -66.134438, -17.843514 ], [ -66.133809, -17.844767 ], [ -66.132227, -17.847003 ], [ -66.130021, -17.850015 ], [ -66.128473, -17.852167 ], [ -66.12735, -17.853746 ], [ -66.126322, -17.855128 ], [ -66.125991, -17.856045 ], [ -66.125674, -17.856724 ], [ -66.125399, -17.857373 ], [ -66.125045, -17.858201 ], [ -66.124767, -17.858958 ], [ -66.124374, -17.859895 ], [ -66.124061, -17.860543 ], [ -66.123756, -17.861323 ], [ -66.123546, -17.86171 ], [ -66.123451, -17.861991 ], [ -66.123309, -17.862357 ], [ -66.122721, -17.863733 ], [ -66.122344, -17.86466 ], [ -66.12152, -17.866566 ], [ -66.121025, -17.867816 ], [ -66.120624, -17.868808 ], [ -66.119848, -17.870625 ], [ -66.119424, -17.871638 ], [ -66.119142, -17.872284 ], [ -66.119, -17.872672 ], [ -66.118432, -17.87395 ], [ -66.118101, -17.874812 ], [ -66.117843, -17.875372 ], [ -66.116392, -17.878896 ], [ -66.116162, -17.878734 ], [ -66.115727, -17.878625 ], [ -66.115134, -17.878672 ], [ -66.114618, -17.878804 ], [ -66.114052, -17.879016 ], [ -66.113745, -17.87928 ], [ -66.113334, -17.87991 ], [ -66.113159, -17.880276 ], [ -66.112466, -17.881352 ], [ -66.112148, -17.881718 ], [ -66.112172, -17.881741 ], [ -66.11195, -17.88221 ], [ -66.111301, -17.884005 ], [ -66.111031, -17.884417 ], [ -66.110361, -17.886464 ], [ -66.110081, -17.887116 ], [ -66.109811, -17.887551 ], [ -66.109576, -17.887826 ], [ -66.109304, -17.888067 ], [ -66.108466, -17.888994 ], [ -66.108207, -17.889338 ], [ -66.108057, -17.889772 ], [ -66.108036, -17.890035 ], [ -66.108427, -17.890925 ], [ -66.108897, -17.891278 ], [ -66.109941, -17.89179 ], [ -66.110229, -17.891972 ], [ -66.11088, -17.892553 ], [ -66.111134, -17.89286 ], [ -66.111293, -17.893203 ], [ -66.111441, -17.893671 ], [ -66.111878, -17.895923 ], [ -66.111965, -17.89602 ], [ -66.112299, -17.896089 ], [ -66.112475, -17.89622 ], [ -66.112617, -17.896382 ], [ -66.124188, -17.902338 ], [ -66.124414, -17.902598 ], [ -66.124844, -17.902902 ], [ -66.126866, -17.904695 ], [ -66.127774, -17.905469 ], [ -66.128434, -17.90604 ], [ -66.129405, -17.906886 ], [ -66.130376, -17.907631 ], [ -66.132108, -17.909179 ], [ -66.133908, -17.910789 ], [ -66.134386, -17.910847 ], [ -66.134762, -17.910699 ], [ -66.135087, -17.910138 ], [ -66.135313, -17.910069 ], [ -66.135505, -17.910091 ], [ -66.135684, -17.910159 ], [ -66.135875, -17.91017 ], [ -66.136743, -17.909802 ], [ -66.137029, -17.909801 ], [ -66.137281, -17.909846 ], [ -66.137581, -17.909982 ], [ -66.138387, -17.910597 ], [ -66.13906, -17.911029 ], [ -66.13942, -17.911131 ], [ -66.139886, -17.911164 ], [ -66.140461, -17.911437 ], [ -66.141147, -17.911892 ], [ -66.141976, -17.91255 ], [ -66.142495, -17.912614 ], [ -66.142948, -17.912563 ], [ -66.143696, -17.912456 ], [ -66.144649, -17.91227 ], [ -66.144922, -17.912178 ], [ -66.145292, -17.91212 ], [ -66.145674, -17.912164 ], [ -66.146299, -17.912483 ], [ -66.146658, -17.912596 ], [ -66.14735, -17.912571 ], [ -66.147767, -17.91249 ], [ -66.148433, -17.912271 ], [ -66.148801, -17.912053 ], [ -66.149278, -17.911994 ], [ -66.14978, -17.912061 ], [ -66.15008, -17.912175 ], [ -66.15079, -17.912755 ], [ -66.151418, -17.913405 ], [ -66.151622, -17.913461 ], [ -66.151825, -17.913461 ], [ -66.152194, -17.913357 ], [ -66.152538, -17.913184 ], [ -66.153965, -17.912643 ], [ -66.156706, -17.912235 ], [ -66.158612, -17.911841 ], [ -66.15879, -17.911738 ], [ -66.16197, -17.911032 ], [ -66.169704, -17.914094 ], [ -66.181916, -17.915097 ], [ -66.195575, -17.91518 ], [ -66.197901, -17.924576 ], [ -66.20691, -17.930512 ], [ -66.241394, -17.934719 ], [ -66.248958, -17.938386 ], [ -66.24595, -17.957332 ], [ -66.252691, -17.956459 ], [ -66.259404, -17.955238 ], [ -66.258731, -17.945026 ], [ -66.257546, -17.936144 ], [ -66.257057, -17.932479 ], [ -66.255714, -17.922407 ], [ -66.25613, -17.921586 ], [ -66.263277, -17.907083 ], [ -66.266267, -17.901012 ], [ -66.265453, -17.894274 ], [ -66.264646, -17.887622 ], [ -66.264044, -17.882678 ], [ -66.264347, -17.881898 ], [ -66.265537, -17.878775 ], [ -66.266266, -17.876845 ], [ -66.268594, -17.872466 ], [ -66.276974, -17.856705 ], [ -66.276859, -17.855927 ], [ -66.27686, -17.854679 ], [ -66.276857, -17.851704 ], [ -66.276461, -17.849157 ], [ -66.276307, -17.84659 ], [ -66.276833, -17.843733 ], [ -66.277377, -17.841291 ], [ -66.277696, -17.839355 ], [ -66.277952, -17.835007 ], [ -66.278435, -17.832922 ], [ -66.278926, -17.830505 ], [ -66.280165, -17.829297 ], [ -66.280352, -17.827567 ], [ -66.281316, -17.824908 ], [ -66.282154, -17.822597 ], [ -66.282857, -17.821544 ], [ -66.283823, -17.821132 ], [ -66.283919, -17.819453 ], [ -66.283972, -17.817995 ], [ -66.284926, -17.81517 ], [ -66.285536, -17.812856 ], [ -66.286034, -17.810472 ], [ -66.286552, -17.807647 ], [ -66.286379, -17.806031 ], [ -66.28679, -17.805035 ], [ -66.28751, -17.803293 ], [ -66.288472, -17.802631 ], [ -66.289007, -17.801191 ], [ -66.289291, -17.800239 ], [ -66.290421, -17.798627 ], [ -66.291001, -17.797756 ], [ -66.291109, -17.796261 ], [ -66.291507, -17.795346 ], [ -66.29246, -17.794045 ], [ -66.292716, -17.793161 ], [ -66.29379, -17.789873 ], [ -66.294282, -17.788712 ], [ -66.295961, -17.785974 ], [ -66.298017, -17.783418 ], [ -66.298853, -17.78271 ], [ -66.299122, -17.780913 ], [ -66.299053, -17.778574 ], [ -66.299415, -17.777235 ], [ -66.299782, -17.775125 ], [ -66.300276, -17.773769 ], [ -66.300611, -17.772397 ], [ -66.301398, -17.770875 ], [ -66.303167, -17.76956 ], [ -66.304001, -17.76916 ], [ -66.30643, -17.769233 ], [ -66.308064, -17.769212 ], [ -66.311278, -17.767829 ], [ -66.312468, -17.767526 ], [ -66.313462, -17.766807 ], [ -66.314206, -17.765443 ], [ -66.31513, -17.764461 ], [ -66.31542, -17.763403 ], [ -66.315906, -17.762737 ], [ -66.317019, -17.762034 ], [ -66.318784, -17.761199 ], [ -66.318975, -17.760561 ], [ -66.319011, -17.75921 ], [ -66.319242, -17.757626 ], [ -66.319433, -17.756984 ], [ -66.319985, -17.756397 ], [ -66.320936, -17.755227 ], [ -66.32157, -17.754331 ], [ -66.322405, -17.753703 ], [ -66.323759, -17.753127 ], [ -66.324657, -17.752899 ], [ -66.325352, -17.752289 ], [ -66.32588, -17.751679 ], [ -66.326056, -17.750182 ], [ -66.32713, -17.750033 ], [ -66.328093, -17.749728 ], [ -66.329629, -17.748515 ], [ -66.331168, -17.747033 ], [ -66.332142, -17.74596 ], [ -66.333398, -17.744027 ], [ -66.333825, -17.742324 ], [ -66.334091, -17.741086 ], [ -66.334504, -17.739428 ], [ -66.334873, -17.737498 ], [ -66.335119, -17.735426 ], [ -66.335258, -17.734721 ], [ -66.335351, -17.73347 ], [ -66.334963, -17.732805 ], [ -66.334777, -17.732561 ], [ -66.334776, -17.732556 ], [ -66.334775, -17.732555 ], [ -66.334733, -17.731992 ], [ -66.33488, -17.731638 ], [ -66.334897, -17.731202 ], [ -66.334732, -17.729655 ], [ -66.334612, -17.728481 ], [ -66.334714, -17.72784 ], [ -66.33505, -17.727101 ], [ -66.334342, -17.725331 ], [ -66.334342, -17.725327 ], [ -66.334341, -17.725325 ], [ -66.334249, -17.723211 ], [ -66.334364, -17.722719 ], [ -66.3349, -17.721442 ], [ -66.335389, -17.720795 ], [ -66.336242, -17.71989 ], [ -66.336798, -17.718796 ], [ -66.336924, -17.718362 ], [ -66.337001, -17.717296 ], [ -66.3373, -17.716532 ], [ -66.338877, -17.714513 ], [ -66.340178, -17.712489 ], [ -66.341629, -17.710869 ], [ -66.342863, -17.709338 ], [ -66.343267, -17.708537 ], [ -66.34403, -17.705302 ], [ -66.343916, -17.703641 ], [ -66.343764, -17.699715 ], [ -66.344233, -17.699026 ], [ -66.344893, -17.698566 ], [ -66.3456, -17.698016 ], [ -66.347154, -17.696987 ], [ -66.347956, -17.69635 ], [ -66.350088, -17.695512 ], [ -66.341663, -17.68694 ], [ -66.353172, -17.67674 ], [ -66.352468, -17.670299 ], [ -66.351279, -17.656709 ], [ -66.347822, -17.647604 ], [ -66.339593, -17.64214 ], [ -66.337822, -17.640522 ], [ -66.335278, -17.639647 ], [ -66.335242, -17.639636 ], [ -66.335213, -17.639094 ], [ -66.335283, -17.638828 ], [ -66.33527, -17.63718 ], [ -66.33519, -17.636294 ], [ -66.335229, -17.635141 ], [ -66.335731, -17.634398 ], [ -66.335945, -17.633992 ], [ -66.336086, -17.633552 ], [ -66.336062, -17.632043 ], [ -66.335993, -17.631029 ], [ -66.33567, -17.629949 ], [ -66.335166, -17.629056 ], [ -66.334898, -17.628736 ], [ -66.33452, -17.628371 ], [ -66.334299, -17.628051 ], [ -66.333739, -17.62755 ], [ -66.333494, -17.627276 ], [ -66.332845, -17.62628 ], [ -66.332284, -17.625675 ], [ -66.331396, -17.625131 ], [ -66.330871, -17.624549 ], [ -66.330372, -17.624105 ], [ -66.33008, -17.623993 ], [ -66.329863, -17.623984 ], [ -66.329195, -17.623749 ], [ -66.328808, -17.623718 ], [ -66.328469, -17.623618 ], [ -66.328163, -17.623195 ], [ -66.327659, -17.622255 ], [ -66.327325, -17.621395 ], [ -66.327012, -17.620015 ], [ -66.326814, -17.619544 ], [ -66.326894, -17.618898 ], [ -66.326807, -17.618692 ], [ -66.326564, -17.618464 ], [ -66.326382, -17.618443 ], [ -66.325596, -17.61852 ], [ -66.324655, -17.618761 ], [ -66.324256, -17.618753 ], [ -66.323916, -17.618688 ], [ -66.323673, -17.618495 ], [ -66.323382, -17.618463 ], [ -66.323127, -17.618635 ], [ -66.323094, -17.618662 ], [ -66.322842, -17.618907 ], [ -66.322553, -17.619037 ], [ -66.322008, -17.618996 ], [ -66.321246, -17.619028 ], [ -66.320483, -17.618886 ], [ -66.31973, -17.618525 ], [ -66.319064, -17.618452 ], [ -66.318203, -17.61808 ], [ -66.317791, -17.61805 ], [ -66.316879, -17.617472 ], [ -66.316056, -17.617366 ], [ -66.315788, -17.617196 ], [ -66.314861, -17.616168 ], [ -66.314752, -17.616123 ], [ -66.314534, -17.616172 ], [ -66.314137, -17.61636 ], [ -66.313858, -17.616317 ], [ -66.313651, -17.6161 ], [ -66.31349, -17.615664 ], [ -66.313367, -17.615481 ], [ -66.31292, -17.615474 ], [ -66.312811, -17.615441 ], [ -66.312019, -17.6147 ], [ -66.31122, -17.614616 ], [ -66.310636, -17.614196 ], [ -66.310343, -17.6139 ], [ -66.30962, -17.612789 ], [ -66.308865, -17.612152 ], [ -66.308671, -17.61205 ], [ -66.308269, -17.611755 ], [ -66.308062, -17.611515 ], [ -66.307915, -17.611263 ], [ -66.307569, -17.610391 ], [ -66.307385, -17.610116 ], [ -66.3072, -17.609622 ], [ -66.307054, -17.609497 ], [ -66.306592, -17.609237 ], [ -66.306169, -17.609242 ], [ -66.305406, -17.609123 ], [ -66.305113, -17.608826 ], [ -66.304905, -17.608517 ], [ -66.304744, -17.608093 ], [ -66.304598, -17.60799 ], [ -66.304416, -17.607935 ], [ -66.304126, -17.607938 ], [ -66.30404, -17.607708 ], [ -66.303771, -17.607377 ], [ -66.303552, -17.607206 ], [ -66.303261, -17.607163 ], [ -66.302957, -17.606982 ], [ -66.302497, -17.606918 ], [ -66.302473, -17.606883 ], [ -66.302412, -17.606884 ], [ -66.302156, -17.606587 ], [ -66.30195, -17.606497 ], [ -66.301659, -17.606477 ], [ -66.301344, -17.606377 ], [ -66.301161, -17.606229 ], [ -66.300688, -17.606003 ], [ -66.300104, -17.605537 ], [ -66.299909, -17.605458 ], [ -66.299676, -17.605057 ], [ -66.299527, -17.604598 ], [ -66.299405, -17.604461 ], [ -66.298883, -17.604178 ], [ -66.298312, -17.603792 ], [ -66.298055, -17.603438 ], [ -66.298024, -17.602655 ], [ -66.29784, -17.602322 ], [ -66.297572, -17.602071 ], [ -66.297448, -17.601739 ], [ -66.297348, -17.601256 ], [ -66.297212, -17.600888 ], [ -66.297052, -17.600636 ], [ -66.296834, -17.600512 ], [ -66.296555, -17.600434 ], [ -66.295587, -17.600318 ], [ -66.295284, -17.60024 ], [ -66.295126, -17.600242 ], [ -66.294471, -17.599984 ], [ -66.293937, -17.599678 ], [ -66.293524, -17.599533 ], [ -66.293088, -17.599445 ], [ -66.288148, -17.601389 ], [ -66.289344, -17.592463 ], [ -66.289518, -17.59147 ], [ -66.289495, -17.591114 ], [ -66.289766, -17.583925 ], [ -66.28992, -17.579848 ], [ -66.308636, -17.559635 ], [ -66.307388, -17.552933 ], [ -66.305853, -17.541416 ], [ -66.314354, -17.531888 ], [ -66.307814, -17.52097 ], [ -66.311949, -17.513198 ], [ -66.311169, -17.504224 ], [ -66.325533, -17.483888 ], [ -66.31381, -17.479244 ], [ -66.304936, -17.47742 ], [ -66.298305, -17.477021 ], [ -66.290609, -17.474472 ], [ -66.275703, -17.467773 ], [ -66.275685, -17.467777 ], [ -66.274921, -17.470101 ], [ -66.27433, -17.470928 ], [ -66.273946, -17.471093 ], [ -66.273783, -17.471887 ], [ -66.273942, -17.472758 ], [ -66.273899, -17.472859 ], [ -66.27339, -17.472986 ], [ -66.273064, -17.473308 ], [ -66.272887, -17.473415 ], [ -66.272546, -17.473975 ], [ -66.271985, -17.473839 ], [ -66.270841, -17.474832 ], [ -66.270496, -17.474871 ], [ -66.269879, -17.475945 ], [ -66.269603, -17.47661 ], [ -66.269103, -17.47703 ], [ -66.26887, -17.477963 ], [ -66.268678, -17.478151 ], [ -66.268757, -17.478495 ], [ -66.268506, -17.478658 ], [ -66.268185, -17.479109 ], [ -66.267907, -17.47932 ], [ -66.267656, -17.48002 ], [ -66.267433, -17.479971 ], [ -66.266936, -17.480162 ], [ -66.26564, -17.483243 ], [ -66.26533, -17.484294 ], [ -66.264924, -17.484587 ], [ -66.264203, -17.485016 ], [ -66.263359, -17.485325 ], [ -66.262377, -17.485961 ], [ -66.259548, -17.487971 ], [ -66.257605, -17.489083 ], [ -66.257273, -17.489321 ], [ -66.257096, -17.489819 ], [ -66.256942, -17.49006 ], [ -66.256609, -17.489901 ], [ -66.256013, -17.490686 ], [ -66.255826, -17.491405 ], [ -66.255636, -17.492312 ], [ -66.255329, -17.493336 ], [ -66.254913, -17.49437 ], [ -66.254344, -17.495814 ], [ -66.253631, -17.497287 ], [ -66.253082, -17.497691 ], [ -66.252214, -17.497636 ], [ -66.251105, -17.49971 ], [ -66.25041, -17.500472 ], [ -66.249302, -17.500836 ], [ -66.247468, -17.501893 ], [ -66.247046, -17.501895 ], [ -66.246296, -17.502291 ], [ -66.245725, -17.502358 ], [ -66.242909, -17.504111 ], [ -66.24174, -17.504069 ], [ -66.240922, -17.504186 ], [ -66.239664, -17.504825 ], [ -66.238824, -17.504886 ], [ -66.237908, -17.505269 ], [ -66.235603, -17.504546 ], [ -66.235625, -17.504439 ], [ -66.232806, -17.504417 ], [ -66.222644, -17.503694 ], [ -66.20834, -17.509451 ], [ -66.198326, -17.50474 ], [ -66.175372, -17.525793 ], [ -66.164485, -17.53407 ], [ -66.162306, -17.525799 ], [ -66.149395, -17.519532 ], [ -66.142248, -17.524392 ], [ -66.137896, -17.523863 ], [ -66.136877, -17.52433 ], [ -66.135776, -17.526961 ], [ -66.134447, -17.527929 ], [ -66.13285, -17.528388 ], [ -66.131973, -17.528995 ], [ -66.129826, -17.532411 ], [ -66.129598, -17.533503 ], [ -66.129596, -17.533506 ], [ -66.129589, -17.533539 ], [ -66.116283, -17.546332 ], [ -66.12958, -17.581783 ], [ -66.139381, -17.596272 ], [ -66.137127, -17.599403 ], [ -66.133817, -17.603126 ], [ -66.129709, -17.614892 ], [ -66.145418, -17.645653 ], [ -66.150619, -17.647396 ], [ -66.168425, -17.656628 ], [ -66.163509, -17.6628 ] ] ], [ [ [ -66.347155, -17.696993 ], [ -66.345601, -17.698022 ], [ -66.344894, -17.698572 ], [ -66.344234, -17.699032 ], [ -66.343765, -17.699721 ], [ -66.343917, -17.703647 ], [ -66.344031, -17.705308 ], [ -66.343268, -17.708543 ], [ -66.342864, -17.709344 ], [ -66.34163, -17.710875 ], [ -66.340179, -17.712495 ], [ -66.338878, -17.714519 ], [ -66.337301, -17.716538 ], [ -66.337002, -17.717302 ], [ -66.336925, -17.718368 ], [ -66.336799, -17.718802 ], [ -66.336243, -17.719896 ], [ -66.33539, -17.720801 ], [ -66.334901, -17.721448 ], [ -66.334366, -17.722725 ], [ -66.33425, -17.723217 ], [ -66.334342, -17.725327 ], [ -66.335051, -17.727099 ], [ -66.33505, -17.727101 ], [ -66.335052, -17.727105 ], [ -66.334715, -17.727846 ], [ -66.334613, -17.728487 ], [ -66.334733, -17.729661 ], [ -66.334898, -17.731208 ], [ -66.334881, -17.731644 ], [ -66.334734, -17.731998 ], [ -66.334776, -17.732556 ], [ -66.334962, -17.732799 ], [ -66.335351, -17.733466 ], [ -66.335351, -17.73347 ], [ -66.335352, -17.733472 ], [ -66.335259, -17.734727 ], [ -66.33512, -17.735432 ], [ -66.334874, -17.737504 ], [ -66.334505, -17.739434 ], [ -66.334092, -17.741092 ], [ -66.333826, -17.74233 ], [ -66.3334, -17.744033 ], [ -66.332143, -17.745965 ], [ -66.331169, -17.747039 ], [ -66.32963, -17.748521 ], [ -66.328094, -17.749734 ], [ -66.327132, -17.750039 ], [ -66.326057, -17.750188 ], [ -66.325881, -17.751685 ], [ -66.325353, -17.752295 ], [ -66.324658, -17.752905 ], [ -66.32376, -17.753133 ], [ -66.322406, -17.753709 ], [ -66.321571, -17.754337 ], [ -66.320937, -17.755233 ], [ -66.319986, -17.756403 ], [ -66.319434, -17.75699 ], [ -66.319243, -17.757632 ], [ -66.319013, -17.759216 ], [ -66.318976, -17.760567 ], [ -66.318785, -17.761205 ], [ -66.31702, -17.76204 ], [ -66.315907, -17.762743 ], [ -66.315421, -17.763409 ], [ -66.315131, -17.764467 ], [ -66.314207, -17.765449 ], [ -66.313463, -17.766813 ], [ -66.312469, -17.767532 ], [ -66.311279, -17.767835 ], [ -66.308065, -17.769218 ], [ -66.306431, -17.769239 ], [ -66.304003, -17.769166 ], [ -66.303168, -17.769566 ], [ -66.301399, -17.770881 ], [ -66.300613, -17.772403 ], [ -66.300277, -17.773775 ], [ -66.299783, -17.775131 ], [ -66.299416, -17.777241 ], [ -66.299054, -17.77858 ], [ -66.299123, -17.780919 ], [ -66.298854, -17.782716 ], [ -66.298018, -17.783424 ], [ -66.295962, -17.78598 ], [ -66.294283, -17.788718 ], [ -66.293792, -17.789879 ], [ -66.292717, -17.793167 ], [ -66.292461, -17.794051 ], [ -66.291509, -17.795352 ], [ -66.291111, -17.796267 ], [ -66.291002, -17.797762 ], [ -66.290422, -17.798633 ], [ -66.289292, -17.800245 ], [ -66.289008, -17.801197 ], [ -66.288473, -17.802637 ], [ -66.287511, -17.803299 ], [ -66.286791, -17.805041 ], [ -66.28638, -17.806037 ], [ -66.286553, -17.807653 ], [ -66.286035, -17.810478 ], [ -66.285537, -17.812862 ], [ -66.284928, -17.815176 ], [ -66.283973, -17.818001 ], [ -66.28392, -17.819459 ], [ -66.283824, -17.821138 ], [ -66.282858, -17.82155 ], [ -66.282156, -17.822603 ], [ -66.281317, -17.824914 ], [ -66.280353, -17.827573 ], [ -66.280166, -17.829303 ], [ -66.278927, -17.830511 ], [ -66.278436, -17.832928 ], [ -66.277953, -17.835013 ], [ -66.277697, -17.839361 ], [ -66.277378, -17.841297 ], [ -66.276834, -17.843739 ], [ -66.276309, -17.846596 ], [ -66.276462, -17.849163 ], [ -66.276858, -17.85171 ], [ -66.276861, -17.854685 ], [ -66.276975, -17.856711 ], [ -66.276976, -17.856713 ], [ -66.278198, -17.858761 ], [ -66.27994, -17.860033 ], [ -66.282355, -17.861476 ], [ -66.285293, -17.862598 ], [ -66.286005, -17.863022 ], [ -66.286444, -17.863367 ], [ -66.286862, -17.863387 ], [ -66.286863, -17.863386 ], [ -66.287267, -17.863269 ], [ -66.287269, -17.863269 ], [ -66.287977, -17.863408 ], [ -66.287979, -17.863408 ], [ -66.288457, -17.863414 ], [ -66.28886, -17.863494 ], [ -66.289474, -17.863676 ], [ -66.289817, -17.863789 ], [ -66.290076, -17.863883 ], [ -66.291107, -17.864124 ], [ -66.291667, -17.864298 ], [ -66.292318, -17.864339 ], [ -66.292966, -17.864548 ], [ -66.293313, -17.864637 ], [ -66.294058, -17.864971 ], [ -66.29478, -17.865891 ], [ -66.295209, -17.866601 ], [ -66.295748, -17.866645 ], [ -66.295749, -17.866645 ], [ -66.296005, -17.866613 ], [ -66.296006, -17.866614 ], [ -66.296542, -17.866712 ], [ -66.297142, -17.866739 ], [ -66.29749, -17.866799 ], [ -66.297491, -17.866799 ], [ -66.29815, -17.866716 ], [ -66.298152, -17.866716 ], [ -66.298847, -17.866762 ], [ -66.299412, -17.866863 ], [ -66.299967, -17.866982 ], [ -66.299967, -17.866982 ], [ -66.300051, -17.866909 ], [ -66.300053, -17.866909 ], [ -66.300374, -17.866929 ], [ -66.300787, -17.866956 ], [ -66.30095, -17.866993 ], [ -66.300952, -17.866993 ], [ -66.301212, -17.866928 ], [ -66.30177, -17.866896 ], [ -66.302113, -17.86678 ], [ -66.302115, -17.86678 ], [ -66.302647, -17.866838 ], [ -66.302648, -17.866838 ], [ -66.303129, -17.86671 ], [ -66.303132, -17.86671 ], [ -66.303539, -17.866716 ], [ -66.303767, -17.866831 ], [ -66.303769, -17.866831 ], [ -66.304672, -17.866815 ], [ -66.304672, -17.866815 ], [ -66.30498, -17.866968 ], [ -66.305662, -17.867079 ], [ -66.306358, -17.867145 ], [ -66.306359, -17.867145 ], [ -66.307153, -17.8671 ], [ -66.307154, -17.8671 ], [ -66.307787, -17.867307 ], [ -66.307789, -17.867307 ], [ -66.308642, -17.867213 ], [ -66.309562, -17.866914 ], [ -66.309564, -17.866914 ], [ -66.310016, -17.867016 ], [ -66.310323, -17.867196 ], [ -66.310632, -17.86733 ], [ -66.310934, -17.867389 ], [ -66.311482, -17.867476 ], [ -66.312137, -17.867777 ], [ -66.313677, -17.86805 ], [ -66.314953, -17.868152 ], [ -66.316592, -17.868464 ], [ -66.31796, -17.868722 ], [ -66.319352, -17.868979 ], [ -66.320718, -17.869285 ], [ -66.322112, -17.869916 ], [ -66.323802, -17.870238 ], [ -66.326186, -17.87057 ], [ -66.328401, -17.870877 ], [ -66.329967, -17.871325 ], [ -66.329968, -17.871325 ], [ -66.330625, -17.871106 ], [ -66.331284, -17.870818 ], [ -66.331286, -17.870818 ], [ -66.332664, -17.870854 ], [ -66.332664, -17.870854 ], [ -66.333941, -17.870644 ], [ -66.335566, -17.870323 ], [ -66.336829, -17.870214 ], [ -66.337849, -17.870095 ], [ -66.33791, -17.869377 ], [ -66.338101, -17.868968 ], [ -66.338304, -17.86764 ], [ -66.33859, -17.866989 ], [ -66.338772, -17.866535 ], [ -66.338905, -17.866252 ], [ -66.339181, -17.865777 ], [ -66.339272, -17.865527 ], [ -66.339483, -17.865245 ], [ -66.339717, -17.865009 ], [ -66.340023, -17.864798 ], [ -66.340223, -17.864493 ], [ -66.340256, -17.864172 ], [ -66.340694, -17.863011 ], [ -66.340963, -17.862822 ], [ -66.341165, -17.862467 ], [ -66.34159, -17.862233 ], [ -66.341861, -17.862189 ], [ -66.342084, -17.862038 ], [ -66.342349, -17.861801 ], [ -66.342441, -17.861658 ], [ -66.342808, -17.861143 ], [ -66.343342, -17.86049 ], [ -66.343556, -17.860081 ], [ -66.343737, -17.859615 ], [ -66.343925, -17.858856 ], [ -66.344063, -17.858339 ], [ -66.344256, -17.85814 ], [ -66.344453, -17.857748 ], [ -66.344555, -17.857596 ], [ -66.344716, -17.857065 ], [ -66.344787, -17.85663 ], [ -66.344798, -17.856383 ], [ -66.344881, -17.855938 ], [ -66.345026, -17.855303 ], [ -66.345, -17.854889 ], [ -66.345074, -17.854374 ], [ -66.345113, -17.854272 ], [ -66.345157, -17.853963 ], [ -66.345166, -17.853618 ], [ -66.345125, -17.853319 ], [ -66.345016, -17.852891 ], [ -66.344965, -17.852545 ], [ -66.345129, -17.85132 ], [ -66.345091, -17.850963 ], [ -66.345001, -17.85072 ], [ -66.344893, -17.850257 ], [ -66.345265, -17.849795 ], [ -66.345489, -17.849491 ], [ -66.345675, -17.848849 ], [ -66.346041, -17.848181 ], [ -66.346106, -17.847874 ], [ -66.346157, -17.847359 ], [ -66.346056, -17.84708 ], [ -66.346015, -17.846827 ], [ -66.346142, -17.846108 ], [ -66.346643, -17.845751 ], [ -66.346855, -17.845445 ], [ -66.346996, -17.845093 ], [ -66.347053, -17.84475 ], [ -66.347053, -17.844302 ], [ -66.346924, -17.84303 ], [ -66.346953, -17.842588 ], [ -66.347045, -17.84228 ], [ -66.347398, -17.841645 ], [ -66.347617, -17.840628 ], [ -66.347777, -17.840459 ], [ -66.347986, -17.840269 ], [ -66.348321, -17.839863 ], [ -66.348582, -17.839525 ], [ -66.348791, -17.839312 ], [ -66.349057, -17.83894 ], [ -66.349466, -17.83854 ], [ -66.349789, -17.838158 ], [ -66.35039, -17.837659 ], [ -66.350756, -17.837237 ], [ -66.351019, -17.837005 ], [ -66.351557, -17.836701 ], [ -66.35205, -17.836604 ], [ -66.352785, -17.836339 ], [ -66.353249, -17.83583 ], [ -66.353671, -17.834872 ], [ -66.353954, -17.833649 ], [ -66.35393, -17.832921 ], [ -66.354358, -17.832511 ], [ -66.355267, -17.831706 ], [ -66.356175, -17.831168 ], [ -66.357139, -17.830803 ], [ -66.358054, -17.830575 ], [ -66.359146, -17.830499 ], [ -66.359147, -17.830499 ], [ -66.360152, -17.830559 ], [ -66.360153, -17.830559 ], [ -66.360979, -17.830548 ], [ -66.361473, -17.830383 ], [ -66.362321, -17.829844 ], [ -66.363117, -17.828742 ], [ -66.363627, -17.827545 ], [ -66.363904, -17.825909 ], [ -66.364368, -17.824763 ], [ -66.364525, -17.824209 ], [ -66.364888, -17.822618 ], [ -66.365211, -17.821223 ], [ -66.365993, -17.820204 ], [ -66.367178, -17.819744 ], [ -66.367179, -17.819745 ], [ -66.36823, -17.82 ], [ -66.368996, -17.820273 ], [ -66.369162, -17.820382 ], [ -66.370214, -17.82047 ], [ -66.370443, -17.820489 ], [ -66.370444, -17.820489 ], [ -66.372456, -17.8203 ], [ -66.37205, -17.81926 ], [ -66.37209, -17.817724 ], [ -66.37299, -17.816619 ], [ -66.373915, -17.815737 ], [ -66.374691, -17.815186 ], [ -66.376419, -17.812698 ], [ -66.378609, -17.810572 ], [ -66.379457, -17.810011 ], [ -66.381835, -17.808965 ], [ -66.382455, -17.808531 ], [ -66.383062, -17.80787 ], [ -66.384293, -17.805161 ], [ -66.384964, -17.804249 ], [ -66.385558, -17.803775 ], [ -66.386035, -17.803197 ], [ -66.386396, -17.802273 ], [ -66.387164, -17.800793 ], [ -66.388868, -17.799136 ], [ -66.390794, -17.796405 ], [ -66.392056, -17.796125 ], [ -66.392542, -17.795704 ], [ -66.392477, -17.794124 ], [ -66.393199, -17.791833 ], [ -66.393099, -17.790333 ], [ -66.393554, -17.788959 ], [ -66.394183, -17.787764 ], [ -66.395345, -17.787337 ], [ -66.395657, -17.786616 ], [ -66.395872, -17.785419 ], [ -66.395871, -17.784373 ], [ -66.395607, -17.783581 ], [ -66.396068, -17.782522 ], [ -66.396924, -17.781558 ], [ -66.397691, -17.780677 ], [ -66.398285, -17.780193 ], [ -66.398589, -17.77886 ], [ -66.399133, -17.777426 ], [ -66.3992, -17.775848 ], [ -66.399319, -17.774481 ], [ -66.399401, -17.773355 ], [ -66.398568, -17.771411 ], [ -66.39929, -17.77038 ], [ -66.401242, -17.769856 ], [ -66.402662, -17.768558 ], [ -66.403923, -17.766939 ], [ -66.405375, -17.76584 ], [ -66.405731, -17.765249 ], [ -66.406238, -17.7642 ], [ -66.406444, -17.763263 ], [ -66.406659, -17.761751 ], [ -66.407277, -17.760295 ], [ -66.408839, -17.757858 ], [ -66.409633, -17.756917 ], [ -66.411209, -17.754129 ], [ -66.411447, -17.753432 ], [ -66.411343, -17.752387 ], [ -66.410988, -17.751315 ], [ -66.410187, -17.750421 ], [ -66.409617, -17.750069 ], [ -66.409401, -17.750022 ], [ -66.409277, -17.749738 ], [ -66.409395, -17.749052 ], [ -66.408076, -17.747496 ], [ -66.40828, -17.746719 ], [ -66.408891, -17.745902 ], [ -66.409154, -17.745148 ], [ -66.409207, -17.743291 ], [ -66.409807, -17.742416 ], [ -66.410967, -17.741779 ], [ -66.413653, -17.740864 ], [ -66.413668, -17.740623 ], [ -66.413351, -17.740194 ], [ -66.413536, -17.739853 ], [ -66.413539, -17.739853 ], [ -66.414147, -17.739861 ], [ -66.414835, -17.739516 ], [ -66.414837, -17.739516 ], [ -66.415443, -17.739719 ], [ -66.416137, -17.739809 ], [ -66.416137, -17.739809 ], [ -66.41644, -17.739549 ], [ -66.416113, -17.739006 ], [ -66.415283, -17.738421 ], [ -66.415118, -17.737478 ], [ -66.415552, -17.736474 ], [ -66.415912, -17.73576 ], [ -66.416352, -17.735109 ], [ -66.417303, -17.734813 ], [ -66.417304, -17.734813 ], [ -66.418445, -17.734959 ], [ -66.418446, -17.734959 ], [ -66.418559, -17.734945 ], [ -66.419221, -17.73469 ], [ -66.419876, -17.734206 ], [ -66.420299, -17.73396 ], [ -66.420676, -17.733799 ], [ -66.420768, -17.733607 ], [ -66.420791, -17.733355 ], [ -66.42056, -17.731715 ], [ -66.420537, -17.730086 ], [ -66.420654, -17.729491 ], [ -66.420962, -17.728899 ], [ -66.421488, -17.728161 ], [ -66.421943, -17.727444 ], [ -66.422204, -17.726817 ], [ -66.422485, -17.726408 ], [ -66.422791, -17.725874 ], [ -66.423392, -17.725044 ], [ -66.424164, -17.723896 ], [ -66.42502, -17.722715 ], [ -66.425293, -17.722088 ], [ -66.425406, -17.721011 ], [ -66.425298, -17.720184 ], [ -66.42531, -17.719404 ], [ -66.425974, -17.718667 ], [ -66.426805, -17.717956 ], [ -66.429008, -17.716483 ], [ -66.429402, -17.71641 ], [ -66.429616, -17.715908 ], [ -66.428484, -17.71549 ], [ -66.427004, -17.715125 ], [ -66.42547, -17.71448 ], [ -66.423896, -17.713878 ], [ -66.422607, -17.713539 ], [ -66.421129, -17.71306 ], [ -66.419784, -17.712468 ], [ -66.418751, -17.711846 ], [ -66.418333, -17.711634 ], [ -66.41607, -17.711688 ], [ -66.41607, -17.711688 ], [ -66.416068, -17.711688 ], [ -66.416191, -17.710626 ], [ -66.416534, -17.707207 ], [ -66.416901, -17.704188 ], [ -66.416428, -17.703328 ], [ -66.413973, -17.701623 ], [ -66.412664, -17.701005 ], [ -66.411295, -17.700359 ], [ -66.410539, -17.699507 ], [ -66.409674, -17.698132 ], [ -66.408455, -17.697786 ], [ -66.407532, -17.697863 ], [ -66.406604, -17.697273 ], [ -66.404444, -17.694797 ], [ -66.403793, -17.693533 ], [ -66.402756, -17.692986 ], [ -66.402155, -17.692876 ], [ -66.401073, -17.6922 ], [ -66.399289, -17.69162 ], [ -66.397907, -17.690261 ], [ -66.396298, -17.68924 ], [ -66.394653, -17.688404 ], [ -66.392678, -17.687344 ], [ -66.390722, -17.687481 ], [ -66.390053, -17.687143 ], [ -66.38897, -17.686241 ], [ -66.38739, -17.685322 ], [ -66.38571, -17.684851 ], [ -66.3844, -17.684743 ], [ -66.383682, -17.684583 ], [ -66.382743, -17.68404 ], [ -66.382099, -17.683266 ], [ -66.380423, -17.682834 ], [ -66.379623, -17.68459 ], [ -66.377776, -17.686542 ], [ -66.376411, -17.686278 ], [ -66.374666, -17.686719 ], [ -66.373715, -17.685477 ], [ -66.372668, -17.685073 ], [ -66.37162, -17.685387 ], [ -66.369436, -17.686475 ], [ -66.367981, -17.687126 ], [ -66.366896, -17.687961 ], [ -66.36596, -17.689634 ], [ -66.364906, -17.691779 ], [ -66.364075, -17.692796 ], [ -66.363055, -17.693989 ], [ -66.36279, -17.694566 ], [ -66.361749, -17.696343 ], [ -66.361094, -17.697019 ], [ -66.360091, -17.697368 ], [ -66.358209, -17.696874 ], [ -66.356773, -17.696251 ], [ -66.354634, -17.69582 ], [ -66.353538, -17.695828 ], [ -66.351538, -17.695488 ], [ -66.350812, -17.695679 ], [ -66.350092, -17.695517 ], [ -66.347958, -17.696356 ], [ -66.347155, -17.696993 ] ] ] ] } }
]
}
