{
"type": "FeatureCollection",
"name": "ESTEBAN_ARZE",
"crs": { "type": "name", "properties": { "name": "urn:ogc:def:crs:OGC:1.3:CRS84" } },
"bbox": [ -66.168425, -17.996429, -65.700134, -17.473511 ],                                                                        
"features": [
{ "type": "Feature", "properties": { "NOMBRE": "Esteban Arze", "NIVEL": "Provincias", "PROVINCIA": "", "REGION": "Valles", "DEPARTAMENTO": "Cochabamba" }, "bbox": [ -66.168425, -17.996429, -65.700134, -17.473511 ], "geometry": { "type": "MultiPolygon", "coordinates": [ [ [ [ -65.893586, -17.678941 ], [ -65.893424, -17.681222 ], [ -65.893949, -17.683593 ], [ -65.893668, -17.684921 ], [ -65.891902, -17.687438 ], [ -65.891639, -17.691492 ], [ -65.891038, -17.692503 ], [ -65.889583, -17.693439 ], [ -65.88834, -17.693703 ], [ -65.886563, -17.694748 ], [ -65.884661, -17.696611 ], [ -65.881241, -17.697766 ], [ -65.877864, -17.697551 ], [ -65.880385, -17.705384 ], [ -65.876305, -17.708523 ], [ -65.860783, -17.709325 ], [ -65.844645, -17.710157 ], [ -65.839218, -17.708769 ], [ -65.825098, -17.695203 ], [ -65.815866, -17.682431 ], [ -65.807333, -17.678056 ], [ -65.796973, -17.680794 ], [ -65.787436, -17.679023 ], [ -65.772387, -17.681924 ], [ -65.761031, -17.688719 ], [ -65.766845, -17.696325 ], [ -65.7841, -17.714009 ], [ -65.779531, -17.725298 ], [ -65.779692, -17.726175 ], [ -65.782148, -17.739534 ], [ -65.780507, -17.739393 ], [ -65.765599, -17.738107 ], [ -65.755192, -17.730334 ], [ -65.741104, -17.746418 ], [ -65.724071, -17.738572 ], [ -65.723777, -17.738456 ], [ -65.72595, -17.748057 ], [ -65.726016, -17.748347 ], [ -65.723927, -17.748822 ], [ -65.700134, -17.757443 ], [ -65.718855, -17.775355 ], [ -65.721574, -17.792822 ], [ -65.72267, -17.823328 ], [ -65.719672, -17.837051 ], [ -65.715941, -17.852302 ], [ -65.716134, -17.85232 ], [ -65.71639, -17.852337 ], [ -65.751772, -17.853537 ], [ -65.780847, -17.854743 ], [ -65.789809, -17.863844 ], [ -65.802029, -17.876253 ], [ -65.801119, -17.886557 ], [ -65.800778, -17.887123 ], [ -65.800579, -17.888653 ], [ -65.800391, -17.889045 ], [ -65.800286, -17.889333 ], [ -65.79998, -17.890944 ], [ -65.799877, -17.891393 ], [ -65.799701, -17.891785 ], [ -65.799596, -17.891981 ], [ -65.799398, -17.892511 ], [ -65.79934, -17.892719 ], [ -65.799211, -17.892973 ], [ -65.799142, -17.893272 ], [ -65.799013, -17.893572 ], [ -65.79882, -17.894504 ], [ -65.798799, -17.89478 ], [ -65.798602, -17.895459 ], [ -65.798345, -17.896093 ], [ -65.797982, -17.896832 ], [ -65.797912, -17.897074 ], [ -65.797879, -17.897269 ], [ -65.797857, -17.897534 ], [ -65.797823, -17.897706 ], [ -65.797802, -17.897948 ], [ -65.797804, -17.898109 ], [ -65.797719, -17.89919 ], [ -65.797722, -17.899431 ], [ -65.79769, -17.899799 ], [ -65.797678, -17.899799 ], [ -65.797607, -17.899903 ], [ -65.797549, -17.900064 ], [ -65.797435, -17.900674 ], [ -65.797195, -17.901779 ], [ -65.797162, -17.901998 ], [ -65.797164, -17.902239 ], [ -65.797089, -17.90301 ], [ -65.796903, -17.903597 ], [ -65.796833, -17.903736 ], [ -65.796403, -17.90498 ], [ -65.796243, -17.905751 ], [ -65.796185, -17.905947 ], [ -65.796033, -17.90627 ], [ -65.795798, -17.906674 ], [ -65.795716, -17.90687 ], [ -65.795681, -17.90702 ], [ -65.795635, -17.907135 ], [ -65.795601, -17.907377 ], [ -65.795592, -17.907595 ], [ -65.795546, -17.907814 ], [ -65.795538, -17.908216 ], [ -65.795526, -17.908228 ], [ -65.795959, -17.908351 ], [ -65.796367, -17.908394 ], [ -65.796559, -17.90845 ], [ -65.797014, -17.908458 ], [ -65.797375, -17.908559 ], [ -65.79758, -17.908695 ], [ -65.798052, -17.909163 ], [ -65.798076, -17.909232 ], [ -65.798222, -17.909392 ], [ -65.798344, -17.909586 ], [ -65.798332, -17.909598 ], [ -65.798501, -17.909792 ], [ -65.798611, -17.909963 ], [ -65.798685, -17.910124 ], [ -65.798758, -17.910227 ], [ -65.798856, -17.910467 ], [ -65.798931, -17.910754 ], [ -65.799053, -17.910994 ], [ -65.799224, -17.911257 ], [ -65.799406, -17.911475 ], [ -65.799611, -17.911634 ], [ -65.799647, -17.911691 ], [ -65.799816, -17.911747 ], [ -65.800068, -17.91186 ], [ -65.800537, -17.912018 ], [ -65.801079, -17.912232 ], [ -65.801452, -17.912413 ], [ -65.801669, -17.912596 ], [ -65.801949, -17.913007 ], [ -65.802279, -17.913568 ], [ -65.802316, -17.913694 ], [ -65.802364, -17.91374 ], [ -65.80251, -17.913946 ], [ -65.802742, -17.914323 ], [ -65.802914, -17.914759 ], [ -65.802952, -17.914908 ], [ -65.803025, -17.915091 ], [ -65.803051, -17.915206 ], [ -65.803149, -17.915469 ], [ -65.803237, -17.915837 ], [ -65.803252, -17.916124 ], [ -65.80345, -17.916743 ], [ -65.80362, -17.91696 ], [ -65.803754, -17.917166 ], [ -65.803984, -17.917371 ], [ -65.804092, -17.917439 ], [ -65.804129, -17.917508 ], [ -65.804286, -17.917633 ], [ -65.804577, -17.917987 ], [ -65.804795, -17.918181 ], [ -65.805096, -17.918328 ], [ -65.805505, -17.918486 ], [ -65.805973, -17.918575 ], [ -65.806527, -17.918823 ], [ -65.806985, -17.919107 ], [ -65.807106, -17.91921 ], [ -65.807227, -17.919358 ], [ -65.807325, -17.919541 ], [ -65.807349, -17.919553 ], [ -65.807349, -17.919576 ], [ -65.807397, -17.91961 ], [ -65.807473, -17.919931 ], [ -65.807499, -17.920126 ], [ -65.807504, -17.920666 ], [ -65.807462, -17.921138 ], [ -65.807427, -17.921299 ], [ -65.807429, -17.921471 ], [ -65.807518, -17.92193 ], [ -65.808213, -17.923098 ], [ -65.80836, -17.92343 ], [ -65.808458, -17.923601 ], [ -65.808533, -17.923934 ], [ -65.80856, -17.924175 ], [ -65.808635, -17.924508 ], [ -65.808671, -17.924531 ], [ -65.808745, -17.924657 ], [ -65.809133, -17.92509 ], [ -65.809134, -17.925182 ], [ -65.809197, -17.92555 ], [ -65.809284, -17.925848 ], [ -65.809551, -17.926099 ], [ -65.809624, -17.926236 ], [ -65.809711, -17.9265 ], [ -65.809712, -17.926615 ], [ -65.809689, -17.926764 ], [ -65.809632, -17.926972 ], [ -65.809573, -17.92711 ], [ -65.809487, -17.927216 ], [ -65.80943, -17.927282 ], [ -65.809342, -17.927435 ], [ -65.809303, -17.92756 ], [ -65.809258, -17.927848 ], [ -65.809259, -17.92794 ], [ -65.809307, -17.92802 ], [ -65.809309, -17.928021 ], [ -65.809477, -17.928191 ], [ -65.809598, -17.928282 ], [ -65.809766, -17.928338 ], [ -65.809965, -17.928358 ], [ -65.81025, -17.928334 ], [ -65.810537, -17.928332 ], [ -65.810669, -17.928296 ], [ -65.811112, -17.928293 ], [ -65.811118, -17.928294 ], [ -65.811143, -17.928294 ], [ -65.811323, -17.928315 ], [ -65.811792, -17.928427 ], [ -65.811948, -17.928483 ], [ -65.811984, -17.928517 ], [ -65.811951, -17.928736 ], [ -65.811833, -17.928943 ], [ -65.811786, -17.92907 ], [ -65.811764, -17.929185 ], [ -65.81174, -17.92922 ], [ -65.811717, -17.929347 ], [ -65.811733, -17.929668 ], [ -65.811783, -17.929863 ], [ -65.812051, -17.930344 ], [ -65.812306, -17.930652 ], [ -65.812742, -17.931109 ], [ -65.812743, -17.931143 ], [ -65.812767, -17.931143 ], [ -65.812767, -17.931189 ], [ -65.812853, -17.931326 ], [ -65.812865, -17.931395 ], [ -65.812902, -17.931464 ], [ -65.812927, -17.931556 ], [ -65.813231, -17.932036 ], [ -65.813606, -17.932321 ], [ -65.81369, -17.932354 ], [ -65.814076, -17.932639 ], [ -65.814367, -17.932913 ], [ -65.814574, -17.933244 ], [ -65.814612, -17.933393 ], [ -65.814661, -17.933496 ], [ -65.814699, -17.933726 ], [ -65.814701, -17.933898 ], [ -65.814726, -17.934025 ], [ -65.814729, -17.934266 ], [ -65.814815, -17.934472 ], [ -65.81489, -17.934805 ], [ -65.814891, -17.934897 ], [ -65.814916, -17.934989 ], [ -65.814895, -17.935253 ], [ -65.814721, -17.935829 ], [ -65.814475, -17.936279 ], [ -65.814358, -17.936533 ], [ -65.8143, -17.936763 ], [ -65.814207, -17.937017 ], [ -65.814077, -17.937236 ], [ -65.813971, -17.937363 ], [ -65.813722, -17.937583 ], [ -65.813448, -17.937781 ], [ -65.813258, -17.937886 ], [ -65.813067, -17.937956 ], [ -65.812685, -17.938143 ], [ -65.812304, -17.938306 ], [ -65.811458, -17.938749 ], [ -65.810995, -17.939121 ], [ -65.810568, -17.939584 ], [ -65.810474, -17.939722 ], [ -65.81032, -17.939873 ], [ -65.810131, -17.940104 ], [ -65.809777, -17.940624 ], [ -65.809661, -17.940981 ], [ -65.809595, -17.941533 ], [ -65.809559, -17.941556 ], [ -65.809477, -17.941729 ], [ -65.808722, -17.941746 ], [ -65.808627, -17.941793 ], [ -65.808627, -17.941816 ], [ -65.808592, -17.941874 ], [ -65.808499, -17.942162 ], [ -65.808336, -17.942588 ], [ -65.808253, -17.942692 ], [ -65.808253, -17.942715 ], [ -65.80823, -17.942715 ], [ -65.808194, -17.94275 ], [ -65.808134, -17.942751 ], [ -65.80813, -17.94275 ], [ -65.808103, -17.94275 ], [ -65.807878, -17.942707 ], [ -65.807582, -17.942709 ], [ -65.807535, -17.942721 ], [ -65.807428, -17.94279 ], [ -65.807285, -17.942929 ], [ -65.807191, -17.943045 ], [ -65.807026, -17.94331 ], [ -65.80672, -17.943876 ], [ -65.806449, -17.944292 ], [ -65.80619, -17.944753 ], [ -65.806143, -17.944811 ], [ -65.80598, -17.945226 ], [ -65.805947, -17.945502 ], [ -65.805948, -17.945617 ], [ -65.805925, -17.945732 ], [ -65.80593, -17.946146 ], [ -65.805981, -17.946421 ], [ -65.806067, -17.946685 ], [ -65.806238, -17.947017 ], [ -65.806312, -17.9472 ], [ -65.806336, -17.9472 ], [ -65.806629, -17.947727 ], [ -65.806789, -17.948105 ], [ -65.806813, -17.948105 ], [ -65.806899, -17.948334 ], [ -65.806984, -17.948437 ], [ -65.807009, -17.948505 ], [ -65.80718, -17.948768 ], [ -65.807387, -17.949135 ], [ -65.807632, -17.949638 ], [ -65.807669, -17.949753 ], [ -65.80778, -17.949982 ], [ -65.807805, -17.950097 ], [ -65.807866, -17.9502 ], [ -65.80794, -17.950464 ], [ -65.807966, -17.950624 ], [ -65.807972, -17.951187 ], [ -65.808009, -17.951268 ], [ -65.808072, -17.951531 ], [ -65.808376, -17.951954 ], [ -65.808376, -17.951989 ], [ -65.808485, -17.952092 ], [ -65.808582, -17.952229 ], [ -65.808851, -17.952721 ], [ -65.809428, -17.954004 ], [ -65.809466, -17.954187 ], [ -65.8096, -17.954462 ], [ -65.809982, -17.955413 ], [ -65.809983, -17.955528 ], [ -65.810032, -17.955597 ], [ -65.810069, -17.955723 ], [ -65.810154, -17.95586 ], [ -65.810168, -17.955987 ], [ -65.810327, -17.956273 ], [ -65.8104, -17.956444 ], [ -65.811107, -17.95752 ], [ -65.811241, -17.957771 ], [ -65.811436, -17.958046 ], [ -65.811436, -17.95808 ], [ -65.811497, -17.958137 ], [ -65.811497, -17.95816 ], [ -65.811521, -17.95816 ], [ -65.811691, -17.9584 ], [ -65.811715, -17.9584 ], [ -65.811715, -17.958434 ], [ -65.811788, -17.958514 ], [ -65.811812, -17.958514 ], [ -65.812079, -17.958822 ], [ -65.812553, -17.959497 ], [ -65.812784, -17.959783 ], [ -65.813029, -17.960263 ], [ -65.813152, -17.960561 ], [ -65.813372, -17.961008 ], [ -65.813583, -17.961249 ], [ -65.813778, -17.961515 ], [ -65.813801, -17.961718 ], [ -65.813862, -17.96187 ], [ -65.813984, -17.962153 ], [ -65.814291, -17.962874 ], [ -65.814354, -17.963196 ], [ -65.814346, -17.963563 ], [ -65.814288, -17.963736 ], [ -65.814147, -17.964002 ], [ -65.814018, -17.96421 ], [ -65.813842, -17.964556 ], [ -65.813747, -17.964706 ], [ -65.813724, -17.964798 ], [ -65.813665, -17.964902 ], [ -65.813642, -17.964982 ], [ -65.81356, -17.965155 ], [ -65.813468, -17.965466 ], [ -65.813378, -17.966053 ], [ -65.813432, -17.96657 ], [ -65.813566, -17.966833 ], [ -65.813714, -17.967188 ], [ -65.813726, -17.967188 ], [ -65.813884, -17.967451 ], [ -65.813934, -17.967589 ], [ -65.813934, -17.967635 ], [ -65.814129, -17.967886 ], [ -65.814202, -17.968024 ], [ -65.814202, -17.968047 ], [ -65.814214, -17.968047 ], [ -65.814239, -17.968104 ], [ -65.814445, -17.968378 ], [ -65.814482, -17.96847 ], [ -65.814616, -17.968641 ], [ -65.81497, -17.969259 ], [ -65.815056, -17.969442 ], [ -65.815495, -17.970209 ], [ -65.815557, -17.970358 ], [ -65.816033, -17.971159 ], [ -65.816119, -17.971331 ], [ -65.816228, -17.971491 ], [ -65.81641, -17.971685 ], [ -65.816676, -17.971936 ], [ -65.816773, -17.972004 ], [ -65.816809, -17.97205 ], [ -65.817111, -17.9723 ], [ -65.817691, -17.972675 ], [ -65.818522, -17.973094 ], [ -65.819605, -17.973546 ], [ -65.819786, -17.973648 ], [ -65.81981, -17.973647 ], [ -65.81981, -17.973659 ], [ -65.820135, -17.97376 ], [ -65.820219, -17.973805 ], [ -65.820508, -17.973895 ], [ -65.820664, -17.973986 ], [ -65.821242, -17.974234 ], [ -65.821447, -17.974336 ], [ -65.821821, -17.974563 ], [ -65.822147, -17.974791 ], [ -65.822594, -17.975155 ], [ -65.823004, -17.975428 ], [ -65.823185, -17.975507 ], [ -65.823269, -17.975564 ], [ -65.82386, -17.975847 ], [ -65.824461, -17.976095 ], [ -65.82457, -17.976163 ], [ -65.824847, -17.976299 ], [ -65.825221, -17.976514 ], [ -65.825318, -17.976594 ], [ -65.825354, -17.976651 ], [ -65.82539, -17.976674 ], [ -65.825441, -17.976926 ], [ -65.825468, -17.977168 ], [ -65.825473, -17.977696 ], [ -65.825416, -17.977904 ], [ -65.825406, -17.978168 ], [ -65.825372, -17.978295 ], [ -65.825373, -17.978375 ], [ -65.82535, -17.978467 ], [ -65.825351, -17.978628 ], [ -65.825328, -17.978674 ], [ -65.825332, -17.979088 ], [ -65.825554, -17.979615 ], [ -65.825762, -17.98005 ], [ -65.825847, -17.980153 ], [ -65.826077, -17.980335 ], [ -65.826464, -17.9807 ], [ -65.826791, -17.981054 ], [ -65.826952, -17.981535 ], [ -65.826918, -17.981673 ], [ -65.826921, -17.981983 ], [ -65.82712, -17.982614 ], [ -65.827291, -17.982958 ], [ -65.827427, -17.983313 ], [ -65.827626, -17.984001 ], [ -65.827887, -17.984826 ], [ -65.828306, -17.985938 ], [ -65.828529, -17.98658 ], [ -65.82859, -17.986694 ], [ -65.828664, -17.986935 ], [ -65.828738, -17.987095 ], [ -65.828905, -17.98727 ], [ -65.82923, -17.987599 ], [ -65.829616, -17.98815 ], [ -65.832014, -17.992882 ], [ -65.833919, -17.991068 ], [ -65.8353, -17.989413 ], [ -65.839577, -17.985829 ], [ -65.842278, -17.984324 ], [ -65.844455, -17.980954 ], [ -65.847754, -17.980239 ], [ -65.85053, -17.978519 ], [ -65.854158, -17.977397 ], [ -65.859167, -17.974561 ], [ -65.863342, -17.97066 ], [ -65.866252, -17.969572 ], [ -65.867858, -17.970445 ], [ -65.869596, -17.971511 ], [ -65.871542, -17.973442 ], [ -65.872861, -17.976371 ], [ -65.874876, -17.978302 ], [ -65.877518, -17.978836 ], [ -65.880299, -17.980302 ], [ -65.882732, -17.982033 ], [ -65.884212, -17.981751 ], [ -65.886627, -17.981636 ], [ -65.888992, -17.982282 ], [ -65.890103, -17.982902 ], [ -65.89038, -17.984566 ], [ -65.890519, -17.985897 ], [ -65.89191, -17.986098 ], [ -65.8933, -17.986032 ], [ -65.895179, -17.985434 ], [ -65.896708, -17.986699 ], [ -65.897124, -17.988296 ], [ -65.897889, -17.989495 ], [ -65.899071, -17.98863 ], [ -65.900393, -17.988098 ], [ -65.901645, -17.9873 ], [ -65.904496, -17.987834 ], [ -65.906582, -17.988833 ], [ -65.908529, -17.990298 ], [ -65.91131, -17.991364 ], [ -65.912884, -17.99261 ], [ -65.91423, -17.993894 ], [ -65.915621, -17.993961 ], [ -65.918125, -17.99323 ], [ -65.919794, -17.992299 ], [ -65.921533, -17.992633 ], [ -65.923063, -17.993765 ], [ -65.924592, -17.995629 ], [ -65.926609, -17.996095 ], [ -65.928486, -17.996429 ], [ -65.930295, -17.995697 ], [ -65.931895, -17.993235 ], [ -65.9328, -17.991106 ], [ -65.933288, -17.988112 ], [ -65.935306, -17.984785 ], [ -65.937218, -17.982054 ], [ -65.938715, -17.982058 ], [ -65.939897, -17.982923 ], [ -65.941218, -17.98279 ], [ -65.943722, -17.980196 ], [ -65.943375, -17.978266 ], [ -65.943153, -17.975552 ], [ -65.944054, -17.972826 ], [ -65.943305, -17.970027 ], [ -65.94308, -17.968592 ], [ -65.943396, -17.967099 ], [ -65.944356, -17.965292 ], [ -65.945481, -17.962351 ], [ -65.944732, -17.960485 ], [ -65.944807, -17.959624 ], [ -65.945707, -17.958405 ], [ -65.947282, -17.958118 ], [ -65.949306, -17.958406 ], [ -65.950431, -17.958047 ], [ -65.951031, -17.957043 ], [ -65.951256, -17.955493 ], [ -65.951434, -17.952943 ], [ -65.952552, -17.951423 ], [ -65.953483, -17.950758 ], [ -65.955558, -17.950349 ], [ -65.957704, -17.950085 ], [ -65.958379, -17.949511 ], [ -65.959429, -17.949152 ], [ -65.960403, -17.949368 ], [ -65.961303, -17.950085 ], [ -65.961452, -17.950946 ], [ -65.961302, -17.952309 ], [ -65.961552, -17.953372 ], [ -65.961527, -17.954443 ], [ -65.961976, -17.955825 ], [ -65.962951, -17.956687 ], [ -65.964975, -17.956902 ], [ -65.9661, -17.956045 ], [ -65.96817, -17.954762 ], [ -65.969145, -17.954762 ], [ -65.96997, -17.95426 ], [ -65.972294, -17.948807 ], [ -65.973194, -17.948018 ], [ -65.974694, -17.947205 ], [ -65.980166, -17.942997 ], [ -65.982179, -17.942277 ], [ -65.984948, -17.94055 ], [ -65.986164, -17.939553 ], [ -65.986314, -17.938549 ], [ -65.987909, -17.936296 ], [ -65.989087, -17.93532 ], [ -65.990028, -17.93527 ], [ -65.990961, -17.934746 ], [ -65.991336, -17.933813 ], [ -65.991186, -17.932594 ], [ -65.991336, -17.931661 ], [ -65.99276, -17.9308 ], [ -65.992835, -17.929724 ], [ -65.992565, -17.92879 ], [ -65.992611, -17.927643 ], [ -65.993248, -17.926321 ], [ -65.993733, -17.924712 ], [ -65.99375, -17.922835 ], [ -65.99366, -17.921401 ], [ -65.994314, -17.920281 ], [ -65.995503, -17.919816 ], [ -65.998017, -17.917213 ], [ -66.001614, -17.914702 ], [ -66.002139, -17.912908 ], [ -66.002888, -17.912693 ], [ -66.004387, -17.912621 ], [ -66.005391, -17.911854 ], [ -66.006066, -17.910706 ], [ -66.007639, -17.909845 ], [ -66.009738, -17.91006 ], [ -66.011887, -17.908501 ], [ -66.013161, -17.906492 ], [ -66.013685, -17.899891 ], [ -66.015034, -17.897523 ], [ -66.015184, -17.891783 ], [ -66.017357, -17.890204 ], [ -66.020204, -17.886186 ], [ -66.020504, -17.884177 ], [ -66.018255, -17.881163 ], [ -66.019004, -17.879656 ], [ -66.022826, -17.878293 ], [ -66.025748, -17.87614 ], [ -66.027696, -17.872408 ], [ -66.027021, -17.869297 ], [ -66.027171, -17.866786 ], [ -66.028145, -17.865781 ], [ -66.030018, -17.865924 ], [ -66.031666, -17.864991 ], [ -66.032565, -17.863269 ], [ -66.03279, -17.860901 ], [ -66.033838, -17.858246 ], [ -66.034384, -17.856259 ], [ -66.03377, -17.85595 ], [ -66.032826, -17.85539 ], [ -66.031582, -17.854214 ], [ -66.031154, -17.853801 ], [ -66.030035, -17.852927 ], [ -66.02925, -17.852192 ], [ -66.029251, -17.852123 ], [ -66.02818, -17.851158 ], [ -66.027553, -17.850171 ], [ -66.025996, -17.848552 ], [ -66.025187, -17.847862 ], [ -66.024747, -17.847563 ], [ -66.023685, -17.847136 ], [ -66.022848, -17.84695 ], [ -66.022108, -17.846673 ], [ -66.021822, -17.8465 ], [ -66.021429, -17.84619 ], [ -66.021145, -17.845743 ], [ -66.021028, -17.845342 ], [ -66.020983, -17.845009 ], [ -66.020983, -17.845008 ], [ -66.020983, -17.845005 ], [ -66.021032, -17.844822 ], [ -66.021298, -17.844502 ], [ -66.021658, -17.84424 ], [ -66.022163, -17.843944 ], [ -66.022763, -17.843694 ], [ -66.023099, -17.843604 ], [ -66.023423, -17.843433 ], [ -66.0237, -17.843228 ], [ -66.023844, -17.843057 ], [ -66.023905, -17.842896 ], [ -66.023918, -17.842695 ], [ -66.023825, -17.842386 ], [ -66.02354, -17.842019 ], [ -66.022542, -17.841076 ], [ -66.021887, -17.840593 ], [ -66.021219, -17.840328 ], [ -66.020766, -17.840052 ], [ -66.020505, -17.839673 ], [ -66.020144, -17.838229 ], [ -66.020026, -17.838034 ], [ -66.019681, -17.837747 ], [ -66.019359, -17.837597 ], [ -66.018893, -17.837515 ], [ -66.018223, -17.837513 ], [ -66.017398, -17.837407 ], [ -66.016928, -17.837011 ], [ -66.016922, -17.837008 ], [ -66.016732, -17.836847 ], [ -66.016489, -17.836588 ], [ -66.016288, -17.836334 ], [ -66.015908, -17.836079 ], [ -66.015491, -17.835879 ], [ -66.014965, -17.835769 ], [ -66.014019, -17.835756 ], [ -66.012883, -17.835524 ], [ -66.012431, -17.83529 ], [ -66.012068, -17.835004 ], [ -66.011649, -17.83456 ], [ -66.011641, -17.834094 ], [ -66.011641, -17.834093 ], [ -66.011641, -17.834089 ], [ -66.011945, -17.833219 ], [ -66.012304, -17.832641 ], [ -66.013511, -17.830792 ], [ -66.013762, -17.830044 ], [ -66.014092, -17.829548 ], [ -66.014726, -17.828783 ], [ -66.014983, -17.828399 ], [ -66.015282, -17.827561 ], [ -66.015417, -17.827301 ], [ -66.016124, -17.82648 ], [ -66.016517, -17.825779 ], [ -66.016846, -17.825408 ], [ -66.017348, -17.824596 ], [ -66.017461, -17.82421 ], [ -66.017517, -17.823676 ], [ -66.017643, -17.823245 ], [ -66.017936, -17.822828 ], [ -66.018109, -17.822466 ], [ -66.018184, -17.822217 ], [ -66.018404, -17.821024 ], [ -66.01842, -17.819857 ], [ -66.01842, -17.819857 ], [ -66.01842, -17.819852 ], [ -66.01852, -17.819557 ], [ -66.019218, -17.818474 ], [ -66.019625, -17.817683 ], [ -66.0199, -17.816844 ], [ -66.020023, -17.816596 ], [ -66.020316, -17.816213 ], [ -66.021757, -17.815162 ], [ -66.022291, -17.814669 ], [ -66.022742, -17.814129 ], [ -66.025078, -17.811566 ], [ -66.02548, -17.811059 ], [ -66.025493, -17.810108 ], [ -66.025493, -17.810108 ], [ -66.025493, -17.810103 ], [ -66.025545, -17.809819 ], [ -66.025781, -17.809242 ], [ -66.026622, -17.808206 ], [ -66.027087, -17.807472 ], [ -66.027237, -17.807053 ], [ -66.027301, -17.806735 ], [ -66.027538, -17.806078 ], [ -66.027977, -17.805515 ], [ -66.028914, -17.804481 ], [ -66.029119, -17.804359 ], [ -66.029215, -17.804349 ], [ -66.029735, -17.80406 ], [ -66.029873, -17.803618 ], [ -66.030081, -17.802425 ], [ -66.030343, -17.801655 ], [ -66.030637, -17.801203 ], [ -66.031208, -17.800619 ], [ -66.031574, -17.800112 ], [ -66.031894, -17.799536 ], [ -66.032157, -17.798697 ], [ -66.032161, -17.798372 ], [ -66.032161, -17.798372 ], [ -66.032162, -17.798367 ], [ -66.032528, -17.797871 ], [ -66.03397, -17.796719 ], [ -66.034407, -17.796292 ], [ -66.03475, -17.795716 ], [ -66.035862, -17.794183 ], [ -66.035962, -17.793878 ], [ -66.035953, -17.793666 ], [ -66.035953, -17.79351 ], [ -66.024589, -17.790789 ], [ -66.023226, -17.77637 ], [ -66.023227, -17.776368 ], [ -66.023226, -17.776365 ], [ -66.023418, -17.775745 ], [ -66.025385, -17.766622 ], [ -66.025145, -17.76641 ], [ -66.024094, -17.765291 ], [ -66.023671, -17.764739 ], [ -66.023151, -17.764196 ], [ -66.022114, -17.76293 ], [ -66.021429, -17.762214 ], [ -66.020481, -17.761438 ], [ -66.020305, -17.761151 ], [ -66.020189, -17.760876 ], [ -66.020055, -17.760169 ], [ -66.019454, -17.759397 ], [ -66.019159, -17.759075 ], [ -66.01878, -17.758762 ], [ -66.01857, -17.758406 ], [ -66.018526, -17.758087 ], [ -66.018526, -17.758083 ], [ -66.018526, -17.758082 ], [ -66.018543, -17.757742 ], [ -66.018543, -17.757548 ], [ -66.002068, -17.763826 ], [ -66.001816, -17.763926 ], [ -66.001822, -17.763926 ], [ -66.00181, -17.763931 ], [ -66.001822, -17.763931 ], [ -66.001617, -17.764012 ], [ -66.000289, -17.764144 ], [ -66.000286, -17.76414 ], [ -65.991316, -17.751583 ], [ -65.991317, -17.751579 ], [ -65.991316, -17.751578 ], [ -65.99404, -17.735106 ], [ -65.998585, -17.729505 ], [ -65.99521, -17.724096 ], [ -65.98858, -17.723592 ], [ -65.985453, -17.721373 ], [ -65.985454, -17.721369 ], [ -65.985453, -17.721369 ], [ -65.986676, -17.717213 ], [ -65.981687, -17.708611 ], [ -65.98169, -17.708612 ], [ -65.981687, -17.708606 ], [ -65.966341, -17.703768 ], [ -65.958133, -17.700654 ], [ -65.94816, -17.699907 ], [ -65.947675, -17.700188 ], [ -65.947579, -17.700221 ], [ -65.947387, -17.70023 ], [ -65.946797, -17.700359 ], [ -65.946447, -17.700469 ], [ -65.946134, -17.700545 ], [ -65.945436, -17.700662 ], [ -65.945172, -17.700681 ], [ -65.944931, -17.700735 ], [ -65.944774, -17.70079 ], [ -65.944449, -17.700855 ], [ -65.943171, -17.701273 ], [ -65.943038, -17.701341 ], [ -65.942808, -17.701429 ], [ -65.942568, -17.701449 ], [ -65.942508, -17.701436 ], [ -65.942461, -17.701344 ], [ -65.942413, -17.701343 ], [ -65.942232, -17.70141 ], [ -65.942028, -17.701453 ], [ -65.941824, -17.701427 ], [ -65.941643, -17.70133 ], [ -65.941337, -17.701245 ], [ -65.941132, -17.701164 ], [ -65.940871, -17.700965 ], [ -65.940576, -17.700616 ], [ -65.939882, -17.699629 ], [ -65.939622, -17.699338 ], [ -65.93948, -17.699221 ], [ -65.939171, -17.699021 ], [ -65.939027, -17.699008 ], [ -65.938907, -17.699017 ], [ -65.938774, -17.699073 ], [ -65.938569, -17.699116 ], [ -65.938233, -17.6991 ], [ -65.937946, -17.69905 ], [ -65.937922, -17.699026 ], [ -65.937696, -17.69892 ], [ -65.937554, -17.698803 ], [ -65.93734, -17.698662 ], [ -65.936973, -17.698323 ], [ -65.936698, -17.698216 ], [ -65.936244, -17.698094 ], [ -65.936244, -17.698083 ], [ -65.936196, -17.698082 ], [ -65.936076, -17.698046 ], [ -65.935862, -17.697939 ], [ -65.935826, -17.697939 ], [ -65.935719, -17.697868 ], [ -65.93547, -17.697658 ], [ -65.935411, -17.697588 ], [ -65.93512, -17.696952 ], [ -65.935016, -17.696686 ], [ -65.934938, -17.696294 ], [ -65.934931, -17.695926 ], [ -65.93492, -17.695914 ], [ -65.934869, -17.695259 ], [ -65.934767, -17.694878 ], [ -65.934652, -17.694543 ], [ -65.934477, -17.694207 ], [ -65.934289, -17.693894 ], [ -65.934043, -17.693523 ], [ -65.933959, -17.693487 ], [ -65.933734, -17.693311 ], [ -65.933338, -17.69326 ], [ -65.932583, -17.693214 ], [ -65.93214, -17.693105 ], [ -65.931627, -17.693108 ], [ -65.931242, -17.692941 ], [ -65.930926, -17.69286 ], [ -65.930473, -17.69263 ], [ -65.930102, -17.691946 ], [ -65.930097, -17.691601 ], [ -65.930069, -17.6913 ], [ -65.93017, -17.690812 ], [ -65.930236, -17.690422 ], [ -65.930237, -17.690307 ], [ -65.930312, -17.690101 ], [ -65.930339, -17.689952 ], [ -65.93055, -17.689472 ], [ -65.930688, -17.689026 ], [ -65.930768, -17.688662 ], [ -65.930719, -17.688426 ], [ -65.930565, -17.688461 ], [ -65.930348, -17.688481 ], [ -65.929952, -17.688475 ], [ -65.929511, -17.688297 ], [ -65.929345, -17.688168 ], [ -65.929309, -17.688167 ], [ -65.929072, -17.687911 ], [ -65.928991, -17.687749 ], [ -65.928748, -17.687113 ], [ -65.928681, -17.686813 ], [ -65.928646, -17.686744 ], [ -65.928646, -17.686687 ], [ -65.928556, -17.686317 ], [ -65.928544, -17.686317 ], [ -65.928514, -17.685914 ], [ -65.928492, -17.685788 ], [ -65.928494, -17.685638 ], [ -65.92846, -17.685488 ], [ -65.928453, -17.68435 ], [ -65.928107, -17.68338 ], [ -65.927921, -17.683009 ], [ -65.927909, -17.682963 ], [ -65.927874, -17.682928 ], [ -65.927841, -17.682732 ], [ -65.92786, -17.682215 ], [ -65.927898, -17.682066 ], [ -65.927905, -17.68163 ], [ -65.927871, -17.681491 ], [ -65.927873, -17.68133 ], [ -65.927738, -17.680731 ], [ -65.92747, -17.680198 ], [ -65.927446, -17.680175 ], [ -65.927283, -17.679851 ], [ -65.927121, -17.67948 ], [ -65.926995, -17.679019 ], [ -65.926918, -17.678569 ], [ -65.926911, -17.678259 ], [ -65.926656, -17.676841 ], [ -65.926695, -17.674968 ], [ -65.926876, -17.674132 ], [ -65.926879, -17.673891 ], [ -65.926857, -17.673787 ], [ -65.926848, -17.67358 ], [ -65.926826, -17.673453 ], [ -65.926829, -17.673235 ], [ -65.926592, -17.672174 ], [ -65.926537, -17.67184 ], [ -65.926469, -17.671597 ], [ -65.92647, -17.67154 ], [ -65.926413, -17.671355 ], [ -65.926482, -17.671023 ], [ -65.926476, -17.670635 ], [ -65.91859, -17.668958 ], [ -65.916, -17.67076 ], [ -65.910164, -17.673835 ], [ -65.901821, -17.675435 ], [ -65.898379, -17.672122 ], [ -65.894522, -17.676888 ], [ -65.893586, -17.678941 ] ] ], [ [ [ -65.96189, -17.600093 ], [ -65.96206, -17.60044 ], [ -65.962127, -17.600613 ], [ -65.962201, -17.600991 ], [ -65.962201, -17.600996 ], [ -65.962201, -17.600996 ], [ -65.962197, -17.601179 ], [ -65.962133, -17.60136 ], [ -65.96201, -17.601528 ], [ -65.961802, -17.601762 ], [ -65.961401, -17.602129 ], [ -65.961182, -17.602306 ], [ -65.961001, -17.602416 ], [ -65.960761, -17.602501 ], [ -65.960426, -17.602561 ], [ -65.960308, -17.602558 ], [ -65.959841, -17.60265 ], [ -65.959745, -17.602681 ], [ -65.959516, -17.602801 ], [ -65.959382, -17.602935 ], [ -65.959358, -17.602934 ], [ -65.959126, -17.603705 ], [ -65.959124, -17.603769 ], [ -65.959311, -17.604904 ], [ -65.959316, -17.605189 ], [ -65.959316, -17.60519 ], [ -65.959316, -17.605194 ], [ -65.959288, -17.605399 ], [ -65.959122, -17.60584 ], [ -65.958955, -17.606097 ], [ -65.958707, -17.60633 ], [ -65.958425, -17.606569 ], [ -65.957743, -17.606623 ], [ -65.957834, -17.606744 ], [ -65.957979, -17.606899 ], [ -65.958103, -17.607024 ], [ -65.95842, -17.607359 ], [ -65.958584, -17.607466 ], [ -65.959038, -17.607877 ], [ -65.959282, -17.608146 ], [ -65.959468, -17.608322 ], [ -65.959678, -17.608475 ], [ -65.959992, -17.608814 ], [ -65.960095, -17.608954 ], [ -65.960244, -17.609209 ], [ -65.96038, -17.609498 ], [ -65.960725, -17.610488 ], [ -65.960886, -17.610721 ], [ -65.961066, -17.611171 ], [ -65.961157, -17.611344 ], [ -65.961224, -17.611517 ], [ -65.961373, -17.611761 ], [ -65.961466, -17.611877 ], [ -65.961727, -17.61242 ], [ -65.96183, -17.612594 ], [ -65.961863, -17.612698 ], [ -65.962208, -17.613209 ], [ -65.962381, -17.61343 ], [ -65.962731, -17.613724 ], [ -65.96314, -17.613826 ], [ -65.963405, -17.613917 ], [ -65.963688, -17.614087 ], [ -65.963917, -17.614406 ], [ -65.963954, -17.614666 ], [ -65.963966, -17.614879 ], [ -65.963966, -17.614881 ], [ -65.963966, -17.614884 ], [ -65.963938, -17.615184 ], [ -65.963906, -17.615368 ], [ -65.963893, -17.615912 ], [ -65.963974, -17.616496 ], [ -65.96403, -17.616634 ], [ -65.965354, -17.618026 ], [ -65.965759, -17.618516 ], [ -65.96616, -17.619154 ], [ -65.966403, -17.619457 ], [ -65.966632, -17.619839 ], [ -65.966802, -17.620209 ], [ -65.966896, -17.620725 ], [ -65.966888, -17.62157 ], [ -65.966888, -17.62157 ], [ -65.966888, -17.621575 ], [ -65.966861, -17.621699 ], [ -65.966838, -17.622198 ], [ -65.966875, -17.622643 ], [ -65.966907, -17.622769 ], [ -65.966967, -17.623262 ], [ -65.966967, -17.623266 ], [ -65.966967, -17.623266 ], [ -65.966965, -17.623342 ], [ -65.967031, -17.623583 ], [ -65.967083, -17.62387 ], [ -65.96732, -17.624446 ], [ -65.967445, -17.624689 ], [ -65.967732, -17.625119 ], [ -65.967766, -17.625211 ], [ -65.968065, -17.625653 ], [ -65.968155, -17.625838 ], [ -65.968396, -17.626232 ], [ -65.968651, -17.626524 ], [ -65.969163, -17.627005 ], [ -65.969383, -17.627261 ], [ -65.969544, -17.627505 ], [ -65.969649, -17.62761 ], [ -65.969857, -17.627867 ], [ -65.970006, -17.628099 ], [ -65.970226, -17.628344 ], [ -65.970409, -17.62868 ], [ -65.970531, -17.629037 ], [ -65.970552, -17.629163 ], [ -65.970585, -17.629255 ], [ -65.970627, -17.62953 ], [ -65.970666, -17.630825 ], [ -65.970666, -17.630829 ], [ -65.970666, -17.63083 ], [ -65.970656, -17.631306 ], [ -65.97061, -17.631494 ], [ -65.970574, -17.631686 ], [ -65.970523, -17.631827 ], [ -65.970472, -17.631968 ], [ -65.970433, -17.632058 ], [ -65.970395, -17.632148 ], [ -65.970304, -17.632277 ], [ -65.970239, -17.632406 ], [ -65.960673, -17.644951 ], [ -65.960477, -17.645209 ], [ -65.952625, -17.65533 ], [ -65.953956, -17.661178 ], [ -65.953955, -17.661179 ], [ -65.953956, -17.661183 ], [ -65.95355, -17.661499 ], [ -65.952953, -17.661775 ], [ -65.952457, -17.662193 ], [ -65.952216, -17.662324 ], [ -65.951561, -17.662844 ], [ -65.951105, -17.663472 ], [ -65.951104, -17.663506 ], [ -65.95088, -17.663946 ], [ -65.950718, -17.664216 ], [ -65.950681, -17.664306 ], [ -65.950594, -17.664429 ], [ -65.950445, -17.6647 ], [ -65.950407, -17.664813 ], [ -65.950206, -17.665253 ], [ -65.95018, -17.665344 ], [ -65.950156, -17.665343 ], [ -65.950079, -17.665547 ], [ -65.950014, -17.665785 ], [ -65.949926, -17.665977 ], [ -65.949759, -17.666509 ], [ -65.949677, -17.666953 ], [ -65.949644, -17.667815 ], [ -65.949736, -17.668479 ], [ -65.949893, -17.668883 ], [ -65.949984, -17.669045 ], [ -65.950006, -17.669137 ], [ -65.950063, -17.669218 ], [ -65.950131, -17.669391 ], [ -65.950216, -17.669782 ], [ -65.950272, -17.669932 ], [ -65.950358, -17.670345 ], [ -65.950358, -17.670349 ], [ -65.950358, -17.67035 ], [ -65.950356, -17.670413 ], [ -65.950401, -17.67054 ], [ -65.9504, -17.670543 ], [ -65.950401, -17.670545 ], [ -65.950376, -17.670705 ], [ -65.950291, -17.670904 ], [ -65.94998, -17.671069 ], [ -65.949816, -17.671146 ], [ -65.949707, -17.671204 ], [ -65.949656, -17.671268 ], [ -65.949581, -17.671406 ], [ -65.949486, -17.671643 ], [ -65.94946, -17.671757 ], [ -65.949386, -17.671894 ], [ -65.94921, -17.672455 ], [ -65.949001, -17.673294 ], [ -65.949067, -17.673769 ], [ -65.949085, -17.673951 ], [ -65.949147, -17.674176 ], [ -65.949165, -17.674344 ], [ -65.949167, -17.674485 ], [ -65.949243, -17.674666 ], [ -65.94929, -17.67482 ], [ -65.949395, -17.67496 ], [ -65.949456, -17.675113 ], [ -65.949547, -17.675295 ], [ -65.949668, -17.675485 ], [ -65.949744, -17.67568 ], [ -65.949903, -17.675932 ], [ -65.950018, -17.676266 ], [ -65.950098, -17.676555 ], [ -65.950309, -17.676914 ], [ -65.950391, -17.677007 ], [ -65.95045, -17.6771 ], [ -65.950533, -17.677182 ], [ -65.950556, -17.677228 ], [ -65.950709, -17.677403 ], [ -65.950946, -17.677613 ], [ -65.950946, -17.677618 ], [ -65.950946, -17.677659 ], [ -65.951041, -17.677706 ], [ -65.951195, -17.677823 ], [ -65.954851, -17.679198 ], [ -65.964818, -17.682842 ], [ -65.964848, -17.682898 ], [ -65.964893, -17.682968 ], [ -65.964939, -17.683094 ], [ -65.965075, -17.683345 ], [ -65.965124, -17.683438 ], [ -65.965246, -17.683717 ], [ -65.965409, -17.684117 ], [ -65.96549, -17.68429 ], [ -65.96583, -17.684893 ], [ -65.966395, -17.685648 ], [ -65.967184, -17.686659 ], [ -65.967665, -17.687413 ], [ -65.96777, -17.687633 ], [ -65.968157, -17.688282 ], [ -65.968746, -17.689049 ], [ -65.969348, -17.689724 ], [ -65.969853, -17.690444 ], [ -65.970463, -17.691452 ], [ -65.970913, -17.692066 ], [ -65.971202, -17.692601 ], [ -65.971484, -17.69303 ], [ -65.971484, -17.693035 ], [ -65.971483, -17.693076 ], [ -65.971744, -17.693321 ], [ -65.972183, -17.693638 ], [ -65.972553, -17.693838 ], [ -65.972875, -17.693969 ], [ -65.973197, -17.694123 ], [ -65.974232, -17.694747 ], [ -65.974314, -17.69484 ], [ -65.974386, -17.694875 ], [ -65.974504, -17.694992 ], [ -65.975033, -17.695747 ], [ -65.975139, -17.69592 ], [ -65.975778, -17.696504 ], [ -65.976016, -17.696645 ], [ -65.976422, -17.696847 ], [ -65.97659, -17.696849 ], [ -65.976697, -17.696873 ], [ -65.976985, -17.696889 ], [ -65.977165, -17.696914 ], [ -65.977272, -17.69695 ], [ -65.977503, -17.696937 ], [ -65.977685, -17.696934 ], [ -65.977997, -17.696796 ], [ -65.978651, -17.69652 ], [ -65.979118, -17.696264 ], [ -65.979589, -17.696098 ], [ -65.979806, -17.695998 ], [ -65.980192, -17.695865 ], [ -65.981169, -17.69558 ], [ -65.981433, -17.695526 ], [ -65.982241, -17.695262 ], [ -65.98299, -17.694985 ], [ -65.984929, -17.694483 ], [ -65.985581, -17.694228 ], [ -65.986064, -17.694016 ], [ -65.986363, -17.693729 ], [ -65.986537, -17.693698 ], [ -65.986769, -17.693582 ], [ -65.98686, -17.693777 ], [ -65.986869, -17.693959 ], [ -65.986878, -17.694177 ], [ -65.986878, -17.694179 ], [ -65.986878, -17.694182 ], [ -65.986798, -17.694721 ], [ -65.986794, -17.694957 ], [ -65.986794, -17.694958 ], [ -65.986794, -17.694962 ], [ -65.986729, -17.695352 ], [ -65.986673, -17.696719 ], [ -65.986593, -17.697258 ], [ -65.986564, -17.697591 ], [ -65.98656, -17.697931 ], [ -65.98664, -17.699013 ], [ -65.98664, -17.699018 ], [ -65.986637, -17.699254 ], [ -65.986636, -17.699254 ], [ -65.986636, -17.699259 ], [ -65.986521, -17.699812 ], [ -65.986388, -17.700598 ], [ -65.986136, -17.702309 ], [ -65.98595, -17.702766 ], [ -65.985874, -17.703018 ], [ -65.985774, -17.703281 ], [ -65.985636, -17.703716 ], [ -65.985597, -17.703911 ], [ -65.985276, -17.704403 ], [ -65.985005, -17.704855 ], [ -65.984734, -17.705238 ], [ -65.984535, -17.705563 ], [ -65.984292, -17.705889 ], [ -65.984192, -17.706058 ], [ -65.984048, -17.706201 ], [ -65.983819, -17.706484 ], [ -65.98366, -17.706711 ], [ -65.983479, -17.706801 ], [ -65.983322, -17.706845 ], [ -65.983044, -17.707002 ], [ -65.982911, -17.707057 ], [ -65.982608, -17.707306 ], [ -65.982424, -17.707522 ], [ -65.982264, -17.707807 ], [ -65.982189, -17.708059 ], [ -65.982188, -17.7081 ], [ -65.982188, -17.7081 ], [ -65.982188, -17.708105 ], [ -65.982151, -17.708196 ], [ -65.982106, -17.708451 ], [ -65.981935, -17.708635 ], [ -65.981818, -17.708651 ], [ -65.98169, -17.708612 ], [ -65.986677, -17.71721 ], [ -65.986676, -17.717213 ], [ -65.986677, -17.717214 ], [ -65.985454, -17.721369 ], [ -65.98858, -17.723588 ], [ -65.99521, -17.724091 ], [ -65.998587, -17.729502 ], [ -65.998585, -17.729505 ], [ -65.998587, -17.729507 ], [ -65.99404, -17.735111 ], [ -65.991317, -17.751579 ], [ -66.000286, -17.764135 ], [ -66.000289, -17.76414 ], [ -66.001617, -17.764008 ], [ -66.00181, -17.763931 ], [ -66.001804, -17.763931 ], [ -66.001816, -17.763926 ], [ -66.001804, -17.763926 ], [ -66.002068, -17.763821 ], [ -66.018543, -17.757544 ], [ -66.018543, -17.757741 ], [ -66.018543, -17.757742 ], [ -66.018543, -17.757745 ], [ -66.018526, -17.758083 ], [ -66.01857, -17.758401 ], [ -66.01878, -17.758757 ], [ -66.019159, -17.75907 ], [ -66.019455, -17.759393 ], [ -66.020055, -17.760164 ], [ -66.020189, -17.760872 ], [ -66.020305, -17.761146 ], [ -66.020481, -17.761433 ], [ -66.021429, -17.762209 ], [ -66.022114, -17.762925 ], [ -66.023151, -17.764192 ], [ -66.023671, -17.764734 ], [ -66.024094, -17.765286 ], [ -66.025146, -17.766405 ], [ -66.025386, -17.766618 ], [ -66.025385, -17.766622 ], [ -66.025386, -17.766622 ], [ -66.023418, -17.77575 ], [ -66.023227, -17.776368 ], [ -66.024589, -17.790784 ], [ -66.035953, -17.793505 ], [ -66.035953, -17.793661 ], [ -66.035962, -17.793877 ], [ -66.035962, -17.793878 ], [ -66.035962, -17.793882 ], [ -66.035862, -17.794188 ], [ -66.03475, -17.795721 ], [ -66.034407, -17.796297 ], [ -66.03397, -17.796723 ], [ -66.032528, -17.797876 ], [ -66.032161, -17.798372 ], [ -66.032157, -17.798697 ], [ -66.032157, -17.798697 ], [ -66.032157, -17.798702 ], [ -66.031894, -17.799541 ], [ -66.031574, -17.800117 ], [ -66.031208, -17.800624 ], [ -66.030637, -17.801208 ], [ -66.030343, -17.801659 ], [ -66.030081, -17.80243 ], [ -66.029873, -17.803622 ], [ -66.029735, -17.804064 ], [ -66.029215, -17.804353 ], [ -66.029119, -17.804363 ], [ -66.028914, -17.804486 ], [ -66.027977, -17.80552 ], [ -66.027538, -17.806083 ], [ -66.027301, -17.80674 ], [ -66.027237, -17.807058 ], [ -66.027087, -17.807477 ], [ -66.026622, -17.808211 ], [ -66.025781, -17.809246 ], [ -66.025545, -17.809824 ], [ -66.025493, -17.810108 ], [ -66.02548, -17.811059 ], [ -66.02548, -17.811059 ], [ -66.02548, -17.811064 ], [ -66.025078, -17.81157 ], [ -66.022741, -17.814134 ], [ -66.022291, -17.814674 ], [ -66.021757, -17.815167 ], [ -66.020316, -17.816217 ], [ -66.020023, -17.8166 ], [ -66.0199, -17.816849 ], [ -66.019624, -17.817688 ], [ -66.019218, -17.818479 ], [ -66.01852, -17.819562 ], [ -66.01842, -17.819857 ], [ -66.018404, -17.821024 ], [ -66.018404, -17.821024 ], [ -66.018404, -17.821029 ], [ -66.018184, -17.822221 ], [ -66.018109, -17.822471 ], [ -66.017936, -17.822833 ], [ -66.017642, -17.82325 ], [ -66.017517, -17.823681 ], [ -66.017461, -17.824215 ], [ -66.017348, -17.8246 ], [ -66.016846, -17.825413 ], [ -66.016517, -17.825784 ], [ -66.016124, -17.826485 ], [ -66.015417, -17.827306 ], [ -66.015282, -17.827566 ], [ -66.014983, -17.828404 ], [ -66.014726, -17.828788 ], [ -66.014092, -17.829553 ], [ -66.013761, -17.830049 ], [ -66.013511, -17.830797 ], [ -66.012304, -17.832646 ], [ -66.011945, -17.833224 ], [ -66.011641, -17.834093 ], [ -66.011649, -17.834556 ], [ -66.012068, -17.834999 ], [ -66.012431, -17.835285 ], [ -66.012883, -17.835519 ], [ -66.014019, -17.835751 ], [ -66.014966, -17.835765 ], [ -66.015491, -17.835874 ], [ -66.015908, -17.836074 ], [ -66.016288, -17.83633 ], [ -66.016489, -17.836583 ], [ -66.016732, -17.836842 ], [ -66.016923, -17.837003 ], [ -66.016928, -17.837006 ], [ -66.017398, -17.837402 ], [ -66.018223, -17.837508 ], [ -66.018893, -17.837511 ], [ -66.019359, -17.837592 ], [ -66.019681, -17.837742 ], [ -66.020026, -17.83803 ], [ -66.020144, -17.838225 ], [ -66.020505, -17.839668 ], [ -66.020766, -17.840047 ], [ -66.021219, -17.840323 ], [ -66.021887, -17.840589 ], [ -66.022542, -17.841072 ], [ -66.023541, -17.842014 ], [ -66.023825, -17.842381 ], [ -66.023919, -17.84269 ], [ -66.023918, -17.842695 ], [ -66.023919, -17.842695 ], [ -66.023905, -17.842901 ], [ -66.023844, -17.843061 ], [ -66.0237, -17.843233 ], [ -66.023423, -17.843438 ], [ -66.023099, -17.843608 ], [ -66.022763, -17.843699 ], [ -66.022163, -17.843949 ], [ -66.021658, -17.844245 ], [ -66.021298, -17.844507 ], [ -66.021032, -17.844826 ], [ -66.020983, -17.845008 ], [ -66.021029, -17.845337 ], [ -66.021145, -17.845738 ], [ -66.02143, -17.846185 ], [ -66.021822, -17.846496 ], [ -66.022108, -17.846668 ], [ -66.022848, -17.846946 ], [ -66.023685, -17.847131 ], [ -66.024747, -17.847559 ], [ -66.025188, -17.847858 ], [ -66.025997, -17.848547 ], [ -66.027553, -17.850167 ], [ -66.028181, -17.851153 ], [ -66.029251, -17.852118 ], [ -66.02925, -17.852187 ], [ -66.030035, -17.852922 ], [ -66.031154, -17.853796 ], [ -66.031582, -17.85421 ], [ -66.032826, -17.855385 ], [ -66.03377, -17.855946 ], [ -66.034385, -17.856255 ], [ -66.034384, -17.856259 ], [ -66.034385, -17.85626 ], [ -66.034587, -17.855524 ], [ -66.036759, -17.8533 ], [ -66.040505, -17.852079 ], [ -66.042753, -17.8505 ], [ -66.043052, -17.847845 ], [ -66.04485, -17.846482 ], [ -66.045449, -17.845405 ], [ -66.045223, -17.842679 ], [ -66.047096, -17.840526 ], [ -66.047596, -17.83928 ], [ -66.050893, -17.839494 ], [ -66.052466, -17.840068 ], [ -66.055312, -17.837986 ], [ -66.057484, -17.832963 ], [ -66.058532, -17.831241 ], [ -66.061079, -17.830738 ], [ -66.06415, -17.829876 ], [ -66.066472, -17.828727 ], [ -66.067745, -17.827363 ], [ -66.070292, -17.826717 ], [ -66.073063, -17.824635 ], [ -66.077932, -17.821978 ], [ -66.081603, -17.822264 ], [ -66.0834, -17.820541 ], [ -66.084222, -17.816738 ], [ -66.086918, -17.814369 ], [ -66.08939, -17.81322 ], [ -66.091037, -17.811712 ], [ -66.096879, -17.810776 ], [ -66.101257, -17.808354 ], [ -66.105169, -17.807619 ], [ -66.108956, -17.806039 ], [ -66.111262, -17.806354 ], [ -66.120975, -17.800038 ], [ -66.124762, -17.798774 ], [ -66.126902, -17.797353 ], [ -66.128191, -17.796376 ], [ -66.130029, -17.794984 ], [ -66.134474, -17.793877 ], [ -66.137947, -17.793197 ], [ -66.137953, -17.793197 ], [ -66.137946, -17.793186 ], [ -66.13906, -17.793266 ], [ -66.139536, -17.792937 ], [ -66.140118, -17.792542 ], [ -66.140473, -17.792042 ], [ -66.140536, -17.791776 ], [ -66.14058, -17.791589 ], [ -66.140499, -17.790953 ], [ -66.140244, -17.790352 ], [ -66.140004, -17.78999 ], [ -66.139401, -17.789368 ], [ -66.138689, -17.788812 ], [ -66.138059, -17.788496 ], [ -66.137497, -17.788352 ], [ -66.136445, -17.788213 ], [ -66.135668, -17.788054 ], [ -66.135167, -17.787831 ], [ -66.134085, -17.787214 ], [ -66.133575, -17.78682 ], [ -66.133327, -17.786543 ], [ -66.132986, -17.786049 ], [ -66.132308, -17.784765 ], [ -66.131738, -17.783437 ], [ -66.131126, -17.782632 ], [ -66.130809, -17.78215 ], [ -66.130465, -17.781827 ], [ -66.130025, -17.78157 ], [ -66.129729, -17.781339 ], [ -66.129364, -17.780867 ], [ -66.129106, -17.78042 ], [ -66.128862, -17.779847 ], [ -66.128631, -17.779138 ], [ -66.12845, -17.77744 ], [ -66.127959, -17.776477 ], [ -66.127846, -17.775986 ], [ -66.127827, -17.7747 ], [ -66.128093, -17.7727 ], [ -66.128181, -17.772394 ], [ -66.128649, -17.771398 ], [ -66.128826, -17.770706 ], [ -66.128858, -17.770092 ], [ -66.128804, -17.769681 ], [ -66.128689, -17.769293 ], [ -66.128736, -17.768462 ], [ -66.129443, -17.766594 ], [ -66.129474, -17.766048 ], [ -66.129419, -17.765705 ], [ -66.129062, -17.764631 ], [ -66.128962, -17.764026 ], [ -66.128988, -17.762956 ], [ -66.129104, -17.762343 ], [ -66.129149, -17.761627 ], [ -66.128995, -17.760623 ], [ -66.128999, -17.760281 ], [ -66.129421, -17.758261 ], [ -66.13002, -17.756448 ], [ -66.130403, -17.755576 ], [ -66.130556, -17.754838 ], [ -66.130564, -17.754258 ], [ -66.130332, -17.752718 ], [ -66.130422, -17.751399 ], [ -66.130778, -17.750721 ], [ -66.130833, -17.750164 ], [ -66.13046, -17.749373 ], [ -66.129981, -17.74849 ], [ -66.129789, -17.747554 ], [ -66.129748, -17.747076 ], [ -66.129779, -17.746518 ], [ -66.129891, -17.746212 ], [ -66.13027, -17.745648 ], [ -66.130423, -17.744922 ], [ -66.13057, -17.744662 ], [ -66.130741, -17.744459 ], [ -66.131092, -17.744179 ], [ -66.131493, -17.743752 ], [ -66.131591, -17.743594 ], [ -66.131717, -17.743095 ], [ -66.131725, -17.74248 ], [ -66.131624, -17.741033 ], [ -66.131408, -17.740143 ], [ -66.131434, -17.739995 ], [ -66.131532, -17.739871 ], [ -66.131773, -17.739715 ], [ -66.132134, -17.739629 ], [ -66.132166, -17.739626 ], [ -66.132167, -17.739626 ], [ -66.133093, -17.739562 ], [ -66.134355, -17.738338 ], [ -66.135157, -17.737472 ], [ -66.135681, -17.736796 ], [ -66.136033, -17.736448 ], [ -66.136348, -17.736202 ], [ -66.136603, -17.735909 ], [ -66.136946, -17.735368 ], [ -66.137587, -17.733965 ], [ -66.138137, -17.733107 ], [ -66.138738, -17.731146 ], [ -66.139044, -17.730672 ], [ -66.139299, -17.730356 ], [ -66.140715, -17.729271 ], [ -66.141311, -17.728573 ], [ -66.141557, -17.72811 ], [ -66.141695, -17.727588 ], [ -66.141737, -17.727111 ], [ -66.141732, -17.726632 ], [ -66.141562, -17.725879 ], [ -66.14152, -17.725389 ], [ -66.14155, -17.724957 ], [ -66.141662, -17.724651 ], [ -66.141812, -17.723219 ], [ -66.141998, -17.722789 ], [ -66.142304, -17.722303 ], [ -66.14244, -17.721952 ], [ -66.142486, -17.721179 ], [ -66.142659, -17.720794 ], [ -66.142913, -17.720581 ], [ -66.143202, -17.720482 ], [ -66.143235, -17.720477 ], [ -66.143239, -17.720476 ], [ -66.143687, -17.720408 ], [ -66.144451, -17.720192 ], [ -66.144482, -17.720187 ], [ -66.144489, -17.720185 ], [ -66.145368, -17.720054 ], [ -66.14564, -17.719969 ], [ -66.145921, -17.719574 ], [ -66.146066, -17.719439 ], [ -66.14667, -17.719072 ], [ -66.147045, -17.718792 ], [ -66.14798, -17.717803 ], [ -66.148416, -17.717422 ], [ -66.149205, -17.716624 ], [ -66.150411, -17.715126 ], [ -66.151478, -17.714127 ], [ -66.152658, -17.712697 ], [ -66.152891, -17.712325 ], [ -66.153041, -17.711826 ], [ -66.153047, -17.711337 ], [ -66.153106, -17.711252 ], [ -66.15311, -17.711232 ], [ -66.153533, -17.710615 ], [ -66.153528, -17.710518 ], [ -66.153484, -17.709685 ], [ -66.153485, -17.709683 ], [ -66.153478, -17.709555 ], [ -66.153484, -17.709043 ], [ -66.15343, -17.708655 ], [ -66.153255, -17.708277 ], [ -66.152564, -17.707107 ], [ -66.152439, -17.706536 ], [ -66.152101, -17.70586 ], [ -66.151892, -17.705322 ], [ -66.151792, -17.704706 ], [ -66.151527, -17.703917 ], [ -66.151293, -17.703527 ], [ -66.15048, -17.702526 ], [ -66.149056, -17.700572 ], [ -66.148811, -17.700045 ], [ -66.148779, -17.699749 ], [ -66.148787, -17.699168 ], [ -66.148885, -17.698043 ], [ -66.149209, -17.697136 ], [ -66.149404, -17.696854 ], [ -66.150772, -17.695734 ], [ -66.151525, -17.694936 ], [ -66.15177, -17.69453 ], [ -66.152004, -17.694043 ], [ -66.152358, -17.693524 ], [ -66.153073, -17.692897 ], [ -66.154716, -17.690892 ], [ -66.155661, -17.690017 ], [ -66.156205, -17.689626 ], [ -66.156446, -17.689504 ], [ -66.156475, -17.689496 ], [ -66.156487, -17.68949 ], [ -66.156953, -17.68936 ], [ -66.157657, -17.689316 ], [ -66.157661, -17.689315 ], [ -66.157699, -17.689312 ], [ -66.157891, -17.689267 ], [ -66.158239, -17.688822 ], [ -66.158778, -17.687919 ], [ -66.159466, -17.686607 ], [ -66.159938, -17.686192 ], [ -66.159977, -17.68618 ], [ -66.15998, -17.686177 ], [ -66.160418, -17.686038 ], [ -66.152853, -17.678937 ], [ -66.152415, -17.67846 ], [ -66.158252, -17.670473 ], [ -66.163467, -17.662822 ], [ -66.163454, -17.662807 ], [ -66.168425, -17.656628 ], [ -66.150582, -17.6474 ], [ -66.145382, -17.645657 ], [ -66.129681, -17.614901 ], [ -66.13379, -17.603138 ], [ -66.119588, -17.60764 ], [ -66.093133, -17.603356 ], [ -66.065977, -17.601152 ], [ -66.053513, -17.600516 ], [ -66.044954, -17.604958 ], [ -66.019521, -17.600551 ], [ -66.001783, -17.605596 ], [ -66.001797, -17.605596 ], [ -66.001785, -17.6056 ], [ -66.000814, -17.605795 ], [ -66.00023, -17.605801 ], [ -65.999646, -17.605713 ], [ -65.99916, -17.605811 ], [ -65.998674, -17.605816 ], [ -65.997894, -17.605637 ], [ -65.996582, -17.605349 ], [ -65.995814, -17.605082 ], [ -65.992719, -17.60422 ], [ -65.991903, -17.603896 ], [ -65.990848, -17.60357 ], [ -65.989685, -17.603601 ], [ -65.988822, -17.603414 ], [ -65.988271, -17.603354 ], [ -65.985103, -17.602182 ], [ -65.98436, -17.601949 ], [ -65.983664, -17.601797 ], [ -65.982549, -17.60169 ], [ -65.981555, -17.601744 ], [ -65.979745, -17.601761 ], [ -65.978247, -17.601825 ], [ -65.977816, -17.6018 ], [ -65.975153, -17.601101 ], [ -65.973942, -17.60097 ], [ -65.969853, -17.600174 ], [ -65.968138, -17.599673 ], [ -65.967047, -17.599451 ], [ -65.963833, -17.598508 ], [ -65.962181, -17.598006 ], [ -65.961964, -17.598204 ], [ -65.961845, -17.598372 ], [ -65.961737, -17.598627 ], [ -65.961628, -17.598844 ], [ -65.961571, -17.598982 ], [ -65.961568, -17.599047 ], [ -65.961549, -17.599422 ], [ -65.961662, -17.599676 ], [ -65.96189, -17.600093 ] ] ], [ [ [ -66.066991, -17.480786 ], [ -66.065431, -17.487519 ], [ -66.056635, -17.494589 ], [ -66.043811, -17.497383 ], [ -66.046556, -17.506547 ], [ -66.046528, -17.508306 ], [ -66.046191, -17.509322 ], [ -66.04628, -17.510436 ], [ -66.04663, -17.510797 ], [ -66.04742, -17.515159 ], [ -66.046517, -17.520769 ], [ -66.049429, -17.521574 ], [ -66.050012, -17.520153 ], [ -66.050923, -17.520366 ], [ -66.051712, -17.518788 ], [ -66.057487, -17.516353 ], [ -66.066268, -17.523033 ], [ -66.072216, -17.524241 ], [ -66.077681, -17.524192 ], [ -66.079925, -17.527939 ], [ -66.084881, -17.528297 ], [ -66.084977, -17.529166 ], [ -66.085038, -17.530038 ], [ -66.085004, -17.530461 ], [ -66.084957, -17.531038 ], [ -66.08504, -17.53148 ], [ -66.084936, -17.531741 ], [ -66.084475, -17.53233 ], [ -66.084328, -17.532814 ], [ -66.084091, -17.533247 ], [ -66.083199, -17.53372 ], [ -66.082743, -17.534123 ], [ -66.082096, -17.535212 ], [ -66.082152, -17.5353 ], [ -66.080739, -17.536384 ], [ -66.080837, -17.536623 ], [ -66.080197, -17.537027 ], [ -66.07997, -17.537316 ], [ -66.079957, -17.537537 ], [ -66.080088, -17.537676 ], [ -66.079708, -17.53809 ], [ -66.079346, -17.538266 ], [ -66.079239, -17.538441 ], [ -66.079074, -17.53859 ], [ -66.079071, -17.538692 ], [ -66.079067, -17.538829 ], [ -66.079226, -17.538879 ], [ -66.079178, -17.538939 ], [ -66.079134, -17.538935 ], [ -66.079013, -17.538926 ], [ -66.07871, -17.539082 ], [ -66.078671, -17.539173 ], [ -66.078486, -17.539611 ], [ -66.078285, -17.539546 ], [ -66.077792, -17.539685 ], [ -66.077575, -17.539965 ], [ -66.077562, -17.540201 ], [ -66.077542, -17.540574 ], [ -66.077241, -17.541001 ], [ -66.077061, -17.541258 ], [ -66.076959, -17.541657 ], [ -66.076733, -17.542043 ], [ -66.076318, -17.54197 ], [ -66.075447, -17.542261 ], [ -66.075411, -17.542586 ], [ -66.075342, -17.542718 ], [ -66.075099, -17.542902 ], [ -66.074775, -17.542948 ], [ -66.074478, -17.543369 ], [ -66.074203, -17.543701 ], [ -66.073626, -17.543889 ], [ -66.073364, -17.544207 ], [ -66.073391, -17.544361 ], [ -66.073189, -17.544209 ], [ -66.072844, -17.544097 ], [ -66.071934, -17.544359 ], [ -66.071762, -17.54429 ], [ -66.071507, -17.544316 ], [ -66.071225, -17.544501 ], [ -66.070471, -17.545026 ], [ -66.070106, -17.545451 ], [ -66.069681, -17.545159 ], [ -66.069154, -17.545044 ], [ -66.068897, -17.544988 ], [ -66.068486, -17.54513 ], [ -66.067966, -17.545227 ], [ -66.067708, -17.545257 ], [ -66.067482, -17.545284 ], [ -66.067012, -17.545406 ], [ -66.066695, -17.545488 ], [ -66.066095, -17.545413 ], [ -66.064969, -17.545696 ], [ -66.064303, -17.546057 ], [ -66.063773, -17.546431 ], [ -66.063477, -17.546765 ], [ -66.063191, -17.54717 ], [ -66.062774, -17.547399 ], [ -66.06187, -17.547441 ], [ -66.061347, -17.547988 ], [ -66.060908, -17.548388 ], [ -66.06033, -17.54874 ], [ -66.059563, -17.54983 ], [ -66.058661, -17.550226 ], [ -66.058321, -17.550285 ], [ -66.057889, -17.550137 ], [ -66.057593, -17.55041 ], [ -66.057151, -17.550444 ], [ -66.056813, -17.550471 ], [ -66.05601, -17.550712 ], [ -66.055347, -17.550639 ], [ -66.054253, -17.550639 ], [ -66.053872, -17.550808 ], [ -66.053531, -17.551084 ], [ -66.052727, -17.551227 ], [ -66.052128, -17.551266 ], [ -66.051688, -17.551515 ], [ -66.051165, -17.551592 ], [ -66.050778, -17.551509 ], [ -66.050442, -17.550926 ], [ -66.050105, -17.550508 ], [ -66.049993, -17.550237 ], [ -66.049782, -17.550085 ], [ -66.049572, -17.550058 ], [ -66.049338, -17.549884 ], [ -66.048898, -17.550021 ], [ -66.048684, -17.549671 ], [ -66.047923, -17.549519 ], [ -66.047359, -17.549407 ], [ -66.046917, -17.54908 ], [ -66.046421, -17.549123 ], [ -66.045469, -17.548871 ], [ -66.044762, -17.548946 ], [ -66.044444, -17.548789 ], [ -66.044661, -17.548272 ], [ -66.04452, -17.548039 ], [ -66.043876, -17.547636 ], [ -66.04387, -17.547431 ], [ -66.043218, -17.547092 ], [ -66.042419, -17.546579 ], [ -66.042089, -17.546179 ], [ -66.041546, -17.545832 ], [ -66.040815, -17.54548 ], [ -66.04024, -17.544935 ], [ -66.039947, -17.544482 ], [ -66.039407, -17.54333 ], [ -66.039085, -17.542952 ], [ -66.038584, -17.542719 ], [ -66.038192, -17.542813 ], [ -66.037686, -17.543134 ], [ -66.037642, -17.54324 ], [ -66.037436, -17.543304 ], [ -66.037316, -17.543209 ], [ -66.03711, -17.543186 ], [ -66.036346, -17.543265 ], [ -66.036101, -17.543587 ], [ -66.034368, -17.543941 ], [ -66.034117, -17.544519 ], [ -66.033686, -17.544631 ], [ -66.033004, -17.54505 ], [ -66.032522, -17.54522 ], [ -66.031829, -17.545464 ], [ -66.030259, -17.545407 ], [ -66.028572, -17.545941 ], [ -66.026626, -17.546093 ], [ -66.026229, -17.546375 ], [ -66.025334, -17.546815 ], [ -66.024298, -17.547035 ], [ -66.023566, -17.547751 ], [ -66.022543, -17.548106 ], [ -66.021407, -17.547628 ], [ -66.021246, -17.547517 ], [ -66.02024, -17.546824 ], [ -66.019564, -17.546814 ], [ -66.018202, -17.546795 ], [ -66.016091, -17.546508 ], [ -66.014575, -17.546723 ], [ -66.013506, -17.547634 ], [ -66.012915, -17.548454 ], [ -66.011683, -17.549146 ], [ -66.011024, -17.549181 ], [ -66.010101, -17.548758 ], [ -66.009202, -17.548805 ], [ -66.007926, -17.548878 ], [ -66.005979, -17.549677 ], [ -66.004733, -17.550336 ], [ -66.003845, -17.550732 ], [ -66.002447, -17.551483 ], [ -66.000984, -17.552527 ], [ -66.000025, -17.553973 ], [ -65.99849, -17.554614 ], [ -65.998488, -17.555277 ], [ -65.997896, -17.555914 ], [ -65.997027, -17.556396 ], [ -65.996717, -17.557112 ], [ -65.990707, -17.569845 ], [ -65.98577, -17.571666 ], [ -65.985344, -17.571575 ], [ -65.98184, -17.572835 ], [ -65.981839, -17.572858 ], [ -65.974422, -17.574811 ], [ -65.970571, -17.57886 ], [ -65.96863, -17.5839 ], [ -65.968562, -17.584263 ], [ -65.968557, -17.58448 ], [ -65.968529, -17.584651 ], [ -65.968464, -17.584877 ], [ -65.968449, -17.585026 ], [ -65.96841, -17.58515 ], [ -65.968405, -17.585356 ], [ -65.968379, -17.585446 ], [ -65.968366, -17.586017 ], [ -65.968397, -17.5862 ], [ -65.968476, -17.586362 ], [ -65.968724, -17.587442 ], [ -65.968718, -17.587693 ], [ -65.9688, -17.588277 ], [ -65.9688, -17.588768 ], [ -65.96882, -17.58894 ], [ -65.968815, -17.589157 ], [ -65.968833, -17.589385 ], [ -65.968824, -17.589739 ], [ -65.96887, -17.58999 ], [ -65.968906, -17.590303 ], [ -65.969012, -17.590537 ], [ -65.969116, -17.590692 ], [ -65.969202, -17.590945 ], [ -65.969266, -17.59112 ], [ -65.969329, -17.591217 ], [ -65.969433, -17.591372 ], [ -65.96962, -17.591545 ], [ -65.969744, -17.59166 ], [ -65.969888, -17.591736 ], [ -65.970052, -17.591793 ], [ -65.970094, -17.591831 ], [ -65.970156, -17.591889 ], [ -65.970218, -17.591966 ], [ -65.970139, -17.592104 ], [ -65.970019, -17.592224 ], [ -65.969837, -17.592324 ], [ -65.969757, -17.592423 ], [ -65.969677, -17.592542 ], [ -65.969517, -17.59272 ], [ -65.969416, -17.5928 ], [ -65.969276, -17.592939 ], [ -65.968904, -17.593372 ], [ -65.968819, -17.59345 ], [ -65.968784, -17.593449 ], [ -65.968675, -17.593526 ], [ -65.96865, -17.59356 ], [ -65.968554, -17.593615 ], [ -65.968098, -17.593815 ], [ -65.967879, -17.59394 ], [ -65.967612, -17.594173 ], [ -65.967148, -17.594675 ], [ -65.966807, -17.595009 ], [ -65.966261, -17.59543 ], [ -65.965789, -17.59576 ], [ -65.963547, -17.59703 ], [ -65.96298, -17.597312 ], [ -65.962588, -17.597632 ], [ -65.962457, -17.597751 ], [ -65.962296, -17.59791 ], [ -65.962216, -17.59797 ], [ -65.962182, -17.598001 ], [ -65.963833, -17.598503 ], [ -65.967047, -17.599446 ], [ -65.968138, -17.599668 ], [ -65.969853, -17.600169 ], [ -65.973942, -17.600965 ], [ -65.975153, -17.601096 ], [ -65.977816, -17.601795 ], [ -65.978247, -17.60182 ], [ -65.979745, -17.601756 ], [ -65.981555, -17.601739 ], [ -65.982549, -17.601685 ], [ -65.983664, -17.601793 ], [ -65.98436, -17.601944 ], [ -65.985103, -17.602177 ], [ -65.988271, -17.603349 ], [ -65.988822, -17.603409 ], [ -65.989686, -17.603596 ], [ -65.990848, -17.603565 ], [ -65.991904, -17.603891 ], [ -65.992719, -17.604216 ], [ -65.995814, -17.605077 ], [ -65.996582, -17.605344 ], [ -65.997894, -17.605632 ], [ -65.998674, -17.605811 ], [ -65.999161, -17.605806 ], [ -65.999646, -17.605709 ], [ -66.000231, -17.605796 ], [ -66.000814, -17.605791 ], [ -66.001785, -17.605595 ], [ -66.001797, -17.605592 ], [ -66.001783, -17.605592 ], [ -66.019521, -17.600546 ], [ -66.044954, -17.604954 ], [ -66.053513, -17.600511 ], [ -66.065977, -17.601147 ], [ -66.093133, -17.603351 ], [ -66.119588, -17.607635 ], [ -66.13379, -17.603133 ], [ -66.137099, -17.599412 ], [ -66.139354, -17.596282 ], [ -66.129558, -17.581795 ], [ -66.116267, -17.546333 ], [ -66.129589, -17.533525 ], [ -66.129823, -17.5324 ], [ -66.131974, -17.528981 ], [ -66.13285, -17.528373 ], [ -66.134448, -17.527915 ], [ -66.135776, -17.526946 ], [ -66.136877, -17.524316 ], [ -66.137897, -17.523849 ], [ -66.142248, -17.524378 ], [ -66.14939, -17.519521 ], [ -66.148778, -17.517901 ], [ -66.147401, -17.516197 ], [ -66.146262, -17.515266 ], [ -66.143981, -17.513646 ], [ -66.142386, -17.513046 ], [ -66.141826, -17.51297 ], [ -66.141186, -17.513078 ], [ -66.136193, -17.514071 ], [ -66.13509, -17.51468 ], [ -66.133472, -17.514505 ], [ -66.132881, -17.5144 ], [ -66.130997, -17.513465 ], [ -66.130577, -17.51325 ], [ -66.127823, -17.512246 ], [ -66.127591, -17.511108 ], [ -66.129538, -17.502389 ], [ -66.109749, -17.483301 ], [ -66.082492, -17.476103 ], [ -66.073515, -17.473731 ], [ -66.072679, -17.473511 ], [ -66.06833, -17.475008 ], [ -66.066993, -17.48078 ], [ -66.066991, -17.480786 ] ] ] ] } }
]
}
