{
"type": "FeatureCollection",
"name": "GERMAN_JORDAN",
"crs": { "type": "name", "properties": { "name": "urn:ogc:def:crs:OGC:1.3:CRS84" } },
"bbox": [ -66.085040, -17.708646, -65.886083, -17.476504 ],                                                                        
"features": [
{ "type": "Feature", "properties": { "NOMBRE": "German Jordan", "NIVEL": "Provincias", "PROVINCIA": "", "REGION": "Valles", "DEPARTAMENTO": "Cochabamba" }, "bbox": [ -66.08504, -17.708646, -65.886083, -17.476504 ], "geometry": { "type": "MultiPolygon", "coordinates": [ [ [ [ -65.901821, -17.675435 ], [ -65.910164, -17.673835 ], [ -65.916, -17.67076 ], [ -65.91859, -17.668958 ], [ -65.926476, -17.670635 ], [ -65.926482, -17.671023 ], [ -65.926413, -17.671355 ], [ -65.92647, -17.67154 ], [ -65.926469, -17.671597 ], [ -65.926537, -17.67184 ], [ -65.926592, -17.672174 ], [ -65.926829, -17.673235 ], [ -65.926826, -17.673453 ], [ -65.926848, -17.67358 ], [ -65.926857, -17.673787 ], [ -65.926879, -17.673891 ], [ -65.926876, -17.674132 ], [ -65.926695, -17.674968 ], [ -65.926656, -17.676841 ], [ -65.926911, -17.678259 ], [ -65.926918, -17.678569 ], [ -65.926995, -17.679019 ], [ -65.927121, -17.67948 ], [ -65.927283, -17.679851 ], [ -65.927446, -17.680175 ], [ -65.92747, -17.680198 ], [ -65.927738, -17.680731 ], [ -65.927873, -17.68133 ], [ -65.927871, -17.681491 ], [ -65.927905, -17.68163 ], [ -65.927898, -17.682066 ], [ -65.92786, -17.682215 ], [ -65.927841, -17.682732 ], [ -65.927874, -17.682928 ], [ -65.927909, -17.682963 ], [ -65.927921, -17.683009 ], [ -65.928107, -17.68338 ], [ -65.928453, -17.68435 ], [ -65.92846, -17.685488 ], [ -65.928494, -17.685638 ], [ -65.928492, -17.685788 ], [ -65.928514, -17.685914 ], [ -65.928544, -17.686317 ], [ -65.928556, -17.686317 ], [ -65.928646, -17.686687 ], [ -65.928646, -17.686744 ], [ -65.928681, -17.686813 ], [ -65.928748, -17.687113 ], [ -65.928991, -17.687749 ], [ -65.929072, -17.687911 ], [ -65.929309, -17.688167 ], [ -65.929345, -17.688168 ], [ -65.929511, -17.688297 ], [ -65.929952, -17.688475 ], [ -65.930348, -17.688481 ], [ -65.930565, -17.688461 ], [ -65.930719, -17.688426 ], [ -65.930768, -17.688662 ], [ -65.930688, -17.689026 ], [ -65.93055, -17.689472 ], [ -65.930339, -17.689952 ], [ -65.930312, -17.690101 ], [ -65.930237, -17.690307 ], [ -65.930236, -17.690422 ], [ -65.93017, -17.690812 ], [ -65.930069, -17.6913 ], [ -65.930097, -17.691601 ], [ -65.930102, -17.691946 ], [ -65.930473, -17.69263 ], [ -65.930926, -17.69286 ], [ -65.931242, -17.692941 ], [ -65.931627, -17.693108 ], [ -65.93214, -17.693105 ], [ -65.932583, -17.693214 ], [ -65.933338, -17.69326 ], [ -65.933734, -17.693311 ], [ -65.933959, -17.693487 ], [ -65.934043, -17.693523 ], [ -65.934289, -17.693894 ], [ -65.934477, -17.694207 ], [ -65.934652, -17.694543 ], [ -65.934767, -17.694878 ], [ -65.934869, -17.695259 ], [ -65.93492, -17.695914 ], [ -65.934931, -17.695926 ], [ -65.934938, -17.696294 ], [ -65.935016, -17.696686 ], [ -65.93512, -17.696952 ], [ -65.935411, -17.697588 ], [ -65.93547, -17.697658 ], [ -65.935719, -17.697868 ], [ -65.935826, -17.697939 ], [ -65.935862, -17.697939 ], [ -65.936076, -17.698046 ], [ -65.936196, -17.698082 ], [ -65.936244, -17.698083 ], [ -65.936244, -17.698094 ], [ -65.936698, -17.698216 ], [ -65.936973, -17.698323 ], [ -65.93734, -17.698662 ], [ -65.937554, -17.698803 ], [ -65.937696, -17.69892 ], [ -65.937922, -17.699026 ], [ -65.937946, -17.69905 ], [ -65.938233, -17.6991 ], [ -65.938569, -17.699116 ], [ -65.938774, -17.699073 ], [ -65.938907, -17.699017 ], [ -65.939027, -17.699008 ], [ -65.939171, -17.699021 ], [ -65.93948, -17.699221 ], [ -65.939622, -17.699338 ], [ -65.939882, -17.699629 ], [ -65.940576, -17.700616 ], [ -65.940871, -17.700965 ], [ -65.941132, -17.701164 ], [ -65.941337, -17.701245 ], [ -65.941643, -17.70133 ], [ -65.941824, -17.701427 ], [ -65.942028, -17.701453 ], [ -65.942232, -17.70141 ], [ -65.942413, -17.701343 ], [ -65.942461, -17.701344 ], [ -65.942508, -17.701436 ], [ -65.942568, -17.701449 ], [ -65.942808, -17.701429 ], [ -65.943038, -17.701341 ], [ -65.943171, -17.701273 ], [ -65.944449, -17.700855 ], [ -65.944774, -17.70079 ], [ -65.944931, -17.700735 ], [ -65.945172, -17.700681 ], [ -65.945436, -17.700662 ], [ -65.946134, -17.700545 ], [ -65.946447, -17.700469 ], [ -65.946797, -17.700359 ], [ -65.947387, -17.70023 ], [ -65.947579, -17.700221 ], [ -65.947675, -17.700188 ], [ -65.94816, -17.699907 ], [ -65.958133, -17.700654 ], [ -65.966341, -17.703768 ], [ -65.981687, -17.708606 ], [ -65.981818, -17.708646 ], [ -65.981935, -17.70863 ], [ -65.982106, -17.708446 ], [ -65.982151, -17.708191 ], [ -65.982188, -17.7081 ], [ -65.982188, -17.7081 ], [ -65.982189, -17.708059 ], [ -65.982189, -17.708054 ], [ -65.982264, -17.707802 ], [ -65.982424, -17.707517 ], [ -65.982608, -17.707301 ], [ -65.982911, -17.707052 ], [ -65.983044, -17.706997 ], [ -65.983322, -17.70684 ], [ -65.983479, -17.706796 ], [ -65.98366, -17.706707 ], [ -65.983819, -17.70648 ], [ -65.984048, -17.706196 ], [ -65.984192, -17.706054 ], [ -65.984292, -17.705884 ], [ -65.984535, -17.705558 ], [ -65.984734, -17.705233 ], [ -65.985005, -17.70485 ], [ -65.985276, -17.704398 ], [ -65.985597, -17.703906 ], [ -65.985636, -17.703711 ], [ -65.985774, -17.703276 ], [ -65.985874, -17.703014 ], [ -65.98595, -17.702762 ], [ -65.986136, -17.702305 ], [ -65.986388, -17.700594 ], [ -65.986522, -17.699807 ], [ -65.986636, -17.699254 ], [ -65.986637, -17.699254 ], [ -65.98664, -17.699018 ], [ -65.986559, -17.697936 ], [ -65.98656, -17.697931 ], [ -65.986564, -17.697591 ], [ -65.986565, -17.697586 ], [ -65.986593, -17.697254 ], [ -65.986673, -17.696714 ], [ -65.986729, -17.695347 ], [ -65.986794, -17.694958 ], [ -65.986794, -17.694957 ], [ -65.986798, -17.694721 ], [ -65.986798, -17.694716 ], [ -65.986878, -17.694179 ], [ -65.986869, -17.693963 ], [ -65.98686, -17.693782 ], [ -65.986769, -17.693587 ], [ -65.986537, -17.693703 ], [ -65.986362, -17.693733 ], [ -65.986064, -17.694021 ], [ -65.985581, -17.694233 ], [ -65.984929, -17.694488 ], [ -65.982989, -17.694989 ], [ -65.982241, -17.695266 ], [ -65.981433, -17.695531 ], [ -65.981169, -17.695585 ], [ -65.980192, -17.69587 ], [ -65.979806, -17.696002 ], [ -65.979589, -17.696103 ], [ -65.979118, -17.696268 ], [ -65.978651, -17.696525 ], [ -65.977997, -17.696801 ], [ -65.977685, -17.696939 ], [ -65.977503, -17.696942 ], [ -65.977272, -17.696955 ], [ -65.977165, -17.696919 ], [ -65.976985, -17.696894 ], [ -65.976697, -17.696878 ], [ -65.976589, -17.696854 ], [ -65.976421, -17.696851 ], [ -65.976016, -17.69665 ], [ -65.975778, -17.696509 ], [ -65.975139, -17.695925 ], [ -65.975033, -17.695751 ], [ -65.974504, -17.694997 ], [ -65.974386, -17.69488 ], [ -65.974314, -17.694845 ], [ -65.974232, -17.694752 ], [ -65.973196, -17.694128 ], [ -65.972875, -17.693974 ], [ -65.972552, -17.693843 ], [ -65.972183, -17.693642 ], [ -65.971744, -17.693326 ], [ -65.971483, -17.693081 ], [ -65.971483, -17.693076 ], [ -65.971484, -17.693035 ], [ -65.971202, -17.692606 ], [ -65.970913, -17.692071 ], [ -65.970463, -17.691457 ], [ -65.969853, -17.690449 ], [ -65.969348, -17.689729 ], [ -65.968745, -17.689054 ], [ -65.968157, -17.688287 ], [ -65.96777, -17.687638 ], [ -65.967665, -17.687418 ], [ -65.967184, -17.686664 ], [ -65.966395, -17.685653 ], [ -65.96583, -17.684898 ], [ -65.96549, -17.684295 ], [ -65.965409, -17.684121 ], [ -65.965246, -17.683722 ], [ -65.965124, -17.683443 ], [ -65.965075, -17.68335 ], [ -65.964939, -17.683098 ], [ -65.964893, -17.682973 ], [ -65.964848, -17.682903 ], [ -65.964817, -17.682847 ], [ -65.954851, -17.679203 ], [ -65.951195, -17.677828 ], [ -65.951041, -17.677711 ], [ -65.950946, -17.677664 ], [ -65.950946, -17.677659 ], [ -65.950946, -17.677618 ], [ -65.950709, -17.677408 ], [ -65.950556, -17.677233 ], [ -65.950533, -17.677187 ], [ -65.95045, -17.677105 ], [ -65.950391, -17.677012 ], [ -65.950309, -17.676919 ], [ -65.950098, -17.67656 ], [ -65.950018, -17.676271 ], [ -65.949903, -17.675936 ], [ -65.949744, -17.675685 ], [ -65.949668, -17.675489 ], [ -65.949547, -17.6753 ], [ -65.949456, -17.675118 ], [ -65.949395, -17.674964 ], [ -65.94929, -17.674825 ], [ -65.949243, -17.674671 ], [ -65.949167, -17.674489 ], [ -65.949165, -17.674349 ], [ -65.949147, -17.67418 ], [ -65.949085, -17.673956 ], [ -65.949067, -17.673774 ], [ -65.949001, -17.673296 ], [ -65.949001, -17.673294 ], [ -65.949001, -17.673292 ], [ -65.94921, -17.67245 ], [ -65.949386, -17.67189 ], [ -65.94946, -17.671753 ], [ -65.949486, -17.671638 ], [ -65.949582, -17.671401 ], [ -65.949656, -17.671263 ], [ -65.949707, -17.671199 ], [ -65.949816, -17.671141 ], [ -65.94998, -17.671065 ], [ -65.950291, -17.670899 ], [ -65.950376, -17.670701 ], [ -65.9504, -17.670543 ], [ -65.950356, -17.670418 ], [ -65.950356, -17.670413 ], [ -65.950356, -17.670413 ], [ -65.950358, -17.670349 ], [ -65.950272, -17.669936 ], [ -65.950216, -17.669787 ], [ -65.95013, -17.669396 ], [ -65.950063, -17.669223 ], [ -65.950006, -17.669142 ], [ -65.949984, -17.66905 ], [ -65.949893, -17.668888 ], [ -65.949736, -17.668484 ], [ -65.949644, -17.66782 ], [ -65.949644, -17.667815 ], [ -65.949644, -17.667815 ], [ -65.949677, -17.666948 ], [ -65.949759, -17.666505 ], [ -65.949926, -17.665972 ], [ -65.950014, -17.66578 ], [ -65.95008, -17.665542 ], [ -65.950156, -17.665339 ], [ -65.95018, -17.665339 ], [ -65.950206, -17.665248 ], [ -65.950407, -17.664808 ], [ -65.950445, -17.664695 ], [ -65.950594, -17.664425 ], [ -65.950681, -17.664301 ], [ -65.950718, -17.664211 ], [ -65.95088, -17.663941 ], [ -65.951104, -17.663501 ], [ -65.951105, -17.663467 ], [ -65.951561, -17.662839 ], [ -65.952216, -17.662319 ], [ -65.952457, -17.662188 ], [ -65.952953, -17.66177 ], [ -65.95355, -17.661494 ], [ -65.953955, -17.661179 ], [ -65.952624, -17.655332 ], [ -65.952625, -17.65533 ], [ -65.952624, -17.655327 ], [ -65.960478, -17.645205 ], [ -65.960673, -17.644946 ], [ -65.970239, -17.632401 ], [ -65.970304, -17.632272 ], [ -65.970395, -17.632143 ], [ -65.970433, -17.632054 ], [ -65.970472, -17.631964 ], [ -65.970523, -17.631823 ], [ -65.970574, -17.631681 ], [ -65.97061, -17.631489 ], [ -65.970656, -17.631301 ], [ -65.970666, -17.630829 ], [ -65.970626, -17.629535 ], [ -65.970585, -17.62926 ], [ -65.970552, -17.629168 ], [ -65.970531, -17.629042 ], [ -65.970409, -17.628685 ], [ -65.970226, -17.628349 ], [ -65.970006, -17.628104 ], [ -65.969857, -17.627872 ], [ -65.969648, -17.627615 ], [ -65.969544, -17.62751 ], [ -65.969383, -17.627266 ], [ -65.969163, -17.627009 ], [ -65.968651, -17.626528 ], [ -65.968396, -17.626237 ], [ -65.968155, -17.625842 ], [ -65.968064, -17.625657 ], [ -65.967765, -17.625216 ], [ -65.967732, -17.625124 ], [ -65.967445, -17.624694 ], [ -65.967319, -17.624451 ], [ -65.967083, -17.623874 ], [ -65.967031, -17.623588 ], [ -65.966965, -17.623346 ], [ -65.966965, -17.623342 ], [ -65.966965, -17.623341 ], [ -65.966967, -17.623266 ], [ -65.966907, -17.622774 ], [ -65.966874, -17.622648 ], [ -65.966837, -17.622201 ], [ -65.966838, -17.622198 ], [ -65.966838, -17.622196 ], [ -65.966861, -17.621695 ], [ -65.966888, -17.62157 ], [ -65.966896, -17.62073 ], [ -65.966801, -17.620214 ], [ -65.966632, -17.619844 ], [ -65.966403, -17.619461 ], [ -65.96616, -17.619159 ], [ -65.965759, -17.618521 ], [ -65.965354, -17.618031 ], [ -65.96403, -17.616639 ], [ -65.963974, -17.6165 ], [ -65.963893, -17.615916 ], [ -65.963893, -17.615912 ], [ -65.963893, -17.615911 ], [ -65.963906, -17.615364 ], [ -65.963938, -17.615179 ], [ -65.963966, -17.614881 ], [ -65.963954, -17.61467 ], [ -65.963917, -17.61441 ], [ -65.963688, -17.614092 ], [ -65.963405, -17.613922 ], [ -65.96314, -17.613831 ], [ -65.962731, -17.613729 ], [ -65.962381, -17.613435 ], [ -65.962208, -17.613214 ], [ -65.961863, -17.612702 ], [ -65.961829, -17.612599 ], [ -65.961726, -17.612425 ], [ -65.961466, -17.611882 ], [ -65.961373, -17.611765 ], [ -65.961224, -17.611522 ], [ -65.961157, -17.611349 ], [ -65.961066, -17.611175 ], [ -65.960886, -17.610726 ], [ -65.960725, -17.610493 ], [ -65.96038, -17.609503 ], [ -65.960244, -17.609214 ], [ -65.960095, -17.608959 ], [ -65.959992, -17.608819 ], [ -65.959678, -17.60848 ], [ -65.959468, -17.608326 ], [ -65.959282, -17.60815 ], [ -65.959038, -17.607882 ], [ -65.958584, -17.607471 ], [ -65.95842, -17.607364 ], [ -65.958103, -17.607029 ], [ -65.957979, -17.606904 ], [ -65.957833, -17.606749 ], [ -65.95774, -17.606624 ], [ -65.957743, -17.606623 ], [ -65.95774, -17.606619 ], [ -65.958425, -17.606564 ], [ -65.958707, -17.606325 ], [ -65.958955, -17.606092 ], [ -65.959123, -17.605835 ], [ -65.959288, -17.605394 ], [ -65.959316, -17.60519 ], [ -65.959311, -17.604908 ], [ -65.959124, -17.603773 ], [ -65.959124, -17.603769 ], [ -65.959124, -17.603769 ], [ -65.959126, -17.6037 ], [ -65.959358, -17.60293 ], [ -65.959382, -17.60293 ], [ -65.959516, -17.602796 ], [ -65.959745, -17.602677 ], [ -65.959841, -17.602645 ], [ -65.960308, -17.602554 ], [ -65.960427, -17.602557 ], [ -65.960761, -17.602497 ], [ -65.961001, -17.602411 ], [ -65.961182, -17.602302 ], [ -65.961401, -17.602124 ], [ -65.961802, -17.601758 ], [ -65.96201, -17.601523 ], [ -65.962133, -17.601355 ], [ -65.962197, -17.601174 ], [ -65.962201, -17.600996 ], [ -65.962127, -17.600617 ], [ -65.96206, -17.600444 ], [ -65.96189, -17.600098 ], [ -65.961661, -17.599681 ], [ -65.961549, -17.599427 ], [ -65.961549, -17.599422 ], [ -65.961549, -17.599422 ], [ -65.961571, -17.598977 ], [ -65.961628, -17.59884 ], [ -65.961737, -17.598622 ], [ -65.961845, -17.598367 ], [ -65.961964, -17.598199 ], [ -65.962182, -17.598001 ], [ -65.962216, -17.59797 ], [ -65.962296, -17.59791 ], [ -65.962457, -17.597751 ], [ -65.962588, -17.597632 ], [ -65.96298, -17.597312 ], [ -65.963547, -17.59703 ], [ -65.965789, -17.59576 ], [ -65.966261, -17.59543 ], [ -65.966807, -17.595009 ], [ -65.967148, -17.594675 ], [ -65.967612, -17.594173 ], [ -65.967879, -17.59394 ], [ -65.968098, -17.593815 ], [ -65.968554, -17.593615 ], [ -65.96865, -17.59356 ], [ -65.968675, -17.593526 ], [ -65.968784, -17.593449 ], [ -65.968819, -17.59345 ], [ -65.968904, -17.593372 ], [ -65.969276, -17.592939 ], [ -65.969416, -17.5928 ], [ -65.969517, -17.59272 ], [ -65.969677, -17.592542 ], [ -65.969757, -17.592423 ], [ -65.969837, -17.592324 ], [ -65.970019, -17.592224 ], [ -65.970139, -17.592104 ], [ -65.970218, -17.591966 ], [ -65.970156, -17.591889 ], [ -65.970094, -17.591831 ], [ -65.970052, -17.591793 ], [ -65.969888, -17.591736 ], [ -65.969744, -17.59166 ], [ -65.96962, -17.591545 ], [ -65.969433, -17.591372 ], [ -65.969329, -17.591217 ], [ -65.969266, -17.59112 ], [ -65.969202, -17.590945 ], [ -65.969116, -17.590692 ], [ -65.969012, -17.590537 ], [ -65.968906, -17.590303 ], [ -65.96887, -17.58999 ], [ -65.968824, -17.589739 ], [ -65.968833, -17.589385 ], [ -65.968815, -17.589157 ], [ -65.96882, -17.58894 ], [ -65.9688, -17.588768 ], [ -65.9688, -17.588277 ], [ -65.968718, -17.587693 ], [ -65.968724, -17.587442 ], [ -65.968476, -17.586362 ], [ -65.968397, -17.5862 ], [ -65.968366, -17.586017 ], [ -65.968379, -17.585446 ], [ -65.968405, -17.585356 ], [ -65.96841, -17.58515 ], [ -65.968449, -17.585026 ], [ -65.968464, -17.584877 ], [ -65.968529, -17.584651 ], [ -65.968557, -17.58448 ], [ -65.968562, -17.584263 ], [ -65.96863, -17.5839 ], [ -65.970571, -17.57886 ], [ -65.974422, -17.574811 ], [ -65.981839, -17.572858 ], [ -65.98184, -17.572835 ], [ -65.985344, -17.571575 ], [ -65.98577, -17.571666 ], [ -65.990707, -17.569845 ], [ -65.996717, -17.557112 ], [ -65.997027, -17.556396 ], [ -65.997896, -17.555914 ], [ -65.998488, -17.555277 ], [ -65.99849, -17.554614 ], [ -66.000025, -17.553973 ], [ -66.000468, -17.553322 ], [ -66.000984, -17.552527 ], [ -66.001654, -17.552017 ], [ -66.002447, -17.551483 ], [ -66.003416, -17.550923 ], [ -66.004733, -17.550336 ], [ -66.005404, -17.549922 ], [ -66.006689, -17.549375 ], [ -66.007926, -17.548878 ], [ -66.009202, -17.548805 ], [ -66.010101, -17.548758 ], [ -66.011024, -17.549181 ], [ -66.011683, -17.549146 ], [ -66.012915, -17.548454 ], [ -66.013506, -17.547634 ], [ -66.014575, -17.546723 ], [ -66.016091, -17.546508 ], [ -66.018202, -17.546795 ], [ -66.02024, -17.546824 ], [ -66.021407, -17.547628 ], [ -66.022543, -17.548106 ], [ -66.023566, -17.547751 ], [ -66.024298, -17.547035 ], [ -66.025334, -17.546815 ], [ -66.026229, -17.546375 ], [ -66.026626, -17.546093 ], [ -66.028572, -17.545941 ], [ -66.030259, -17.545407 ], [ -66.031829, -17.545464 ], [ -66.033004, -17.54505 ], [ -66.033686, -17.544631 ], [ -66.034117, -17.544519 ], [ -66.034368, -17.543941 ], [ -66.036101, -17.543587 ], [ -66.036346, -17.543265 ], [ -66.03711, -17.543186 ], [ -66.037316, -17.543209 ], [ -66.037436, -17.543304 ], [ -66.037642, -17.54324 ], [ -66.037686, -17.543134 ], [ -66.038192, -17.542813 ], [ -66.038584, -17.542719 ], [ -66.039085, -17.542952 ], [ -66.039407, -17.54333 ], [ -66.039775, -17.544085 ], [ -66.039947, -17.544482 ], [ -66.04024, -17.544935 ], [ -66.040815, -17.54548 ], [ -66.041546, -17.545832 ], [ -66.042089, -17.546179 ], [ -66.042419, -17.546579 ], [ -66.043218, -17.547092 ], [ -66.04387, -17.547431 ], [ -66.043876, -17.547636 ], [ -66.04452, -17.548039 ], [ -66.044661, -17.548272 ], [ -66.044444, -17.548789 ], [ -66.044762, -17.548946 ], [ -66.045469, -17.548871 ], [ -66.046421, -17.549123 ], [ -66.046917, -17.54908 ], [ -66.047359, -17.549407 ], [ -66.048684, -17.549671 ], [ -66.048898, -17.550021 ], [ -66.049338, -17.549884 ], [ -66.049572, -17.550058 ], [ -66.049782, -17.550085 ], [ -66.049993, -17.550237 ], [ -66.050105, -17.550508 ], [ -66.050442, -17.550926 ], [ -66.050778, -17.551509 ], [ -66.051165, -17.551592 ], [ -66.051688, -17.551515 ], [ -66.052128, -17.551266 ], [ -66.052809, -17.551235 ], [ -66.053531, -17.551084 ], [ -66.053872, -17.550808 ], [ -66.054253, -17.550639 ], [ -66.054758, -17.550641 ], [ -66.055347, -17.550639 ], [ -66.05601, -17.550712 ], [ -66.056813, -17.550471 ], [ -66.057593, -17.55041 ], [ -66.057889, -17.550137 ], [ -66.058321, -17.550285 ], [ -66.058661, -17.550226 ], [ -66.059563, -17.54983 ], [ -66.06033, -17.54874 ], [ -66.060908, -17.548388 ], [ -66.061347, -17.547988 ], [ -66.06187, -17.547441 ], [ -66.062774, -17.547399 ], [ -66.063191, -17.54717 ], [ -66.063477, -17.546765 ], [ -66.063773, -17.546431 ], [ -66.064303, -17.546057 ], [ -66.064969, -17.545696 ], [ -66.066095, -17.545413 ], [ -66.066695, -17.545488 ], [ -66.067482, -17.545284 ], [ -66.067966, -17.545227 ], [ -66.068486, -17.54513 ], [ -66.068897, -17.544988 ], [ -66.069681, -17.545159 ], [ -66.070106, -17.545451 ], [ -66.070471, -17.545026 ], [ -66.070892, -17.544729 ], [ -66.071225, -17.544501 ], [ -66.071507, -17.544316 ], [ -66.071762, -17.54429 ], [ -66.071934, -17.544359 ], [ -66.072844, -17.544097 ], [ -66.073189, -17.544209 ], [ -66.073391, -17.544361 ], [ -66.073364, -17.544207 ], [ -66.073626, -17.543889 ], [ -66.074203, -17.543701 ], [ -66.074524, -17.543315 ], [ -66.074775, -17.542948 ], [ -66.075099, -17.542902 ], [ -66.075342, -17.542718 ], [ -66.075411, -17.542586 ], [ -66.075447, -17.542261 ], [ -66.076318, -17.54197 ], [ -66.076733, -17.542043 ], [ -66.076959, -17.541657 ], [ -66.077061, -17.541258 ], [ -66.077542, -17.540574 ], [ -66.077575, -17.539965 ], [ -66.077792, -17.539685 ], [ -66.078285, -17.539546 ], [ -66.078486, -17.539611 ], [ -66.07871, -17.539082 ], [ -66.079013, -17.538926 ], [ -66.079178, -17.538939 ], [ -66.079226, -17.538879 ], [ -66.079067, -17.538829 ], [ -66.079074, -17.53859 ], [ -66.079239, -17.538441 ], [ -66.079346, -17.538266 ], [ -66.079708, -17.53809 ], [ -66.080088, -17.537676 ], [ -66.079957, -17.537537 ], [ -66.07997, -17.537316 ], [ -66.080197, -17.537027 ], [ -66.080837, -17.536623 ], [ -66.080739, -17.536384 ], [ -66.082152, -17.5353 ], [ -66.082096, -17.535212 ], [ -66.082743, -17.534123 ], [ -66.083199, -17.53372 ], [ -66.08379, -17.533451 ], [ -66.084091, -17.533247 ], [ -66.084328, -17.532814 ], [ -66.084475, -17.53233 ], [ -66.084936, -17.531741 ], [ -66.08504, -17.53148 ], [ -66.084957, -17.531038 ], [ -66.085038, -17.530038 ], [ -66.084977, -17.529166 ], [ -66.084881, -17.528297 ], [ -66.079925, -17.527939 ], [ -66.077681, -17.524192 ], [ -66.072216, -17.524241 ], [ -66.066268, -17.523033 ], [ -66.057487, -17.516353 ], [ -66.051712, -17.518788 ], [ -66.050923, -17.520366 ], [ -66.050012, -17.520153 ], [ -66.049429, -17.521574 ], [ -66.046517, -17.520769 ], [ -66.04742, -17.515159 ], [ -66.04663, -17.510797 ], [ -66.04628, -17.510436 ], [ -66.046191, -17.509322 ], [ -66.046528, -17.508306 ], [ -66.046556, -17.506547 ], [ -66.043811, -17.497383 ], [ -66.035215, -17.496128 ], [ -66.021614, -17.498793 ], [ -66.019952, -17.503639 ], [ -66.01844, -17.507163 ], [ -66.002394, -17.503967 ], [ -66.00161, -17.503599 ], [ -65.992797, -17.498917 ], [ -65.991128, -17.4982 ], [ -65.989567, -17.498411 ], [ -65.98798, -17.499412 ], [ -65.98706, -17.50001 ], [ -65.986102, -17.500464 ], [ -65.982217, -17.500407 ], [ -65.975772, -17.497964 ], [ -65.976286, -17.496602 ], [ -65.976332, -17.495233 ], [ -65.975999, -17.4932 ], [ -65.975365, -17.492376 ], [ -65.972463, -17.490738 ], [ -65.970677, -17.485693 ], [ -65.952816, -17.476504 ], [ -65.950186, -17.478004 ], [ -65.946071, -17.479416 ], [ -65.946093, -17.479441 ], [ -65.946019, -17.480016 ], [ -65.945994, -17.480206 ], [ -65.945506, -17.481439 ], [ -65.945494, -17.481481 ], [ -65.945551, -17.482407 ], [ -65.946614, -17.484364 ], [ -65.946614, -17.484366 ], [ -65.946617, -17.484372 ], [ -65.946436, -17.485488 ], [ -65.94567, -17.487137 ], [ -65.943652, -17.489725 ], [ -65.941388, -17.492853 ], [ -65.942032, -17.494052 ], [ -65.942368, -17.494266 ], [ -65.943268, -17.494158 ], [ -65.944548, -17.494691 ], [ -65.94455, -17.494696 ], [ -65.944555, -17.494698 ], [ -65.945607, -17.497739 ], [ -65.94677, -17.499848 ], [ -65.947227, -17.50351 ], [ -65.947172, -17.503923 ], [ -65.947176, -17.50412 ], [ -65.947056, -17.50502 ], [ -65.947169, -17.505263 ], [ -65.947788, -17.505703 ], [ -65.94815, -17.505987 ], [ -65.948428, -17.506269 ], [ -65.948624, -17.506514 ], [ -65.948761, -17.506735 ], [ -65.948838, -17.506954 ], [ -65.948892, -17.507161 ], [ -65.94889, -17.507241 ], [ -65.948931, -17.507482 ], [ -65.948905, -17.508441 ], [ -65.94885, -17.508702 ], [ -65.948815, -17.509547 ], [ -65.948789, -17.50966 ], [ -65.948816, -17.509986 ], [ -65.948811, -17.51033 ], [ -65.948961, -17.510721 ], [ -65.958836, -17.527571 ], [ -65.959139, -17.528215 ], [ -65.95921, -17.528643 ], [ -65.959255, -17.528897 ], [ -65.959403, -17.529247 ], [ -65.959509, -17.529499 ], [ -65.959549, -17.529791 ], [ -65.959572, -17.529804 ], [ -65.959686, -17.530001 ], [ -65.959881, -17.530281 ], [ -65.960176, -17.530814 ], [ -65.960186, -17.530883 ], [ -65.960366, -17.531299 ], [ -65.960536, -17.531612 ], [ -65.96053, -17.531841 ], [ -65.960381, -17.532054 ], [ -65.960248, -17.53213 ], [ -65.960247, -17.532141 ], [ -65.95997, -17.532248 ], [ -65.959596, -17.532432 ], [ -65.959581, -17.532431 ], [ -65.959581, -17.532431 ], [ -65.959572, -17.532431 ], [ -65.9595, -17.532475 ], [ -65.95936, -17.532539 ], [ -65.959114, -17.532733 ], [ -65.958973, -17.532853 ], [ -65.958797, -17.532955 ], [ -65.958629, -17.533034 ], [ -65.958427, -17.533135 ], [ -65.958244, -17.533177 ], [ -65.958073, -17.533223 ], [ -65.9576, -17.533519 ], [ -65.957419, -17.533605 ], [ -65.957261, -17.533715 ], [ -65.957152, -17.533769 ], [ -65.957007, -17.533868 ], [ -65.956935, -17.533889 ], [ -65.956838, -17.533943 ], [ -65.956658, -17.533995 ], [ -65.95655, -17.534004 ], [ -65.956339, -17.534078 ], [ -65.951786, -17.535602 ], [ -65.940229, -17.540588 ], [ -65.940119, -17.540273 ], [ -65.940092, -17.540183 ], [ -65.940076, -17.540055 ], [ -65.940071, -17.540034 ], [ -65.940044, -17.539917 ], [ -65.940023, -17.539885 ], [ -65.940009, -17.53986 ], [ -65.939986, -17.539859 ], [ -65.939938, -17.539846 ], [ -65.939866, -17.53989 ], [ -65.939562, -17.540168 ], [ -65.939527, -17.540191 ], [ -65.939392, -17.5403 ], [ -65.939322, -17.540344 ], [ -65.93926, -17.540354 ], [ -65.939022, -17.540348 ], [ -65.938893, -17.540276 ], [ -65.938857, -17.540276 ], [ -65.938835, -17.540229 ], [ -65.938717, -17.540158 ], [ -65.938636, -17.540076 ], [ -65.938365, -17.539989 ], [ -65.938246, -17.539986 ], [ -65.938114, -17.540006 ], [ -65.937641, -17.539891 ], [ -65.937546, -17.539888 ], [ -65.937147, -17.53965 ], [ -65.93702, -17.539498 ], [ -65.936892, -17.539392 ], [ -65.936834, -17.539322 ], [ -65.93668, -17.539284 ], [ -65.936597, -17.539282 ], [ -65.936597, -17.539271 ], [ -65.936383, -17.539277 ], [ -65.936383, -17.539288 ], [ -65.93624, -17.539285 ], [ -65.936221, -17.539101 ], [ -65.936226, -17.538896 ], [ -65.936214, -17.538896 ], [ -65.936161, -17.538632 ], [ -65.936078, -17.538584 ], [ -65.935972, -17.538558 ], [ -65.935817, -17.538554 ], [ -65.935805, -17.538577 ], [ -65.935492, -17.53874 ], [ -65.935468, -17.53874 ], [ -65.935346, -17.538885 ], [ -65.935029, -17.539197 ], [ -65.934944, -17.539252 ], [ -65.934764, -17.539304 ], [ -65.934693, -17.539303 ], [ -65.934486, -17.539 ], [ -65.934288, -17.538813 ], [ -65.934194, -17.538765 ], [ -65.933946, -17.53869 ], [ -65.933827, -17.538687 ], [ -65.933647, -17.538762 ], [ -65.933533, -17.539056 ], [ -65.933481, -17.539249 ], [ -65.933452, -17.539314 ], [ -65.933387, -17.539365 ], [ -65.933347, -17.539371 ], [ -65.933085, -17.539376 ], [ -65.932914, -17.539566 ], [ -65.932878, -17.539603 ], [ -65.932814, -17.539673 ], [ -65.93275, -17.539736 ], [ -65.932659, -17.539776 ], [ -65.932516, -17.539696 ], [ -65.932471, -17.53968 ], [ -65.932376, -17.539678 ], [ -65.932051, -17.539818 ], [ -65.931841, -17.539676 ], [ -65.931783, -17.539617 ], [ -65.931624, -17.539293 ], [ -65.931446, -17.539255 ], [ -65.931244, -17.53925 ], [ -65.931045, -17.539119 ], [ -65.930836, -17.53892 ], [ -65.930812, -17.538919 ], [ -65.930725, -17.538689 ], [ -65.930603, -17.538367 ], [ -65.93043, -17.53812 ], [ -65.930182, -17.538074 ], [ -65.93004, -17.538113 ], [ -65.929834, -17.538241 ], [ -65.929709, -17.538579 ], [ -65.929513, -17.539401 ], [ -65.929414, -17.539702 ], [ -65.929365, -17.539902 ], [ -65.929405, -17.540539 ], [ -65.929404, -17.540585 ], [ -65.929269, -17.540753 ], [ -65.929133, -17.540955 ], [ -65.928962, -17.541144 ], [ -65.928876, -17.541268 ], [ -65.928414, -17.541679 ], [ -65.928256, -17.541789 ], [ -65.927967, -17.541941 ], [ -65.927352, -17.542303 ], [ -65.927206, -17.542402 ], [ -65.92701, -17.542659 ], [ -65.926984, -17.542761 ], [ -65.926959, -17.542795 ], [ -65.9267, -17.543679 ], [ -65.926219, -17.544855 ], [ -65.926044, -17.545216 ], [ -65.925955, -17.545453 ], [ -65.925953, -17.545533 ], [ -65.925864, -17.545782 ], [ -65.925751, -17.546019 ], [ -65.9257, -17.546177 ], [ -65.925612, -17.546358 ], [ -65.925406, -17.547004 ], [ -65.925314, -17.547355 ], [ -65.925272, -17.547628 ], [ -65.925091, -17.548229 ], [ -65.924978, -17.548477 ], [ -65.924952, -17.548568 ], [ -65.924803, -17.548827 ], [ -65.924726, -17.549053 ], [ -65.924722, -17.549247 ], [ -65.92467, -17.549428 ], [ -65.924665, -17.549634 ], [ -65.924703, -17.550023 ], [ -65.924724, -17.550606 ], [ -65.924715, -17.550983 ], [ -65.924678, -17.551062 ], [ -65.924676, -17.551153 ], [ -65.92461, -17.551402 ], [ -65.924598, -17.551402 ], [ -65.924597, -17.551459 ], [ -65.924419, -17.551911 ], [ -65.924035, -17.553043 ], [ -65.923925, -17.553669 ], [ -65.923823, -17.553963 ], [ -65.923822, -17.554009 ], [ -65.923784, -17.554076 ], [ -65.923739, -17.554463 ], [ -65.923685, -17.554725 ], [ -65.923683, -17.554804 ], [ -65.923686, -17.555229 ], [ -65.923665, -17.555565 ], [ -65.923696, -17.555852 ], [ -65.923699, -17.556076 ], [ -65.923688, -17.556164 ], [ -65.923693, -17.556463 ], [ -65.923682, -17.556637 ], [ -65.923687, -17.556899 ], [ -65.923714, -17.556986 ], [ -65.923734, -17.557135 ], [ -65.923802, -17.557285 ], [ -65.923883, -17.55739 ], [ -65.924145, -17.557853 ], [ -65.924317, -17.55812 ], [ -65.924671, -17.558757 ], [ -65.924954, -17.55937 ], [ -65.925043, -17.559612 ], [ -65.925077, -17.55967 ], [ -65.925171, -17.560243 ], [ -65.925225, -17.560941 ], [ -65.925257, -17.561102 ], [ -65.925264, -17.561319 ], [ -65.925293, -17.561559 ], [ -65.925288, -17.562301 ], [ -65.925275, -17.562324 ], [ -65.925271, -17.562484 ], [ -65.925232, -17.56262 ], [ -65.925206, -17.563201 ], [ -65.925284, -17.56342 ], [ -65.925523, -17.563883 ], [ -65.925657, -17.56424 ], [ -65.925697, -17.564573 ], [ -65.925751, -17.564814 ], [ -65.925751, -17.56527 ], [ -65.925797, -17.56534 ], [ -65.925797, -17.565363 ], [ -65.925809, -17.565363 ], [ -65.925798, -17.565797 ], [ -65.925762, -17.565819 ], [ -65.925731, -17.566629 ], [ -65.925703, -17.566788 ], [ -65.925697, -17.567039 ], [ -65.925657, -17.567209 ], [ -65.925637, -17.567574 ], [ -65.925765, -17.567989 ], [ -65.925769, -17.568238 ], [ -65.925772, -17.568437 ], [ -65.925829, -17.568736 ], [ -65.925833, -17.568985 ], [ -65.926046, -17.569281 ], [ -65.922585, -17.567487 ], [ -65.908511, -17.570171 ], [ -65.908438, -17.570212 ], [ -65.908332, -17.570163 ], [ -65.908036, -17.570017 ], [ -65.907463, -17.569706 ], [ -65.907099, -17.569502 ], [ -65.906981, -17.569465 ], [ -65.906828, -17.569381 ], [ -65.906663, -17.56932 ], [ -65.906403, -17.569256 ], [ -65.905931, -17.569085 ], [ -65.90547, -17.568947 ], [ -65.904786, -17.568701 ], [ -65.904219, -17.568516 ], [ -65.903545, -17.568362 ], [ -65.903037, -17.568212 ], [ -65.902668, -17.568191 ], [ -65.902372, -17.568149 ], [ -65.901289, -17.568122 ], [ -65.900183, -17.568116 ], [ -65.899875, -17.568063 ], [ -65.899198, -17.568023 ], [ -65.899032, -17.567984 ], [ -65.897974, -17.567957 ], [ -65.897293, -17.568043 ], [ -65.897008, -17.568036 ], [ -65.896007, -17.56809 ], [ -65.895457, -17.568202 ], [ -65.895145, -17.568065 ], [ -65.894624, -17.567937 ], [ -65.894403, -17.567731 ], [ -65.894103, -17.567485 ], [ -65.894108, -17.567504 ], [ -65.894008, -17.568232 ], [ -65.893797, -17.568629 ], [ -65.893669, -17.568872 ], [ -65.893603, -17.569043 ], [ -65.893542, -17.569199 ], [ -65.89358, -17.569425 ], [ -65.893581, -17.569448 ], [ -65.893588, -17.569685 ], [ -65.893704, -17.569982 ], [ -65.893994, -17.570642 ], [ -65.89421, -17.571116 ], [ -65.894424, -17.571501 ], [ -65.894498, -17.571659 ], [ -65.894512, -17.571972 ], [ -65.894515, -17.572187 ], [ -65.894517, -17.57234 ], [ -65.894487, -17.572596 ], [ -65.894442, -17.572679 ], [ -65.894258, -17.573224 ], [ -65.89411, -17.573441 ], [ -65.89397, -17.573602 ], [ -65.893661, -17.573959 ], [ -65.893185, -17.574391 ], [ -65.89242, -17.575119 ], [ -65.891818, -17.575662 ], [ -65.891237, -17.576215 ], [ -65.890093, -17.57719 ], [ -65.889758, -17.57751 ], [ -65.889579, -17.577693 ], [ -65.889484, -17.578036 ], [ -65.889411, -17.578598 ], [ -65.889372, -17.579134 ], [ -65.88926, -17.579762 ], [ -65.889204, -17.580079 ], [ -65.888996, -17.580941 ], [ -65.888848, -17.581454 ], [ -65.888454, -17.58293 ], [ -65.888329, -17.583658 ], [ -65.888252, -17.584183 ], [ -65.888161, -17.584507 ], [ -65.888051, -17.584703 ], [ -65.887611, -17.585325 ], [ -65.887189, -17.585689 ], [ -65.886656, -17.586281 ], [ -65.88621, -17.586863 ], [ -65.886083, -17.58695 ], [ -65.886137, -17.590071 ], [ -65.886166, -17.591765 ], [ -65.886376, -17.592046 ], [ -65.886395, -17.592071 ], [ -65.886539, -17.592263 ], [ -65.886537, -17.592991 ], [ -65.886524, -17.598993 ], [ -65.88939, -17.603747 ], [ -65.889426, -17.603915 ], [ -65.889424, -17.604018 ], [ -65.889445, -17.604098 ], [ -65.889443, -17.604201 ], [ -65.889455, -17.604201 ], [ -65.889488, -17.604305 ], [ -65.889472, -17.605937 ], [ -65.889445, -17.606096 ], [ -65.889356, -17.606334 ], [ -65.889328, -17.606493 ], [ -65.889148, -17.607025 ], [ -65.889039, -17.607628 ], [ -65.888851, -17.608491 ], [ -65.888846, -17.608685 ], [ -65.888779, -17.608991 ], [ -65.888756, -17.608991 ], [ -65.888748, -17.60931 ], [ -65.888718, -17.609561 ], [ -65.888713, -17.609743 ], [ -65.888661, -17.609947 ], [ -65.888658, -17.61005 ], [ -65.888495, -17.61088 ], [ -65.888439, -17.611244 ], [ -65.8884, -17.611368 ], [ -65.888385, -17.611493 ], [ -65.888322, -17.611663 ], [ -65.888194, -17.612516 ], [ -65.888177, -17.612744 ], [ -65.888151, -17.612801 ], [ -65.888065, -17.613415 ], [ -65.888025, -17.613585 ], [ -65.888022, -17.613722 ], [ -65.887984, -17.613824 ], [ -65.88798, -17.613961 ], [ -65.887928, -17.614142 ], [ -65.887925, -17.614279 ], [ -65.887816, -17.614859 ], [ -65.887685, -17.615347 ], [ -65.887657, -17.615529 ], [ -65.887579, -17.615789 ], [ -65.887505, -17.616393 ], [ -65.887499, -17.616644 ], [ -65.887461, -17.616711 ], [ -65.887508, -17.617238 ], [ -65.887478, -17.61847 ], [ -65.887448, -17.618732 ], [ -65.88739, -17.620626 ], [ -65.887332, -17.621059 ], [ -65.887326, -17.621321 ], [ -65.887296, -17.62156 ], [ -65.887291, -17.621765 ], [ -65.887266, -17.62189 ], [ -65.887227, -17.622047 ], [ -65.887168, -17.622165 ], [ -65.887108, -17.622244 ], [ -65.887048, -17.622324 ], [ -65.886907, -17.622443 ], [ -65.886746, -17.622543 ], [ -65.886463, -17.622723 ], [ -65.886672, -17.623073 ], [ -65.88686, -17.623324 ], [ -65.887006, -17.623537 ], [ -65.887216, -17.623906 ], [ -65.88764, -17.624572 ], [ -65.887743, -17.624746 ], [ -65.887799, -17.624896 ], [ -65.887844, -17.624965 ], [ -65.887866, -17.625057 ], [ -65.887934, -17.625207 ], [ -65.888055, -17.62561 ], [ -65.888256, -17.626175 ], [ -65.88831, -17.626382 ], [ -65.888733, -17.62758 ], [ -65.888949, -17.628522 ], [ -65.889019, -17.629049 ], [ -65.88897, -17.630601 ], [ -65.889042, -17.631036 ], [ -65.889054, -17.631037 ], [ -65.889213, -17.631383 ], [ -65.889361, -17.63165 ], [ -65.88936, -17.631673 ], [ -65.889431, -17.631709 ], [ -65.889465, -17.631755 ], [ -65.889676, -17.631909 ], [ -65.890146, -17.632161 ], [ -65.890392, -17.632315 ], [ -65.890474, -17.632397 ], [ -65.890497, -17.632398 ], [ -65.89066, -17.632562 ], [ -65.890903, -17.632865 ], [ -65.891049, -17.633223 ], [ -65.891136, -17.633533 ], [ -65.891187, -17.633911 ], [ -65.89121, -17.633935 ], [ -65.891204, -17.634677 ], [ -65.891223, -17.63486 ], [ -65.891216, -17.635157 ], [ -65.891265, -17.63558 ], [ -65.891341, -17.635914 ], [ -65.891476, -17.636237 ], [ -65.891923, -17.636933 ], [ -65.892119, -17.637189 ], [ -65.892245, -17.637387 ], [ -65.892488, -17.637713 ], [ -65.892696, -17.637958 ], [ -65.893091, -17.638356 ], [ -65.893453, -17.638662 ], [ -65.894294, -17.6393 ], [ -65.894677, -17.639698 ], [ -65.894769, -17.639872 ], [ -65.894935, -17.64039 ], [ -65.895088, -17.640953 ], [ -65.895218, -17.641938 ], [ -65.895231, -17.642407 ], [ -65.895258, -17.64275 ], [ -65.895413, -17.643759 ], [ -65.895623, -17.644895 ], [ -65.895798, -17.645527 ], [ -65.895889, -17.645723 ], [ -65.896021, -17.646172 ], [ -65.896089, -17.646311 ], [ -65.896189, -17.646588 ], [ -65.89654, -17.647327 ], [ -65.896803, -17.647791 ], [ -65.897143, -17.648484 ], [ -65.897201, -17.648554 ], [ -65.897223, -17.648635 ], [ -65.897679, -17.649469 ], [ -65.897746, -17.649642 ], [ -65.898023, -17.650037 ], [ -65.898148, -17.650268 ], [ -65.898218, -17.650327 ], [ -65.898426, -17.650584 ], [ -65.898764, -17.650878 ], [ -65.899163, -17.651128 ], [ -65.899593, -17.651538 ], [ -65.899813, -17.651829 ], [ -65.899984, -17.652108 ], [ -65.900052, -17.652258 ], [ -65.900118, -17.652488 ], [ -65.90017, -17.652809 ], [ -65.900159, -17.653277 ], [ -65.900066, -17.653674 ], [ -65.90006, -17.653914 ], [ -65.899966, -17.654368 ], [ -65.900038, -17.654804 ], [ -65.900107, -17.654931 ], [ -65.900162, -17.655104 ], [ -65.900197, -17.65515 ], [ -65.900275, -17.655369 ], [ -65.900557, -17.655993 ], [ -65.90082, -17.656456 ], [ -65.900819, -17.656514 ], [ -65.900945, -17.656699 ], [ -65.900978, -17.656814 ], [ -65.901023, -17.656907 ], [ -65.901077, -17.657137 ], [ -65.901117, -17.65748 ], [ -65.901114, -17.657594 ], [ -65.901073, -17.657799 ], [ -65.900996, -17.658025 ], [ -65.900934, -17.658149 ], [ -65.900894, -17.658308 ], [ -65.900691, -17.65884 ], [ -65.900678, -17.659365 ], [ -65.900602, -17.659557 ], [ -65.900599, -17.659682 ], [ -65.900533, -17.659943 ], [ -65.900532, -17.660012 ], [ -65.900494, -17.660102 ], [ -65.900453, -17.660295 ], [ -65.90025, -17.660838 ], [ -65.900114, -17.66104 ], [ -65.899965, -17.661311 ], [ -65.899903, -17.661389 ], [ -65.899828, -17.661524 ], [ -65.899765, -17.661682 ], [ -65.89954, -17.662111 ], [ -65.899505, -17.662121 ], [ -65.899352, -17.662505 ], [ -65.899316, -17.662527 ], [ -65.899315, -17.662573 ], [ -65.899241, -17.662697 ], [ -65.899126, -17.663002 ], [ -65.8991, -17.663116 ], [ -65.899089, -17.663561 ], [ -65.899077, -17.66356 ], [ -65.899117, -17.663858 ], [ -65.899376, -17.664504 ], [ -65.899374, -17.664573 ], [ -65.89945, -17.66486 ], [ -65.899432, -17.665134 ], [ -65.899261, -17.665815 ], [ -65.899258, -17.665906 ], [ -65.899207, -17.666053 ], [ -65.89917, -17.667091 ], [ -65.89923, -17.667584 ], [ -65.899234, -17.667892 ], [ -65.899255, -17.668007 ], [ -65.899252, -17.668132 ], [ -65.899345, -17.668717 ], [ -65.899411, -17.669427 ], [ -65.899445, -17.669507 ], [ -65.899439, -17.669747 ], [ -65.899471, -17.669931 ], [ -65.899416, -17.670483 ], [ -65.899283, -17.670838 ], [ -65.898336, -17.67208 ], [ -65.898379, -17.672122 ], [ -65.901821, -17.675435 ] ], [ [ -65.98094, -17.557513 ], [ -65.982097, -17.561193 ], [ -65.980923, -17.557524 ], [ -65.98094, -17.557513 ] ], [ [ -65.980923, -17.557524 ], [ -65.980921, -17.557518 ], [ -65.980923, -17.557524 ], [ -65.980923, -17.557524 ] ], [ [ -65.980711, -17.557561 ], [ -65.980568, -17.557564 ], [ -65.980583, -17.557559 ], [ -65.98073, -17.557556 ], [ -65.980866, -17.557554 ], [ -65.980858, -17.557559 ], [ -65.980711, -17.557561 ] ], [ [ -65.980038, -17.557572 ], [ -65.979638, -17.557578 ], [ -65.979406, -17.557541 ], [ -65.978313, -17.557598 ], [ -65.978039, -17.557561 ], [ -65.97764, -17.557567 ], [ -65.977135, -17.557595 ], [ -65.976567, -17.557583 ], [ -65.976398, -17.557546 ], [ -65.97623, -17.557548 ], [ -65.97256, -17.55705 ], [ -65.972552, -17.556585 ], [ -65.972589, -17.553911 ], [ -65.97192, -17.553988 ], [ -65.967481, -17.554046 ], [ -65.967481, -17.554044 ], [ -65.97194, -17.553984 ], [ -65.972608, -17.553908 ], [ -65.972572, -17.556582 ], [ -65.972579, -17.557047 ], [ -65.97625, -17.557544 ], [ -65.976418, -17.557541 ], [ -65.976587, -17.557579 ], [ -65.977155, -17.557591 ], [ -65.977659, -17.557563 ], [ -65.978059, -17.557557 ], [ -65.978333, -17.557593 ], [ -65.979426, -17.557536 ], [ -65.979658, -17.557573 ], [ -65.980057, -17.557567 ], [ -65.980392, -17.557621 ], [ -65.980375, -17.557627 ], [ -65.980038, -17.557572 ] ], [ [ -65.967818, -17.562263 ], [ -65.967697, -17.562265 ], [ -65.967576, -17.562247 ], [ -65.967518, -17.5622 ], [ -65.9674, -17.562152 ], [ -65.96734, -17.56215 ], [ -65.967246, -17.562114 ], [ -65.96708, -17.562087 ], [ -65.966298, -17.562067 ], [ -65.966316, -17.562064 ], [ -65.967101, -17.562084 ], [ -65.967267, -17.562111 ], [ -65.967361, -17.562147 ], [ -65.967421, -17.562149 ], [ -65.967539, -17.562197 ], [ -65.967597, -17.562244 ], [ -65.967718, -17.562262 ], [ -65.967839, -17.56226 ], [ -65.967918, -17.562274 ], [ -65.967919, -17.562281 ], [ -65.967818, -17.562263 ] ], [ [ -65.962837, -17.563887 ], [ -65.961997, -17.563672 ], [ -65.961726, -17.563574 ], [ -65.961168, -17.563571 ], [ -65.961177, -17.563569 ], [ -65.961748, -17.563571 ], [ -65.962019, -17.56367 ], [ -65.962859, -17.563885 ], [ -65.963116, -17.563934 ], [ -65.963109, -17.563939 ], [ -65.962837, -17.563887 ] ], [ [ -65.959358, -17.564074 ], [ -65.958597, -17.563937 ], [ -65.958021, -17.563927 ], [ -65.957586, -17.563914 ], [ -65.957394, -17.563887 ], [ -65.957232, -17.563871 ], [ -65.95707, -17.563805 ], [ -65.957067, -17.56365 ], [ -65.957064, -17.563486 ], [ -65.957061, -17.563302 ], [ -65.957062, -17.563068 ], [ -65.95696, -17.562837 ], [ -65.956774, -17.562193 ], [ -65.956762, -17.562193 ], [ -65.956719, -17.561975 ], [ -65.956684, -17.561951 ], [ -65.956686, -17.561883 ], [ -65.956652, -17.561813 ], [ -65.956599, -17.561515 ], [ -65.956481, -17.56101 ], [ -65.956502, -17.560108 ], [ -65.956514, -17.560109 ], [ -65.956556, -17.559836 ], [ -65.956566, -17.559413 ], [ -65.956546, -17.559287 ], [ -65.956548, -17.559196 ], [ -65.956387, -17.558438 ], [ -65.956253, -17.558092 ], [ -65.956254, -17.558047 ], [ -65.956118, -17.557758 ], [ -65.956052, -17.557528 ], [ -65.955996, -17.557412 ], [ -65.955921, -17.557056 ], [ -65.955891, -17.556804 ], [ -65.955926, -17.55435 ], [ -65.95551, -17.553815 ], [ -65.955347, -17.553674 ], [ -65.955148, -17.553543 ], [ -65.955067, -17.553472 ], [ -65.954914, -17.553377 ], [ -65.954761, -17.553305 ], [ -65.954585, -17.553198 ], [ -65.954362, -17.553089 ], [ -65.95389, -17.552906 ], [ -65.953397, -17.552894 ], [ -65.953399, -17.552893 ], [ -65.95391, -17.552906 ], [ -65.954382, -17.553089 ], [ -65.954605, -17.553198 ], [ -65.954781, -17.553305 ], [ -65.954934, -17.553377 ], [ -65.955087, -17.553472 ], [ -65.955168, -17.553543 ], [ -65.955367, -17.553673 ], [ -65.955531, -17.553814 ], [ -65.955946, -17.55435 ], [ -65.955912, -17.556804 ], [ -65.955942, -17.557056 ], [ -65.956016, -17.557411 ], [ -65.956073, -17.557527 ], [ -65.956139, -17.557757 ], [ -65.956275, -17.558046 ], [ -65.956274, -17.558092 ], [ -65.956408, -17.558437 ], [ -65.956569, -17.559195 ], [ -65.956567, -17.559286 ], [ -65.956588, -17.559412 ], [ -65.956578, -17.559835 ], [ -65.956535, -17.560107 ], [ -65.956524, -17.560107 ], [ -65.956502, -17.561009 ], [ -65.956621, -17.561514 ], [ -65.956673, -17.561812 ], [ -65.956707, -17.561881 ], [ -65.956706, -17.56195 ], [ -65.956741, -17.561974 ], [ -65.956783, -17.562192 ], [ -65.956795, -17.562192 ], [ -65.956982, -17.562836 ], [ -65.957084, -17.563067 ], [ -65.957083, -17.5633 ], [ -65.957086, -17.563484 ], [ -65.957089, -17.563649 ], [ -65.957092, -17.563804 ], [ -65.957254, -17.563869 ], [ -65.957416, -17.563886 ], [ -65.957608, -17.563912 ], [ -65.958043, -17.563925 ], [ -65.958619, -17.563936 ], [ -65.95938, -17.564072 ], [ -65.959648, -17.564057 ], [ -65.959644, -17.564058 ], [ -65.959358, -17.564074 ] ], [ [ -65.95131, -17.553321 ], [ -65.951099, -17.553213 ], [ -65.950994, -17.553119 ], [ -65.950879, -17.552967 ], [ -65.950728, -17.552804 ], [ -65.950636, -17.552653 ], [ -65.950604, -17.552527 ], [ -65.950599, -17.55223 ], [ -65.950688, -17.552004 ], [ -65.950799, -17.551824 ], [ -65.951017, -17.551658 ], [ -65.951113, -17.551637 ], [ -65.951185, -17.551605 ], [ -65.951436, -17.551543 ], [ -65.952285, -17.551557 ], [ -65.951456, -17.551543 ], [ -65.951205, -17.551606 ], [ -65.951133, -17.551638 ], [ -65.951037, -17.551658 ], [ -65.950819, -17.551824 ], [ -65.950708, -17.552004 ], [ -65.950619, -17.55223 ], [ -65.950624, -17.552527 ], [ -65.950657, -17.552654 ], [ -65.950748, -17.552804 ], [ -65.950899, -17.552968 ], [ -65.951015, -17.553119 ], [ -65.951119, -17.553213 ], [ -65.951331, -17.553321 ], [ -65.951641, -17.55334 ], [ -65.951631, -17.55334 ], [ -65.95131, -17.553321 ] ], [ [ -65.95406, -17.551278 ], [ -65.954362, -17.551114 ], [ -65.954451, -17.551028 ], [ -65.954508, -17.550853 ], [ -65.954557, -17.550757 ], [ -65.954515, -17.550639 ], [ -65.954503, -17.550504 ], [ -65.95442, -17.55036 ], [ -65.954286, -17.550187 ], [ -65.95323, -17.549179 ], [ -65.953033, -17.548945 ], [ -65.952987, -17.54891 ], [ -65.952929, -17.548817 ], [ -65.952663, -17.548525 ], [ -65.952476, -17.548372 ], [ -65.952141, -17.548009 ], [ -65.951896, -17.547819 ], [ -65.951692, -17.547686 ], [ -65.951568, -17.547552 ], [ -65.951465, -17.547418 ], [ -65.951343, -17.547342 ], [ -65.95128, -17.547188 ], [ -65.951155, -17.546996 ], [ -65.953076, -17.543485 ], [ -65.951174, -17.546997 ], [ -65.951299, -17.547189 ], [ -65.951362, -17.547343 ], [ -65.951484, -17.547419 ], [ -65.951587, -17.547553 ], [ -65.951711, -17.547687 ], [ -65.951915, -17.547819 ], [ -65.95216, -17.548009 ], [ -65.952495, -17.548372 ], [ -65.952682, -17.548525 ], [ -65.952949, -17.548818 ], [ -65.953006, -17.54891 ], [ -65.953053, -17.548946 ], [ -65.953249, -17.549179 ], [ -65.954305, -17.550188 ], [ -65.954439, -17.55036 ], [ -65.954522, -17.550504 ], [ -65.954535, -17.550639 ], [ -65.954576, -17.550757 ], [ -65.954528, -17.550853 ], [ -65.95447, -17.551028 ], [ -65.954381, -17.551114 ], [ -65.95408, -17.551278 ], [ -65.95378, -17.551384 ], [ -65.952872, -17.551567 ], [ -65.952852, -17.551567 ], [ -65.95376, -17.551384 ], [ -65.95406, -17.551278 ] ] ] ] } }
]
}
