{
"type": "FeatureCollection",
"name": "PUNATA",
"crs": { "type": "name", "properties": { "name": "urn:ogc:def:crs:OGC:1.3:CRS84" } },
"bbox": [ -65.960521, -17.746418, -65.723777, -17.443799 ],                                                                        
"features": [
{ "type": "Feature", "properties": { "NOMBRE": "Punata", "NIVEL": "Provincias", "PROVINCIA": "", "REGION": "Valles", "DEPARTAMENTO": "Cochabamba" }, "bbox": [ -65.960521, -17.746418, -65.723777, -17.443799 ], "geometry": { "type": "MultiPolygon", "coordinates": [ [ [ [ -65.734494, -17.666177 ], [ -65.733898, -17.670174 ], [ -65.729734, -17.703962 ], [ -65.731613, -17.723859 ], [ -65.724732, -17.736788 ], [ -65.723777, -17.738456 ], [ -65.724071, -17.738572 ], [ -65.741104, -17.746418 ], [ -65.755192, -17.730334 ], [ -65.765599, -17.738107 ], [ -65.780507, -17.739393 ], [ -65.782148, -17.739534 ], [ -65.779694, -17.726185 ], [ -65.779531, -17.725298 ], [ -65.7841, -17.714009 ], [ -65.766845, -17.696325 ], [ -65.761031, -17.688719 ], [ -65.772387, -17.681924 ], [ -65.787436, -17.679023 ], [ -65.796973, -17.680794 ], [ -65.807333, -17.678056 ], [ -65.815866, -17.682431 ], [ -65.825098, -17.695203 ], [ -65.839218, -17.708769 ], [ -65.844645, -17.710157 ], [ -65.860783, -17.709325 ], [ -65.876305, -17.708523 ], [ -65.880385, -17.705384 ], [ -65.877864, -17.697551 ], [ -65.881241, -17.697766 ], [ -65.884661, -17.696611 ], [ -65.886563, -17.694748 ], [ -65.88834, -17.693703 ], [ -65.889583, -17.693439 ], [ -65.891038, -17.692503 ], [ -65.891639, -17.691492 ], [ -65.891902, -17.687438 ], [ -65.893668, -17.684921 ], [ -65.893949, -17.683593 ], [ -65.893424, -17.681222 ], [ -65.893586, -17.678941 ], [ -65.894522, -17.676888 ], [ -65.898379, -17.672122 ], [ -65.898336, -17.67208 ], [ -65.899283, -17.670838 ], [ -65.899416, -17.670483 ], [ -65.899471, -17.669931 ], [ -65.899439, -17.669747 ], [ -65.899445, -17.669507 ], [ -65.899411, -17.669427 ], [ -65.899345, -17.668717 ], [ -65.899252, -17.668132 ], [ -65.899255, -17.668007 ], [ -65.899234, -17.667892 ], [ -65.89923, -17.667584 ], [ -65.89917, -17.667091 ], [ -65.899207, -17.666053 ], [ -65.899258, -17.665906 ], [ -65.899261, -17.665815 ], [ -65.899432, -17.665134 ], [ -65.89945, -17.66486 ], [ -65.899374, -17.664573 ], [ -65.899376, -17.664504 ], [ -65.899117, -17.663858 ], [ -65.899077, -17.66356 ], [ -65.899089, -17.663561 ], [ -65.8991, -17.663116 ], [ -65.899126, -17.663002 ], [ -65.899241, -17.662697 ], [ -65.899315, -17.662573 ], [ -65.899316, -17.662527 ], [ -65.899352, -17.662505 ], [ -65.899505, -17.662121 ], [ -65.89954, -17.662111 ], [ -65.899765, -17.661682 ], [ -65.899828, -17.661524 ], [ -65.899903, -17.661389 ], [ -65.899965, -17.661311 ], [ -65.900114, -17.66104 ], [ -65.90025, -17.660838 ], [ -65.900453, -17.660295 ], [ -65.900494, -17.660102 ], [ -65.900532, -17.660012 ], [ -65.900533, -17.659943 ], [ -65.900599, -17.659682 ], [ -65.900602, -17.659557 ], [ -65.900678, -17.659365 ], [ -65.900691, -17.65884 ], [ -65.900894, -17.658308 ], [ -65.900934, -17.658149 ], [ -65.900996, -17.658025 ], [ -65.901073, -17.657799 ], [ -65.901114, -17.657594 ], [ -65.901117, -17.65748 ], [ -65.901077, -17.657137 ], [ -65.901023, -17.656907 ], [ -65.900978, -17.656814 ], [ -65.900945, -17.656699 ], [ -65.900819, -17.656514 ], [ -65.90082, -17.656456 ], [ -65.900557, -17.655993 ], [ -65.900275, -17.655369 ], [ -65.900197, -17.65515 ], [ -65.900162, -17.655104 ], [ -65.900107, -17.654931 ], [ -65.900038, -17.654804 ], [ -65.899966, -17.654368 ], [ -65.90006, -17.653914 ], [ -65.900066, -17.653674 ], [ -65.900159, -17.653277 ], [ -65.90017, -17.652809 ], [ -65.900118, -17.652488 ], [ -65.900052, -17.652258 ], [ -65.899984, -17.652108 ], [ -65.899813, -17.651829 ], [ -65.899593, -17.651538 ], [ -65.899163, -17.651128 ], [ -65.898764, -17.650878 ], [ -65.898426, -17.650584 ], [ -65.898218, -17.650327 ], [ -65.898148, -17.650268 ], [ -65.898023, -17.650037 ], [ -65.897746, -17.649642 ], [ -65.897679, -17.649469 ], [ -65.897223, -17.648635 ], [ -65.897201, -17.648554 ], [ -65.897143, -17.648484 ], [ -65.896803, -17.647791 ], [ -65.89654, -17.647327 ], [ -65.896189, -17.646588 ], [ -65.896089, -17.646311 ], [ -65.896021, -17.646172 ], [ -65.895889, -17.645723 ], [ -65.895798, -17.645527 ], [ -65.895623, -17.644895 ], [ -65.895413, -17.643759 ], [ -65.895258, -17.64275 ], [ -65.895231, -17.642407 ], [ -65.895218, -17.641938 ], [ -65.895088, -17.640953 ], [ -65.894935, -17.64039 ], [ -65.894769, -17.639872 ], [ -65.894677, -17.639698 ], [ -65.894294, -17.6393 ], [ -65.893453, -17.638662 ], [ -65.893091, -17.638356 ], [ -65.892696, -17.637958 ], [ -65.892488, -17.637713 ], [ -65.892245, -17.637387 ], [ -65.892119, -17.637189 ], [ -65.891923, -17.636933 ], [ -65.891476, -17.636237 ], [ -65.891341, -17.635914 ], [ -65.891265, -17.63558 ], [ -65.891216, -17.635157 ], [ -65.891223, -17.63486 ], [ -65.891204, -17.634677 ], [ -65.89121, -17.633935 ], [ -65.891187, -17.633911 ], [ -65.891136, -17.633533 ], [ -65.891049, -17.633223 ], [ -65.890903, -17.632865 ], [ -65.89066, -17.632562 ], [ -65.890497, -17.632398 ], [ -65.890474, -17.632397 ], [ -65.890392, -17.632315 ], [ -65.890146, -17.632161 ], [ -65.889676, -17.631909 ], [ -65.889465, -17.631755 ], [ -65.889431, -17.631709 ], [ -65.88936, -17.631673 ], [ -65.889361, -17.63165 ], [ -65.889213, -17.631383 ], [ -65.889054, -17.631037 ], [ -65.889042, -17.631036 ], [ -65.88897, -17.630601 ], [ -65.889019, -17.629049 ], [ -65.888949, -17.628522 ], [ -65.888733, -17.62758 ], [ -65.88831, -17.626382 ], [ -65.888256, -17.626175 ], [ -65.888055, -17.62561 ], [ -65.887934, -17.625207 ], [ -65.887866, -17.625057 ], [ -65.887844, -17.624965 ], [ -65.887799, -17.624896 ], [ -65.887743, -17.624746 ], [ -65.88764, -17.624572 ], [ -65.887216, -17.623906 ], [ -65.887006, -17.623537 ], [ -65.88686, -17.623324 ], [ -65.886672, -17.623073 ], [ -65.886463, -17.622723 ], [ -65.886746, -17.622543 ], [ -65.886907, -17.622443 ], [ -65.887048, -17.622324 ], [ -65.887108, -17.622244 ], [ -65.887168, -17.622165 ], [ -65.887227, -17.622047 ], [ -65.887266, -17.62189 ], [ -65.887291, -17.621765 ], [ -65.887296, -17.62156 ], [ -65.887326, -17.621321 ], [ -65.887332, -17.621059 ], [ -65.88739, -17.620626 ], [ -65.887448, -17.618732 ], [ -65.887478, -17.61847 ], [ -65.887508, -17.617238 ], [ -65.887461, -17.616711 ], [ -65.887499, -17.616644 ], [ -65.887505, -17.616393 ], [ -65.887579, -17.615789 ], [ -65.887657, -17.615529 ], [ -65.887685, -17.615347 ], [ -65.887816, -17.614859 ], [ -65.887925, -17.614279 ], [ -65.887928, -17.614142 ], [ -65.88798, -17.613961 ], [ -65.887984, -17.613824 ], [ -65.888022, -17.613722 ], [ -65.888025, -17.613585 ], [ -65.888065, -17.613415 ], [ -65.888151, -17.612801 ], [ -65.888177, -17.612744 ], [ -65.888194, -17.612516 ], [ -65.888322, -17.611663 ], [ -65.888385, -17.611493 ], [ -65.8884, -17.611368 ], [ -65.888439, -17.611244 ], [ -65.888495, -17.61088 ], [ -65.888658, -17.61005 ], [ -65.888661, -17.609947 ], [ -65.888713, -17.609743 ], [ -65.888718, -17.609561 ], [ -65.888748, -17.60931 ], [ -65.888756, -17.608991 ], [ -65.888779, -17.608991 ], [ -65.888846, -17.608685 ], [ -65.888851, -17.608491 ], [ -65.889039, -17.607628 ], [ -65.889148, -17.607025 ], [ -65.889328, -17.606493 ], [ -65.889356, -17.606334 ], [ -65.889445, -17.606096 ], [ -65.889472, -17.605937 ], [ -65.889488, -17.604305 ], [ -65.889455, -17.604201 ], [ -65.889443, -17.604201 ], [ -65.889445, -17.604098 ], [ -65.889424, -17.604018 ], [ -65.889426, -17.603915 ], [ -65.88939, -17.603747 ], [ -65.886524, -17.598993 ], [ -65.886537, -17.592991 ], [ -65.886539, -17.592263 ], [ -65.886395, -17.592071 ], [ -65.886376, -17.592046 ], [ -65.886166, -17.591765 ], [ -65.886137, -17.590071 ], [ -65.886083, -17.58695 ], [ -65.88621, -17.586863 ], [ -65.886656, -17.586281 ], [ -65.887189, -17.585689 ], [ -65.887611, -17.585325 ], [ -65.888051, -17.584703 ], [ -65.888161, -17.584507 ], [ -65.888252, -17.584183 ], [ -65.888329, -17.583658 ], [ -65.888454, -17.58293 ], [ -65.888848, -17.581454 ], [ -65.888996, -17.580941 ], [ -65.889204, -17.580079 ], [ -65.88926, -17.579762 ], [ -65.889372, -17.579134 ], [ -65.889411, -17.578598 ], [ -65.889484, -17.578036 ], [ -65.889579, -17.577693 ], [ -65.889758, -17.57751 ], [ -65.890093, -17.57719 ], [ -65.891237, -17.576215 ], [ -65.891818, -17.575662 ], [ -65.89242, -17.575119 ], [ -65.893185, -17.574391 ], [ -65.893661, -17.573959 ], [ -65.89397, -17.573602 ], [ -65.89411, -17.573441 ], [ -65.894258, -17.573224 ], [ -65.894442, -17.572679 ], [ -65.894487, -17.572596 ], [ -65.894517, -17.57234 ], [ -65.894515, -17.572187 ], [ -65.894512, -17.571972 ], [ -65.894498, -17.571659 ], [ -65.894424, -17.571501 ], [ -65.89421, -17.571116 ], [ -65.893994, -17.570642 ], [ -65.893704, -17.569982 ], [ -65.893588, -17.569685 ], [ -65.893581, -17.569448 ], [ -65.89358, -17.569425 ], [ -65.893542, -17.569199 ], [ -65.893603, -17.569043 ], [ -65.893669, -17.568872 ], [ -65.893797, -17.568629 ], [ -65.894008, -17.568232 ], [ -65.894108, -17.567504 ], [ -65.894103, -17.567485 ], [ -65.894403, -17.567731 ], [ -65.894624, -17.567937 ], [ -65.895145, -17.568065 ], [ -65.895457, -17.568202 ], [ -65.896007, -17.56809 ], [ -65.897008, -17.568036 ], [ -65.897293, -17.568043 ], [ -65.897974, -17.567957 ], [ -65.899032, -17.567984 ], [ -65.899198, -17.568023 ], [ -65.899875, -17.568063 ], [ -65.900183, -17.568116 ], [ -65.901289, -17.568122 ], [ -65.902372, -17.568149 ], [ -65.902668, -17.568191 ], [ -65.903037, -17.568212 ], [ -65.903545, -17.568362 ], [ -65.904219, -17.568516 ], [ -65.904786, -17.568701 ], [ -65.90547, -17.568947 ], [ -65.905931, -17.569085 ], [ -65.906403, -17.569256 ], [ -65.906663, -17.56932 ], [ -65.906828, -17.569381 ], [ -65.906981, -17.569465 ], [ -65.907099, -17.569502 ], [ -65.907463, -17.569706 ], [ -65.908036, -17.570017 ], [ -65.908332, -17.570163 ], [ -65.908438, -17.570212 ], [ -65.908511, -17.570171 ], [ -65.922585, -17.567487 ], [ -65.926046, -17.569281 ], [ -65.925833, -17.568985 ], [ -65.925829, -17.568736 ], [ -65.925772, -17.568437 ], [ -65.925769, -17.568238 ], [ -65.925765, -17.567989 ], [ -65.925637, -17.567574 ], [ -65.925657, -17.567209 ], [ -65.925697, -17.567039 ], [ -65.925703, -17.566788 ], [ -65.925731, -17.566629 ], [ -65.925762, -17.565819 ], [ -65.925798, -17.565797 ], [ -65.925809, -17.565363 ], [ -65.925797, -17.565363 ], [ -65.925797, -17.56534 ], [ -65.925751, -17.56527 ], [ -65.925751, -17.564814 ], [ -65.925697, -17.564573 ], [ -65.925657, -17.56424 ], [ -65.925523, -17.563883 ], [ -65.925284, -17.56342 ], [ -65.925206, -17.563201 ], [ -65.925232, -17.56262 ], [ -65.925271, -17.562484 ], [ -65.925275, -17.562324 ], [ -65.925288, -17.562301 ], [ -65.925293, -17.561559 ], [ -65.925264, -17.561319 ], [ -65.925257, -17.561102 ], [ -65.925225, -17.560941 ], [ -65.925171, -17.560243 ], [ -65.925077, -17.55967 ], [ -65.925043, -17.559612 ], [ -65.924954, -17.55937 ], [ -65.924671, -17.558757 ], [ -65.924317, -17.55812 ], [ -65.924145, -17.557853 ], [ -65.923883, -17.55739 ], [ -65.923802, -17.557285 ], [ -65.923734, -17.557135 ], [ -65.923714, -17.556986 ], [ -65.923687, -17.556899 ], [ -65.923682, -17.556637 ], [ -65.923693, -17.556463 ], [ -65.923688, -17.556164 ], [ -65.923699, -17.556076 ], [ -65.923696, -17.555852 ], [ -65.923665, -17.555565 ], [ -65.923686, -17.555229 ], [ -65.923683, -17.554804 ], [ -65.923685, -17.554725 ], [ -65.923739, -17.554463 ], [ -65.923784, -17.554076 ], [ -65.923822, -17.554009 ], [ -65.923823, -17.553963 ], [ -65.923925, -17.553669 ], [ -65.924035, -17.553043 ], [ -65.924419, -17.551911 ], [ -65.924597, -17.551459 ], [ -65.924598, -17.551402 ], [ -65.92461, -17.551402 ], [ -65.924676, -17.551153 ], [ -65.924678, -17.551062 ], [ -65.924715, -17.550983 ], [ -65.924724, -17.550606 ], [ -65.924703, -17.550023 ], [ -65.924665, -17.549634 ], [ -65.92467, -17.549428 ], [ -65.924722, -17.549247 ], [ -65.924726, -17.549053 ], [ -65.924803, -17.548827 ], [ -65.924952, -17.548568 ], [ -65.924978, -17.548477 ], [ -65.925091, -17.548229 ], [ -65.925272, -17.547628 ], [ -65.925314, -17.547355 ], [ -65.925406, -17.547004 ], [ -65.925612, -17.546358 ], [ -65.9257, -17.546177 ], [ -65.925751, -17.546019 ], [ -65.925864, -17.545782 ], [ -65.925953, -17.545533 ], [ -65.925955, -17.545453 ], [ -65.926044, -17.545216 ], [ -65.926219, -17.544855 ], [ -65.9267, -17.543679 ], [ -65.926959, -17.542795 ], [ -65.926984, -17.542761 ], [ -65.92701, -17.542659 ], [ -65.927206, -17.542402 ], [ -65.927352, -17.542303 ], [ -65.927967, -17.541941 ], [ -65.928256, -17.541789 ], [ -65.928414, -17.541679 ], [ -65.928876, -17.541268 ], [ -65.928962, -17.541144 ], [ -65.929133, -17.540955 ], [ -65.929269, -17.540753 ], [ -65.929404, -17.540585 ], [ -65.929405, -17.540539 ], [ -65.929365, -17.539902 ], [ -65.929414, -17.539702 ], [ -65.929513, -17.539401 ], [ -65.929709, -17.538579 ], [ -65.929834, -17.538241 ], [ -65.93004, -17.538113 ], [ -65.930182, -17.538074 ], [ -65.93043, -17.53812 ], [ -65.930603, -17.538367 ], [ -65.930725, -17.538689 ], [ -65.930812, -17.538919 ], [ -65.930836, -17.53892 ], [ -65.931045, -17.539119 ], [ -65.931244, -17.53925 ], [ -65.931446, -17.539255 ], [ -65.931624, -17.539293 ], [ -65.931783, -17.539617 ], [ -65.931841, -17.539676 ], [ -65.932051, -17.539818 ], [ -65.932376, -17.539678 ], [ -65.932471, -17.53968 ], [ -65.932516, -17.539696 ], [ -65.932659, -17.539776 ], [ -65.93275, -17.539736 ], [ -65.932814, -17.539673 ], [ -65.932878, -17.539603 ], [ -65.932914, -17.539566 ], [ -65.933085, -17.539376 ], [ -65.933347, -17.539371 ], [ -65.933387, -17.539365 ], [ -65.933452, -17.539314 ], [ -65.933481, -17.539249 ], [ -65.933533, -17.539056 ], [ -65.933647, -17.538762 ], [ -65.933827, -17.538687 ], [ -65.933946, -17.53869 ], [ -65.934194, -17.538765 ], [ -65.934288, -17.538813 ], [ -65.934486, -17.539 ], [ -65.934693, -17.539303 ], [ -65.934764, -17.539304 ], [ -65.934944, -17.539252 ], [ -65.935029, -17.539197 ], [ -65.935346, -17.538885 ], [ -65.935468, -17.53874 ], [ -65.935492, -17.53874 ], [ -65.935805, -17.538577 ], [ -65.935817, -17.538554 ], [ -65.935972, -17.538558 ], [ -65.936078, -17.538584 ], [ -65.936161, -17.538632 ], [ -65.936214, -17.538896 ], [ -65.936226, -17.538896 ], [ -65.936221, -17.539101 ], [ -65.93624, -17.539285 ], [ -65.936383, -17.539288 ], [ -65.936383, -17.539277 ], [ -65.936597, -17.539271 ], [ -65.936597, -17.539282 ], [ -65.93668, -17.539284 ], [ -65.936834, -17.539322 ], [ -65.936892, -17.539392 ], [ -65.93702, -17.539498 ], [ -65.937147, -17.53965 ], [ -65.937546, -17.539888 ], [ -65.937641, -17.539891 ], [ -65.938114, -17.540006 ], [ -65.938246, -17.539986 ], [ -65.938365, -17.539989 ], [ -65.938636, -17.540076 ], [ -65.938717, -17.540158 ], [ -65.938835, -17.540229 ], [ -65.938857, -17.540276 ], [ -65.938893, -17.540276 ], [ -65.939022, -17.540348 ], [ -65.93926, -17.540354 ], [ -65.939322, -17.540344 ], [ -65.939392, -17.5403 ], [ -65.939527, -17.540191 ], [ -65.939562, -17.540168 ], [ -65.939866, -17.53989 ], [ -65.939938, -17.539846 ], [ -65.939986, -17.539859 ], [ -65.940009, -17.53986 ], [ -65.940023, -17.539885 ], [ -65.940044, -17.539917 ], [ -65.940071, -17.540034 ], [ -65.940076, -17.540055 ], [ -65.940092, -17.540183 ], [ -65.940119, -17.540273 ], [ -65.940229, -17.540588 ], [ -65.95177, -17.5356 ], [ -65.956323, -17.534077 ], [ -65.956534, -17.534003 ], [ -65.956642, -17.533994 ], [ -65.956822, -17.533942 ], [ -65.956919, -17.533888 ], [ -65.956991, -17.533867 ], [ -65.957137, -17.533768 ], [ -65.957245, -17.533714 ], [ -65.957403, -17.533604 ], [ -65.957584, -17.533518 ], [ -65.958057, -17.533223 ], [ -65.958229, -17.533176 ], [ -65.958412, -17.533134 ], [ -65.958614, -17.533034 ], [ -65.958781, -17.532954 ], [ -65.958958, -17.532852 ], [ -65.959098, -17.532733 ], [ -65.959345, -17.532539 ], [ -65.959484, -17.532474 ], [ -65.959557, -17.532431 ], [ -65.959572, -17.532431 ], [ -65.959581, -17.532431 ], [ -65.959581, -17.532431 ], [ -65.959955, -17.532248 ], [ -65.960232, -17.532141 ], [ -65.960233, -17.53213 ], [ -65.960366, -17.532054 ], [ -65.960515, -17.531841 ], [ -65.960521, -17.531612 ], [ -65.960351, -17.531299 ], [ -65.960172, -17.530883 ], [ -65.960162, -17.530814 ], [ -65.959866, -17.53028 ], [ -65.959671, -17.53 ], [ -65.959558, -17.529803 ], [ -65.959534, -17.529791 ], [ -65.959495, -17.529499 ], [ -65.959388, -17.529246 ], [ -65.95924, -17.528896 ], [ -65.959195, -17.528642 ], [ -65.959125, -17.528214 ], [ -65.958822, -17.52757 ], [ -65.94895, -17.510716 ], [ -65.948801, -17.510326 ], [ -65.948805, -17.509981 ], [ -65.948778, -17.509656 ], [ -65.948805, -17.509542 ], [ -65.94884, -17.508698 ], [ -65.948895, -17.508436 ], [ -65.948922, -17.507478 ], [ -65.948881, -17.507236 ], [ -65.948883, -17.507157 ], [ -65.948829, -17.506949 ], [ -65.948752, -17.50673 ], [ -65.948615, -17.506509 ], [ -65.948419, -17.506264 ], [ -65.948141, -17.505982 ], [ -65.947779, -17.505697 ], [ -65.94716, -17.505257 ], [ -65.947047, -17.505014 ], [ -65.947167, -17.504114 ], [ -65.947164, -17.503917 ], [ -65.947218, -17.503504 ], [ -65.946763, -17.499842 ], [ -65.9456, -17.497733 ], [ -65.94455, -17.494696 ], [ -65.944548, -17.494691 ], [ -65.943268, -17.494158 ], [ -65.942368, -17.494266 ], [ -65.942032, -17.494052 ], [ -65.942029, -17.49405 ], [ -65.941382, -17.492845 ], [ -65.943647, -17.489717 ], [ -65.945667, -17.48713 ], [ -65.946433, -17.485481 ], [ -65.946614, -17.484366 ], [ -65.946614, -17.484364 ], [ -65.945551, -17.482407 ], [ -65.945549, -17.482404 ], [ -65.945492, -17.481473 ], [ -65.945506, -17.481439 ], [ -65.945994, -17.480206 ], [ -65.946019, -17.480016 ], [ -65.946093, -17.479441 ], [ -65.946071, -17.479416 ], [ -65.942913, -17.475931 ], [ -65.941445, -17.474326 ], [ -65.93978, -17.473013 ], [ -65.939386, -17.472112 ], [ -65.939317, -17.470215 ], [ -65.939645, -17.468323 ], [ -65.939482, -17.467026 ], [ -65.937852, -17.4657 ], [ -65.936954, -17.465324 ], [ -65.919648, -17.464504 ], [ -65.907477, -17.46131 ], [ -65.891071, -17.451169 ], [ -65.888091, -17.444618 ], [ -65.877181, -17.443799 ], [ -65.859496, -17.457537 ], [ -65.859466, -17.457565 ], [ -65.859465, -17.457566 ], [ -65.859304, -17.457714 ], [ -65.838787, -17.453298 ], [ -65.827628, -17.449511 ], [ -65.819578, -17.446779 ], [ -65.809216, -17.445559 ], [ -65.807129, -17.446632 ], [ -65.807046, -17.446713 ], [ -65.806653, -17.447015 ], [ -65.806199, -17.447294 ], [ -65.805758, -17.447596 ], [ -65.805411, -17.448083 ], [ -65.804983, -17.448095 ], [ -65.804588, -17.44827 ], [ -65.804217, -17.448387 ], [ -65.80412, -17.448353 ], [ -65.80412, -17.44833 ], [ -65.799811, -17.449909 ], [ -65.799231, -17.450592 ], [ -65.799006, -17.450892 ], [ -65.798631, -17.4517 ], [ -65.798235, -17.452807 ], [ -65.798074, -17.45343 ], [ -65.797901, -17.453983 ], [ -65.797667, -17.45456 ], [ -65.79689, -17.455934 ], [ -65.796323, -17.456708 ], [ -65.795635, -17.457541 ], [ -65.794981, -17.458143 ], [ -65.794398, -17.458619 ], [ -65.79286, -17.459744 ], [ -65.792371, -17.460046 ], [ -65.791487, -17.460465 ], [ -65.791152, -17.460652 ], [ -65.790961, -17.460779 ], [ -65.790533, -17.461127 ], [ -65.789662, -17.461708 ], [ -65.786985, -17.46307 ], [ -65.786174, -17.463581 ], [ -65.785328, -17.46423 ], [ -65.784711, -17.464867 ], [ -65.783477, -17.466266 ], [ -65.782801, -17.467099 ], [ -65.782282, -17.467873 ], [ -65.781716, -17.468866 ], [ -65.78127, -17.46972 ], [ -65.780965, -17.470413 ], [ -65.78079, -17.470851 ], [ -65.780578, -17.47122 ], [ -65.780092, -17.47181 ], [ -65.779459, -17.472066 ], [ -65.778401, -17.47288 ], [ -65.77846, -17.472926 ], [ -65.778439, -17.472942 ], [ -65.779161, -17.473502 ], [ -65.780041, -17.474427 ], [ -65.780975, -17.47518 ], [ -65.781484, -17.475522 ], [ -65.781994, -17.475933 ], [ -65.782309, -17.476127 ], [ -65.782914, -17.476434 ], [ -65.783737, -17.476958 ], [ -65.784124, -17.477163 ], [ -65.784682, -17.477527 ], [ -65.785602, -17.478097 ], [ -65.786039, -17.478462 ], [ -65.786441, -17.478851 ], [ -65.786795, -17.479305 ], [ -65.787089, -17.479791 ], [ -65.787325, -17.48048 ], [ -65.787417, -17.481135 ], [ -65.787388, -17.481699 ], [ -65.787286, -17.482241 ], [ -65.787147, -17.482679 ], [ -65.78668, -17.483873 ], [ -65.786669, -17.483902 ], [ -65.786556, -17.484478 ], [ -65.786538, -17.484996 ], [ -65.786581, -17.485582 ], [ -65.786708, -17.486203 ], [ -65.786834, -17.486674 ], [ -65.787032, -17.487076 ], [ -65.787154, -17.487282 ], [ -65.787255, -17.487639 ], [ -65.787258, -17.487938 ], [ -65.787182, -17.488629 ], [ -65.786919, -17.488742 ], [ -65.786775, -17.488928 ], [ -65.786377, -17.489282 ], [ -65.786195, -17.489365 ], [ -65.785359, -17.49002 ], [ -65.784609, -17.490646 ], [ -65.784583, -17.490664 ], [ -65.784402, -17.49095 ], [ -65.78417, -17.491344 ], [ -65.783776, -17.491522 ], [ -65.783499, -17.491785 ], [ -65.783326, -17.491944 ], [ -65.782979, -17.492018 ], [ -65.782478, -17.492044 ], [ -65.782238, -17.492134 ], [ -65.781877, -17.492305 ], [ -65.781144, -17.492573 ], [ -65.780954, -17.492693 ], [ -65.780464, -17.492949 ], [ -65.779854, -17.493229 ], [ -65.779472, -17.49345 ], [ -65.778365, -17.494012 ], [ -65.779994, -17.499469 ], [ -65.791005, -17.519293 ], [ -65.790832, -17.519256 ], [ -65.788415, -17.518546 ], [ -65.776272, -17.516137 ], [ -65.764693, -17.513839 ], [ -65.751612, -17.517221 ], [ -65.760969, -17.519702 ], [ -65.761577, -17.518808 ], [ -65.76177, -17.517876 ], [ -65.763292, -17.517078 ], [ -65.764473, -17.52052 ], [ -65.764641, -17.521646 ], [ -65.765697, -17.522417 ], [ -65.766637, -17.523569 ], [ -65.767185, -17.524934 ], [ -65.767754, -17.525811 ], [ -65.776976, -17.536229 ], [ -65.793173, -17.547127 ], [ -65.795234, -17.54708 ], [ -65.797242, -17.547873 ], [ -65.797277, -17.547701 ], [ -65.800925, -17.548074 ], [ -65.80775, -17.547884 ], [ -65.807704, -17.557121 ], [ -65.809432, -17.573523 ], [ -65.809971, -17.578646 ], [ -65.810039, -17.57929 ], [ -65.811468, -17.582353 ], [ -65.810881, -17.587465 ], [ -65.810632, -17.589628 ], [ -65.810219, -17.590329 ], [ -65.810478, -17.591211 ], [ -65.810849, -17.591938 ], [ -65.81141, -17.593039 ], [ -65.8116, -17.593768 ], [ -65.813446, -17.596812 ], [ -65.810223, -17.597427 ], [ -65.80625, -17.598006 ], [ -65.798526, -17.599109 ], [ -65.796193, -17.603199 ], [ -65.793408, -17.610908 ], [ -65.783982, -17.61715 ], [ -65.779635, -17.620019 ], [ -65.776671, -17.629544 ], [ -65.77649, -17.629584 ], [ -65.776466, -17.629659 ], [ -65.766343, -17.631913 ], [ -65.766314, -17.631924 ], [ -65.754018, -17.636676 ], [ -65.744978, -17.645432 ], [ -65.734494, -17.666177 ] ], [ [ -65.82712, -17.595054 ], [ -65.820373, -17.594642 ], [ -65.866918, -17.597483 ], [ -65.82712, -17.595054 ] ], [ [ -65.897381, -17.557418 ], [ -65.89738, -17.557383 ], [ -65.897389, -17.557291 ], [ -65.8974, -17.557268 ], [ -65.897422, -17.557187 ], [ -65.897444, -17.557129 ], [ -65.89749, -17.55707 ], [ -65.897514, -17.557058 ], [ -65.89756, -17.557011 ], [ -65.897659, -17.55695 ], [ -65.897632, -17.556969 ], [ -65.897551, -17.557632 ], [ -65.897494, -17.557598 ], [ -65.89742, -17.55752 ], [ -65.897381, -17.557418 ] ] ] ] } }
]
}
