{
"type": "FeatureCollection",
"name": "TAPACARI",
"crs": { "type": "name", "properties": { "name": "urn:ogc:def:crs:OGC:1.3:CRS84" } },
"bbox": [ -66.891949, -17.781903, -66.352232, -17.367390 ],                                                                        
"features": [
{ "type": "Feature", "properties": { "NOMBRE": "Tapacari", "NIVEL": "Provincias", "PROVINCIA": "", "REGION": "Andina", "DEPARTAMENTO": "Cochabamba" }, "bbox": [ -66.891949, -17.781903, -66.352232, -17.36739 ], "geometry": { "type": "MultiPolygon", "coordinates": [ [ [ [ -66.517434, -17.400187 ], [ -66.50852, -17.410137 ], [ -66.501454, -17.404628 ], [ -66.490365, -17.41174 ], [ -66.491242, -17.425792 ], [ -66.49667, -17.444604 ], [ -66.49521, -17.454153 ], [ -66.488594, -17.457401 ], [ -66.479799, -17.457998 ], [ -66.47428, -17.461968 ], [ -66.437754, -17.482051 ], [ -66.42405, -17.488119 ], [ -66.412, -17.480889 ], [ -66.409079, -17.486989 ], [ -66.398098, -17.490575 ], [ -66.402074, -17.495678 ], [ -66.401852, -17.507035 ], [ -66.3894, -17.51648 ], [ -66.388622, -17.542832 ], [ -66.38079, -17.551184 ], [ -66.366176, -17.557256 ], [ -66.357844, -17.562819 ], [ -66.352232, -17.570602 ], [ -66.355728, -17.571491 ], [ -66.358727, -17.571807 ], [ -66.360899, -17.571684 ], [ -66.362942, -17.57216 ], [ -66.368122, -17.570429 ], [ -66.371585, -17.568464 ], [ -66.375482, -17.563747 ], [ -66.381185, -17.560485 ], [ -66.385877, -17.556541 ], [ -66.387975, -17.555749 ], [ -66.390584, -17.55346 ], [ -66.397078, -17.550037 ], [ -66.404438, -17.547341 ], [ -66.41585, -17.546125 ], [ -66.422757, -17.544314 ], [ -66.426253, -17.544958 ], [ -66.430505, -17.545442 ], [ -66.438483, -17.550361 ], [ -66.446596, -17.559047 ], [ -66.449928, -17.560745 ], [ -66.45513, -17.561581 ], [ -66.457362, -17.561318 ], [ -66.461397, -17.558708 ], [ -66.469368, -17.555434 ], [ -66.471568, -17.555398 ], [ -66.471892, -17.556309 ], [ -66.471846, -17.556559 ], [ -66.471236, -17.55986 ], [ -66.469773, -17.560665 ], [ -66.454733, -17.572142 ], [ -66.439561, -17.567328 ], [ -66.428005, -17.555647 ], [ -66.423007, -17.56202 ], [ -66.417894, -17.562578 ], [ -66.404768, -17.569584 ], [ -66.416892, -17.576469 ], [ -66.425007, -17.583494 ], [ -66.437908, -17.585103 ], [ -66.428615, -17.599341 ], [ -66.431848, -17.604572 ], [ -66.432036, -17.61255 ], [ -66.426379, -17.625774 ], [ -66.422899, -17.623657 ], [ -66.423691, -17.619802 ], [ -66.421471, -17.616918 ], [ -66.416989, -17.613179 ], [ -66.414175, -17.611942 ], [ -66.412469, -17.611928 ], [ -66.411428, -17.61286 ], [ -66.409792, -17.612108 ], [ -66.40478, -17.614186 ], [ -66.404111, -17.615072 ], [ -66.403901, -17.616846 ], [ -66.401574, -17.619585 ], [ -66.400431, -17.620251 ], [ -66.401439, -17.623375 ], [ -66.397179, -17.634163 ], [ -66.39781, -17.63794 ], [ -66.381192, -17.657359 ], [ -66.392634, -17.657862 ], [ -66.392256, -17.670486 ], [ -66.42145, -17.698268 ], [ -66.42158, -17.698002 ], [ -66.421495, -17.6972 ], [ -66.421399, -17.696815 ], [ -66.421603, -17.696231 ], [ -66.421952, -17.695886 ], [ -66.42202, -17.695599 ], [ -66.421945, -17.695112 ], [ -66.422095, -17.694738 ], [ -66.422325, -17.694159 ], [ -66.422835, -17.693517 ], [ -66.423061, -17.693115 ], [ -66.423458, -17.692584 ], [ -66.423397, -17.692132 ], [ -66.423531, -17.691974 ], [ -66.42412, -17.69121 ], [ -66.4249, -17.690554 ], [ -66.425174, -17.690292 ], [ -66.425686, -17.689604 ], [ -66.425845, -17.689251 ], [ -66.426254, -17.688439 ], [ -66.426481, -17.688026 ], [ -66.42672, -17.687759 ], [ -66.426917, -17.687412 ], [ -66.426989, -17.687261 ], [ -66.427646, -17.686673 ], [ -66.427968, -17.686641 ], [ -66.428803, -17.686297 ], [ -66.429294, -17.686093 ], [ -66.429582, -17.686015 ], [ -66.430005, -17.685532 ], [ -66.430363, -17.685066 ], [ -66.430623, -17.684685 ], [ -66.430898, -17.684394 ], [ -66.431066, -17.684221 ], [ -66.43134, -17.683936 ], [ -66.431561, -17.68368 ], [ -66.43192, -17.683136 ], [ -66.432146, -17.682645 ], [ -66.432221, -17.682441 ], [ -66.4331, -17.681246 ], [ -66.433283, -17.680705 ], [ -66.433795, -17.67942 ], [ -66.435096, -17.678143 ], [ -66.435968, -17.677029 ], [ -66.436542, -17.676763 ], [ -66.4373, -17.676435 ], [ -66.438648, -17.676945 ], [ -66.439613, -17.677245 ], [ -66.440063, -17.677302 ], [ -66.440687, -17.676869 ], [ -66.440859, -17.676641 ], [ -66.442442, -17.675241 ], [ -66.445957, -17.672754 ], [ -66.446138, -17.669856 ], [ -66.448815, -17.668321 ], [ -66.451944, -17.665077 ], [ -66.452794, -17.663604 ], [ -66.45285, -17.663507 ], [ -66.4534, -17.662554 ], [ -66.453457, -17.662481 ], [ -66.453496, -17.662431 ], [ -66.45478, -17.660775 ], [ -66.455624, -17.660187 ], [ -66.45669, -17.658691 ], [ -66.458041, -17.657339 ], [ -66.458023, -17.656931 ], [ -66.45802, -17.656864 ], [ -66.457991, -17.656163 ], [ -66.457988, -17.656105 ], [ -66.457966, -17.655587 ], [ -66.457327, -17.654245 ], [ -66.457355, -17.653898 ], [ -66.457513, -17.653368 ], [ -66.45764, -17.653089 ], [ -66.457928, -17.652674 ], [ -66.458829, -17.652891 ], [ -66.459089, -17.652915 ], [ -66.459289, -17.652934 ], [ -66.459739, -17.652946 ], [ -66.460593, -17.653099 ], [ -66.460871, -17.653162 ], [ -66.462486, -17.653459 ], [ -66.463515, -17.653978 ], [ -66.46532, -17.654245 ], [ -66.467438, -17.655049 ], [ -66.468106, -17.655771 ], [ -66.468025, -17.656185 ], [ -66.468109, -17.656331 ], [ -66.46814, -17.656372 ], [ -66.468315, -17.656604 ], [ -66.468507, -17.65675 ], [ -66.46857, -17.656805 ], [ -66.469259, -17.657671 ], [ -66.470928, -17.660452 ], [ -66.471579, -17.662822 ], [ -66.471618, -17.662965 ], [ -66.471838, -17.663763 ], [ -66.472568, -17.664688 ], [ -66.474117, -17.665945 ], [ -66.475585, -17.66732 ], [ -66.47571, -17.667434 ], [ -66.475767, -17.667486 ], [ -66.475779, -17.667496 ], [ -66.476619, -17.668162 ], [ -66.476932, -17.668224 ], [ -66.478205, -17.668092 ], [ -66.478894, -17.6678 ], [ -66.478923, -17.667711 ], [ -66.478943, -17.667653 ], [ -66.478952, -17.667635 ], [ -66.47897, -17.667627 ], [ -66.478979, -17.667609 ], [ -66.478982, -17.667591 ], [ -66.479, -17.667577 ], [ -66.479019, -17.66757 ], [ -66.479026, -17.667553 ], [ -66.479033, -17.66755 ], [ -66.47904, -17.667537 ], [ -66.479051, -17.667522 ], [ -66.47906, -17.667505 ], [ -66.479077, -17.667496 ], [ -66.479082, -17.667478 ], [ -66.479091, -17.66746 ], [ -66.479089, -17.667442 ], [ -66.479101, -17.667426 ], [ -66.479164, -17.667392 ], [ -66.479316, -17.667434 ], [ -66.479334, -17.667439 ], [ -66.479354, -17.667438 ], [ -66.47937, -17.667427 ], [ -66.479388, -17.66742 ], [ -66.479406, -17.667412 ], [ -66.479429, -17.667407 ], [ -66.479449, -17.667406 ], [ -66.479468, -17.667404 ], [ -66.479487, -17.667396 ], [ -66.479505, -17.667386 ], [ -66.479525, -17.667387 ], [ -66.47954, -17.667399 ], [ -66.479558, -17.667404 ], [ -66.479576, -17.667411 ], [ -66.479596, -17.667411 ], [ -66.479611, -17.667422 ], [ -66.479625, -17.667435 ], [ -66.479631, -17.667452 ], [ -66.479641, -17.667468 ], [ -66.479649, -17.667486 ], [ -66.479657, -17.667503 ], [ -66.479681, -17.667533 ], [ -66.47969, -17.667549 ], [ -66.479704, -17.667562 ], [ -66.479718, -17.667575 ], [ -66.479727, -17.667591 ], [ -66.479743, -17.667602 ], [ -66.479754, -17.667621 ], [ -66.479759, -17.667644 ], [ -66.479774, -17.667656 ], [ -66.479789, -17.667667 ], [ -66.479802, -17.667682 ], [ -66.479818, -17.667695 ], [ -66.479835, -17.667705 ], [ -66.479851, -17.667714 ], [ -66.47988, -17.667725 ], [ -66.479898, -17.667728 ], [ -66.479917, -17.667732 ], [ -66.479936, -17.667741 ], [ -66.479953, -17.667749 ], [ -66.479974, -17.667758 ], [ -66.47999, -17.66777 ], [ -66.48001, -17.667772 ], [ -66.480031, -17.667772 ], [ -66.480049, -17.667778 ], [ -66.480065, -17.667788 ], [ -66.480078, -17.667801 ], [ -66.480097, -17.667805 ], [ -66.480113, -17.667815 ], [ -66.480125, -17.667829 ], [ -66.480139, -17.667842 ], [ -66.480158, -17.667845 ], [ -66.480178, -17.667846 ], [ -66.480196, -17.667852 ], [ -66.480217, -17.667857 ], [ -66.480238, -17.667863 ], [ -66.480261, -17.667869 ], [ -66.480282, -17.667869 ], [ -66.480306, -17.667866 ], [ -66.480326, -17.667863 ], [ -66.480343, -17.667853 ], [ -66.480402, -17.667769 ], [ -66.480458, -17.667819 ], [ -66.480476, -17.667827 ], [ -66.480492, -17.667839 ], [ -66.480511, -17.667855 ], [ -66.480539, -17.667876 ], [ -66.480553, -17.66789 ], [ -66.480565, -17.667904 ], [ -66.480575, -17.667919 ], [ -66.480587, -17.667935 ], [ -66.480598, -17.66795 ], [ -66.480609, -17.667965 ], [ -66.48061, -17.667984 ], [ -66.48061, -17.668002 ], [ -66.480604, -17.66802 ], [ -66.480594, -17.668037 ], [ -66.480588, -17.668055 ], [ -66.480586, -17.668074 ], [ -66.480588, -17.668093 ], [ -66.480594, -17.66811 ], [ -66.480594, -17.668129 ], [ -66.480608, -17.668141 ], [ -66.480629, -17.668147 ], [ -66.480643, -17.66816 ], [ -66.480662, -17.668165 ], [ -66.480665, -17.668168 ], [ -66.48068, -17.66817 ], [ -66.480704, -17.66817 ], [ -66.480723, -17.668172 ], [ -66.480742, -17.668179 ], [ -66.480761, -17.668184 ], [ -66.480775, -17.668196 ], [ -66.480792, -17.668209 ], [ -66.480807, -17.668221 ], [ -66.480825, -17.668227 ], [ -66.480838, -17.668242 ], [ -66.480856, -17.668249 ], [ -66.480874, -17.668256 ], [ -66.480891, -17.668264 ], [ -66.480912, -17.668269 ], [ -66.480928, -17.668279 ], [ -66.480954, -17.66828 ], [ -66.480973, -17.668281 ], [ -66.480994, -17.668287 ], [ -66.481014, -17.668294 ], [ -66.481027, -17.668308 ], [ -66.481031, -17.668326 ], [ -66.481037, -17.668343 ], [ -66.48104, -17.668361 ], [ -66.481051, -17.668376 ], [ -66.481056, -17.668394 ], [ -66.481077, -17.668405 ], [ -66.481087, -17.668423 ], [ -66.481102, -17.668441 ], [ -66.481106, -17.668459 ], [ -66.481125, -17.66847 ], [ -66.481122, -17.668488 ], [ -66.481121, -17.668526 ], [ -66.481116, -17.668545 ], [ -66.481106, -17.668562 ], [ -66.481097, -17.668579 ], [ -66.481091, -17.668596 ], [ -66.481087, -17.668614 ], [ -66.481088, -17.668633 ], [ -66.481107, -17.668639 ], [ -66.481126, -17.668646 ], [ -66.481145, -17.668652 ], [ -66.481164, -17.668652 ], [ -66.481184, -17.668652 ], [ -66.481206, -17.668656 ], [ -66.481224, -17.668662 ], [ -66.48124, -17.668672 ], [ -66.481262, -17.668674 ], [ -66.481279, -17.668684 ], [ -66.481295, -17.668695 ], [ -66.481307, -17.668709 ], [ -66.481321, -17.668722 ], [ -66.481335, -17.668735 ], [ -66.481346, -17.668753 ], [ -66.481353, -17.66877 ], [ -66.481365, -17.668785 ], [ -66.481378, -17.668798 ], [ -66.481388, -17.668813 ], [ -66.481391, -17.668831 ], [ -66.481405, -17.668844 ], [ -66.481423, -17.668849 ], [ -66.481443, -17.668849 ], [ -66.481463, -17.668857 ], [ -66.481481, -17.668862 ], [ -66.481501, -17.668864 ], [ -66.48152, -17.668865 ], [ -66.481543, -17.668866 ], [ -66.481563, -17.668865 ], [ -66.481581, -17.66887 ], [ -66.481585, -17.66887 ], [ -66.481607, -17.66886 ], [ -66.481625, -17.668867 ], [ -66.481643, -17.668876 ], [ -66.481666, -17.668882 ], [ -66.481683, -17.668892 ], [ -66.481697, -17.668905 ], [ -66.481714, -17.668912 ], [ -66.481739, -17.668915 ], [ -66.481763, -17.668922 ], [ -66.481784, -17.668929 ], [ -66.481802, -17.668935 ], [ -66.481818, -17.668944 ], [ -66.481837, -17.668947 ], [ -66.481855, -17.668957 ], [ -66.481859, -17.668975 ], [ -66.481875, -17.668986 ], [ -66.481893, -17.668994 ], [ -66.4819, -17.669011 ], [ -66.481913, -17.669024 ], [ -66.481931, -17.669029 ], [ -66.481949, -17.669037 ], [ -66.481963, -17.669051 ], [ -66.481978, -17.669063 ], [ -66.481993, -17.669074 ], [ -66.482003, -17.66909 ], [ -66.482036, -17.669113 ], [ -66.48206, -17.669144 ], [ -66.482078, -17.669148 ], [ -66.4821, -17.669152 ], [ -66.482115, -17.669168 ], [ -66.482129, -17.66918 ], [ -66.482146, -17.669189 ], [ -66.482163, -17.669198 ], [ -66.482192, -17.669222 ], [ -66.482204, -17.669237 ], [ -66.48222, -17.669248 ], [ -66.482235, -17.66926 ], [ -66.482247, -17.669274 ], [ -66.482263, -17.669284 ], [ -66.482276, -17.669298 ], [ -66.482276, -17.6693 ], [ -66.482299, -17.669323 ], [ -66.482314, -17.669336 ], [ -66.482329, -17.669349 ], [ -66.482355, -17.669378 ], [ -66.482365, -17.669394 ], [ -66.482376, -17.669408 ], [ -66.482391, -17.669424 ], [ -66.482407, -17.669434 ], [ -66.482421, -17.669449 ], [ -66.482439, -17.669455 ], [ -66.48245, -17.66947 ], [ -66.48247, -17.669473 ], [ -66.48248, -17.669489 ], [ -66.482486, -17.669507 ], [ -66.482504, -17.669513 ], [ -66.482521, -17.669523 ], [ -66.482534, -17.669542 ], [ -66.482558, -17.669554 ], [ -66.482588, -17.669589 ], [ -66.482896, -17.670343 ], [ -66.483011, -17.670623 ], [ -66.48278, -17.670627 ], [ -66.482304, -17.670633 ], [ -66.482616, -17.67102 ], [ -66.482807, -17.671256 ], [ -66.483291, -17.672405 ], [ -66.483575, -17.672689 ], [ -66.48397, -17.672888 ], [ -66.484362, -17.673108 ], [ -66.484671, -17.67336 ], [ -66.484948, -17.674362 ], [ -66.485282, -17.674608 ], [ -66.486108, -17.675218 ], [ -66.486175, -17.675268 ], [ -66.486289, -17.675352 ], [ -66.48634, -17.675389 ], [ -66.488132, -17.676711 ], [ -66.488335, -17.676861 ], [ -66.490779, -17.678664 ], [ -66.493226, -17.679851 ], [ -66.493731, -17.680178 ], [ -66.497085, -17.682801 ], [ -66.49725, -17.682931 ], [ -66.498335, -17.683779 ], [ -66.503938, -17.687276 ], [ -66.50641, -17.68845 ], [ -66.505662, -17.689849 ], [ -66.505296, -17.691573 ], [ -66.505233, -17.691842 ], [ -66.504972, -17.692952 ], [ -66.504155, -17.694976 ], [ -66.503718, -17.695703 ], [ -66.503127, -17.696275 ], [ -66.50221, -17.697342 ], [ -66.501968, -17.698273 ], [ -66.501747, -17.699056 ], [ -66.501566, -17.699711 ], [ -66.501498, -17.70002 ], [ -66.501465, -17.700179 ], [ -66.501429, -17.700475 ], [ -66.501418, -17.700566 ], [ -66.501212, -17.702274 ], [ -66.501193, -17.702432 ], [ -66.500678, -17.706704 ], [ -66.503545, -17.707328 ], [ -66.503682, -17.707358 ], [ -66.503715, -17.707365 ], [ -66.504477, -17.7075 ], [ -66.505302, -17.707521 ], [ -66.506786, -17.708789 ], [ -66.506779, -17.709053 ], [ -66.512755, -17.706613 ], [ -66.514095, -17.706384 ], [ -66.515479, -17.706506 ], [ -66.518293, -17.706836 ], [ -66.519257, -17.70682 ], [ -66.520029, -17.706866 ], [ -66.521703, -17.707131 ], [ -66.52278, -17.707606 ], [ -66.524582, -17.708098 ], [ -66.526392, -17.708058 ], [ -66.527022, -17.709335 ], [ -66.527153, -17.709603 ], [ -66.526496, -17.712141 ], [ -66.534439, -17.713496 ], [ -66.537599, -17.709146 ], [ -66.537706, -17.709127 ], [ -66.53963, -17.708792 ], [ -66.540388, -17.707745 ], [ -66.541666, -17.707798 ], [ -66.54259, -17.707632 ], [ -66.546561, -17.706304 ], [ -66.547604, -17.705839 ], [ -66.549132, -17.707295 ], [ -66.549958, -17.709626 ], [ -66.550925, -17.711291 ], [ -66.551432, -17.711499 ], [ -66.551541, -17.71163 ], [ -66.551889, -17.712046 ], [ -66.552605, -17.71256 ], [ -66.55268, -17.712592 ], [ -66.55288, -17.712741 ], [ -66.553121, -17.712983 ], [ -66.553313, -17.713383 ], [ -66.553389, -17.713451 ], [ -66.553461, -17.713557 ], [ -66.553576, -17.713662 ], [ -66.553725, -17.713779 ], [ -66.554037, -17.713953 ], [ -66.554346, -17.714102 ], [ -66.554492, -17.714176 ], [ -66.554596, -17.714257 ], [ -66.554651, -17.714369 ], [ -66.554729, -17.714663 ], [ -66.554785, -17.714739 ], [ -66.554817, -17.714824 ], [ -66.55482, -17.714857 ], [ -66.554787, -17.714913 ], [ -66.554834, -17.71496 ], [ -66.554891, -17.715054 ], [ -66.55492, -17.715145 ], [ -66.554946, -17.715278 ], [ -66.554989, -17.715383 ], [ -66.555066, -17.715449 ], [ -66.555153, -17.715533 ], [ -66.555223, -17.715563 ], [ -66.555257, -17.715634 ], [ -66.555304, -17.715736 ], [ -66.55538, -17.715804 ], [ -66.555429, -17.715886 ], [ -66.555455, -17.715979 ], [ -66.555497, -17.716083 ], [ -66.555524, -17.716157 ], [ -66.555563, -17.716267 ], [ -66.555577, -17.716355 ], [ -66.555621, -17.716395 ], [ -66.555632, -17.716462 ], [ -66.555621, -17.716543 ], [ -66.555658, -17.716638 ], [ -66.555677, -17.716731 ], [ -66.555706, -17.716828 ], [ -66.55573, -17.716907 ], [ -66.555735, -17.717022 ], [ -66.555817, -17.717126 ], [ -66.555853, -17.717212 ], [ -66.55586, -17.717309 ], [ -66.555892, -17.717382 ], [ -66.555905, -17.717442 ], [ -66.555898, -17.717564 ], [ -66.555937, -17.717664 ], [ -66.556024, -17.717758 ], [ -66.556084, -17.717834 ], [ -66.556136, -17.717955 ], [ -66.556236, -17.718017 ], [ -66.556638, -17.718383 ], [ -66.55666, -17.718441 ], [ -66.556674, -17.718456 ], [ -66.556685, -17.718473 ], [ -66.556692, -17.718489 ], [ -66.556701, -17.718525 ], [ -66.556706, -17.71854 ], [ -66.556724, -17.718571 ], [ -66.556747, -17.7186 ], [ -66.556773, -17.718625 ], [ -66.556802, -17.718646 ], [ -66.556851, -17.718669 ], [ -66.556883, -17.718686 ], [ -66.556903, -17.718699 ], [ -66.556931, -17.718721 ], [ -66.556959, -17.71875 ], [ -66.55697, -17.718765 ], [ -66.556992, -17.7188 ], [ -66.557002, -17.718814 ], [ -66.557034, -17.718844 ], [ -66.557073, -17.718873 ], [ -66.557107, -17.718891 ], [ -66.55717, -17.718918 ], [ -66.557229, -17.71894 ], [ -66.557253, -17.718952 ], [ -66.557289, -17.718974 ], [ -66.557318, -17.718998 ], [ -66.557361, -17.719047 ], [ -66.557403, -17.719091 ], [ -66.557449, -17.719132 ], [ -66.5575, -17.719168 ], [ -66.557581, -17.719219 ], [ -66.557648, -17.719258 ], [ -66.557671, -17.719269 ], [ -66.557722, -17.719287 ], [ -66.557743, -17.719296 ], [ -66.557763, -17.719308 ], [ -66.557778, -17.719322 ], [ -66.557786, -17.719334 ], [ -66.557801, -17.719363 ], [ -66.55782, -17.719395 ], [ -66.557832, -17.71941 ], [ -66.557846, -17.719419 ], [ -66.557887, -17.719439 ], [ -66.557939, -17.719482 ], [ -66.557967, -17.719501 ], [ -66.558002, -17.719522 ], [ -66.558065, -17.719554 ], [ -66.558086, -17.719566 ], [ -66.558127, -17.719597 ], [ -66.558147, -17.719615 ], [ -66.558188, -17.719658 ], [ -66.558208, -17.719676 ], [ -66.558243, -17.719705 ], [ -66.558294, -17.719741 ], [ -66.55834, -17.719768 ], [ -66.558358, -17.719783 ], [ -66.558366, -17.719793 ], [ -66.558387, -17.719829 ], [ -66.558422, -17.719862 ], [ -66.558428, -17.719872 ], [ -66.558438, -17.7199 ], [ -66.558447, -17.719911 ], [ -66.558458, -17.719918 ], [ -66.558471, -17.719923 ], [ -66.558484, -17.719925 ], [ -66.558496, -17.719925 ], [ -66.558519, -17.719915 ], [ -66.558537, -17.719916 ], [ -66.558559, -17.719923 ], [ -66.558578, -17.719936 ], [ -66.558597, -17.719956 ], [ -66.558617, -17.719998 ], [ -66.558625, -17.720008 ], [ -66.558637, -17.720019 ], [ -66.558678, -17.720048 ], [ -66.558713, -17.720072 ], [ -66.558742, -17.720088 ], [ -66.558758, -17.720096 ], [ -66.558773, -17.720099 ], [ -66.558786, -17.720099 ], [ -66.558802, -17.720094 ], [ -66.558826, -17.720089 ], [ -66.55885, -17.720088 ], [ -66.558871, -17.72009 ], [ -66.558888, -17.720096 ], [ -66.558895, -17.720101 ], [ -66.558902, -17.720109 ], [ -66.558925, -17.720144 ], [ -66.558936, -17.720157 ], [ -66.558957, -17.720173 ], [ -66.55898, -17.720187 ], [ -66.559001, -17.720196 ], [ -66.55902, -17.720203 ], [ -66.559039, -17.720208 ], [ -66.559056, -17.72021 ], [ -66.559098, -17.720206 ], [ -66.55911, -17.720209 ], [ -66.559122, -17.720214 ], [ -66.559162, -17.72024 ], [ -66.559206, -17.720274 ], [ -66.559223, -17.720285 ], [ -66.559253, -17.720296 ], [ -66.559326, -17.720312 ], [ -66.559392, -17.720333 ], [ -66.559463, -17.720351 ], [ -66.559493, -17.720361 ], [ -66.559546, -17.72039 ], [ -66.559596, -17.720411 ], [ -66.55967, -17.720436 ], [ -66.559724, -17.720447 ], [ -66.559736, -17.720451 ], [ -66.559746, -17.720458 ], [ -66.559756, -17.720469 ], [ -66.559761, -17.720472 ], [ -66.559765, -17.720472 ], [ -66.559771, -17.720471 ], [ -66.559789, -17.720459 ], [ -66.559821, -17.720434 ], [ -66.55985, -17.720419 ], [ -66.559883, -17.720408 ], [ -66.55991, -17.720405 ], [ -66.559924, -17.720406 ], [ -66.559939, -17.72041 ], [ -66.559972, -17.720423 ], [ -66.559986, -17.720433 ], [ -66.560016, -17.72046 ], [ -66.56003, -17.720471 ], [ -66.56007, -17.72049 ], [ -66.560089, -17.720497 ], [ -66.560107, -17.720501 ], [ -66.560129, -17.720503 ], [ -66.560151, -17.720502 ], [ -66.560165, -17.7205 ], [ -66.560195, -17.720492 ], [ -66.56021, -17.720491 ], [ -66.560224, -17.720493 ], [ -66.560256, -17.720504 ], [ -66.560301, -17.720513 ], [ -66.560349, -17.720527 ], [ -66.560387, -17.72054 ], [ -66.560418, -17.720555 ], [ -66.560463, -17.72058 ], [ -66.560507, -17.720607 ], [ -66.560532, -17.720616 ], [ -66.560559, -17.720622 ], [ -66.560579, -17.720623 ], [ -66.560611, -17.720622 ], [ -66.560636, -17.72062 ], [ -66.560702, -17.720606 ], [ -66.560721, -17.720605 ], [ -66.560738, -17.720607 ], [ -66.560784, -17.720622 ], [ -66.560811, -17.720624 ], [ -66.560862, -17.720623 ], [ -66.560925, -17.72062 ], [ -66.560966, -17.720618 ], [ -66.560989, -17.720615 ], [ -66.561037, -17.720596 ], [ -66.561059, -17.720592 ], [ -66.561074, -17.720592 ], [ -66.561103, -17.720603 ], [ -66.561114, -17.720602 ], [ -66.561142, -17.720596 ], [ -66.561181, -17.720594 ], [ -66.561191, -17.72059 ], [ -66.561214, -17.720578 ], [ -66.561224, -17.720574 ], [ -66.561244, -17.720573 ], [ -66.561263, -17.720575 ], [ -66.561272, -17.720571 ], [ -66.56128, -17.720565 ], [ -66.561287, -17.720545 ], [ -66.561293, -17.720535 ], [ -66.5613, -17.720528 ], [ -66.561312, -17.720521 ], [ -66.561335, -17.720514 ], [ -66.561374, -17.720507 ], [ -66.561387, -17.720503 ], [ -66.561417, -17.720484 ], [ -66.561458, -17.720454 ], [ -66.561499, -17.72042 ], [ -66.561534, -17.7204 ], [ -66.561562, -17.720387 ], [ -66.56161, -17.72037 ], [ -66.561665, -17.720351 ], [ -66.561734, -17.72032 ], [ -66.56176, -17.720312 ], [ -66.56178, -17.720303 ], [ -66.561793, -17.720294 ], [ -66.5618, -17.720285 ], [ -66.561815, -17.720259 ], [ -66.561851, -17.72022 ], [ -66.561862, -17.720204 ], [ -66.561884, -17.720163 ], [ -66.561895, -17.720145 ], [ -66.561917, -17.72012 ], [ -66.561943, -17.720095 ], [ -66.561974, -17.720069 ], [ -66.562012, -17.720043 ], [ -66.562048, -17.720022 ], [ -66.562061, -17.720012 ], [ -66.562072, -17.719998 ], [ -66.562091, -17.71996 ], [ -66.562102, -17.719945 ], [ -66.562112, -17.719936 ], [ -66.562125, -17.719928 ], [ -66.562172, -17.719905 ], [ -66.562189, -17.719895 ], [ -66.562231, -17.719865 ], [ -66.562264, -17.719844 ], [ -66.56229, -17.719831 ], [ -66.562319, -17.719821 ], [ -66.562348, -17.719814 ], [ -66.562395, -17.719809 ], [ -66.562416, -17.719805 ], [ -66.562465, -17.719791 ], [ -66.562487, -17.719786 ], [ -66.562524, -17.719782 ], [ -66.562585, -17.719779 ], [ -66.56265, -17.719776 ], [ -66.562703, -17.719777 ], [ -66.562727, -17.719775 ], [ -66.562747, -17.71977 ], [ -66.562769, -17.719762 ], [ -66.562829, -17.719734 ], [ -66.562866, -17.719713 ], [ -66.562908, -17.719685 ], [ -66.562942, -17.719659 ], [ -66.562956, -17.719649 ], [ -66.562985, -17.719635 ], [ -66.563012, -17.719626 ], [ -66.563044, -17.719622 ], [ -66.563088, -17.719623 ], [ -66.563127, -17.719628 ], [ -66.563172, -17.719639 ], [ -66.563224, -17.719659 ], [ -66.563245, -17.719664 ], [ -66.563273, -17.719665 ], [ -66.563302, -17.719663 ], [ -66.563325, -17.719657 ], [ -66.563349, -17.719646 ], [ -66.563399, -17.719611 ], [ -66.56346, -17.719576 ], [ -66.563504, -17.71959 ], [ -66.563566, -17.719559 ], [ -66.56359, -17.719567 ], [ -66.563612, -17.719576 ], [ -66.563637, -17.719589 ], [ -66.56373, -17.719646 ], [ -66.56377, -17.719667 ], [ -66.563812, -17.719683 ], [ -66.563832, -17.719688 ], [ -66.563851, -17.719691 ], [ -66.563896, -17.71969 ], [ -66.563914, -17.719692 ], [ -66.563933, -17.719698 ], [ -66.563977, -17.719719 ], [ -66.56402, -17.719729 ], [ -66.564029, -17.719733 ], [ -66.564036, -17.719738 ], [ -66.564042, -17.719744 ], [ -66.564051, -17.719762 ], [ -66.564057, -17.719768 ], [ -66.564067, -17.719773 ], [ -66.564089, -17.71978 ], [ -66.564185, -17.719811 ], [ -66.564221, -17.71982 ], [ -66.564253, -17.719825 ], [ -66.564284, -17.719828 ], [ -66.564313, -17.719827 ], [ -66.564339, -17.719822 ], [ -66.564364, -17.719814 ], [ -66.564391, -17.719801 ], [ -66.564428, -17.719789 ], [ -66.564469, -17.719783 ], [ -66.564509, -17.719783 ], [ -66.564548, -17.719788 ], [ -66.56459, -17.719802 ], [ -66.564622, -17.719815 ], [ -66.564664, -17.719835 ], [ -66.56471, -17.71986 ], [ -66.564736, -17.719869 ], [ -66.564766, -17.719875 ], [ -66.564798, -17.719878 ], [ -66.564863, -17.719882 ], [ -66.564936, -17.719887 ], [ -66.565002, -17.719887 ], [ -66.565063, -17.719883 ], [ -66.56512, -17.719875 ], [ -66.565147, -17.719869 ], [ -66.565205, -17.719852 ], [ -66.56523, -17.719846 ], [ -66.56525, -17.719845 ], [ -66.565306, -17.719845 ], [ -66.565322, -17.719842 ], [ -66.565335, -17.719837 ], [ -66.565346, -17.719831 ], [ -66.56536, -17.719824 ], [ -66.565378, -17.719819 ], [ -66.56544, -17.719808 ], [ -66.565535, -17.719792 ], [ -66.565625, -17.719785 ], [ -66.565661, -17.719779 ], [ -66.565717, -17.719762 ], [ -66.565744, -17.719757 ], [ -66.565786, -17.719752 ], [ -66.565858, -17.719745 ], [ -66.565908, -17.719745 ], [ -66.565966, -17.71975 ], [ -66.565984, -17.719755 ], [ -66.565998, -17.719762 ], [ -66.56601, -17.719771 ], [ -66.566035, -17.719796 ], [ -66.566089, -17.719842 ], [ -66.566117, -17.719869 ], [ -66.566131, -17.719887 ], [ -66.566137, -17.719899 ], [ -66.566146, -17.71993 ], [ -66.566152, -17.719942 ], [ -66.56616, -17.71995 ], [ -66.566171, -17.719956 ], [ -66.566221, -17.71997 ], [ -66.566239, -17.719979 ], [ -66.566252, -17.71999 ], [ -66.56628, -17.720017 ], [ -66.566293, -17.720028 ], [ -66.56631, -17.720039 ], [ -66.56633, -17.720049 ], [ -66.566399, -17.720079 ], [ -66.566479, -17.720114 ], [ -66.566506, -17.720124 ], [ -66.566531, -17.720131 ], [ -66.566568, -17.720136 ], [ -66.566655, -17.720138 ], [ -66.566676, -17.720141 ], [ -66.566693, -17.720146 ], [ -66.56671, -17.720153 ], [ -66.566728, -17.720163 ], [ -66.566792, -17.720211 ], [ -66.566821, -17.720228 ], [ -66.566865, -17.720247 ], [ -66.56694, -17.720273 ], [ -66.567002, -17.720301 ], [ -66.567019, -17.720304 ], [ -66.567033, -17.720303 ], [ -66.567062, -17.720286 ], [ -66.56709, -17.720276 ], [ -66.567125, -17.720269 ], [ -66.567164, -17.720267 ], [ -66.567213, -17.72027 ], [ -66.567269, -17.72028 ], [ -66.567318, -17.720294 ], [ -66.56734, -17.720303 ], [ -66.56736, -17.720313 ], [ -66.567377, -17.720324 ], [ -66.567393, -17.720336 ], [ -66.567401, -17.720345 ], [ -66.567421, -17.720372 ], [ -66.567434, -17.720382 ], [ -66.567448, -17.720386 ], [ -66.567464, -17.720388 ], [ -66.567484, -17.720388 ], [ -66.567502, -17.720384 ], [ -66.567514, -17.720379 ], [ -66.567549, -17.72036 ], [ -66.567572, -17.720352 ], [ -66.567592, -17.720348 ], [ -66.56761, -17.720346 ], [ -66.567626, -17.720347 ], [ -66.567638, -17.720351 ], [ -66.567651, -17.720358 ], [ -66.567692, -17.720392 ], [ -66.567709, -17.720403 ], [ -66.567757, -17.720423 ], [ -66.56781, -17.720439 ], [ -66.567881, -17.720449 ], [ -66.567981, -17.72047 ], [ -66.568093, -17.720502 ], [ -66.568132, -17.720512 ], [ -66.56817, -17.720515 ], [ -66.568178, -17.720517 ], [ -66.568184, -17.72052 ], [ -66.56819, -17.720528 ], [ -66.568196, -17.720538 ], [ -66.5682, -17.72055 ], [ -66.568201, -17.72056 ], [ -66.5682, -17.720566 ], [ -66.568197, -17.720573 ], [ -66.56818, -17.72059 ], [ -66.568176, -17.720597 ], [ -66.568175, -17.7206 ], [ -66.568177, -17.720608 ], [ -66.568183, -17.720618 ], [ -66.568212, -17.720647 ], [ -66.568228, -17.720661 ], [ -66.568273, -17.720692 ], [ -66.568307, -17.720722 ], [ -66.568336, -17.720752 ], [ -66.568355, -17.720776 ], [ -66.568379, -17.72081 ], [ -66.56841, -17.720857 ], [ -66.568428, -17.72088 ], [ -66.568441, -17.720894 ], [ -66.568463, -17.720909 ], [ -66.568491, -17.720925 ], [ -66.568507, -17.72093 ], [ -66.568543, -17.72094 ], [ -66.568557, -17.720946 ], [ -66.568578, -17.720959 ], [ -66.568604, -17.720978 ], [ -66.568615, -17.720989 ], [ -66.568641, -17.721018 ], [ -66.568656, -17.72103 ], [ -66.568671, -17.721036 ], [ -66.568711, -17.72105 ], [ -66.568738, -17.721063 ], [ -66.568756, -17.721074 ], [ -66.568776, -17.72109 ], [ -66.5688, -17.721118 ], [ -66.568823, -17.721147 ], [ -66.56884, -17.721179 ], [ -66.568848, -17.72119 ], [ -66.568859, -17.721201 ], [ -66.568875, -17.721213 ], [ -66.568898, -17.721227 ], [ -66.568923, -17.721238 ], [ -66.568981, -17.721251 ], [ -66.568996, -17.721258 ], [ -66.569029, -17.721278 ], [ -66.569054, -17.721294 ], [ -66.569061, -17.721296 ], [ -66.569067, -17.721296 ], [ -66.569078, -17.721294 ], [ -66.56909, -17.721294 ], [ -66.569111, -17.721298 ], [ -66.569132, -17.721304 ], [ -66.569153, -17.721312 ], [ -66.569171, -17.721321 ], [ -66.569188, -17.721332 ], [ -66.569212, -17.721354 ], [ -66.569234, -17.721379 ], [ -66.569238, -17.721388 ], [ -66.56924, -17.721397 ], [ -66.569234, -17.721417 ], [ -66.569233, -17.721424 ], [ -66.569238, -17.721454 ], [ -66.569242, -17.721472 ], [ -66.569247, -17.721481 ], [ -66.569269, -17.721495 ], [ -66.569284, -17.721509 ], [ -66.569294, -17.721522 ], [ -66.569297, -17.72153 ], [ -66.569299, -17.721555 ], [ -66.569302, -17.72156 ], [ -66.569306, -17.721562 ], [ -66.56931, -17.721563 ], [ -66.569312, -17.721565 ], [ -66.569313, -17.72157 ], [ -66.569312, -17.721578 ], [ -66.569313, -17.721584 ], [ -66.569318, -17.721588 ], [ -66.569325, -17.721592 ], [ -66.569352, -17.721597 ], [ -66.569381, -17.721602 ], [ -66.569399, -17.7216 ], [ -66.569406, -17.721596 ], [ -66.569422, -17.721583 ], [ -66.569431, -17.721581 ], [ -66.569438, -17.721582 ], [ -66.569444, -17.72158 ], [ -66.56946, -17.72157 ], [ -66.569471, -17.721567 ], [ -66.569484, -17.721566 ], [ -66.569523, -17.721568 ], [ -66.569555, -17.721572 ], [ -66.569579, -17.721578 ], [ -66.569597, -17.721586 ], [ -66.569618, -17.721596 ], [ -66.569638, -17.72161 ], [ -66.569666, -17.72163 ], [ -66.569691, -17.721651 ], [ -66.569721, -17.721676 ], [ -66.569737, -17.721693 ], [ -66.569761, -17.721739 ], [ -66.569778, -17.721757 ], [ -66.569799, -17.721774 ], [ -66.569816, -17.721784 ], [ -66.56984, -17.721795 ], [ -66.569882, -17.721811 ], [ -66.569919, -17.721831 ], [ -66.569932, -17.72184 ], [ -66.569941, -17.721849 ], [ -66.569949, -17.72186 ], [ -66.569966, -17.721896 ], [ -66.569978, -17.721912 ], [ -66.569997, -17.721933 ], [ -66.570038, -17.721972 ], [ -66.570062, -17.722 ], [ -66.570098, -17.722044 ], [ -66.570126, -17.722081 ], [ -66.570149, -17.722116 ], [ -66.570164, -17.722146 ], [ -66.570181, -17.722188 ], [ -66.570199, -17.722249 ], [ -66.570207, -17.72227 ], [ -66.57022, -17.722295 ], [ -66.57024, -17.722323 ], [ -66.57026, -17.722346 ], [ -66.570297, -17.722386 ], [ -66.570358, -17.722451 ], [ -66.570401, -17.72249 ], [ -66.570422, -17.722506 ], [ -66.570443, -17.722519 ], [ -66.570464, -17.72253 ], [ -66.570484, -17.722538 ], [ -66.57089, -17.722994 ], [ -66.571144, -17.723175 ], [ -66.577182, -17.727498 ], [ -66.577182, -17.727498 ], [ -66.582941, -17.723685 ], [ -66.59402, -17.723336 ], [ -66.597875, -17.725454 ], [ -66.597876, -17.725454 ], [ -66.600216, -17.734874 ], [ -66.606432, -17.73987 ], [ -66.606432, -17.73987 ], [ -66.611039, -17.741415 ], [ -66.611039, -17.741415 ], [ -66.613461, -17.746312 ], [ -66.623442, -17.74352 ], [ -66.645142, -17.742579 ], [ -66.655716, -17.734651 ], [ -66.675929, -17.73392 ], [ -66.700395, -17.70429 ], [ -66.707856, -17.691254 ], [ -66.713498, -17.689734 ], [ -66.724444, -17.682739 ], [ -66.724444, -17.682739 ], [ -66.728252, -17.686085 ], [ -66.746421, -17.696859 ], [ -66.746421, -17.69686 ], [ -66.759611, -17.711339 ], [ -66.755474, -17.718024 ], [ -66.751557, -17.724543 ], [ -66.75573, -17.738208 ], [ -66.756572, -17.739853 ], [ -66.757305, -17.742416 ], [ -66.757144, -17.744008 ], [ -66.75801, -17.746 ], [ -66.757557, -17.751051 ], [ -66.758164, -17.752079 ], [ -66.758661, -17.7552 ], [ -66.762591, -17.769851 ], [ -66.772415, -17.781791 ], [ -66.787659, -17.780393 ], [ -66.795706, -17.781876 ], [ -66.795853, -17.781903 ], [ -66.80087, -17.769302 ], [ -66.800902, -17.769223 ], [ -66.802715, -17.768831 ], [ -66.802887, -17.768794 ], [ -66.805561, -17.762291 ], [ -66.805578, -17.762248 ], [ -66.806275, -17.761974 ], [ -66.80645, -17.761905 ], [ -66.807747, -17.759774 ], [ -66.807826, -17.759644 ], [ -66.811011, -17.759788 ], [ -66.811802, -17.758077 ], [ -66.815367, -17.750361 ], [ -66.819255, -17.744641 ], [ -66.820391, -17.741139 ], [ -66.822066, -17.736546 ], [ -66.82852, -17.733689 ], [ -66.83059, -17.730223 ], [ -66.837921, -17.725278 ], [ -66.838021, -17.72521 ], [ -66.851415, -17.718895 ], [ -66.86147, -17.705215 ], [ -66.861636, -17.70515 ], [ -66.861674, -17.705098 ], [ -66.868438, -17.702468 ], [ -66.870152, -17.693945 ], [ -66.874901, -17.690012 ], [ -66.876861, -17.685959 ], [ -66.891949, -17.66621 ], [ -66.890445, -17.657855 ], [ -66.887851, -17.646734 ], [ -66.888212, -17.63999 ], [ -66.883495, -17.633308 ], [ -66.875703, -17.630921 ], [ -66.872376, -17.624607 ], [ -66.872179, -17.617287 ], [ -66.876334, -17.614008 ], [ -66.882167, -17.604964 ], [ -66.884125, -17.601869 ], [ -66.885065, -17.600424 ], [ -66.88963, -17.59762 ], [ -66.888391, -17.591153 ], [ -66.888266, -17.589585 ], [ -66.887557, -17.588055 ], [ -66.887842, -17.586283 ], [ -66.887005, -17.584308 ], [ -66.886961, -17.582469 ], [ -66.887695, -17.581843 ], [ -66.887852, -17.579752 ], [ -66.887008, -17.578411 ], [ -66.886631, -17.576695 ], [ -66.884935, -17.574711 ], [ -66.884882, -17.573569 ], [ -66.884451, -17.570901 ], [ -66.885121, -17.570084 ], [ -66.885401, -17.568756 ], [ -66.885284, -17.567486 ], [ -66.883804, -17.567212 ], [ -66.882681, -17.563798 ], [ -66.882296, -17.562952 ], [ -66.881378, -17.562245 ], [ -66.880576, -17.56047 ], [ -66.878139, -17.559269 ], [ -66.876661, -17.559538 ], [ -66.875838, -17.559685 ], [ -66.875621, -17.558581 ], [ -66.874787, -17.557837 ], [ -66.874798, -17.556956 ], [ -66.873888, -17.556139 ], [ -66.8739, -17.55511 ], [ -66.874437, -17.553958 ], [ -66.874254, -17.552649 ], [ -66.87453, -17.551206 ], [ -66.874839, -17.550507 ], [ -66.875192, -17.54985 ], [ -66.875768, -17.549021 ], [ -66.876288, -17.548168 ], [ -66.87664, -17.547469 ], [ -66.876649, -17.546726 ], [ -66.87649, -17.545609 ], [ -66.876551, -17.544039 ], [ -66.877565, -17.542745 ], [ -66.877498, -17.541904 ], [ -66.876917, -17.541489 ], [ -66.875698, -17.541068 ], [ -66.8748, -17.540445 ], [ -66.87379, -17.540281 ], [ -66.872301, -17.540163 ], [ -66.871348, -17.539744 ], [ -66.870607, -17.539378 ], [ -66.869757, -17.539165 ], [ -66.868796, -17.53941 ], [ -66.867626, -17.539295 ], [ -66.865553, -17.539018 ], [ -66.863317, -17.539045 ], [ -66.862292, -17.540168 ], [ -66.860855, -17.539647 ], [ -66.857375, -17.537295 ], [ -66.855516, -17.536917 ], [ -66.851596, -17.53524 ], [ -66.847936, -17.534128 ], [ -66.845383, -17.533896 ], [ -66.841923, -17.533859 ], [ -66.839798, -17.533478 ], [ -66.8388, -17.532343 ], [ -66.838069, -17.531161 ], [ -66.836769, -17.528593 ], [ -66.835136, -17.527145 ], [ -66.83349, -17.526769 ], [ -66.832315, -17.527063 ], [ -66.830226, -17.528501 ], [ -66.82907, -17.52743 ], [ -66.827744, -17.526451 ], [ -66.825153, -17.524993 ], [ -66.824903, -17.523662 ], [ -66.820748, -17.519428 ], [ -66.819124, -17.518225 ], [ -66.817949, -17.517559 ], [ -66.81764, -17.516738 ], [ -66.817133, -17.514588 ], [ -66.816299, -17.513149 ], [ -66.816048, -17.511869 ], [ -66.816112, -17.51095 ], [ -66.817297, -17.509738 ], [ -66.817308, -17.508818 ], [ -66.817958, -17.507841 ], [ -66.817837, -17.506903 ], [ -66.81758, -17.505866 ], [ -66.817168, -17.505229 ], [ -66.816246, -17.504788 ], [ -66.817009, -17.503874 ], [ -66.81708, -17.502614 ], [ -66.817806, -17.502018 ], [ -66.818799, -17.50157 ], [ -66.820312, -17.500236 ], [ -66.821037, -17.499698 ], [ -66.822731, -17.495723 ], [ -66.82288, -17.493254 ], [ -66.823674, -17.49197 ], [ -66.824072, -17.49117 ], [ -66.82567, -17.490211 ], [ -66.827457, -17.489679 ], [ -66.828139, -17.487688 ], [ -66.82887, -17.486633 ], [ -66.829032, -17.485571 ], [ -66.829958, -17.483197 ], [ -66.83088, -17.481848 ], [ -66.83148, -17.481116 ], [ -66.832395, -17.47969 ], [ -66.833275, -17.478694 ], [ -66.8343, -17.478073 ], [ -66.835366, -17.476533 ], [ -66.835571, -17.47441 ], [ -66.835376, -17.473144 ], [ -66.835086, -17.472365 ], [ -66.835251, -17.471848 ], [ -66.835854, -17.47071 ], [ -66.836672, -17.46971 ], [ -66.836966, -17.466765 ], [ -66.837358, -17.464852 ], [ -66.837592, -17.463824 ], [ -66.837503, -17.462012 ], [ -66.837447, -17.460484 ], [ -66.837083, -17.459947 ], [ -66.836762, -17.458949 ], [ -66.836361, -17.456203 ], [ -66.836182, -17.454823 ], [ -66.836121, -17.453686 ], [ -66.836599, -17.453039 ], [ -66.836034, -17.451625 ], [ -66.836198, -17.450313 ], [ -66.83695, -17.449255 ], [ -66.838105, -17.448593 ], [ -66.840532, -17.446737 ], [ -66.840842, -17.445604 ], [ -66.842058, -17.445726 ], [ -66.842308, -17.443631 ], [ -66.843661, -17.441834 ], [ -66.846569, -17.439983 ], [ -66.848869, -17.439475 ], [ -66.851061, -17.438717 ], [ -66.852698, -17.437989 ], [ -66.854033, -17.437684 ], [ -66.855985, -17.438486 ], [ -66.857989, -17.438011 ], [ -66.859523, -17.437044 ], [ -66.860727, -17.436445 ], [ -66.861653, -17.435985 ], [ -66.862551, -17.435538 ], [ -66.863576, -17.434803 ], [ -66.864645, -17.434497 ], [ -66.865712, -17.432517 ], [ -66.867029, -17.430614 ], [ -66.867897, -17.429167 ], [ -66.868431, -17.427823 ], [ -66.869184, -17.426659 ], [ -66.870264, -17.426031 ], [ -66.871317, -17.42536 ], [ -66.872347, -17.42513 ], [ -66.873433, -17.423969 ], [ -66.875519, -17.422748 ], [ -66.875991, -17.420374 ], [ -66.876339, -17.419028 ], [ -66.876838, -17.417797 ], [ -66.877191, -17.415733 ], [ -66.876831, -17.414913 ], [ -66.875924, -17.413305 ], [ -66.87498, -17.411767 ], [ -66.874289, -17.410766 ], [ -66.873781, -17.409688 ], [ -66.87279, -17.409222 ], [ -66.872167, -17.408683 ], [ -66.871991, -17.4079 ], [ -66.871615, -17.406942 ], [ -66.871158, -17.406363 ], [ -66.87091, -17.405473 ], [ -66.869414, -17.40361 ], [ -66.868201, -17.402993 ], [ -66.867351, -17.402878 ], [ -66.866838, -17.402481 ], [ -66.866664, -17.401485 ], [ -66.866867, -17.399995 ], [ -66.867519, -17.398663 ], [ -66.865645, -17.396857 ], [ -66.865399, -17.395789 ], [ -66.864926, -17.394579 ], [ -66.865236, -17.390672 ], [ -66.86477, -17.389424 ], [ -66.863858, -17.388313 ], [ -66.854565, -17.39214 ], [ -66.846086, -17.400297 ], [ -66.843073, -17.412487 ], [ -66.83392, -17.418675 ], [ -66.825629, -17.425857 ], [ -66.814471, -17.422501 ], [ -66.808097, -17.415665 ], [ -66.794575, -17.430574 ], [ -66.78335, -17.431949 ], [ -66.775513, -17.441112 ], [ -66.745931, -17.444474 ], [ -66.733149, -17.448457 ], [ -66.715322, -17.440322 ], [ -66.719081, -17.425605 ], [ -66.712861, -17.409003 ], [ -66.681345, -17.405713 ], [ -66.659561, -17.414048 ], [ -66.614325, -17.422671 ], [ -66.576693, -17.376613 ], [ -66.571357, -17.376828 ], [ -66.565527, -17.36739 ], [ -66.546881, -17.383189 ], [ -66.517434, -17.400187 ] ] ] ] } }
]
}
