{
"type": "FeatureCollection",
"name": "TIRAQUE",
"crs": { "type": "name", "properties": { "name": "urn:ogc:def:crs:OGC:1.3:CRS84" } },
"bbox": [ -65.879309, -17.525201, -65.172727, -16.858803 ],                                                                        
"features": [
{ "type": "Feature", "properties": { "NOMBRE": "Tiraque", "NIVEL": "Provincias", "PROVINCIA": "", "REGION": "Tropico", "DEPARTAMENTO": "Cochabamba" }, "bbox": [ -65.879309, -17.525201, -65.172727, -16.858803 ], "geometry": { "type": "MultiPolygon", "coordinates": [ [ [ [ -65.245283, -17.238114 ], [ -65.244506, -17.238916 ], [ -65.2444, -17.239002 ], [ -65.244018, -17.239485 ], [ -65.243804, -17.239992 ], [ -65.243662, -17.240521 ], [ -65.243652, -17.240759 ], [ -65.243643, -17.240994 ], [ -65.24364, -17.241073 ], [ -65.243522, -17.241648 ], [ -65.243499, -17.242223 ], [ -65.243501, -17.242797 ], [ -65.243447, -17.243221 ], [ -65.243431, -17.243349 ], [ -65.243361, -17.243897 ], [ -65.243361, -17.243901 ], [ -65.243554, -17.244453 ], [ -65.243634, -17.244605 ], [ -65.243819, -17.244959 ], [ -65.244018, -17.245424 ], [ -65.244036, -17.245464 ], [ -65.244181, -17.245993 ], [ -65.244214, -17.246242 ], [ -65.244254, -17.246545 ], [ -65.244136, -17.247097 ], [ -65.244066, -17.247649 ], [ -65.243924, -17.248201 ], [ -65.243638, -17.248753 ], [ -65.243527, -17.249039 ], [ -65.243424, -17.249305 ], [ -65.243314, -17.24952 ], [ -65.243139, -17.249857 ], [ -65.242853, -17.250341 ], [ -65.242711, -17.250893 ], [ -65.242785, -17.251491 ], [ -65.242931, -17.25191 ], [ -65.242978, -17.252042 ], [ -65.243171, -17.252571 ], [ -65.24334, -17.253099 ], [ -65.243247, -17.253643 ], [ -65.243246, -17.253651 ], [ -65.242816, -17.254112 ], [ -65.242339, -17.254526 ], [ -65.242008, -17.254864 ], [ -65.241204, -17.255614 ], [ -65.241049, -17.255747 ], [ -65.240995, -17.255812 ], [ -65.240644, -17.25623 ], [ -65.240406, -17.256737 ], [ -65.240192, -17.257312 ], [ -65.240122, -17.25791 ], [ -65.2401, -17.258462 ], [ -65.239958, -17.259037 ], [ -65.239816, -17.259589 ], [ -65.239722, -17.260141 ], [ -65.239699, -17.260693 ], [ -65.239653, -17.261245 ], [ -65.239689, -17.261662 ], [ -65.240807, -17.263259 ], [ -65.241216, -17.263519 ], [ -65.241664, -17.263773 ], [ -65.242252, -17.263762 ], [ -65.242366, -17.26377 ], [ -65.242964, -17.263793 ], [ -65.243587, -17.263792 ], [ -65.243604, -17.263795 ], [ -65.244162, -17.263883 ], [ -65.244394, -17.264242 ], [ -65.244474, -17.264366 ], [ -65.244452, -17.264917 ], [ -65.24419, -17.265401 ], [ -65.243856, -17.265861 ], [ -65.243451, -17.266321 ], [ -65.242997, -17.266644 ], [ -65.242834, -17.266733 ], [ -65.242597, -17.267179 ], [ -65.241399, -17.267656 ], [ -65.241395, -17.267658 ], [ -65.241002, -17.267813 ], [ -65.240294, -17.268095 ], [ -65.237993, -17.269098 ], [ -65.237991, -17.269104 ], [ -65.237736, -17.270918 ], [ -65.237767, -17.271273 ], [ -65.237919, -17.27177 ], [ -65.237936, -17.271825 ], [ -65.238057, -17.272399 ], [ -65.238131, -17.272951 ], [ -65.238133, -17.273526 ], [ -65.238038, -17.274078 ], [ -65.237968, -17.27463 ], [ -65.237682, -17.275136 ], [ -65.237205, -17.275551 ], [ -65.237058, -17.275754 ], [ -65.237038, -17.275893 ], [ -65.236814, -17.276374 ], [ -65.236777, -17.276609 ], [ -65.236803, -17.276818 ], [ -65.23685, -17.277207 ], [ -65.237044, -17.277759 ], [ -65.237332, -17.278287 ], [ -65.237621, -17.278816 ], [ -65.237838, -17.27939 ], [ -65.238008, -17.279965 ], [ -65.238033, -17.280517 ], [ -65.23791, -17.280804 ], [ -65.237795, -17.281069 ], [ -65.237582, -17.281644 ], [ -65.237512, -17.282219 ], [ -65.237513, -17.282817 ], [ -65.237707, -17.283392 ], [ -65.238019, -17.283874 ], [ -65.238356, -17.284357 ], [ -65.238669, -17.284885 ], [ -65.238884, -17.285295 ], [ -65.238958, -17.285436 ], [ -65.239151, -17.286011 ], [ -65.239201, -17.286331 ], [ -65.239248, -17.286632 ], [ -65.239346, -17.287207 ], [ -65.239348, -17.287804 ], [ -65.23923, -17.288379 ], [ -65.238992, -17.288932 ], [ -65.238929, -17.288996 ], [ -65.238901, -17.289024 ], [ -65.238764, -17.289738 ], [ -65.236298, -17.291439 ], [ -65.236415, -17.291994 ], [ -65.23644, -17.292568 ], [ -65.236418, -17.29312 ], [ -65.236252, -17.293672 ], [ -65.23611, -17.294224 ], [ -65.236093, -17.294653 ], [ -65.236461, -17.295712 ], [ -65.236284, -17.296294 ], [ -65.236332, -17.296524 ], [ -65.236382, -17.297098 ], [ -65.236455, -17.297696 ], [ -65.236361, -17.298271 ], [ -65.236171, -17.298823 ], [ -65.236137, -17.29889 ], [ -65.235886, -17.299376 ], [ -65.2356, -17.299859 ], [ -65.235218, -17.300273 ], [ -65.234716, -17.300642 ], [ -65.234214, -17.300919 ], [ -65.23364, -17.30108 ], [ -65.233066, -17.301288 ], [ -65.232564, -17.301634 ], [ -65.232254, -17.302117 ], [ -65.232231, -17.302669 ], [ -65.232353, -17.303244 ], [ -65.232402, -17.303795 ], [ -65.232452, -17.304347 ], [ -65.232453, -17.304922 ], [ -65.232264, -17.305497 ], [ -65.231978, -17.306026 ], [ -65.231716, -17.30651 ], [ -65.231406, -17.306993 ], [ -65.231339, -17.307103 ], [ -65.231096, -17.307499 ], [ -65.230714, -17.30796 ], [ -65.230704, -17.307985 ], [ -65.2305, -17.308466 ], [ -65.230238, -17.308972 ], [ -65.229928, -17.309455 ], [ -65.229778, -17.309652 ], [ -65.229594, -17.309893 ], [ -65.229212, -17.310307 ], [ -65.228129, -17.310989 ], [ -65.227813, -17.31135 ], [ -65.227746, -17.311433 ], [ -65.227638, -17.311834 ], [ -65.227578, -17.312058 ], [ -65.227496, -17.312703 ], [ -65.227674, -17.313351 ], [ -65.228021, -17.313886 ], [ -65.228401, -17.314418 ], [ -65.228872, -17.314919 ], [ -65.228897, -17.314937 ], [ -65.22938, -17.315303 ], [ -65.229899, -17.315563 ], [ -65.230387, -17.315866 ], [ -65.230979, -17.316125 ], [ -65.231514, -17.316393 ], [ -65.232105, -17.316534 ], [ -65.23257, -17.316719 ], [ -65.232852, -17.31704 ], [ -65.233034, -17.317521 ], [ -65.233116, -17.318021 ], [ -65.233032, -17.318429 ], [ -65.23305, -17.319945 ], [ -65.231216, -17.321478 ], [ -65.229253, -17.321151 ], [ -65.229241, -17.321156 ], [ -65.228711, -17.321695 ], [ -65.228455, -17.322266 ], [ -65.228159, -17.323656 ], [ -65.228185, -17.32422 ], [ -65.228421, -17.324867 ], [ -65.228852, -17.325331 ], [ -65.229242, -17.32577 ], [ -65.229549, -17.32622 ], [ -65.229899, -17.326666 ], [ -65.230114, -17.327058 ], [ -65.230155, -17.327515 ], [ -65.230133, -17.328105 ], [ -65.230161, -17.328728 ], [ -65.230326, -17.329406 ], [ -65.230676, -17.330023 ], [ -65.231032, -17.330485 ], [ -65.231409, -17.330935 ], [ -65.231722, -17.331405 ], [ -65.231976, -17.331911 ], [ -65.232206, -17.332394 ], [ -65.232395, -17.332957 ], [ -65.232594, -17.333463 ], [ -65.232617, -17.333965 ], [ -65.232597, -17.334465 ], [ -65.232466, -17.334975 ], [ -65.232289, -17.335563 ], [ -65.232262, -17.33625 ], [ -65.232502, -17.336907 ], [ -65.232992, -17.337458 ], [ -65.233506, -17.337777 ], [ -65.233958, -17.338107 ], [ -65.234277, -17.338506 ], [ -65.234435, -17.338929 ], [ -65.234352, -17.339334 ], [ -65.234119, -17.339739 ], [ -65.234281, -17.340125 ], [ -65.23402, -17.340535 ], [ -65.233924, -17.340684 ], [ -65.233689, -17.340988 ], [ -65.233638, -17.341054 ], [ -65.233462, -17.341474 ], [ -65.232941, -17.341933 ], [ -65.232658, -17.342243 ], [ -65.232084, -17.342382 ], [ -65.231558, -17.342589 ], [ -65.231055, -17.342843 ], [ -65.230602, -17.343257 ], [ -65.230436, -17.343856 ], [ -65.230413, -17.34443 ], [ -65.230271, -17.344983 ], [ -65.230201, -17.34558 ], [ -65.229874, -17.346091 ], [ -65.229822, -17.346359 ], [ -65.229772, -17.346615 ], [ -65.229561, -17.347175 ], [ -65.229256, -17.347545 ], [ -65.229042, -17.347861 ], [ -65.228869, -17.348825 ], [ -65.228655, -17.349331 ], [ -65.228565, -17.349497 ], [ -65.228393, -17.349814 ], [ -65.228131, -17.350366 ], [ -65.227893, -17.350941 ], [ -65.227703, -17.351471 ], [ -65.227552, -17.35193 ], [ -65.227513, -17.352046 ], [ -65.227324, -17.352621 ], [ -65.227181, -17.353173 ], [ -65.227087, -17.353725 ], [ -65.227137, -17.3543 ], [ -65.227402, -17.354851 ], [ -65.227739, -17.355334 ], [ -65.228123, -17.355816 ], [ -65.227803, -17.356422 ], [ -65.227555, -17.356895 ], [ -65.227199, -17.357245 ], [ -65.227106, -17.357336 ], [ -65.226985, -17.357878 ], [ -65.226773, -17.358316 ], [ -65.22703, -17.35883 ], [ -65.227071, -17.359146 ], [ -65.227104, -17.359405 ], [ -65.226865, -17.360605 ], [ -65.22826, -17.361205 ], [ -65.229056, -17.361489 ], [ -65.229208, -17.361543 ], [ -65.229961, -17.361815 ], [ -65.230536, -17.361884 ], [ -65.231112, -17.362136 ], [ -65.231569, -17.362595 ], [ -65.231857, -17.363077 ], [ -65.232075, -17.363583 ], [ -65.232364, -17.364112 ], [ -65.232481, -17.36441 ], [ -65.232581, -17.364663 ], [ -65.232846, -17.365215 ], [ -65.233111, -17.365743 ], [ -65.233376, -17.366272 ], [ -65.233665, -17.366777 ], [ -65.234026, -17.36726 ], [ -65.234434, -17.367673 ], [ -65.234866, -17.36804 ], [ -65.235394, -17.368339 ], [ -65.235994, -17.368637 ], [ -65.23657, -17.368866 ], [ -65.237121, -17.369072 ], [ -65.237721, -17.369232 ], [ -65.238296, -17.369392 ], [ -65.238847, -17.369529 ], [ -65.239446, -17.369598 ], [ -65.240046, -17.369758 ], [ -65.240502, -17.370148 ], [ -65.24103, -17.370515 ], [ -65.241582, -17.370836 ], [ -65.24211, -17.371066 ], [ -65.242709, -17.371134 ], [ -65.243308, -17.371156 ], [ -65.243907, -17.371109 ], [ -65.244506, -17.371223 ], [ -65.24501, -17.371498 ], [ -65.245538, -17.371819 ], [ -65.246018, -17.372233 ], [ -65.24645, -17.372623 ], [ -65.246955, -17.373059 ], [ -65.247387, -17.373449 ], [ -65.247844, -17.373863 ], [ -65.248324, -17.374276 ], [ -65.248757, -17.374735 ], [ -65.249189, -17.375194 ], [ -65.249622, -17.375608 ], [ -65.25003, -17.376067 ], [ -65.250463, -17.376503 ], [ -65.250943, -17.376939 ], [ -65.251376, -17.37733 ], [ -65.251856, -17.37772 ], [ -65.25236, -17.37811 ], [ -65.252888, -17.378362 ], [ -65.253463, -17.378407 ], [ -65.254038, -17.378407 ], [ -65.254588, -17.378176 ], [ -65.255163, -17.378014 ], [ -65.255689, -17.377806 ], [ -65.256288, -17.377621 ], [ -65.256502, -17.377561 ], [ -65.256812, -17.377408 ], [ -65.256872, -17.377457 ], [ -65.257437, -17.377321 ], [ -65.258011, -17.377297 ], [ -65.258324, -17.377779 ], [ -65.258062, -17.378263 ], [ -65.257728, -17.378769 ], [ -65.257466, -17.379252 ], [ -65.25742, -17.37985 ], [ -65.257446, -17.380425 ], [ -65.257663, -17.380954 ], [ -65.257691, -17.382039 ], [ -65.258746, -17.382401 ], [ -65.25925, -17.382653 ], [ -65.259801, -17.382813 ], [ -65.259869, -17.38283 ], [ -65.260425, -17.382973 ], [ -65.261024, -17.382995 ], [ -65.26141, -17.383009 ], [ -65.261623, -17.383017 ], [ -65.262221, -17.382947 ], [ -65.26282, -17.382854 ], [ -65.263443, -17.382784 ], [ -65.264065, -17.382783 ], [ -65.264689, -17.382874 ], [ -65.265312, -17.38308 ], [ -65.265816, -17.383379 ], [ -65.266225, -17.383815 ], [ -65.266466, -17.38432 ], [ -65.26632, -17.384525 ], [ -65.266567, -17.384766 ], [ -65.267092, -17.385019 ], [ -65.26748, -17.385452 ], [ -65.26763, -17.386003 ], [ -65.267636, -17.386555 ], [ -65.267752, -17.386831 ], [ -65.267857, -17.387081 ], [ -65.268411, -17.387352 ], [ -65.268454, -17.387362 ], [ -65.268963, -17.387485 ], [ -65.26941, -17.387751 ], [ -65.269618, -17.38791 ], [ -65.269707, -17.387977 ], [ -65.270388, -17.388506 ], [ -65.2706, -17.389032 ], [ -65.27061, -17.389056 ], [ -65.270758, -17.389679 ], [ -65.270835, -17.389983 ], [ -65.270874, -17.390137 ], [ -65.271426, -17.390643 ], [ -65.271466, -17.39068 ], [ -65.271735, -17.391207 ], [ -65.272053, -17.391733 ], [ -65.272441, -17.392235 ], [ -65.272829, -17.392645 ], [ -65.273336, -17.392985 ], [ -65.273866, -17.393256 ], [ -65.274489, -17.393296 ], [ -65.274812, -17.393185 ], [ -65.275038, -17.393107 ], [ -65.275513, -17.392735 ], [ -65.276012, -17.392362 ], [ -65.276584, -17.392104 ], [ -65.277084, -17.391846 ], [ -65.277502, -17.391667 ], [ -65.277633, -17.391611 ], [ -65.278205, -17.391353 ], [ -65.27868, -17.391003 ], [ -65.279155, -17.390677 ], [ -65.279703, -17.39035 ], [ -65.280275, -17.390115 ], [ -65.280847, -17.389833 ], [ -65.281102, -17.389749 ], [ -65.281509, -17.389402 ], [ -65.283073, -17.388447 ], [ -65.283248, -17.388178 ], [ -65.283554, -17.387715 ], [ -65.284052, -17.387297 ], [ -65.284551, -17.386901 ], [ -65.285125, -17.386827 ], [ -65.285656, -17.38719 ], [ -65.286036, -17.387453 ], [ -65.286115, -17.387507 ], [ -65.286381, -17.387525 ], [ -65.286714, -17.387548 ], [ -65.287312, -17.387473 ], [ -65.287886, -17.387353 ], [ -65.288415, -17.387554 ], [ -65.288804, -17.38808 ], [ -65.289073, -17.38856 ], [ -65.289342, -17.38904 ], [ -65.289777, -17.38945 ], [ -65.290378, -17.389582 ], [ -65.290838, -17.390015 ], [ -65.291274, -17.390471 ], [ -65.29162, -17.390836 ], [ -65.291662, -17.390881 ], [ -65.292121, -17.391244 ], [ -65.292437, -17.391479 ], [ -65.29258, -17.391585 ], [ -65.293015, -17.391972 ], [ -65.293102, -17.392068 ], [ -65.293404, -17.392405 ], [ -65.293565, -17.392813 ], [ -65.293872, -17.393163 ], [ -65.29408, -17.393541 ], [ -65.294282, -17.393832 ], [ -65.294306, -17.393868 ], [ -65.29437, -17.393974 ], [ -65.294624, -17.394394 ], [ -65.29494, -17.394873 ], [ -65.295012, -17.394958 ], [ -65.295329, -17.39533 ], [ -65.295657, -17.395782 ], [ -65.295694, -17.395832 ], [ -65.295735, -17.395875 ], [ -65.296081, -17.396242 ], [ -65.296357, -17.396488 ], [ -65.296541, -17.396652 ], [ -65.297024, -17.396946 ], [ -65.297052, -17.39696 ], [ -65.297578, -17.397217 ], [ -65.298132, -17.397487 ], [ -65.298662, -17.397804 ], [ -65.299241, -17.39812 ], [ -65.299724, -17.398461 ], [ -65.300207, -17.39887 ], [ -65.300738, -17.39921 ], [ -65.301222, -17.399619 ], [ -65.301776, -17.399913 ], [ -65.301992, -17.400042 ], [ -65.302307, -17.40023 ], [ -65.302766, -17.400593 ], [ -65.303273, -17.400956 ], [ -65.303755, -17.40125 ], [ -65.304168, -17.401729 ], [ -65.304485, -17.402186 ], [ -65.304587, -17.402737 ], [ -65.304617, -17.403312 ], [ -65.304623, -17.403863 ], [ -65.304627, -17.404179 ], [ -65.304629, -17.404415 ], [ -65.304626, -17.404527 ], [ -65.304612, -17.40499 ], [ -65.304643, -17.405588 ], [ -65.304888, -17.406114 ], [ -65.305091, -17.406477 ], [ -65.305157, -17.406594 ], [ -65.305359, -17.406703 ], [ -65.305663, -17.406865 ], [ -65.306262, -17.40686 ], [ -65.306425, -17.406887 ], [ -65.306616, -17.406919 ], [ -65.307437, -17.406963 ], [ -65.30827, -17.407059 ], [ -65.308897, -17.407567 ], [ -65.308917, -17.407589 ], [ -65.309127, -17.407822 ], [ -65.309374, -17.408125 ], [ -65.309463, -17.408235 ], [ -65.309852, -17.408711 ], [ -65.310021, -17.409025 ], [ -65.310122, -17.409214 ], [ -65.31055, -17.409717 ], [ -65.310577, -17.409749 ], [ -65.310875, -17.410126 ], [ -65.310936, -17.410203 ], [ -65.311247, -17.410604 ], [ -65.311461, -17.411155 ], [ -65.311507, -17.411283 ], [ -65.311659, -17.411705 ], [ -65.311665, -17.41228 ], [ -65.311696, -17.412878 ], [ -65.311696, -17.412883 ], [ -65.312389, -17.413952 ], [ -65.311337, -17.414643 ], [ -65.311244, -17.415051 ], [ -65.311219, -17.415159 ], [ -65.311149, -17.415283 ], [ -65.31117, -17.415471 ], [ -65.311164, -17.415514 ], [ -65.31116, -17.41554 ], [ -65.311138, -17.41568 ], [ -65.31113, -17.415734 ], [ -65.311113, -17.415962 ], [ -65.311093, -17.416237 ], [ -65.311088, -17.416309 ], [ -65.31109, -17.416629 ], [ -65.311092, -17.416928 ], [ -65.311093, -17.417085 ], [ -65.311108, -17.417201 ], [ -65.311154, -17.417579 ], [ -65.311163, -17.417649 ], [ -65.3112, -17.418154 ], [ -65.311093, -17.418651 ], [ -65.311021, -17.418964 ], [ -65.310995, -17.419079 ], [ -65.311031, -17.419736 ], [ -65.310797, -17.420244 ], [ -65.310491, -17.420753 ], [ -65.310407, -17.420852 ], [ -65.309914, -17.421436 ], [ -65.309889, -17.421466 ], [ -65.309712, -17.421747 ], [ -65.309606, -17.421915 ], [ -65.309355, -17.422214 ], [ -65.309271, -17.422315 ], [ -65.309101, -17.422783 ], [ -65.30885, -17.423371 ], [ -65.308657, -17.423782 ], [ -65.308183, -17.424201 ], [ -65.307732, -17.424619 ], [ -65.307664, -17.424664 ], [ -65.306372, -17.426253 ], [ -65.306315, -17.426426 ], [ -65.30634, -17.426887 ], [ -65.306345, -17.426978 ], [ -65.306571, -17.427088 ], [ -65.306899, -17.427248 ], [ -65.307501, -17.427518 ], [ -65.308055, -17.427789 ], [ -65.308746, -17.428369 ], [ -65.308761, -17.428381 ], [ -65.30889, -17.428816 ], [ -65.308936, -17.429056 ], [ -65.308983, -17.429298 ], [ -65.309465, -17.429592 ], [ -65.309851, -17.429693 ], [ -65.309976, -17.429725 ], [ -65.310092, -17.429815 ], [ -65.310216, -17.429911 ], [ -65.310335, -17.430002 ], [ -65.311014, -17.430523 ], [ -65.311547, -17.431062 ], [ -65.312119, -17.431343 ], [ -65.312669, -17.431565 ], [ -65.312938, -17.431659 ], [ -65.313105, -17.431718 ], [ -65.313509, -17.431793 ], [ -65.313967, -17.432095 ], [ -65.314037, -17.432719 ], [ -65.313578, -17.433116 ], [ -65.313527, -17.433412 ], [ -65.3135, -17.433568 ], [ -65.314069, -17.434169 ], [ -65.314004, -17.434722 ], [ -65.313722, -17.435207 ], [ -65.313416, -17.435693 ], [ -65.313027, -17.436203 ], [ -65.312733, -17.436613 ], [ -65.312546, -17.436906 ], [ -65.31249, -17.436993 ], [ -65.312322, -17.4376 ], [ -65.312174, -17.438211 ], [ -65.311755, -17.438789 ], [ -65.313175, -17.439262 ], [ -65.314316, -17.440608 ], [ -65.314705, -17.440991 ], [ -65.314801, -17.441086 ], [ -65.314975, -17.441684 ], [ -65.315148, -17.442307 ], [ -65.315218, -17.442931 ], [ -65.315203, -17.443357 ], [ -65.315204, -17.443391 ], [ -65.315216, -17.443819 ], [ -65.31514, -17.444328 ], [ -65.315127, -17.444417 ], [ -65.314989, -17.444971 ], [ -65.314925, -17.445592 ], [ -65.315033, -17.446022 ], [ -65.315075, -17.446188 ], [ -65.315653, -17.44639 ], [ -65.316192, -17.446385 ], [ -65.3163, -17.446384 ], [ -65.316922, -17.446355 ], [ -65.317569, -17.446349 ], [ -65.318168, -17.446343 ], [ -65.318769, -17.446521 ], [ -65.319086, -17.447024 ], [ -65.319021, -17.447576 ], [ -65.3191, -17.448194 ], [ -65.319122, -17.448346 ], [ -65.319146, -17.448521 ], [ -65.319295, -17.448702 ], [ -65.319613, -17.449088 ], [ -65.320163, -17.449146 ], [ -65.320213, -17.449152 ], [ -65.320836, -17.449146 ], [ -65.321437, -17.449278 ], [ -65.321967, -17.449595 ], [ -65.322028, -17.449649 ], [ -65.322427, -17.450004 ], [ -65.322588, -17.450627 ], [ -65.322622, -17.450734 ], [ -65.322733, -17.451082 ], [ -65.322771, -17.4512 ], [ -65.323297, -17.452538 ], [ -65.323806, -17.453187 ], [ -65.324123, -17.45369 ], [ -65.324683, -17.45433 ], [ -65.324825, -17.454491 ], [ -65.324996, -17.454556 ], [ -65.32548, -17.454942 ], [ -65.325875, -17.455499 ], [ -65.326281, -17.455974 ], [ -65.326337, -17.456039 ], [ -65.32692, -17.456379 ], [ -65.327216, -17.456665 ], [ -65.327275, -17.456722 ], [ -65.32759, -17.457105 ], [ -65.327838, -17.45733 ], [ -65.327945, -17.457428 ], [ -65.32805, -17.457635 ], [ -65.328198, -17.457928 ], [ -65.328207, -17.45799 ], [ -65.328805, -17.458579 ], [ -65.329623, -17.460326 ], [ -65.329587, -17.460799 ], [ -65.329735, -17.460984 ], [ -65.329743, -17.460994 ], [ -65.329996, -17.461239 ], [ -65.330196, -17.461432 ], [ -65.330457, -17.461924 ], [ -65.330577, -17.462151 ], [ -65.33069, -17.462236 ], [ -65.330861, -17.462363 ], [ -65.331297, -17.46275 ], [ -65.331613, -17.463279 ], [ -65.331652, -17.463345 ], [ -65.332153, -17.463785 ], [ -65.332305, -17.464025 ], [ -65.333742, -17.464938 ], [ -65.334134, -17.465339 ], [ -65.334323, -17.465411 ], [ -65.334796, -17.465528 ], [ -65.334948, -17.465566 ], [ -65.335088, -17.46569 ], [ -65.335384, -17.465953 ], [ -65.335724, -17.466386 ], [ -65.335767, -17.466587 ], [ -65.335824, -17.466853 ], [ -65.335851, -17.466983 ], [ -65.336121, -17.467486 ], [ -65.336674, -17.467665 ], [ -65.337296, -17.467613 ], [ -65.337886, -17.467516 ], [ -65.337894, -17.467515 ], [ -65.338377, -17.467809 ], [ -65.338444, -17.467934 ], [ -65.338646, -17.468313 ], [ -65.338844, -17.468697 ], [ -65.338854, -17.468717 ], [ -65.338941, -17.468885 ], [ -65.339007, -17.469116 ], [ -65.339054, -17.46928 ], [ -65.339552, -17.469936 ], [ -65.339678, -17.470487 ], [ -65.339733, -17.471084 ], [ -65.339764, -17.471659 ], [ -65.339814, -17.47225 ], [ -65.339758, -17.472486 ], [ -65.339736, -17.472578 ], [ -65.339705, -17.472748 ], [ -65.339572, -17.473479 ], [ -65.339426, -17.474244 ], [ -65.339311, -17.474683 ], [ -65.339298, -17.474731 ], [ -65.339086, -17.475106 ], [ -65.339015, -17.475231 ], [ -65.338788, -17.475408 ], [ -65.338042, -17.476631 ], [ -65.337864, -17.47729 ], [ -65.338334, -17.478002 ], [ -65.338384, -17.478452 ], [ -65.338581, -17.479489 ], [ -65.338604, -17.481585 ], [ -65.338634, -17.483916 ], [ -65.338286, -17.485952 ], [ -65.338688, -17.487061 ], [ -65.338511, -17.487787 ], [ -65.338465, -17.488352 ], [ -65.338467, -17.488824 ], [ -65.338542, -17.489366 ], [ -65.33858, -17.489885 ], [ -65.338558, -17.490219 ], [ -65.338464, -17.490703 ], [ -65.338202, -17.491325 ], [ -65.338218, -17.492109 ], [ -65.338268, -17.4925 ], [ -65.338451, -17.493169 ], [ -65.339095, -17.494887 ], [ -65.339194, -17.495417 ], [ -65.339146, -17.496804 ], [ -65.339269, -17.497142 ], [ -65.344011, -17.514838 ], [ -65.344013, -17.514843 ], [ -65.365093, -17.499016 ], [ -65.381183, -17.490964 ], [ -65.415452, -17.481711 ], [ -65.419281, -17.490781 ], [ -65.421567, -17.496594 ], [ -65.424095, -17.50154 ], [ -65.424922, -17.502845 ], [ -65.425575, -17.503827 ], [ -65.425818, -17.504055 ], [ -65.426134, -17.504421 ], [ -65.426378, -17.504753 ], [ -65.42655, -17.505039 ], [ -65.4267, -17.505453 ], [ -65.426866, -17.506165 ], [ -65.427106, -17.507026 ], [ -65.427331, -17.507714 ], [ -65.427638, -17.508241 ], [ -65.428147, -17.508663 ], [ -65.429148, -17.509277 ], [ -65.429593, -17.509412 ], [ -65.43049, -17.509428 ], [ -65.431089, -17.50947 ], [ -65.43201, -17.509463 ], [ -65.432346, -17.509518 ], [ -65.432706, -17.50963 ], [ -65.433248, -17.509868 ], [ -65.434927, -17.510491 ], [ -65.436552, -17.51089 ], [ -65.437849, -17.511157 ], [ -65.438231, -17.511154 ], [ -65.438483, -17.51121 ], [ -65.438773, -17.51138 ], [ -65.43928, -17.511721 ], [ -65.439886, -17.5122 ], [ -65.440494, -17.512276 ], [ -65.441059, -17.512568 ], [ -65.441407, -17.513144 ], [ -65.441731, -17.513222 ], [ -65.443214, -17.513222 ], [ -65.443633, -17.513196 ], [ -65.443823, -17.513125 ], [ -65.47191, -17.520493 ], [ -65.472535, -17.520657 ], [ -65.475013, -17.51929 ], [ -65.483892, -17.513005 ], [ -65.500678, -17.500622 ], [ -65.522197, -17.492036 ], [ -65.529551, -17.495516 ], [ -65.53305, -17.500985 ], [ -65.540025, -17.509664 ], [ -65.54604, -17.513352 ], [ -65.549332, -17.514374 ], [ -65.55451, -17.515082 ], [ -65.558344, -17.515107 ], [ -65.561708, -17.514379 ], [ -65.5637, -17.514569 ], [ -65.566233, -17.514232 ], [ -65.568853, -17.514643 ], [ -65.573905, -17.516563 ], [ -65.589827, -17.523362 ], [ -65.606837, -17.515435 ], [ -65.613179, -17.525201 ], [ -65.621852, -17.522393 ], [ -65.624934, -17.519896 ], [ -65.631311, -17.51431 ], [ -65.642077, -17.511098 ], [ -65.644296, -17.498853 ], [ -65.649293, -17.496902 ], [ -65.661837, -17.50018 ], [ -65.668218, -17.491204 ], [ -65.680049, -17.503642 ], [ -65.695005, -17.518633 ], [ -65.695197, -17.518582 ], [ -65.69521, -17.518518 ], [ -65.703515, -17.51631 ], [ -65.715565, -17.513324 ], [ -65.737651, -17.520449 ], [ -65.751612, -17.517221 ], [ -65.764693, -17.513839 ], [ -65.776272, -17.516137 ], [ -65.788415, -17.518546 ], [ -65.790832, -17.519256 ], [ -65.779994, -17.499469 ], [ -65.778365, -17.494012 ], [ -65.779472, -17.49345 ], [ -65.779854, -17.493229 ], [ -65.780464, -17.492949 ], [ -65.780954, -17.492693 ], [ -65.781144, -17.492573 ], [ -65.781467, -17.492368 ], [ -65.782996, -17.491519 ], [ -65.783642, -17.491204 ], [ -65.784287, -17.490867 ], [ -65.784583, -17.490664 ], [ -65.784656, -17.490549 ], [ -65.784921, -17.490297 ], [ -65.785344, -17.489736 ], [ -65.785584, -17.489548 ], [ -65.786053, -17.48943 ], [ -65.786195, -17.489365 ], [ -65.786217, -17.489348 ], [ -65.786645, -17.488954 ], [ -65.786883, -17.488757 ], [ -65.786919, -17.488742 ], [ -65.787182, -17.488629 ], [ -65.787258, -17.487938 ], [ -65.787255, -17.487639 ], [ -65.787154, -17.487282 ], [ -65.787032, -17.487076 ], [ -65.786834, -17.486674 ], [ -65.786708, -17.486203 ], [ -65.786581, -17.485582 ], [ -65.786538, -17.484996 ], [ -65.786556, -17.484478 ], [ -65.786669, -17.483902 ], [ -65.78668, -17.483873 ], [ -65.787147, -17.482679 ], [ -65.787286, -17.482241 ], [ -65.787388, -17.481699 ], [ -65.787417, -17.481135 ], [ -65.787325, -17.48048 ], [ -65.787089, -17.479791 ], [ -65.786795, -17.479305 ], [ -65.786441, -17.478851 ], [ -65.786039, -17.478462 ], [ -65.785602, -17.478097 ], [ -65.784682, -17.477527 ], [ -65.784124, -17.477163 ], [ -65.783737, -17.476958 ], [ -65.782914, -17.476434 ], [ -65.782309, -17.476127 ], [ -65.781994, -17.475933 ], [ -65.781484, -17.475522 ], [ -65.780975, -17.47518 ], [ -65.780041, -17.474427 ], [ -65.779161, -17.473502 ], [ -65.778439, -17.472942 ], [ -65.77846, -17.472926 ], [ -65.778401, -17.47288 ], [ -65.779459, -17.472066 ], [ -65.780092, -17.47181 ], [ -65.780578, -17.47122 ], [ -65.78079, -17.470851 ], [ -65.780965, -17.470413 ], [ -65.78127, -17.46972 ], [ -65.781716, -17.468866 ], [ -65.782282, -17.467873 ], [ -65.782801, -17.467099 ], [ -65.783477, -17.466266 ], [ -65.784711, -17.464867 ], [ -65.785328, -17.46423 ], [ -65.786174, -17.463581 ], [ -65.786985, -17.46307 ], [ -65.789662, -17.461708 ], [ -65.790533, -17.461127 ], [ -65.790961, -17.460779 ], [ -65.791152, -17.460652 ], [ -65.791487, -17.460465 ], [ -65.792371, -17.460046 ], [ -65.79286, -17.459744 ], [ -65.794398, -17.458619 ], [ -65.794981, -17.458143 ], [ -65.795635, -17.457541 ], [ -65.796323, -17.456708 ], [ -65.79689, -17.455934 ], [ -65.797667, -17.45456 ], [ -65.797901, -17.453983 ], [ -65.798074, -17.45343 ], [ -65.798235, -17.452807 ], [ -65.798631, -17.4517 ], [ -65.799006, -17.450892 ], [ -65.799231, -17.450592 ], [ -65.799811, -17.449909 ], [ -65.80412, -17.44833 ], [ -65.80412, -17.448353 ], [ -65.804217, -17.448387 ], [ -65.804588, -17.44827 ], [ -65.804983, -17.448095 ], [ -65.805411, -17.448083 ], [ -65.805758, -17.447596 ], [ -65.806199, -17.447294 ], [ -65.806653, -17.447015 ], [ -65.807046, -17.446713 ], [ -65.807129, -17.446632 ], [ -65.809216, -17.445559 ], [ -65.819578, -17.446779 ], [ -65.827628, -17.449511 ], [ -65.838787, -17.453298 ], [ -65.859304, -17.457714 ], [ -65.859465, -17.457566 ], [ -65.855378, -17.439316 ], [ -65.845013, -17.430967 ], [ -65.845026, -17.430926 ], [ -65.845012, -17.430915 ], [ -65.848235, -17.421068 ], [ -65.861074, -17.420093 ], [ -65.853879, -17.409455 ], [ -65.86419, -17.408302 ], [ -65.879309, -17.404026 ], [ -65.878538, -17.402717 ], [ -65.877123, -17.401807 ], [ -65.875722, -17.401207 ], [ -65.875081, -17.400935 ], [ -65.874153, -17.40071 ], [ -65.873431, -17.400611 ], [ -65.872914, -17.400568 ], [ -65.872457, -17.400548 ], [ -65.871975, -17.400494 ], [ -65.87147, -17.400405 ], [ -65.869832, -17.400185 ], [ -65.869134, -17.400074 ], [ -65.868325, -17.399757 ], [ -65.867672, -17.39945 ], [ -65.866995, -17.399109 ], [ -65.866244, -17.398619 ], [ -65.86491, -17.397592 ], [ -65.864049, -17.397021 ], [ -65.863312, -17.396669 ], [ -65.862058, -17.396366 ], [ -65.86077, -17.396133 ], [ -65.859192, -17.39582 ], [ -65.857444, -17.395405 ], [ -65.856672, -17.395157 ], [ -65.856008, -17.394885 ], [ -65.854665, -17.394191 ], [ -65.853699, -17.393771 ], [ -65.852721, -17.39342 ], [ -65.851746, -17.393254 ], [ -65.850772, -17.393259 ], [ -65.850016, -17.393345 ], [ -65.849188, -17.393419 ], [ -65.848154, -17.393345 ], [ -65.847202, -17.393178 ], [ -65.846298, -17.392976 ], [ -65.845719, -17.392761 ], [ -65.845368, -17.39259 ], [ -65.844802, -17.392421 ], [ -65.843971, -17.392288 ], [ -65.843067, -17.39211 ], [ -65.842081, -17.392058 ], [ -65.840315, -17.392069 ], [ -65.839448, -17.39189 ], [ -65.838988, -17.391674 ], [ -65.838288, -17.391437 ], [ -65.837506, -17.391338 ], [ -65.836665, -17.391343 ], [ -65.83598, -17.39137 ], [ -65.835235, -17.391351 ], [ -65.83437, -17.391403 ], [ -65.833733, -17.391384 ], [ -65.833097, -17.391399 ], [ -65.832616, -17.39139 ], [ -65.832171, -17.391416 ], [ -65.831931, -17.391371 ], [ -65.8314, -17.39119 ], [ -65.830868, -17.390952 ], [ -65.830421, -17.390771 ], [ -65.829937, -17.390444 ], [ -65.810101, -17.381022 ], [ -65.807706, -17.379332 ], [ -65.801053, -17.369352 ], [ -65.798496, -17.366491 ], [ -65.796, -17.367244 ], [ -65.79592, -17.367567 ], [ -65.795585, -17.367741 ], [ -65.793548, -17.368202 ], [ -65.793463, -17.368133 ], [ -65.793438, -17.368065 ], [ -65.793435, -17.367777 ], [ -65.793468, -17.367547 ], [ -65.793586, -17.367339 ], [ -65.793859, -17.367038 ], [ -65.794061, -17.366853 ], [ -65.794333, -17.366517 ], [ -65.794392, -17.366402 ], [ -65.794366, -17.366275 ], [ -65.79433, -17.36623 ], [ -65.794065, -17.366162 ], [ -65.793801, -17.366198 ], [ -65.793489, -17.366292 ], [ -65.792902, -17.366422 ], [ -65.792734, -17.366446 ], [ -65.792554, -17.366447 ], [ -65.792253, -17.366357 ], [ -65.792024, -17.366323 ], [ -65.791796, -17.366325 ], [ -65.791616, -17.366383 ], [ -65.791474, -17.366545 ], [ -65.79132, -17.366765 ], [ -65.791262, -17.366949 ], [ -65.791217, -17.367214 ], [ -65.791148, -17.367445 ], [ -65.791019, -17.367676 ], [ -65.7909, -17.367815 ], [ -65.790721, -17.367919 ], [ -65.79036, -17.367898 ], [ -65.79007, -17.367762 ], [ -65.78973, -17.367476 ], [ -65.789609, -17.36735 ], [ -65.789351, -17.366926 ], [ -65.789108, -17.366686 ], [ -65.78883, -17.366515 ], [ -65.788312, -17.366426 ], [ -65.787808, -17.366474 ], [ -65.787413, -17.366569 ], [ -65.787197, -17.366639 ], [ -65.786933, -17.366687 ], [ -65.786429, -17.366667 ], [ -65.786103, -17.366576 ], [ -65.785946, -17.366508 ], [ -65.785966, -17.366163 ], [ -65.786016, -17.366 ], [ -65.786034, -17.365939 ], [ -65.786127, -17.36565 ], [ -65.786432, -17.365085 ], [ -65.78655, -17.3649 ], [ -65.78676, -17.364438 ], [ -65.786922, -17.363943 ], [ -65.787026, -17.363562 ], [ -65.787178, -17.363228 ], [ -65.787307, -17.362997 ], [ -65.787651, -17.36265 ], [ -65.787866, -17.36251 ], [ -65.788484, -17.362 ], [ -65.788863, -17.361607 ], [ -65.789136, -17.361283 ], [ -65.789324, -17.361017 ], [ -65.78943, -17.360832 ], [ -65.789429, -17.360763 ], [ -65.789446, -17.360734 ], [ -65.789445, -17.36063 ], [ -65.789311, -17.36047 ], [ -65.789094, -17.360391 ], [ -65.788781, -17.360346 ], [ -65.788493, -17.360371 ], [ -65.787487, -17.360653 ], [ -65.786602, -17.360992 ], [ -65.78616, -17.361248 ], [ -65.785874, -17.361445 ], [ -65.785564, -17.361631 ], [ -65.785266, -17.36184 ], [ -65.784597, -17.3622 ], [ -65.783844, -17.362504 ], [ -65.783532, -17.362529 ], [ -65.783532, -17.362511 ], [ -65.783622, -17.362261 ], [ -65.783799, -17.361961 ], [ -65.784107, -17.361625 ], [ -65.784988, -17.36101 ], [ -65.785298, -17.360766 ], [ -65.785535, -17.360523 ], [ -65.785807, -17.360188 ], [ -65.786007, -17.359853 ], [ -65.786147, -17.359518 ], [ -65.786298, -17.359069 ], [ -65.78637, -17.358634 ], [ -65.786342, -17.358369 ], [ -65.786281, -17.358266 ], [ -65.7861, -17.358198 ], [ -65.785908, -17.358222 ], [ -65.785646, -17.358396 ], [ -65.785479, -17.358547 ], [ -65.785337, -17.35872 ], [ -65.785266, -17.358836 ], [ -65.78495, -17.359505 ], [ -65.784797, -17.359748 ], [ -65.784465, -17.360164 ], [ -65.784299, -17.360303 ], [ -65.783893, -17.360559 ], [ -65.783486, -17.360653 ], [ -65.78327, -17.360689 ], [ -65.783138, -17.36069 ], [ -65.782825, -17.360645 ], [ -65.782583, -17.360543 ], [ -65.782389, -17.360406 ], [ -65.782109, -17.360109 ], [ -65.781865, -17.359742 ], [ -65.781668, -17.359329 ], [ -65.781556, -17.359018 ], [ -65.78149, -17.358558 ], [ -65.781427, -17.358248 ], [ -65.781241, -17.357812 ], [ -65.781082, -17.357583 ], [ -65.780792, -17.357377 ], [ -65.780562, -17.357263 ], [ -65.780043, -17.357105 ], [ -65.77973, -17.357049 ], [ -65.779513, -17.35697 ], [ -65.779223, -17.356822 ], [ -65.778909, -17.356686 ], [ -65.778402, -17.356528 ], [ -65.77803, -17.356492 ], [ -65.777837, -17.356473 ], [ -65.777416, -17.356384 ], [ -65.77686, -17.356134 ], [ -65.77669, -17.356008 ], [ -65.776544, -17.355802 ], [ -65.776445, -17.355607 ], [ -65.776369, -17.355239 ], [ -65.776375, -17.354831 ], [ -65.77644, -17.354471 ], [ -65.776674, -17.354021 ], [ -65.777067, -17.353673 ], [ -65.777173, -17.353558 ], [ -65.777302, -17.353304 ], [ -65.777335, -17.353085 ], [ -65.777335, -17.353082 ], [ -65.777351, -17.352978 ], [ -65.77735, -17.352885 ], [ -65.777204, -17.352668 ], [ -65.777057, -17.352484 ], [ -65.776683, -17.352337 ], [ -65.776382, -17.352316 ], [ -65.775902, -17.352364 ], [ -65.775519, -17.352447 ], [ -65.775185, -17.352633 ], [ -65.774887, -17.3529 ], [ -65.774648, -17.353016 ], [ -65.77424, -17.353064 ], [ -65.773496, -17.353092 ], [ -65.772943, -17.353072 ], [ -65.772462, -17.353028 ], [ -65.772015, -17.35287 ], [ -65.771798, -17.352733 ], [ -65.771349, -17.352379 ], [ -65.770865, -17.352105 ], [ -65.770575, -17.352003 ], [ -65.770346, -17.351947 ], [ -65.769973, -17.351892 ], [ -65.769804, -17.351824 ], [ -65.769635, -17.351732 ], [ -65.769223, -17.351424 ], [ -65.76898, -17.351218 ], [ -65.768445, -17.35068 ], [ -65.767354, -17.349858 ], [ -65.767234, -17.349836 ], [ -65.767102, -17.349836 ], [ -65.766982, -17.349883 ], [ -65.766864, -17.350033 ], [ -65.766758, -17.35023 ], [ -65.766688, -17.350403 ], [ -65.766689, -17.350482 ], [ -65.766675, -17.350517 ], [ -65.766676, -17.350666 ], [ -65.766751, -17.350884 ], [ -65.767045, -17.351366 ], [ -65.767095, -17.351538 ], [ -65.767182, -17.35171 ], [ -65.767468, -17.35256 ], [ -65.767546, -17.352996 ], [ -65.767547, -17.353079 ], [ -65.767392, -17.35308 ], [ -65.767138, -17.352932 ], [ -65.766932, -17.352784 ], [ -65.766664, -17.352486 ], [ -65.766053, -17.351638 ], [ -65.765762, -17.35134 ], [ -65.764937, -17.350712 ], [ -65.76426, -17.350324 ], [ -65.763729, -17.35012 ], [ -65.76315, -17.349928 ], [ -65.762992, -17.349825 ], [ -65.762425, -17.349552 ], [ -65.76234, -17.349541 ], [ -65.762232, -17.349553 ], [ -65.762007, -17.349819 ], [ -65.762015, -17.349913 ], [ -65.761995, -17.349936 ], [ -65.762024, -17.350281 ], [ -65.76248, -17.35129 ], [ -65.762479, -17.351302 ], [ -65.762218, -17.351418 ], [ -65.761918, -17.351442 ], [ -65.761737, -17.351409 ], [ -65.761446, -17.351169 ], [ -65.761166, -17.35086 ], [ -65.760922, -17.350481 ], [ -65.760785, -17.350125 ], [ -65.760673, -17.349758 ], [ -65.760353, -17.349161 ], [ -65.760134, -17.348863 ], [ -65.759789, -17.348117 ], [ -65.759782, -17.348073 ], [ -65.759924, -17.347533 ], [ -65.759923, -17.347464 ], [ -65.759936, -17.347414 ], [ -65.759935, -17.347264 ], [ -65.759884, -17.347058 ], [ -65.759823, -17.346931 ], [ -65.759747, -17.346609 ], [ -65.759746, -17.346571 ], [ -65.759767, -17.346487 ], [ -65.759827, -17.346452 ], [ -65.76004, -17.346232 ], [ -65.760445, -17.345907 ], [ -65.760741, -17.345561 ], [ -65.760857, -17.345238 ], [ -65.760866, -17.345133 ], [ -65.760871, -17.345118 ], [ -65.760892, -17.344865 ], [ -65.760843, -17.344762 ], [ -65.760733, -17.34467 ], [ -65.760613, -17.344648 ], [ -65.760457, -17.344683 ], [ -65.76035, -17.344742 ], [ -65.760088, -17.344962 ], [ -65.759969, -17.345043 ], [ -65.75925, -17.345231 ], [ -65.759071, -17.345336 ], [ -65.759024, -17.345394 ], [ -65.758954, -17.345567 ], [ -65.758792, -17.346085 ], [ -65.758684, -17.346144 ], [ -65.758504, -17.346168 ], [ -65.758335, -17.346076 ], [ -65.758309, -17.345927 ], [ -65.758321, -17.34579 ], [ -65.758397, -17.345437 ], [ -65.758514, -17.345126 ], [ -65.758547, -17.344918 ], [ -65.758547, -17.344882 ], [ -65.75856, -17.344798 ], [ -65.758559, -17.34466 ], [ -65.758376, -17.34443 ], [ -65.758158, -17.344294 ], [ -65.757566, -17.344055 ], [ -65.757432, -17.343883 ], [ -65.757297, -17.343642 ], [ -65.757115, -17.343425 ], [ -65.756885, -17.343276 ], [ -65.756752, -17.343254 ], [ -65.756464, -17.343256 ], [ -65.756105, -17.343373 ], [ -65.755804, -17.343375 ], [ -65.755204, -17.343412 ], [ -65.754315, -17.343371 ], [ -65.754074, -17.343338 ], [ -65.753881, -17.343282 ], [ -65.753383, -17.342813 ], [ -65.753093, -17.342653 ], [ -65.752876, -17.342597 ], [ -65.752518, -17.342279 ], [ -65.752273, -17.341993 ], [ -65.751988, -17.341784 ], [ -65.751481, -17.341442 ], [ -65.751098, -17.341372 ], [ -65.750635, -17.34132 ], [ -65.74991, -17.341234 ], [ -65.749283, -17.340991 ], [ -65.748616, -17.34075 ], [ -65.74797, -17.340508 ], [ -65.747282, -17.340247 ], [ -65.746328, -17.33987 ], [ -65.74557, -17.339473 ], [ -65.745085, -17.339186 ], [ -65.744613, -17.338876 ], [ -65.743591, -17.337911 ], [ -65.743004, -17.337335 ], [ -65.742474, -17.336943 ], [ -65.741918, -17.336586 ], [ -65.741326, -17.336261 ], [ -65.740827, -17.336077 ], [ -65.740445, -17.335999 ], [ -65.73902, -17.335951 ], [ -65.738112, -17.335848 ], [ -65.737503, -17.335718 ], [ -65.736526, -17.335465 ], [ -65.73617, -17.335341 ], [ -65.735732, -17.335089 ], [ -65.735228, -17.33455 ], [ -65.734694, -17.333757 ], [ -65.734393, -17.333268 ], [ -65.733847, -17.332487 ], [ -65.733659, -17.332322 ], [ -65.733423, -17.332178 ], [ -65.73309, -17.332067 ], [ -65.732698, -17.331908 ], [ -65.732082, -17.33156 ], [ -65.73179, -17.331232 ], [ -65.731283, -17.330291 ], [ -65.731042, -17.329792 ], [ -65.730915, -17.329583 ], [ -65.730868, -17.329547 ], [ -65.730618, -17.329461 ], [ -65.730177, -17.329346 ], [ -65.729401, -17.329224 ], [ -65.72853, -17.329053 ], [ -65.728123, -17.32902 ], [ -65.727333, -17.329011 ], [ -65.72684, -17.329079 ], [ -65.726396, -17.329091 ], [ -65.725762, -17.329052 ], [ -65.72506, -17.328805 ], [ -65.724302, -17.328396 ], [ -65.723711, -17.328026 ], [ -65.723218, -17.32759 ], [ -65.722557, -17.327115 ], [ -65.722072, -17.326816 ], [ -65.721533, -17.326275 ], [ -65.721133, -17.325921 ], [ -65.72077, -17.325557 ], [ -65.720394, -17.325227 ], [ -65.720099, -17.325013 ], [ -65.719625, -17.32476 ], [ -65.718679, -17.324186 ], [ -65.718125, -17.323783 ], [ -65.717915, -17.323514 ], [ -65.717803, -17.323341 ], [ -65.717978, -17.323118 ], [ -65.718308, -17.322829 ], [ -65.718612, -17.322607 ], [ -65.718964, -17.32241 ], [ -65.719314, -17.322292 ], [ -65.719831, -17.322179 ], [ -65.720395, -17.322098 ], [ -65.721009, -17.321892 ], [ -65.721488, -17.321819 ], [ -65.722104, -17.321744 ], [ -65.722995, -17.321666 ], [ -65.723402, -17.321331 ], [ -65.723311, -17.321265 ], [ -65.723414, -17.32118 ], [ -65.708404, -17.310261 ], [ -65.709024, -17.309869 ], [ -65.709362, -17.309535 ], [ -65.709766, -17.309068 ], [ -65.71024, -17.3086 ], [ -65.710438, -17.308307 ], [ -65.710549, -17.308149 ], [ -65.710635, -17.30754 ], [ -65.710627, -17.307532 ], [ -65.71065, -17.307376 ], [ -65.709743, -17.306399 ], [ -65.703513, -17.303479 ], [ -65.705724, -17.299131 ], [ -65.706103, -17.297652 ], [ -65.706404, -17.297018 ], [ -65.706811, -17.296478 ], [ -65.713413, -17.290698 ], [ -65.713419, -17.290545 ], [ -65.71344, -17.290527 ], [ -65.713506, -17.289018 ], [ -65.713854, -17.28851 ], [ -65.714285, -17.287959 ], [ -65.714644, -17.287395 ], [ -65.714945, -17.286761 ], [ -65.715087, -17.286307 ], [ -65.715205, -17.285829 ], [ -65.715209, -17.285765 ], [ -65.715236, -17.285657 ], [ -65.715267, -17.285226 ], [ -65.715463, -17.284369 ], [ -65.71546, -17.284353 ], [ -65.715496, -17.284197 ], [ -65.715203, -17.282803 ], [ -65.714617, -17.280588 ], [ -65.71463, -17.280508 ], [ -65.714606, -17.280507 ], [ -65.713006, -17.276162 ], [ -65.712524, -17.274439 ], [ -65.712297, -17.273837 ], [ -65.712111, -17.273581 ], [ -65.711767, -17.273423 ], [ -65.711246, -17.273146 ], [ -65.710666, -17.272868 ], [ -65.709362, -17.2717 ], [ -65.707705, -17.27085 ], [ -65.706977, -17.270421 ], [ -65.706522, -17.27025 ], [ -65.705702, -17.269735 ], [ -65.704702, -17.269307 ], [ -65.702152, -17.268434 ], [ -65.702148, -17.268433 ], [ -65.672896, -17.229299 ], [ -65.665232, -17.21964 ], [ -65.661327, -17.213296 ], [ -65.65662, -17.204222 ], [ -65.64592, -17.194805 ], [ -65.644856, -17.194522 ], [ -65.644841, -17.194525 ], [ -65.644411, -17.19448 ], [ -65.64398, -17.194342 ], [ -65.643731, -17.194222 ], [ -65.638433, -17.192812 ], [ -65.632169, -17.18931 ], [ -65.627492, -17.188176 ], [ -65.625461, -17.187366 ], [ -65.625409, -17.187369 ], [ -65.624979, -17.1873 ], [ -65.624548, -17.187071 ], [ -65.624357, -17.186926 ], [ -65.622788, -17.186301 ], [ -65.620079, -17.183329 ], [ -65.615783, -17.183609 ], [ -65.615562, -17.183698 ], [ -65.615084, -17.183836 ], [ -65.614606, -17.183928 ], [ -65.614152, -17.183905 ], [ -65.613722, -17.183813 ], [ -65.613643, -17.183748 ], [ -65.613278, -17.183771 ], [ -65.611482, -17.181457 ], [ -65.611403, -17.181426 ], [ -65.611291, -17.181211 ], [ -65.610561, -17.18027 ], [ -65.606671, -17.178375 ], [ -65.604876, -17.175119 ], [ -65.604734, -17.175067 ], [ -65.60428, -17.175067 ], [ -65.603987, -17.175067 ], [ -65.602122, -17.175339 ], [ -65.597362, -17.173828 ], [ -65.597111, -17.173805 ], [ -65.596681, -17.173645 ], [ -65.596529, -17.173563 ], [ -65.594521, -17.172926 ], [ -65.590242, -17.171746 ], [ -65.590181, -17.17174 ], [ -65.590148, -17.17172 ], [ -65.584669, -17.17021 ], [ -65.584177, -17.169395 ], [ -65.5838, -17.169123 ], [ -65.583442, -17.168824 ], [ -65.583083, -17.168503 ], [ -65.58282, -17.168136 ], [ -65.582605, -17.167768 ], [ -65.58239, -17.167401 ], [ -65.582103, -17.16701 ], [ -65.581888, -17.166574 ], [ -65.581769, -17.166161 ], [ -65.581601, -17.16577 ], [ -65.581434, -17.165357 ], [ -65.581219, -17.164967 ], [ -65.580908, -17.164599 ], [ -65.580621, -17.164232 ], [ -65.580157, -17.163978 ], [ -65.576795, -17.162544 ], [ -65.57679, -17.161835 ], [ -65.576726, -17.161821 ], [ -65.576296, -17.161706 ], [ -65.575937, -17.161362 ], [ -65.575894, -17.161173 ], [ -65.575842, -17.160948 ], [ -65.575842, -17.160535 ], [ -65.57589, -17.160122 ], [ -65.575961, -17.159708 ], [ -65.576009, -17.159295 ], [ -65.576128, -17.158882 ], [ -65.576319, -17.158491 ], [ -65.576558, -17.158101 ], [ -65.576558, -17.157687 ], [ -65.57651, -17.157274 ], [ -65.57663, -17.156861 ], [ -65.576964, -17.156516 ], [ -65.577195, -17.156412 ], [ -65.577837, -17.15541 ], [ -65.5778, -17.155092 ], [ -65.5778, -17.154656 ], [ -65.577824, -17.154242 ], [ -65.578111, -17.153921 ], [ -65.578493, -17.153622 ], [ -65.578804, -17.153278 ], [ -65.578947, -17.152842 ], [ -65.578959, -17.152798 ], [ -65.578411, -17.150265 ], [ -65.574694, -17.147483 ], [ -65.571942, -17.148049 ], [ -65.569975, -17.145841 ], [ -65.568635, -17.141636 ], [ -65.564881, -17.137424 ], [ -65.56063, -17.134664 ], [ -65.55946, -17.132035 ], [ -65.556339, -17.130208 ], [ -65.55449, -17.126767 ], [ -65.554313, -17.12657 ], [ -65.55405, -17.126226 ], [ -65.553668, -17.125927 ], [ -65.553477, -17.125719 ], [ -65.548429, -17.123411 ], [ -65.545131, -17.118776 ], [ -65.5399, -17.111807 ], [ -65.539969, -17.111389 ], [ -65.53958, -17.11075 ], [ -65.538671, -17.10756 ], [ -65.538029, -17.107034 ], [ -65.537162, -17.106273 ], [ -65.536386, -17.105498 ], [ -65.535171, -17.105425 ], [ -65.533388, -17.104724 ], [ -65.531812, -17.104709 ], [ -65.530734, -17.104344 ], [ -65.530719, -17.104256 ], [ -65.530629, -17.104271 ], [ -65.530614, -17.104183 ], [ -65.53051, -17.10411 ], [ -65.5296, -17.103086 ], [ -65.528574, -17.101361 ], [ -65.527859, -17.100395 ], [ -65.527475, -17.100162 ], [ -65.52659, -17.100142 ], [ -65.525311, -17.099811 ], [ -65.523201, -17.101334 ], [ -65.521665, -17.102124 ], [ -65.519726, -17.102709 ], [ -65.518103, -17.102972 ], [ -65.516873, -17.102811 ], [ -65.515646, -17.10211 ], [ -65.513698, -17.101525 ], [ -65.512937, -17.100837 ], [ -65.512019, -17.100716 ], [ -65.511223, -17.100935 ], [ -65.510199, -17.101462 ], [ -65.509543, -17.101959 ], [ -65.508562, -17.102561 ], [ -65.508367, -17.10204 ], [ -65.507969, -17.100713 ], [ -65.507454, -17.100209 ], [ -65.506137, -17.100409 ], [ -65.505512, -17.099429 ], [ -65.504477, -17.099326 ], [ -65.50314, -17.099633 ], [ -65.501866, -17.099209 ], [ -65.501361, -17.09839 ], [ -65.501346, -17.098302 ], [ -65.500837, -17.098025 ], [ -65.500747, -17.098039 ], [ -65.500718, -17.097864 ], [ -65.500628, -17.097878 ], [ -65.500256, -17.097308 ], [ -65.500242, -17.09722 ], [ -65.499721, -17.096314 ], [ -65.499707, -17.096226 ], [ -65.498736, -17.095392 ], [ -65.497553, -17.094953 ], [ -65.495843, -17.09469 ], [ -65.495172, -17.093988 ], [ -65.495157, -17.0939 ], [ -65.495103, -17.093008 ], [ -65.495304, -17.091984 ], [ -65.494784, -17.091078 ], [ -65.494769, -17.09099 ], [ -65.493866, -17.090502 ], [ -65.492662, -17.090162 ], [ -65.491857, -17.090416 ], [ -65.490719, -17.091591 ], [ -65.489107, -17.092377 ], [ -65.488476, -17.091219 ], [ -65.487133, -17.089978 ], [ -65.486418, -17.089013 ], [ -65.485882, -17.085766 ], [ -65.485426, -17.084128 ], [ -65.485412, -17.084041 ], [ -65.484953, -17.082944 ], [ -65.48425, -17.082607 ], [ -65.483308, -17.081949 ], [ -65.481962, -17.081086 ], [ -65.48089, -17.079638 ], [ -65.479393, -17.07898 ], [ -65.477402, -17.078131 ], [ -65.475126, -17.077239 ], [ -65.473795, -17.076463 ], [ -65.473704, -17.076478 ], [ -65.471187, -17.075805 ], [ -65.47008, -17.075264 ], [ -65.469441, -17.074196 ], [ -65.469119, -17.072806 ], [ -65.469111, -17.071637 ], [ -65.468468, -17.07111 ], [ -65.467693, -17.070337 ], [ -65.467563, -17.069548 ], [ -65.468092, -17.068831 ], [ -65.468156, -17.0681 ], [ -65.468491, -17.067325 ], [ -65.468617, -17.066403 ], [ -65.469265, -17.065848 ], [ -65.470769, -17.065424 ], [ -65.472763, -17.065732 ], [ -65.473815, -17.065381 ], [ -65.474406, -17.064474 ], [ -65.475083, -17.06379 ], [ -65.47555, -17.061316 ], [ -65.475917, -17.060175 ], [ -65.476324, -17.059839 ], [ -65.478115, -17.058918 ], [ -65.481032, -17.058084 ], [ -65.481183, -17.05788 ], [ -65.481024, -17.056914 ], [ -65.480158, -17.056154 ], [ -65.478318, -17.055101 ], [ -65.478228, -17.055115 ], [ -65.478199, -17.05494 ], [ -65.476464, -17.05396 ], [ -65.474513, -17.053915 ], [ -65.472345, -17.052555 ], [ -65.470849, -17.051897 ], [ -65.468826, -17.051414 ], [ -65.465311, -17.051983 ], [ -65.463753, -17.051515 ], [ -65.46293, -17.051017 ], [ -65.460659, -17.051836 ], [ -65.460569, -17.05185 ], [ -65.460555, -17.051763 ], [ -65.460375, -17.051792 ], [ -65.459206, -17.051441 ], [ -65.459102, -17.051367 ], [ -65.45789, -17.050753 ], [ -65.456887, -17.050825 ], [ -65.454948, -17.051462 ], [ -65.4545, -17.049944 ], [ -65.453906, -17.048619 ], [ -65.452284, -17.047066 ], [ -65.450221, -17.045779 ], [ -65.449172, -17.045588 ], [ -65.448224, -17.046012 ], [ -65.447918, -17.046962 ], [ -65.447212, -17.049577 ], [ -65.446042, -17.050101 ], [ -65.445336, -17.050508 ], [ -65.444381, -17.051032 ], [ -65.443398, -17.052574 ], [ -65.443135, -17.05362 ], [ -65.442724, -17.054427 ], [ -65.442496, -17.054182 ], [ -65.441613, -17.053638 ], [ -65.440476, -17.053119 ], [ -65.439903, -17.052587 ], [ -65.438387, -17.052003 ], [ -65.437862, -17.051694 ], [ -65.437837, -17.05168 ], [ -65.436809, -17.05112 ], [ -65.436228, -17.050616 ], [ -65.435884, -17.050252 ], [ -65.435407, -17.049542 ], [ -65.434864, -17.048628 ], [ -65.434771, -17.048057 ], [ -65.434915, -17.047687 ], [ -65.434915, -17.047646 ], [ -65.43527, -17.047151 ], [ -65.435329, -17.046843 ], [ -65.435304, -17.046537 ], [ -65.435131, -17.046273 ], [ -65.435064, -17.04609 ], [ -65.434882, -17.045924 ], [ -65.43463, -17.045763 ], [ -65.434788, -17.04445 ], [ -65.434783, -17.044061 ], [ -65.434685, -17.043081 ], [ -65.434611, -17.042264 ], [ -65.43454, -17.041733 ], [ -65.433927, -17.037022 ], [ -65.433241, -17.034594 ], [ -65.433108, -17.034146 ], [ -65.433091, -17.032878 ], [ -65.43309, -17.032797 ], [ -65.4332, -17.031446 ], [ -65.432372, -17.02982 ], [ -65.432015, -17.028515 ], [ -65.431565, -17.02664 ], [ -65.430438, -17.024961 ], [ -65.429657, -17.023702 ], [ -65.429223, -17.023053 ], [ -65.428704, -17.022323 ], [ -65.428733, -17.021259 ], [ -65.428769, -17.020768 ], [ -65.429099, -17.019987 ], [ -65.429098, -17.019905 ], [ -65.429097, -17.019865 ], [ -65.429132, -17.019251 ], [ -65.429248, -17.01839 ], [ -65.429099, -17.017376 ], [ -65.428815, -17.014843 ], [ -65.428849, -17.010835 ], [ -65.427947, -17.006838 ], [ -65.427117, -17.001776 ], [ -65.426471, -16.997858 ], [ -65.42647, -16.997776 ], [ -65.426666, -16.99467 ], [ -65.425944, -16.989876 ], [ -65.425568, -16.9871 ], [ -65.424496, -16.983105 ], [ -65.420937, -16.977339 ], [ -65.419901, -16.976043 ], [ -65.419127, -16.975316 ], [ -65.417758, -16.974678 ], [ -65.416569, -16.974692 ], [ -65.416484, -16.974693 ], [ -65.415046, -16.975283 ], [ -65.413604, -16.97601 ], [ -65.411921, -16.976262 ], [ -65.409972, -16.976694 ], [ -65.408951, -16.976624 ], [ -65.408356, -16.976632 ], [ -65.407071, -16.975829 ], [ -65.407063, -16.975174 ], [ -65.40705, -16.974193 ], [ -65.406616, -16.973462 ], [ -65.406018, -16.973224 ], [ -65.40423, -16.972999 ], [ -65.402785, -16.973016 ], [ -65.40177, -16.973356 ], [ -65.400243, -16.973619 ], [ -65.399613, -16.973596 ], [ -65.399293, -16.973477 ], [ -65.39912, -16.973275 ], [ -65.399024, -16.972822 ], [ -65.399176, -16.972661 ], [ -65.399172, -16.972313 ], [ -65.39897, -16.971518 ], [ -65.398224, -16.970831 ], [ -65.397917, -16.970549 ], [ -65.396189, -16.969069 ], [ -65.394735, -16.96835 ], [ -65.392934, -16.967104 ], [ -65.391395, -16.9663 ], [ -65.390512, -16.965623 ], [ -65.388853, -16.965479 ], [ -65.387918, -16.96549 ], [ -65.386767, -16.965135 ], [ -65.3854, -16.964619 ], [ -65.385358, -16.96462 ], [ -65.384755, -16.964013 ], [ -65.382178, -16.961876 ], [ -65.381108, -16.961234 ], [ -65.379535, -16.960648 ], [ -65.378501, -16.960078 ], [ -65.377396, -16.96005 ], [ -65.375016, -16.960078 ], [ -65.371953, -16.959787 ], [ -65.36879, -16.958351 ], [ -65.367683, -16.9582 ], [ -65.36639, -16.958046 ], [ -65.364652, -16.957566 ], [ -65.360556, -16.956304 ], [ -65.357568, -16.955234 ], [ -65.357483, -16.955235 ], [ -65.355355, -16.954974 ], [ -65.353999, -16.955276 ], [ -65.353914, -16.955277 ], [ -65.3509, -16.954969 ], [ -65.348957, -16.954489 ], [ -65.347986, -16.954249 ], [ -65.347096, -16.953752 ], [ -65.344578, -16.952819 ], [ -65.342522, -16.951845 ], [ -65.339443, -16.950326 ], [ -65.336637, -16.950195 ], [ -65.33407, -16.948752 ], [ -65.331241, -16.946821 ], [ -65.329712, -16.946839 ], [ -65.327152, -16.94605 ], [ -65.326982, -16.946052 ], [ -65.323903, -16.944451 ], [ -65.3216, -16.941172 ], [ -65.319724, -16.939374 ], [ -65.317498, -16.938009 ], [ -65.311939, -16.935127 ], [ -65.310127, -16.932939 ], [ -65.309353, -16.93213 ], [ -65.307733, -16.931739 ], [ -65.307731, -16.931575 ], [ -65.306876, -16.931094 ], [ -65.304921, -16.931116 ], [ -65.302963, -16.930811 ], [ -65.301852, -16.930333 ], [ -65.300807, -16.929212 ], [ -65.299829, -16.927581 ], [ -65.297356, -16.926873 ], [ -65.294962, -16.925673 ], [ -65.292743, -16.92488 ], [ -65.290438, -16.924006 ], [ -65.289065, -16.922957 ], [ -65.288896, -16.922959 ], [ -65.28758, -16.921908 ], [ -65.285726, -16.920868 ], [ -65.285556, -16.92087 ], [ -65.280698, -16.919697 ], [ -65.27806, -16.919399 ], [ -65.27398, -16.919281 ], [ -65.269811, -16.918837 ], [ -65.267833, -16.918605 ], [ -65.265378, -16.917659 ], [ -65.262729, -16.916461 ], [ -65.261028, -16.916316 ], [ -65.259501, -16.916579 ], [ -65.258059, -16.916758 ], [ -65.255058, -16.914501 ], [ -65.255052, -16.91401 ], [ -65.254531, -16.913116 ], [ -65.254527, -16.912789 ], [ -65.255114, -16.912128 ], [ -65.255103, -16.911146 ], [ -65.255069, -16.910615 ], [ -65.254679, -16.909534 ], [ -65.254576, -16.908062 ], [ -65.253542, -16.906847 ], [ -65.252262, -16.90637 ], [ -65.250142, -16.90672 ], [ -65.249812, -16.907542 ], [ -65.249133, -16.907631 ], [ -65.247603, -16.907566 ], [ -65.247, -16.906919 ], [ -65.246994, -16.906428 ], [ -65.246048, -16.905457 ], [ -65.245275, -16.904729 ], [ -65.244586, -16.904 ], [ -65.244659, -16.902936 ], [ -65.245415, -16.902191 ], [ -65.245914, -16.901286 ], [ -65.245802, -16.90069 ], [ -65.245726, -16.899816 ], [ -65.243921, -16.898036 ], [ -65.242109, -16.895683 ], [ -65.239803, -16.894727 ], [ -65.237765, -16.894831 ], [ -65.234545, -16.895602 ], [ -65.232254, -16.895873 ], [ -65.229607, -16.894756 ], [ -65.228573, -16.893541 ], [ -65.227283, -16.892164 ], [ -65.226598, -16.89179 ], [ -65.226114, -16.891781 ], [ -65.226246, -16.890731 ], [ -65.226906, -16.889006 ], [ -65.227319, -16.888019 ], [ -65.227222, -16.887039 ], [ -65.225253, -16.885751 ], [ -65.223119, -16.884875 ], [ -65.220649, -16.884411 ], [ -65.219624, -16.883931 ], [ -65.21876, -16.882713 ], [ -65.218324, -16.881736 ], [ -65.217712, -16.88027 ], [ -65.217531, -16.879291 ], [ -65.217853, -16.877815 ], [ -65.219116, -16.876819 ], [ -65.220296, -16.875989 ], [ -65.220366, -16.874761 ], [ -65.219684, -16.874523 ], [ -65.217813, -16.874379 ], [ -65.213924, -16.875976 ], [ -65.211808, -16.876735 ], [ -65.210846, -16.877176 ], [ -65.207851, -16.878172 ], [ -65.205214, -16.877955 ], [ -65.203501, -16.876746 ], [ -65.202977, -16.875525 ], [ -65.202255, -16.871851 ], [ -65.202136, -16.868908 ], [ -65.202011, -16.865473 ], [ -65.20098, -16.864502 ], [ -65.19953, -16.864027 ], [ -65.197753, -16.864619 ], [ -65.197005, -16.866018 ], [ -65.19583, -16.867257 ], [ -65.194057, -16.868258 ], [ -65.192524, -16.867947 ], [ -65.191916, -16.866808 ], [ -65.192496, -16.865493 ], [ -65.194002, -16.863514 ], [ -65.194498, -16.862281 ], [ -65.194824, -16.861133 ], [ -65.194299, -16.859747 ], [ -65.194207, -16.859176 ], [ -65.193821, -16.858894 ], [ -65.193004, -16.858803 ], [ -65.190649, -16.860032 ], [ -65.188896, -16.86275 ], [ -65.188154, -16.864722 ], [ -65.187842, -16.867179 ], [ -65.187864, -16.86906 ], [ -65.188236, -16.871838 ], [ -65.189875, -16.874029 ], [ -65.19167, -16.87491 ], [ -65.19754, -16.875583 ], [ -65.198562, -16.875818 ], [ -65.200863, -16.876366 ], [ -65.20215, -16.877497 ], [ -65.202252, -16.878968 ], [ -65.201509, -16.880776 ], [ -65.201124, -16.881837 ], [ -65.201132, -16.882492 ], [ -65.202341, -16.884196 ], [ -65.203464, -16.88582 ], [ -65.203824, -16.887535 ], [ -65.204938, -16.888341 ], [ -65.206397, -16.889552 ], [ -65.207019, -16.891918 ], [ -65.207031, -16.892981 ], [ -65.206459, -16.894869 ], [ -65.204866, -16.896767 ], [ -65.203174, -16.897358 ], [ -65.201576, -16.898848 ], [ -65.196244, -16.900623 ], [ -65.194336, -16.900964 ], [ -65.192977, -16.90106 ], [ -65.192935, -16.901061 ], [ -65.191106, -16.900917 ], [ -65.189874, -16.90093 ], [ -65.188351, -16.901519 ], [ -65.187724, -16.902385 ], [ -65.187146, -16.903863 ], [ -65.187327, -16.904802 ], [ -65.18785, -16.905901 ], [ -65.188877, -16.906544 ], [ -65.190281, -16.906734 ], [ -65.191721, -16.90635 ], [ -65.192337, -16.905895 ], [ -65.194293, -16.906113 ], [ -65.195086, -16.906982 ], [ -65.195528, -16.908543 ], [ -65.195839, -16.909308 ], [ -65.195853, -16.909396 ], [ -65.195944, -16.909382 ], [ -65.195958, -16.90947 ], [ -65.196049, -16.909456 ], [ -65.196064, -16.909544 ], [ -65.196698, -16.909442 ], [ -65.197732, -16.908369 ], [ -65.198319, -16.908547 ], [ -65.198333, -16.908635 ], [ -65.198615, -16.909224 ], [ -65.198644, -16.909401 ], [ -65.198321, -16.910268 ], [ -65.198231, -16.910283 ], [ -65.197759, -16.910812 ], [ -65.197668, -16.910826 ], [ -65.195613, -16.911338 ], [ -65.195232, -16.911853 ], [ -65.195261, -16.912029 ], [ -65.195587, -16.912883 ], [ -65.196355, -16.913031 ], [ -65.196446, -16.913017 ], [ -65.198062, -16.912666 ], [ -65.198921, -16.9128 ], [ -65.199012, -16.912785 ], [ -65.19937, -16.913271 ], [ -65.199385, -16.913359 ], [ -65.199591, -16.914051 ], [ -65.199355, -16.915449 ], [ -65.1996, -16.91695 ], [ -65.199984, -16.918157 ], [ -65.199813, -16.918819 ], [ -65.199313, -16.919171 ], [ -65.199222, -16.919186 ], [ -65.198334, -16.918875 ], [ -65.19832, -16.918787 ], [ -65.197345, -16.917947 ], [ -65.196998, -16.915828 ], [ -65.1959, -16.91537 ], [ -65.195009, -16.915604 ], [ -65.194465, -16.915692 ], [ -65.194356, -16.916162 ], [ -65.194772, -16.917002 ], [ -65.194863, -16.916987 ], [ -65.195413, -16.918077 ], [ -65.195304, -16.918547 ], [ -65.194981, -16.919415 ], [ -65.195249, -16.919915 ], [ -65.196518, -16.919711 ], [ -65.196833, -16.919933 ], [ -65.197115, -16.920521 ], [ -65.197021, -16.92108 ], [ -65.197093, -16.921522 ], [ -65.197017, -16.921625 ], [ -65.197045, -16.921801 ], [ -65.198006, -16.922553 ], [ -65.19918, -16.922908 ], [ -65.199926, -16.924057 ], [ -65.199469, -16.924674 ], [ -65.198577, -16.924908 ], [ -65.198486, -16.924923 ], [ -65.198167, -16.925246 ], [ -65.198326, -16.926217 ], [ -65.198293, -16.926585 ], [ -65.197959, -16.92682 ], [ -65.197869, -16.926835 ], [ -65.195245, -16.926454 ], [ -65.194653, -16.926622 ], [ -65.194232, -16.926979 ], [ -65.193997, -16.927124 ], [ -65.193623, -16.927299 ], [ -65.193377, -16.927611 ], [ -65.193677, -16.92766 ], [ -65.193947, -16.927953 ], [ -65.194503, -16.928156 ], [ -65.195649, -16.929185 ], [ -65.195754, -16.929259 ], [ -65.196272, -16.930716 ], [ -65.196377, -16.93079 ], [ -65.197022, -16.931321 ], [ -65.196937, -16.932512 ], [ -65.197346, -16.93444 ], [ -65.197433, -16.93497 ], [ -65.197186, -16.935735 ], [ -65.196671, -16.935999 ], [ -65.196022, -16.936013 ], [ -65.1955, -16.9351 ], [ -65.195486, -16.935011 ], [ -65.195381, -16.934938 ], [ -65.195218, -16.934511 ], [ -65.195603, -16.933452 ], [ -65.195588, -16.933364 ], [ -65.19523, -16.932878 ], [ -65.194165, -16.932052 ], [ -65.194074, -16.932067 ], [ -65.193516, -16.932066 ], [ -65.193425, -16.932081 ], [ -65.193106, -16.932404 ], [ -65.19303, -16.932507 ], [ -65.192692, -16.933286 ], [ -65.192707, -16.933374 ], [ -65.19255, -16.934124 ], [ -65.192956, -16.934331 ], [ -65.193137, -16.934302 ], [ -65.193152, -16.93439 ], [ -65.193242, -16.934376 ], [ -65.19413, -16.934686 ], [ -65.194623, -16.935422 ], [ -65.194637, -16.93551 ], [ -65.194376, -16.936187 ], [ -65.194195, -16.936216 ], [ -65.192983, -16.936773 ], [ -65.192802, -16.936803 ], [ -65.192226, -16.937258 ], [ -65.192046, -16.937716 ], [ -65.192205, -16.938688 ], [ -65.192893, -16.939483 ], [ -65.193658, -16.940176 ], [ -65.193578, -16.940823 ], [ -65.193592, -16.940911 ], [ -65.193501, -16.940926 ], [ -65.192715, -16.941234 ], [ -65.191224, -16.942923 ], [ -65.191339, -16.94363 ], [ -65.192303, -16.943837 ], [ -65.193978, -16.94384 ], [ -65.194069, -16.943825 ], [ -65.194594, -16.944194 ], [ -65.194609, -16.944282 ], [ -65.194829, -16.945062 ], [ -65.194887, -16.945415 ], [ -65.194865, -16.946416 ], [ -65.194879, -16.946504 ], [ -65.194603, -16.947092 ], [ -65.193188, -16.948679 ], [ -65.192698, -16.949664 ], [ -65.192404, -16.950708 ], [ -65.192686, -16.951297 ], [ -65.193785, -16.951755 ], [ -65.194895, -16.95058 ], [ -65.195591, -16.950286 ], [ -65.196573, -16.950038 ], [ -65.197307, -16.948832 ], [ -65.197869, -16.948289 ], [ -65.197854, -16.9482 ], [ -65.198322, -16.948216 ], [ -65.198336, -16.948304 ], [ -65.198442, -16.948378 ], [ -65.198615, -16.949437 ], [ -65.198741, -16.950777 ], [ -65.199262, -16.951689 ], [ -65.200107, -16.951735 ], [ -65.201572, -16.95159 ], [ -65.202427, -16.952268 ], [ -65.202441, -16.952356 ], [ -65.202582, -16.953784 ], [ -65.202346, -16.955181 ], [ -65.20236, -16.955269 ], [ -65.20241, -16.956711 ], [ -65.202054, -16.957947 ], [ -65.202068, -16.958035 ], [ -65.201234, -16.958622 ], [ -65.199842, -16.959209 ], [ -65.198898, -16.960082 ], [ -65.198084, -16.961184 ], [ -65.198473, -16.962782 ], [ -65.198566, -16.964489 ], [ -65.198424, -16.965327 ], [ -65.197274, -16.965693 ], [ -65.196263, -16.965765 ], [ -65.196172, -16.96578 ], [ -65.196096, -16.965883 ], [ -65.195548, -16.966515 ], [ -65.195472, -16.966618 ], [ -65.195482, -16.96725 ], [ -65.195551, -16.967669 ], [ -65.196707, -16.96848 ], [ -65.197051, -16.968877 ], [ -65.197066, -16.968966 ], [ -65.196985, -16.969613 ], [ -65.197, -16.969701 ], [ -65.196924, -16.969804 ], [ -65.19692, -16.970349 ], [ -65.196992, -16.97079 ], [ -65.197895, -16.971189 ], [ -65.200929, -16.970972 ], [ -65.201469, -16.971429 ], [ -65.201484, -16.971518 ], [ -65.201523, -16.972327 ], [ -65.201432, -16.972341 ], [ -65.201447, -16.97243 ], [ -65.201371, -16.972533 ], [ -65.201037, -16.972767 ], [ -65.199315, -16.973045 ], [ -65.198829, -16.973485 ], [ -65.198843, -16.973573 ], [ -65.198831, -16.975207 ], [ -65.198871, -16.976016 ], [ -65.198899, -16.976192 ], [ -65.198747, -16.976398 ], [ -65.198261, -16.976839 ], [ -65.196357, -16.977145 ], [ -65.195748, -16.977968 ], [ -65.196044, -16.978645 ], [ -65.196737, -16.978896 ], [ -65.197425, -16.979692 ], [ -65.198091, -16.981488 ], [ -65.199033, -16.982696 ], [ -65.199827, -16.983565 ], [ -65.200468, -16.98464 ], [ -65.200825, -16.987392 ], [ -65.201122, -16.988069 ], [ -65.202311, -16.988512 ], [ -65.204396, -16.988177 ], [ -65.206213, -16.987341 ], [ -65.207163, -16.98746 ], [ -65.207254, -16.987445 ], [ -65.208109, -16.988123 ], [ -65.208254, -16.989006 ], [ -65.207706, -16.989638 ], [ -65.205631, -16.990606 ], [ -65.204558, -16.990869 ], [ -65.204467, -16.990884 ], [ -65.204006, -16.992046 ], [ -65.201735, -16.994905 ], [ -65.201799, -16.996183 ], [ -65.201708, -16.996198 ], [ -65.199611, -16.998166 ], [ -65.199383, -16.998475 ], [ -65.199331, -16.999299 ], [ -65.199457, -17.000638 ], [ -65.199, -17.001255 ], [ -65.197861, -17.002254 ], [ -65.19777, -17.002268 ], [ -65.196823, -17.003871 ], [ -65.196634, -17.004989 ], [ -65.19697, -17.006475 ], [ -65.196233, -17.007657 ], [ -65.195398, -17.008245 ], [ -65.195308, -17.008259 ], [ -65.195322, -17.008348 ], [ -65.195141, -17.008377 ], [ -65.194292, -17.008876 ], [ -65.194306, -17.008964 ], [ -65.193911, -17.00939 ], [ -65.194222, -17.010156 ], [ -65.195321, -17.010613 ], [ -65.195411, -17.010599 ], [ -65.196347, -17.01063 ], [ -65.196601, -17.011042 ], [ -65.19663, -17.011219 ], [ -65.19664, -17.011851 ], [ -65.196564, -17.011954 ], [ -65.196578, -17.012042 ], [ -65.195863, -17.012792 ], [ -65.195773, -17.012806 ], [ -65.195769, -17.013351 ], [ -65.195783, -17.013439 ], [ -65.195693, -17.013453 ], [ -65.196004, -17.014219 ], [ -65.196095, -17.014204 ], [ -65.197618, -17.014413 ], [ -65.197708, -17.014398 ], [ -65.19918, -17.01543 ], [ -65.200108, -17.01655 ], [ -65.200133, -17.01727 ], [ -65.199533, -17.01777 ], [ -65.199114, -17.018096 ], [ -65.199886, -17.018035 ], [ -65.200535, -17.018021 ], [ -65.201213, -17.018184 ], [ -65.201648, -17.018567 ], [ -65.201887, -17.018891 ], [ -65.201955, -17.019877 ], [ -65.202205, -17.020834 ], [ -65.20256, -17.021864 ], [ -65.203009, -17.022336 ], [ -65.203226, -17.02366 ], [ -65.204049, -17.024706 ], [ -65.204632, -17.025428 ], [ -65.205346, -17.026944 ], [ -65.206163, -17.02697 ], [ -65.206253, -17.026956 ], [ -65.206268, -17.027044 ], [ -65.207037, -17.027192 ], [ -65.207472, -17.027575 ], [ -65.207577, -17.027649 ], [ -65.207823, -17.02915 ], [ -65.209022, -17.030226 ], [ -65.209892, -17.030992 ], [ -65.209907, -17.03108 ], [ -65.209998, -17.031066 ], [ -65.212075, -17.031819 ], [ -65.213112, -17.032468 ], [ -65.213696, -17.03319 ], [ -65.213945, -17.034146 ], [ -65.21471, -17.034839 ], [ -65.215127, -17.035678 ], [ -65.215424, -17.036355 ], [ -65.216566, -17.037078 ], [ -65.216581, -17.037166 ], [ -65.216671, -17.037151 ], [ -65.216762, -17.037171 ], [ -65.216749, -17.039901 ], [ -65.216614, -17.041916 ], [ -65.216153, -17.043078 ], [ -65.216304, -17.045138 ], [ -65.216198, -17.04733 ], [ -65.215965, -17.048183 ], [ -65.216534, -17.048817 ], [ -65.217928, -17.048592 ], [ -65.218076, -17.048568 ], [ -65.21809, -17.048657 ], [ -65.218573, -17.04876 ], [ -65.219037, -17.04932 ], [ -65.219189, -17.049682 ], [ -65.218313, -17.051357 ], [ -65.218382, -17.052711 ], [ -65.217663, -17.054005 ], [ -65.217336, -17.055417 ], [ -65.216784, -17.056593 ], [ -65.216799, -17.056681 ], [ -65.216152, -17.058417 ], [ -65.215129, -17.060122 ], [ -65.214896, -17.060975 ], [ -65.21491, -17.061063 ], [ -65.215338, -17.061968 ], [ -65.216585, -17.062764 ], [ -65.21669, -17.062838 ], [ -65.218595, -17.062531 ], [ -65.219893, -17.062504 ], [ -65.219984, -17.062489 ], [ -65.221446, -17.062888 ], [ -65.221536, -17.062874 ], [ -65.223056, -17.063626 ], [ -65.223147, -17.063611 ], [ -65.224194, -17.064893 ], [ -65.224339, -17.065776 ], [ -65.224248, -17.06579 ], [ -65.223667, -17.06679 ], [ -65.22292, -17.067907 ], [ -65.222829, -17.067922 ], [ -65.222843, -17.06801 ], [ -65.222749, -17.068569 ], [ -65.223246, -17.068761 ], [ -65.223833, -17.068938 ], [ -65.224072, -17.069262 ], [ -65.224347, -17.07094 ], [ -65.223981, -17.071542 ], [ -65.22389, -17.071557 ], [ -65.222903, -17.07235 ], [ -65.222177, -17.072467 ], [ -65.221796, -17.072981 ], [ -65.221215, -17.073981 ], [ -65.220892, -17.074849 ], [ -65.221204, -17.075614 ], [ -65.221591, -17.076277 ], [ -65.22145, -17.077115 ], [ -65.221081, -17.077494 ], [ -65.220341, -17.078301 ], [ -65.21948, -17.07773 ], [ -65.218925, -17.077612 ], [ -65.218181, -17.078185 ], [ -65.217636, -17.078272 ], [ -65.216758, -17.078595 ], [ -65.216577, -17.078624 ], [ -65.216148, -17.079418 ], [ -65.214933, -17.080519 ], [ -65.214842, -17.080534 ], [ -65.214609, -17.081387 ], [ -65.214812, -17.082056 ], [ -65.214826, -17.082144 ], [ -65.216037, -17.083852 ], [ -65.216794, -17.085634 ], [ -65.21798, -17.086621 ], [ -65.218009, -17.086797 ], [ -65.2181, -17.086783 ], [ -65.218713, -17.087681 ], [ -65.218818, -17.087755 ], [ -65.218832, -17.087843 ], [ -65.218923, -17.087829 ], [ -65.21996, -17.088477 ], [ -65.220667, -17.088817 ], [ -65.220682, -17.088905 ], [ -65.221012, -17.089214 ], [ -65.221026, -17.089303 ], [ -65.221294, -17.089803 ], [ -65.221352, -17.090156 ], [ -65.221225, -17.091083 ], [ -65.221431, -17.091775 ], [ -65.221446, -17.091863 ], [ -65.222135, -17.092659 ], [ -65.222149, -17.092747 ], [ -65.222254, -17.09282 ], [ -65.22376, -17.093485 ], [ -65.225718, -17.094076 ], [ -65.229542, -17.093551 ], [ -65.230101, -17.093552 ], [ -65.230536, -17.093935 ], [ -65.230198, -17.094714 ], [ -65.230213, -17.094802 ], [ -65.229951, -17.095479 ], [ -65.22915, -17.095699 ], [ -65.229059, -17.095713 ], [ -65.227775, -17.095829 ], [ -65.226156, -17.09618 ], [ -65.224912, -17.097105 ], [ -65.223533, -17.09778 ], [ -65.222331, -17.09897 ], [ -65.221272, -17.099322 ], [ -65.220781, -17.100307 ], [ -65.220691, -17.100322 ], [ -65.220679, -17.101955 ], [ -65.22084, -17.10377 ], [ -65.183551, -17.104176 ], [ -65.172727, -17.130717 ], [ -65.182177, -17.139423 ], [ -65.208837, -17.208828 ], [ -65.237357, -17.229363 ], [ -65.245283, -17.238114 ] ] ] ] } }
]
}
