{
"type": "FeatureCollection",
"name": "ANDINA",
"crs": { "type": "name", "properties": { "name": "urn:ogc:def:crs:OGC:1.3:CRS84" } },
"bbox": [ -67.005947, -18.136279, -66.113714, -15.778190 ],                                                                        
"features": [
{ "type": "Feature", "properties": { "NOMBRE": "Andina", "NIVEL": "Regiones", "PROVINCIA": "", "REGION": "", "DEPARTAMENTO": "Cochabamba" }, "bbox": [ -67.005947, -18.136279, -66.113714, -15.77819 ], "geometry": { "type": "MultiPolygon", "coordinates": [ [ [ [ -66.435439, -17.974926 ], [ -66.438354, -17.976772 ], [ -66.440151, -17.977409 ], [ -66.441217, -17.977787 ], [ -66.445221, -17.979287 ], [ -66.446123, -17.981093 ], [ -66.446151, -17.98115 ], [ -66.454904, -17.98801 ], [ -66.461274, -17.993381 ], [ -66.471302, -18.000057 ], [ -66.472609, -18.000563 ], [ -66.471837, -18.003668 ], [ -66.474476, -18.006581 ], [ -66.47943, -18.01053 ], [ -66.484033, -18.012971 ], [ -66.485278, -18.013809 ], [ -66.485051, -18.014206 ], [ -66.485977, -18.015164 ], [ -66.486738, -18.015715 ], [ -66.487119, -18.015991 ], [ -66.48912, -18.01744 ], [ -66.492818, -18.02104 ], [ -66.493546, -18.02195 ], [ -66.493431, -18.022046 ], [ -66.494718, -18.02295 ], [ -66.498798, -18.026524 ], [ -66.50174, -18.028405 ], [ -66.512068, -18.03635 ], [ -66.51588, -18.041838 ], [ -66.518395, -18.046597 ], [ -66.521555, -18.049091 ], [ -66.525729, -18.052384 ], [ -66.533453, -18.058439 ], [ -66.53979, -18.060828 ], [ -66.541279, -18.06155 ], [ -66.548361, -18.065227 ], [ -66.556813, -18.068628 ], [ -66.557322, -18.068833 ], [ -66.561964, -18.071362 ], [ -66.565852, -18.072614 ], [ -66.566383, -18.072198 ], [ -66.572413, -18.075254 ], [ -66.573402, -18.075389 ], [ -66.577512, -18.075987 ], [ -66.589669, -18.083347 ], [ -66.595322, -18.084284 ], [ -66.601095, -18.082345 ], [ -66.607309, -18.082534 ], [ -66.616687, -18.08342 ], [ -66.616789, -18.083586 ], [ -66.617016, -18.083954 ], [ -66.624268, -18.090649 ], [ -66.624755, -18.090926 ], [ -66.629455, -18.092583 ], [ -66.629928, -18.092914 ], [ -66.635164, -18.096718 ], [ -66.641733, -18.099697 ], [ -66.652154, -18.107323 ], [ -66.656964, -18.10933 ], [ -66.663736, -18.111735 ], [ -66.664886, -18.112264 ], [ -66.670626, -18.114908 ], [ -66.683079, -18.119755 ], [ -66.689488, -18.121703 ], [ -66.692341, -18.12309 ], [ -66.694174, -18.123982 ], [ -66.700452, -18.128721 ], [ -66.712663, -18.136279 ], [ -66.720411, -18.128213 ], [ -66.723643, -18.126551 ], [ -66.730835, -18.126475 ], [ -66.732479, -18.127468 ], [ -66.7482, -18.130622 ], [ -66.758996, -18.130486 ], [ -66.794067, -18.130039 ], [ -66.794454, -18.130047 ], [ -66.800289, -18.123395 ], [ -66.804262, -18.119765 ], [ -66.815039, -18.11211 ], [ -66.817377, -18.10998 ], [ -66.820738, -18.103541 ], [ -66.823152, -18.098917 ], [ -66.84667, -18.054115 ], [ -66.841818, -18.051409 ], [ -66.828418, -18.034779 ], [ -66.822917, -18.027013 ], [ -66.822338, -18.026196 ], [ -66.822155, -18.025936 ], [ -66.821294, -18.024721 ], [ -66.813943, -18.016995 ], [ -66.812142, -18.015102 ], [ -66.801217, -18.003702 ], [ -66.788416, -17.988194 ], [ -66.78142, -17.984636 ], [ -66.774287, -17.977567 ], [ -66.767032, -17.969901 ], [ -66.76018, -17.964089 ], [ -66.749631, -17.953437 ], [ -66.748037, -17.952525 ], [ -66.747275, -17.952089 ], [ -66.742792, -17.945384 ], [ -66.73757, -17.939575 ], [ -66.730764, -17.931592 ], [ -66.72758, -17.925232 ], [ -66.721656, -17.911867 ], [ -66.716568, -17.902422 ], [ -66.715126, -17.900075 ], [ -66.714145, -17.897895 ], [ -66.71484, -17.890804 ], [ -66.713845, -17.884505 ], [ -66.714833, -17.881735 ], [ -66.712781, -17.8806 ], [ -66.711889, -17.880336 ], [ -66.713451, -17.877681 ], [ -66.714172, -17.872225 ], [ -66.716326, -17.86749 ], [ -66.718057, -17.858983 ], [ -66.718128, -17.857864 ], [ -66.717423, -17.854017 ], [ -66.719223, -17.851897 ], [ -66.719225, -17.850253 ], [ -66.721537, -17.844273 ], [ -66.721066, -17.842678 ], [ -66.721743, -17.83994 ], [ -66.722938, -17.834922 ], [ -66.7239, -17.823019 ], [ -66.731856, -17.809156 ], [ -66.737004, -17.803959 ], [ -66.74403, -17.797157 ], [ -66.752223, -17.791199 ], [ -66.75844, -17.792445 ], [ -66.761379, -17.79041 ], [ -66.76737, -17.789421 ], [ -66.772415, -17.781791 ], [ -66.787659, -17.780393 ], [ -66.795706, -17.781876 ], [ -66.795853, -17.781903 ], [ -66.80087, -17.769302 ], [ -66.800902, -17.769223 ], [ -66.802715, -17.768831 ], [ -66.802887, -17.768794 ], [ -66.805561, -17.762291 ], [ -66.805578, -17.762248 ], [ -66.806275, -17.761974 ], [ -66.80645, -17.761905 ], [ -66.807747, -17.759774 ], [ -66.807826, -17.759644 ], [ -66.811011, -17.759788 ], [ -66.811802, -17.758077 ], [ -66.815367, -17.750361 ], [ -66.819255, -17.744641 ], [ -66.820391, -17.741139 ], [ -66.822066, -17.736546 ], [ -66.82852, -17.733689 ], [ -66.83059, -17.730223 ], [ -66.837921, -17.725278 ], [ -66.838021, -17.72521 ], [ -66.851415, -17.718895 ], [ -66.86147, -17.705215 ], [ -66.861636, -17.70515 ], [ -66.861674, -17.705098 ], [ -66.868438, -17.702468 ], [ -66.870152, -17.693945 ], [ -66.874901, -17.690012 ], [ -66.876861, -17.685959 ], [ -66.891949, -17.66621 ], [ -66.890445, -17.657855 ], [ -66.887851, -17.646734 ], [ -66.888212, -17.63999 ], [ -66.883495, -17.633308 ], [ -66.875703, -17.630921 ], [ -66.872376, -17.624607 ], [ -66.872179, -17.617287 ], [ -66.876334, -17.614008 ], [ -66.882167, -17.604964 ], [ -66.884125, -17.601869 ], [ -66.885065, -17.600424 ], [ -66.88963, -17.59762 ], [ -66.888391, -17.591153 ], [ -66.888266, -17.589585 ], [ -66.887557, -17.588055 ], [ -66.887842, -17.586283 ], [ -66.887005, -17.584308 ], [ -66.886961, -17.582469 ], [ -66.887695, -17.581843 ], [ -66.887852, -17.579752 ], [ -66.887008, -17.578411 ], [ -66.886631, -17.576695 ], [ -66.884935, -17.574711 ], [ -66.884882, -17.573569 ], [ -66.884451, -17.570901 ], [ -66.885121, -17.570084 ], [ -66.885401, -17.568756 ], [ -66.885284, -17.567486 ], [ -66.883804, -17.567212 ], [ -66.882681, -17.563798 ], [ -66.882296, -17.562952 ], [ -66.881378, -17.562245 ], [ -66.880576, -17.56047 ], [ -66.878139, -17.559269 ], [ -66.876661, -17.559538 ], [ -66.875838, -17.559685 ], [ -66.875621, -17.558581 ], [ -66.874787, -17.557837 ], [ -66.874798, -17.556956 ], [ -66.873888, -17.556139 ], [ -66.8739, -17.55511 ], [ -66.874437, -17.553958 ], [ -66.874254, -17.552649 ], [ -66.87453, -17.551206 ], [ -66.874839, -17.550507 ], [ -66.875192, -17.54985 ], [ -66.875768, -17.549021 ], [ -66.876288, -17.548168 ], [ -66.87664, -17.547469 ], [ -66.876649, -17.546726 ], [ -66.87649, -17.545609 ], [ -66.876551, -17.544039 ], [ -66.877565, -17.542745 ], [ -66.877498, -17.541904 ], [ -66.876917, -17.541489 ], [ -66.875698, -17.541068 ], [ -66.8748, -17.540445 ], [ -66.87379, -17.540281 ], [ -66.872301, -17.540163 ], [ -66.871348, -17.539744 ], [ -66.870607, -17.539378 ], [ -66.869757, -17.539165 ], [ -66.868796, -17.53941 ], [ -66.867626, -17.539295 ], [ -66.865553, -17.539018 ], [ -66.863317, -17.539045 ], [ -66.862292, -17.540168 ], [ -66.860855, -17.539647 ], [ -66.857375, -17.537295 ], [ -66.855516, -17.536917 ], [ -66.851596, -17.53524 ], [ -66.847936, -17.534128 ], [ -66.845383, -17.533896 ], [ -66.841923, -17.533859 ], [ -66.839798, -17.533478 ], [ -66.8388, -17.532343 ], [ -66.838069, -17.531161 ], [ -66.836769, -17.528593 ], [ -66.835136, -17.527145 ], [ -66.83349, -17.526769 ], [ -66.832315, -17.527063 ], [ -66.830226, -17.528501 ], [ -66.82907, -17.52743 ], [ -66.827744, -17.526451 ], [ -66.825153, -17.524993 ], [ -66.824903, -17.523662 ], [ -66.820748, -17.519428 ], [ -66.819124, -17.518225 ], [ -66.817949, -17.517559 ], [ -66.81764, -17.516738 ], [ -66.817133, -17.514588 ], [ -66.816299, -17.513149 ], [ -66.816048, -17.511869 ], [ -66.816112, -17.51095 ], [ -66.817297, -17.509738 ], [ -66.817308, -17.508818 ], [ -66.817958, -17.507841 ], [ -66.817837, -17.506903 ], [ -66.81758, -17.505866 ], [ -66.817168, -17.505229 ], [ -66.816246, -17.504788 ], [ -66.817009, -17.503874 ], [ -66.81708, -17.502614 ], [ -66.817806, -17.502018 ], [ -66.818799, -17.50157 ], [ -66.820312, -17.500236 ], [ -66.821037, -17.499698 ], [ -66.822731, -17.495723 ], [ -66.82288, -17.493254 ], [ -66.823674, -17.49197 ], [ -66.824072, -17.49117 ], [ -66.82567, -17.490211 ], [ -66.827457, -17.489679 ], [ -66.828139, -17.487688 ], [ -66.82887, -17.486633 ], [ -66.829032, -17.485571 ], [ -66.829958, -17.483197 ], [ -66.83088, -17.481848 ], [ -66.83148, -17.481116 ], [ -66.832395, -17.47969 ], [ -66.833275, -17.478694 ], [ -66.8343, -17.478073 ], [ -66.835366, -17.476533 ], [ -66.835571, -17.47441 ], [ -66.835376, -17.473144 ], [ -66.835086, -17.472365 ], [ -66.835251, -17.471848 ], [ -66.835854, -17.47071 ], [ -66.836672, -17.46971 ], [ -66.836966, -17.466765 ], [ -66.837358, -17.464852 ], [ -66.837592, -17.463824 ], [ -66.837503, -17.462012 ], [ -66.837447, -17.460484 ], [ -66.837083, -17.459947 ], [ -66.836762, -17.458949 ], [ -66.836361, -17.456203 ], [ -66.836182, -17.454823 ], [ -66.836121, -17.453686 ], [ -66.836599, -17.453039 ], [ -66.836034, -17.451625 ], [ -66.836198, -17.450313 ], [ -66.83695, -17.449255 ], [ -66.838105, -17.448593 ], [ -66.840532, -17.446737 ], [ -66.840842, -17.445604 ], [ -66.842058, -17.445726 ], [ -66.842308, -17.443631 ], [ -66.843661, -17.441834 ], [ -66.846569, -17.439983 ], [ -66.848869, -17.439475 ], [ -66.851061, -17.438717 ], [ -66.852698, -17.437989 ], [ -66.854033, -17.437684 ], [ -66.855985, -17.438486 ], [ -66.857989, -17.438011 ], [ -66.859523, -17.437044 ], [ -66.860727, -17.436445 ], [ -66.861653, -17.435985 ], [ -66.862551, -17.435538 ], [ -66.863576, -17.434803 ], [ -66.864645, -17.434497 ], [ -66.865712, -17.432517 ], [ -66.867029, -17.430614 ], [ -66.867897, -17.429167 ], [ -66.868431, -17.427823 ], [ -66.869184, -17.426659 ], [ -66.870264, -17.426031 ], [ -66.871317, -17.42536 ], [ -66.872347, -17.42513 ], [ -66.873433, -17.423969 ], [ -66.875519, -17.422748 ], [ -66.875991, -17.420374 ], [ -66.876339, -17.419028 ], [ -66.876838, -17.417797 ], [ -66.877191, -17.415733 ], [ -66.876831, -17.414913 ], [ -66.875924, -17.413305 ], [ -66.87498, -17.411767 ], [ -66.874289, -17.410766 ], [ -66.873781, -17.409688 ], [ -66.87279, -17.409222 ], [ -66.872167, -17.408683 ], [ -66.871991, -17.4079 ], [ -66.871615, -17.406942 ], [ -66.871158, -17.406363 ], [ -66.87091, -17.405473 ], [ -66.869414, -17.40361 ], [ -66.868201, -17.402993 ], [ -66.867351, -17.402878 ], [ -66.866838, -17.402481 ], [ -66.866664, -17.401485 ], [ -66.866867, -17.399995 ], [ -66.867519, -17.398663 ], [ -66.865645, -17.396857 ], [ -66.865399, -17.395789 ], [ -66.864926, -17.394579 ], [ -66.865236, -17.390672 ], [ -66.86477, -17.389424 ], [ -66.863858, -17.388313 ], [ -66.862239, -17.387586 ], [ -66.860576, -17.387269 ], [ -66.859641, -17.386949 ], [ -66.858655, -17.386852 ], [ -66.8578, -17.385808 ], [ -66.856583, -17.384962 ], [ -66.854584, -17.384424 ], [ -66.852278, -17.3846 ], [ -66.850541, -17.384782 ], [ -66.848198, -17.385533 ], [ -66.846257, -17.385398 ], [ -66.847973, -17.38434 ], [ -66.8497, -17.383471 ], [ -66.8502, -17.380242 ], [ -66.85049, -17.378026 ], [ -66.850317, -17.375932 ], [ -66.850348, -17.373269 ], [ -66.849239, -17.372116 ], [ -66.84846, -17.370966 ], [ -66.847877, -17.369945 ], [ -66.847163, -17.368923 ], [ -66.846782, -17.367587 ], [ -66.84642, -17.366885 ], [ -66.845887, -17.365104 ], [ -66.845707, -17.363581 ], [ -66.845863, -17.36149 ], [ -66.846486, -17.359428 ], [ -66.845954, -17.353692 ], [ -66.847099, -17.351802 ], [ -66.848374, -17.35004 ], [ -66.849119, -17.348463 ], [ -66.850701, -17.34867 ], [ -66.852087, -17.348685 ], [ -66.853671, -17.348765 ], [ -66.856379, -17.348667 ], [ -66.857847, -17.347352 ], [ -66.85853, -17.345393 ], [ -66.858999, -17.34313 ], [ -66.859242, -17.340962 ], [ -66.855639, -17.338514 ], [ -66.852286, -17.337273 ], [ -66.850039, -17.337503 ], [ -66.84874, -17.338123 ], [ -66.847143, -17.336711 ], [ -66.84631, -17.334546 ], [ -66.846127, -17.333276 ], [ -66.846207, -17.332072 ], [ -66.845306, -17.330033 ], [ -66.844144, -17.327801 ], [ -66.843968, -17.325897 ], [ -66.843656, -17.324372 ], [ -66.843938, -17.322853 ], [ -66.844047, -17.320981 ], [ -66.843119, -17.31942 ], [ -66.842617, -17.317259 ], [ -66.843758, -17.315622 ], [ -66.84502, -17.314938 ], [ -66.847202, -17.314645 ], [ -66.849588, -17.313783 ], [ -66.851386, -17.31247 ], [ -66.853704, -17.311798 ], [ -66.855252, -17.31176 ], [ -66.859008, -17.309889 ], [ -66.864582, -17.307348 ], [ -66.866722, -17.303501 ], [ -66.869595, -17.301948 ], [ -66.873356, -17.302052 ], [ -66.877423, -17.298544 ], [ -66.880643, -17.294076 ], [ -66.88265, -17.291751 ], [ -66.885955, -17.289649 ], [ -66.888237, -17.288005 ], [ -66.888576, -17.281414 ], [ -66.888566, -17.276531 ], [ -66.888078, -17.273038 ], [ -66.886529, -17.270092 ], [ -66.885909, -17.267435 ], [ -66.877724, -17.231938 ], [ -66.888688, -17.201012 ], [ -66.886086, -17.17783 ], [ -66.885227, -17.171334 ], [ -66.88462, -17.165383 ], [ -66.890399, -17.139596 ], [ -66.910845, -17.114312 ], [ -66.935145, -17.100006 ], [ -66.954971, -17.07014 ], [ -66.975911, -17.050479 ], [ -66.985862, -17.028212 ], [ -67.002839, -16.983845 ], [ -67.005947, -16.954038 ], [ -66.991966, -16.933018 ], [ -66.973304, -16.924829 ], [ -66.976823, -16.907424 ], [ -66.960746, -16.882521 ], [ -66.958836, -16.880181 ], [ -66.928978, -16.844466 ], [ -66.906661, -16.839429 ], [ -66.883234, -16.838916 ], [ -66.834755, -16.84168 ], [ -66.831641, -16.837231 ], [ -66.829465, -16.836686 ], [ -66.827494, -16.835446 ], [ -66.826645, -16.834415 ], [ -66.82474, -16.833239 ], [ -66.821703, -16.83287 ], [ -66.821124, -16.831272 ], [ -66.819532, -16.830229 ], [ -66.815851, -16.829722 ], [ -66.813064, -16.82763 ], [ -66.811186, -16.826046 ], [ -66.808667, -16.823384 ], [ -66.805459, -16.819748 ], [ -66.802692, -16.817694 ], [ -66.799733, -16.815497 ], [ -66.79863, -16.813323 ], [ -66.797053, -16.810991 ], [ -66.795185, -16.810644 ], [ -66.791011, -16.809085 ], [ -66.78952, -16.80701 ], [ -66.78792, -16.806489 ], [ -66.785151, -16.806743 ], [ -66.781875, -16.803524 ], [ -66.780951, -16.799825 ], [ -66.781953, -16.798187 ], [ -66.784308, -16.795342 ], [ -66.783834, -16.793573 ], [ -66.783193, -16.791626 ], [ -66.781959, -16.790328 ], [ -66.780374, -16.78851 ], [ -66.778695, -16.787124 ], [ -66.776744, -16.785996 ], [ -66.775701, -16.783661 ], [ -66.772937, -16.783393 ], [ -66.770957, -16.784596 ], [ -66.769157, -16.785799 ], [ -66.767382, -16.784843 ], [ -66.763825, -16.784559 ], [ -66.760566, -16.779721 ], [ -66.760869, -16.776872 ], [ -66.759462, -16.774966 ], [ -66.760118, -16.772463 ], [ -66.759876, -16.770303 ], [ -66.757925, -16.769085 ], [ -66.753282, -16.768893 ], [ -66.7509, -16.767777 ], [ -66.750482, -16.763956 ], [ -66.748093, -16.761958 ], [ -66.744896, -16.760301 ], [ -66.743151, -16.756837 ], [ -66.74194, -16.753462 ], [ -66.743805, -16.749831 ], [ -66.743007, -16.746556 ], [ -66.744558, -16.743972 ], [ -66.745749, -16.741559 ], [ -66.745604, -16.738793 ], [ -66.742667, -16.737742 ], [ -66.740716, -16.736436 ], [ -66.741182, -16.734883 ], [ -66.743991, -16.731701 ], [ -66.743943, -16.728332 ], [ -66.744554, -16.722668 ], [ -66.74468, -16.719091 ], [ -66.746946, -16.716511 ], [ -66.747776, -16.714356 ], [ -66.749551, -16.71401 ], [ -66.758585, -16.698352 ], [ -66.75506, -16.680162 ], [ -66.744089, -16.652857 ], [ -66.742288, -16.6279 ], [ -66.738539, -16.583166 ], [ -66.74201, -16.577673 ], [ -66.743023, -16.576591 ], [ -66.742295, -16.574714 ], [ -66.741643, -16.571748 ], [ -66.742976, -16.570064 ], [ -66.743319, -16.567528 ], [ -66.745707, -16.566454 ], [ -66.748554, -16.56357 ], [ -66.749284, -16.560009 ], [ -66.751911, -16.557625 ], [ -66.752898, -16.55574 ], [ -66.753672, -16.554413 ], [ -66.75413, -16.55206 ], [ -66.755654, -16.550015 ], [ -66.758449, -16.546223 ], [ -66.760039, -16.543876 ], [ -66.762986, -16.543107 ], [ -66.765058, -16.542272 ], [ -66.765381, -16.541367 ], [ -66.765029, -16.539484 ], [ -66.766466, -16.537112 ], [ -66.768538, -16.533348 ], [ -66.77069, -16.531003 ], [ -66.772834, -16.529383 ], [ -66.773242, -16.526545 ], [ -66.774274, -16.523892 ], [ -66.775935, -16.520758 ], [ -66.774493, -16.515977 ], [ -66.770966, -16.513566 ], [ -66.768192, -16.509961 ], [ -66.769188, -16.505072 ], [ -66.76946, -16.5032 ], [ -66.77136, -16.501035 ], [ -66.775032, -16.498608 ], [ -66.779012, -16.494883 ], [ -66.782987, -16.491521 ], [ -66.787108, -16.486469 ], [ -66.788904, -16.482614 ], [ -66.788388, -16.478744 ], [ -66.78831, -16.474817 ], [ -66.788111, -16.470526 ], [ -66.786469, -16.46677 ], [ -66.784088, -16.463476 ], [ -66.794098, -16.462675 ], [ -66.790096, -16.4561 ], [ -66.788207, -16.45204 ], [ -66.787932, -16.448896 ], [ -66.788095, -16.445635 ], [ -66.78783, -16.441646 ], [ -66.787573, -16.438076 ], [ -66.786876, -16.43545 ], [ -66.786116, -16.43372 ], [ -66.785384, -16.433172 ], [ -66.78498, -16.431674 ], [ -66.785068, -16.430247 ], [ -66.785717, -16.428824 ], [ -66.785363, -16.426137 ], [ -66.784087, -16.423987 ], [ -66.782694, -16.419968 ], [ -66.783075, -16.41749 ], [ -66.784651, -16.414985 ], [ -66.787097, -16.413302 ], [ -66.788834, -16.41209 ], [ -66.78938, -16.410497 ], [ -66.789437, -16.408696 ], [ -66.789395, -16.406283 ], [ -66.790726, -16.403777 ], [ -66.792011, -16.401343 ], [ -66.792175, -16.400254 ], [ -66.793037, -16.398731 ], [ -66.793727, -16.396867 ], [ -66.794554, -16.395378 ], [ -66.794258, -16.393642 ], [ -66.793634, -16.393102 ], [ -66.793194, -16.391604 ], [ -66.794059, -16.389877 ], [ -66.795064, -16.388185 ], [ -66.794813, -16.385601 ], [ -66.794806, -16.383188 ], [ -66.794831, -16.381115 ], [ -66.794991, -16.379451 ], [ -66.795422, -16.378707 ], [ -66.79599, -16.377968 ], [ -66.796222, -16.376504 ], [ -66.796242, -16.374839 ], [ -66.796043, -16.37375 ], [ -66.796551, -16.372462 ], [ -66.797048, -16.371198 ], [ -66.797326, -16.369438 ], [ -66.796266, -16.366853 ], [ -66.795398, -16.365895 ], [ -66.795026, -16.364634 ], [ -66.795283, -16.363685 ], [ -66.796212, -16.362469 ], [ -66.796482, -16.360466 ], [ -66.796453, -16.357989 ], [ -66.797765, -16.356092 ], [ -66.798569, -16.353515 ], [ -66.798352, -16.351067 ], [ -66.797824, -16.348072 ], [ -66.796336, -16.346021 ], [ -66.79488, -16.344175 ], [ -66.795183, -16.341356 ], [ -66.795664, -16.337735 ], [ -66.796638, -16.334661 ], [ -66.796912, -16.332609 ], [ -66.797069, -16.329892 ], [ -66.798213, -16.32833 ], [ -66.798604, -16.327004 ], [ -66.797872, -16.325428 ], [ -66.797457, -16.323491 ], [ -66.797866, -16.320655 ], [ -66.798711, -16.317943 ], [ -66.799793, -16.31632 ], [ -66.801132, -16.314096 ], [ -66.802479, -16.312468 ], [ -66.802728, -16.31133 ], [ -66.802494, -16.309999 ], [ -66.801826, -16.308241 ], [ -66.802292, -16.305889 ], [ -66.80331, -16.303275 ], [ -66.802956, -16.301399 ], [ -66.802119, -16.299217 ], [ -66.802229, -16.297596 ], [ -66.80189, -16.296315 ], [ -66.801909, -16.294744 ], [ -66.802362, -16.293419 ], [ -66.803881, -16.291861 ], [ -66.806584, -16.290736 ], [ -66.807482, -16.28881 ], [ -66.806953, -16.285906 ], [ -66.808111, -16.283137 ], [ -66.811514, -16.280992 ], [ -66.813589, -16.280104 ], [ -66.814955, -16.280962 ], [ -66.816573, -16.281762 ], [ -66.818404, -16.280269 ], [ -66.817675, -16.278449 ], [ -66.816879, -16.276932 ], [ -66.817846, -16.274464 ], [ -66.818495, -16.272476 ], [ -66.820271, -16.270438 ], [ -66.822676, -16.268044 ], [ -66.824743, -16.267943 ], [ -66.826739, -16.268505 ], [ -66.828616, -16.268523 ], [ -66.829258, -16.26708 ], [ -66.829229, -16.264179 ], [ -66.830951, -16.261477 ], [ -66.834983, -16.25916 ], [ -66.837936, -16.258163 ], [ -66.840387, -16.257402 ], [ -66.841901, -16.256451 ], [ -66.843405, -16.256347 ], [ -66.846303, -16.254868 ], [ -66.84898, -16.250971 ], [ -66.850324, -16.24851 ], [ -66.852108, -16.245933 ], [ -66.853195, -16.244012 ], [ -66.852341, -16.242008 ], [ -66.852682, -16.239534 ], [ -66.853236, -16.236238 ], [ -66.852801, -16.234962 ], [ -66.852211, -16.234173 ], [ -66.851657, -16.233283 ], [ -66.850465, -16.232691 ], [ -66.849769, -16.231901 ], [ -66.848624, -16.230325 ], [ -66.847303, -16.22878 ], [ -66.84669, -16.22687 ], [ -66.847382, -16.224974 ], [ -66.848876, -16.223666 ], [ -66.849314, -16.222345 ], [ -66.848801, -16.22098 ], [ -66.848248, -16.220022 ], [ -66.847664, -16.218792 ], [ -66.847292, -16.21736 ], [ -66.847491, -16.215425 ], [ -66.847191, -16.213858 ], [ -66.848227, -16.212612 ], [ -66.848282, -16.210947 ], [ -66.847485, -16.209749 ], [ -66.84528, -16.208501 ], [ -66.845436, -16.207177 ], [ -66.845594, -16.205683 ], [ -66.845822, -16.20419 ], [ -66.845765, -16.203034 ], [ -66.845498, -16.201773 ], [ -66.845121, -16.200818 ], [ -66.844395, -16.199654 ], [ -66.843212, -16.19835 ], [ -66.843457, -16.196472 ], [ -66.844923, -16.194131 ], [ -66.847764, -16.192108 ], [ -66.849729, -16.190076 ], [ -66.85163, -16.184854 ], [ -66.851708, -16.181337 ], [ -66.852803, -16.178691 ], [ -66.854266, -16.176653 ], [ -66.855221, -16.175274 ], [ -66.85681, -16.173298 ], [ -66.858017, -16.171802 ], [ -66.858982, -16.169516 ], [ -66.860754, -16.167966 ], [ -66.861462, -16.166221 ], [ -66.862679, -16.163879 ], [ -66.864514, -16.162877 ], [ -66.865954, -16.162285 ], [ -66.867966, -16.161583 ], [ -66.870426, -16.160101 ], [ -66.870331, -16.15738 ], [ -66.870302, -16.153002 ], [ -66.869669, -16.151579 ], [ -66.869209, -16.150713 ], [ -66.869975, -16.149453 ], [ -66.871777, -16.147932 ], [ -66.873568, -16.147409 ], [ -66.87447, -16.146513 ], [ -66.875146, -16.144844 ], [ -66.875259, -16.143168 ], [ -66.874917, -16.140082 ], [ -66.876021, -16.137964 ], [ -66.877775, -16.136534 ], [ -66.880178, -16.135882 ], [ -66.882638, -16.134324 ], [ -66.884274, -16.132786 ], [ -66.885338, -16.131245 ], [ -66.884708, -16.130059 ], [ -66.883821, -16.12908 ], [ -66.883671, -16.128236 ], [ -66.883762, -16.127166 ], [ -66.884331, -16.125898 ], [ -66.884995, -16.125574 ], [ -66.887145, -16.125066 ], [ -66.888577, -16.123874 ], [ -66.889179, -16.122349 ], [ -66.889527, -16.121064 ], [ -66.893488, -16.118445 ], [ -66.894386, -16.112013 ], [ -66.897394, -16.111887 ], [ -66.898905, -16.111099 ], [ -66.899346, -16.109009 ], [ -66.900123, -16.1066 ], [ -66.902247, -16.10332 ], [ -66.904335, -16.103264 ], [ -66.906743, -16.104581 ], [ -66.908326, -16.104922 ], [ -66.911094, -16.103745 ], [ -66.911201, -16.10157 ], [ -66.911383, -16.100202 ], [ -66.912655, -16.098444 ], [ -66.914595, -16.096613 ], [ -66.920348, -16.097527 ], [ -66.91961, -16.096268 ], [ -66.919204, -16.095135 ], [ -66.9188, -16.093921 ], [ -66.919335, -16.090703 ], [ -66.918944, -16.0882 ], [ -66.9188, -16.086103 ], [ -66.919085, -16.082801 ], [ -66.918859, -16.080541 ], [ -66.918642, -16.077395 ], [ -66.918341, -16.074329 ], [ -66.917954, -16.071423 ], [ -66.916233, -16.06842 ], [ -66.913239, -16.067338 ], [ -66.911512, -16.067106 ], [ -66.911997, -16.066233 ], [ -66.9113, -16.065545 ], [ -66.910698, -16.064722 ], [ -66.910096, -16.063944 ], [ -66.910529, -16.062951 ], [ -66.911615, -16.06242 ], [ -66.912564, -16.061479 ], [ -66.912815, -16.05994 ], [ -66.912049, -16.056984 ], [ -66.911127, -16.055341 ], [ -66.910057, -16.054468 ], [ -66.909275, -16.052917 ], [ -66.909572, -16.05147 ], [ -66.910523, -16.050347 ], [ -66.910776, -16.048718 ], [ -66.910176, -16.047759 ], [ -66.908868, -16.047109 ], [ -66.908979, -16.045479 ], [ -66.909598, -16.044715 ], [ -66.91111, -16.043825 ], [ -66.912528, -16.04298 ], [ -66.912819, -16.042031 ], [ -66.912414, -16.04044 ], [ -66.912326, -16.038897 ], [ -66.912302, -16.037763 ], [ -66.912405, -16.036148 ], [ -66.911206, -16.034849 ], [ -66.911221, -16.033489 ], [ -66.911563, -16.032178 ], [ -66.911952, -16.030958 ], [ -66.912571, -16.030195 ], [ -66.912535, -16.029106 ], [ -66.912617, -16.025888 ], [ -66.913383, -16.024446 ], [ -66.914756, -16.023418 ], [ -66.915379, -16.022201 ], [ -66.915512, -16.019467 ], [ -66.914698, -16.017604 ], [ -66.913215, -16.015814 ], [ -66.913729, -16.01453 ], [ -66.915753, -16.012538 ], [ -66.916779, -16.010293 ], [ -66.915964, -16.00843 ], [ -66.916322, -16.006177 ], [ -66.917344, -16.004254 ], [ -66.920366, -16.002514 ], [ -66.92148, -15.999786 ], [ -66.920299, -15.997447 ], [ -66.919356, -15.996941 ], [ -66.917858, -15.996562 ], [ -66.916552, -15.995776 ], [ -66.91562, -15.995176 ], [ -66.914828, -15.994669 ], [ -66.914221, -15.994299 ], [ -66.912958, -15.993968 ], [ -66.911693, -15.993727 ], [ -66.910248, -15.992759 ], [ -66.909599, -15.992027 ], [ -66.90969, -15.990998 ], [ -66.911254, -15.989601 ], [ -66.911795, -15.988446 ], [ -66.911424, -15.987235 ], [ -66.911827, -15.985429 ], [ -66.912671, -15.982931 ], [ -66.913511, -15.980804 ], [ -66.913463, -15.979227 ], [ -66.910169, -15.974174 ], [ -66.909364, -15.973098 ], [ -66.90779, -15.971966 ], [ -66.906175, -15.970231 ], [ -66.905043, -15.968222 ], [ -66.905017, -15.966225 ], [ -66.90513, -15.964648 ], [ -66.904516, -15.963667 ], [ -66.902988, -15.962722 ], [ -66.902084, -15.961923 ], [ -66.90103, -15.961679 ], [ -66.900265, -15.96094 ], [ -66.899409, -15.960501 ], [ -66.899042, -15.958919 ], [ -66.898581, -15.957103 ], [ -66.897541, -15.955513 ], [ -66.895966, -15.954568 ], [ -66.894588, -15.953161 ], [ -66.893154, -15.952496 ], [ -66.890756, -15.952145 ], [ -66.889207, -15.951141 ], [ -66.888571, -15.950169 ], [ -66.887954, -15.949904 ], [ -66.887309, -15.948854 ], [ -66.886773, -15.947905 ], [ -66.886102, -15.94661 ], [ -66.885184, -15.944964 ], [ -66.884276, -15.943156 ], [ -66.883632, -15.941971 ], [ -66.882915, -15.941089 ], [ -66.881856, -15.941409 ], [ -66.880531, -15.942483 ], [ -66.879443, -15.943378 ], [ -66.878313, -15.943363 ], [ -66.877213, -15.942689 ], [ -66.87647, -15.941428 ], [ -66.875443, -15.939851 ], [ -66.874591, -15.938763 ], [ -66.873626, -15.938057 ], [ -66.871433, -15.937756 ], [ -66.868353, -15.937016 ], [ -66.867563, -15.936458 ], [ -66.866961, -15.934409 ], [ -66.868929, -15.932989 ], [ -66.871986, -15.930819 ], [ -66.87661, -15.927639 ], [ -66.878264, -15.925492 ], [ -66.878138, -15.923145 ], [ -66.876146, -15.921511 ], [ -66.874334, -15.920687 ], [ -66.873751, -15.918974 ], [ -66.876218, -15.916638 ], [ -66.879648, -15.913001 ], [ -66.880343, -15.909925 ], [ -66.883104, -15.907003 ], [ -66.885299, -15.904665 ], [ -66.887098, -15.901404 ], [ -66.888761, -15.898143 ], [ -66.888248, -15.895384 ], [ -66.886511, -15.893005 ], [ -66.883949, -15.891668 ], [ -66.881537, -15.889022 ], [ -66.880759, -15.885736 ], [ -66.88121, -15.883161 ], [ -66.882064, -15.880767 ], [ -66.882842, -15.87872 ], [ -66.885432, -15.875578 ], [ -66.887547, -15.873057 ], [ -66.888642, -15.871745 ], [ -66.8915, -15.870499 ], [ -66.894068, -15.871312 ], [ -66.898228, -15.875419 ], [ -66.901219, -15.874663 ], [ -66.903009, -15.872189 ], [ -66.90263, -15.869562 ], [ -66.903206, -15.86642 ], [ -66.903248, -15.862486 ], [ -66.9007, -15.858461 ], [ -66.899993, -15.85727 ], [ -66.89993, -15.856399 ], [ -66.900343, -15.855112 ], [ -66.901097, -15.853703 ], [ -66.901477, -15.852316 ], [ -66.901449, -15.851121 ], [ -66.901365, -15.849712 ], [ -66.902406, -15.848438 ], [ -66.902492, -15.848149 ], [ -66.90232, -15.84735 ], [ -66.902444, -15.847097 ], [ -66.902919, -15.84622 ], [ -66.903075, -15.844996 ], [ -66.903282, -15.844402 ], [ -66.903329, -15.843874 ], [ -66.903293, -15.843364 ], [ -66.903278, -15.842953 ], [ -66.90351, -15.841997 ], [ -66.903298, -15.84027 ], [ -66.90239, -15.839204 ], [ -66.901879, -15.838587 ], [ -66.901551, -15.836915 ], [ -66.900994, -15.835241 ], [ -66.900141, -15.834342 ], [ -66.899172, -15.833554 ], [ -66.899181, -15.832218 ], [ -66.899106, -15.831649 ], [ -66.899093, -15.830944 ], [ -66.898798, -15.830279 ], [ -66.898953, -15.829594 ], [ -66.898911, -15.828983 ], [ -66.898652, -15.828431 ], [ -66.896764, -15.827523 ], [ -66.896316, -15.826406 ], [ -66.896844, -15.825466 ], [ -66.896913, -15.824354 ], [ -66.896004, -15.823344 ], [ -66.895155, -15.822112 ], [ -66.893894, -15.821766 ], [ -66.892078, -15.820038 ], [ -66.891458, -15.818405 ], [ -66.890556, -15.816783 ], [ -66.889616, -15.816123 ], [ -66.888994, -15.815686 ], [ -66.888372, -15.815132 ], [ -66.888114, -15.81466 ], [ -66.887676, -15.814048 ], [ -66.88752, -15.813459 ], [ -66.887223, -15.812889 ], [ -66.886704, -15.812159 ], [ -66.886181, -15.811919 ], [ -66.885639, -15.811503 ], [ -66.883893, -15.810115 ], [ -66.882712, -15.808949 ], [ -66.882513, -15.809489 ], [ -66.882395, -15.81016 ], [ -66.881603, -15.810247 ], [ -66.880979, -15.809462 ], [ -66.881622, -15.808467 ], [ -66.881463, -15.807242 ], [ -66.879193, -15.804607 ], [ -66.877103, -15.801906 ], [ -66.876467, -15.800843 ], [ -66.874388, -15.798572 ], [ -66.87323, -15.797113 ], [ -66.872366, -15.796635 ], [ -66.871882, -15.796454 ], [ -66.870733, -15.79615 ], [ -66.868365, -15.794446 ], [ -66.866758, -15.793453 ], [ -66.866075, -15.792996 ], [ -66.865671, -15.792934 ], [ -66.863999, -15.792375 ], [ -66.859099, -15.792996 ], [ -66.857734, -15.792103 ], [ -66.856978, -15.791001 ], [ -66.856274, -15.790623 ], [ -66.855647, -15.790676 ], [ -66.854478, -15.790334 ], [ -66.851069, -15.787938 ], [ -66.849998, -15.78791 ], [ -66.84951, -15.788102 ], [ -66.849005, -15.788137 ], [ -66.848511, -15.788877 ], [ -66.848129, -15.788785 ], [ -66.847414, -15.788455 ], [ -66.846929, -15.789008 ], [ -66.84633, -15.790203 ], [ -66.844501, -15.791959 ], [ -66.84291, -15.792922 ], [ -66.840835, -15.794298 ], [ -66.839774, -15.794231 ], [ -66.807244, -15.778696 ], [ -66.800029, -15.77819 ], [ -66.787098, -15.808162 ], [ -66.77293, -15.838212 ], [ -66.713369, -15.891057 ], [ -66.615125, -15.955427 ], [ -66.484567, -16.086256 ], [ -66.50015, -16.135569 ], [ -66.488051, -16.227707 ], [ -66.446498, -16.259168 ], [ -66.401303, -16.258681 ], [ -66.379172, -16.284656 ], [ -66.367435, -16.32174 ], [ -66.337176, -16.334285 ], [ -66.308457, -16.357095 ], [ -66.289454, -16.360771 ], [ -66.113714, -16.534419 ], [ -66.140491, -16.559061 ], [ -66.142966, -16.560384 ], [ -66.144939, -16.562118 ], [ -66.146414, -16.564256 ], [ -66.147142, -16.566005 ], [ -66.148399, -16.567413 ], [ -66.149374, -16.568184 ], [ -66.15068, -16.568803 ], [ -66.151308, -16.569635 ], [ -66.152169, -16.570281 ], [ -66.15405, -16.571713 ], [ -66.15637, -16.574095 ], [ -66.157291, -16.575886 ], [ -66.159155, -16.577859 ], [ -66.160137, -16.58325 ], [ -66.161249, -16.58437 ], [ -66.162844, -16.585206 ], [ -66.163219, -16.585638 ], [ -66.163684, -16.586807 ], [ -66.164516, -16.587574 ], [ -66.165729, -16.588463 ], [ -66.165881, -16.589008 ], [ -66.165737, -16.590614 ], [ -66.165938, -16.591792 ], [ -66.16713, -16.593349 ], [ -66.168225, -16.594435 ], [ -66.169153, -16.595051 ], [ -66.170577, -16.595037 ], [ -66.172655, -16.597009 ], [ -66.174972, -16.597542 ], [ -66.177478, -16.597783 ], [ -66.180043, -16.598172 ], [ -66.182814, -16.599095 ], [ -66.184389, -16.600239 ], [ -66.186305, -16.601033 ], [ -66.187304, -16.601784 ], [ -66.188703, -16.604461 ], [ -66.188608, -16.605547 ], [ -66.188541, -16.607807 ], [ -66.189049, -16.609003 ], [ -66.188982, -16.610015 ], [ -66.188753, -16.611302 ], [ -66.188255, -16.612512 ], [ -66.188251, -16.615354 ], [ -66.189356, -16.617301 ], [ -66.190964, -16.618416 ], [ -66.190513, -16.620364 ], [ -66.189846, -16.626966 ], [ -66.186632, -16.629126 ], [ -66.184362, -16.633739 ], [ -66.182308, -16.634735 ], [ -66.180304, -16.637934 ], [ -66.179866, -16.639676 ], [ -66.180287, -16.641356 ], [ -66.18032, -16.642552 ], [ -66.179444, -16.644789 ], [ -66.178007, -16.647728 ], [ -66.17828, -16.64955 ], [ -66.179507, -16.6506 ], [ -66.179869, -16.652175 ], [ -66.179533, -16.65465 ], [ -66.179761, -16.656637 ], [ -66.180375, -16.658629 ], [ -66.179206, -16.660545 ], [ -66.176854, -16.66219 ], [ -66.174789, -16.66321 ], [ -66.173106, -16.663666 ], [ -66.172119, -16.66533 ], [ -66.172151, -16.666438 ], [ -66.172377, -16.666831 ], [ -66.173693, -16.668107 ], [ -66.174989, -16.668663 ], [ -66.177129, -16.670251 ], [ -66.177942, -16.670862 ], [ -66.178059, -16.671998 ], [ -66.177334, -16.672952 ], [ -66.177281, -16.673551 ], [ -66.177627, -16.674156 ], [ -66.179342, -16.675335 ], [ -66.179937, -16.676586 ], [ -66.180098, -16.677669 ], [ -66.18088, -16.678283 ], [ -66.181367, -16.678835 ], [ -66.181589, -16.679641 ], [ -66.18148, -16.680946 ], [ -66.180912, -16.682137 ], [ -66.180164, -16.68309 ], [ -66.179486, -16.683474 ], [ -66.178734, -16.684703 ], [ -66.178177, -16.687072 ], [ -66.177285, -16.687909 ], [ -66.176695, -16.689668 ], [ -66.176633, -16.691501 ], [ -66.175141, -16.694776 ], [ -66.174963, -16.69688 ], [ -66.175299, -16.698827 ], [ -66.17533, -16.699634 ], [ -66.174906, -16.700785 ], [ -66.17449, -16.701379 ], [ -66.173391, -16.702235 ], [ -66.172782, -16.705221 ], [ -66.17152, -16.706619 ], [ -66.17031, -16.708263 ], [ -66.17029, -16.709624 ], [ -66.17181, -16.711849 ], [ -66.172876, -16.713525 ], [ -66.17273, -16.714644 ], [ -66.172006, -16.715599 ], [ -66.17211, -16.717282 ], [ -66.173116, -16.719133 ], [ -66.174085, -16.721326 ], [ -66.174189, -16.723009 ], [ -66.173984, -16.723146 ], [ -66.173825, -16.723822 ], [ -66.173814, -16.724137 ], [ -66.174017, -16.724639 ], [ -66.175038, -16.725722 ], [ -66.175495, -16.726806 ], [ -66.175575, -16.728337 ], [ -66.175122, -16.729457 ], [ -66.174411, -16.730607 ], [ -66.174158, -16.732031 ], [ -66.174303, -16.733171 ], [ -66.174383, -16.73402 ], [ -66.173809, -16.735328 ], [ -66.172736, -16.735916 ], [ -66.171089, -16.736205 ], [ -66.170253, -16.736439 ], [ -66.169861, -16.73743 ], [ -66.169369, -16.740999 ], [ -66.169585, -16.744503 ], [ -66.168896, -16.746545 ], [ -66.169057, -16.74767 ], [ -66.170416, -16.749936 ], [ -66.170554, -16.750939 ], [ -66.170677, -16.752203 ], [ -66.171272, -16.753393 ], [ -66.171023, -16.755415 ], [ -66.169126, -16.759356 ], [ -66.167226, -16.763228 ], [ -66.170885, -16.763511 ], [ -66.173197, -16.763676 ], [ -66.174619, -16.764412 ], [ -66.175012, -16.765773 ], [ -66.174689, -16.767123 ], [ -66.175067, -16.76766 ], [ -66.176963, -16.768004 ], [ -66.178137, -16.768711 ], [ -66.179493, -16.770191 ], [ -66.18082, -16.77175 ], [ -66.181902, -16.77256 ], [ -66.183742, -16.773707 ], [ -66.184723, -16.773914 ], [ -66.186969, -16.774894 ], [ -66.188227, -16.774545 ], [ -66.190966, -16.77387 ], [ -66.192674, -16.773311 ], [ -66.193426, -16.772736 ], [ -66.193874, -16.772211 ], [ -66.194489, -16.772054 ], [ -66.195368, -16.772219 ], [ -66.197027, -16.772631 ], [ -66.199924, -16.773157 ], [ -66.203219, -16.773594 ], [ -66.204159, -16.773558 ], [ -66.20575, -16.772404 ], [ -66.207307, -16.771862 ], [ -66.208998, -16.770857 ], [ -66.210811, -16.770123 ], [ -66.211462, -16.770076 ], [ -66.212638, -16.770242 ], [ -66.214088, -16.77069 ], [ -66.214266, -16.770716 ], [ -66.214782, -16.770662 ], [ -66.215614, -16.770518 ], [ -66.215803, -16.770446 ], [ -66.216178, -16.770109 ], [ -66.216957, -16.769935 ], [ -66.217794, -16.770001 ], [ -66.220782, -16.770616 ], [ -66.223261, -16.770612 ], [ -66.224521, -16.771185 ], [ -66.22658, -16.771595 ], [ -66.227505, -16.771519 ], [ -66.228473, -16.77171 ], [ -66.229264, -16.772001 ], [ -66.230119, -16.772241 ], [ -66.231315, -16.772317 ], [ -66.233167, -16.772764 ], [ -66.23342, -16.772786 ], [ -66.233707, -16.772594 ], [ -66.234231, -16.772051 ], [ -66.234896, -16.771056 ], [ -66.236162, -16.769489 ], [ -66.237359, -16.768756 ], [ -66.238517, -16.768155 ], [ -66.240182, -16.767843 ], [ -66.240639, -16.767797 ], [ -66.241889, -16.767145 ], [ -66.242916, -16.766789 ], [ -66.244308, -16.766275 ], [ -66.244564, -16.766031 ], [ -66.244789, -16.765756 ], [ -66.245257, -16.765246 ], [ -66.246061, -16.764817 ], [ -66.246809, -16.764265 ], [ -66.247528, -16.763725 ], [ -66.248099, -16.763471 ], [ -66.249045, -16.7632 ], [ -66.250522, -16.762888 ], [ -66.2517, -16.762904 ], [ -66.253529, -16.762468 ], [ -66.254388, -16.762146 ], [ -66.254701, -16.76162 ], [ -66.255542, -16.76118 ], [ -66.256219, -16.760836 ], [ -66.256913, -16.760688 ], [ -66.257768, -16.760699 ], [ -66.258978, -16.760107 ], [ -66.260276, -16.760419 ], [ -66.261416, -16.760473 ], [ -66.262959, -16.760157 ], [ -66.264248, -16.760202 ], [ -66.266672, -16.760856 ], [ -66.267842, -16.761013 ], [ -66.270217, -16.760988 ], [ -66.271033, -16.761366 ], [ -66.272653, -16.762886 ], [ -66.273793, -16.764025 ], [ -66.275588, -16.76489 ], [ -66.276039, -16.765377 ], [ -66.276587, -16.766246 ], [ -66.277701, -16.766841 ], [ -66.278224, -16.76809 ], [ -66.278296, -16.768873 ], [ -66.278658, -16.769659 ], [ -66.279213, -16.770087 ], [ -66.28124, -16.770795 ], [ -66.28259, -16.771155 ], [ -66.284969, -16.771186 ], [ -66.285551, -16.771774 ], [ -66.285777, -16.772543 ], [ -66.286768, -16.774049 ], [ -66.287582, -16.774522 ], [ -66.288813, -16.774571 ], [ -66.289405, -16.775074 ], [ -66.289873, -16.775789 ], [ -66.290807, -16.776329 ], [ -66.29188, -16.776623 ], [ -66.293077, -16.776672 ], [ -66.293817, -16.776319 ], [ -66.294824, -16.775986 ], [ -66.29556, -16.776162 ], [ -66.297101, -16.776989 ], [ -66.297614, -16.777281 ], [ -66.29919, -16.777302 ], [ -66.300293, -16.777696 ], [ -66.302049, -16.77893 ], [ -66.30242, -16.77944 ], [ -66.302762, -16.780477 ], [ -66.303385, -16.781142 ], [ -66.305764, -16.782996 ], [ -66.306872, -16.788268 ], [ -66.308558, -16.791558 ], [ -66.308368, -16.794314 ], [ -66.309379, -16.79745 ], [ -66.309421, -16.799774 ], [ -66.310848, -16.802743 ], [ -66.311741, -16.805569 ], [ -66.312473, -16.808275 ], [ -66.31285, -16.810273 ], [ -66.311528, -16.812015 ], [ -66.310948, -16.81331 ], [ -66.31173, -16.81542 ], [ -66.311345, -16.816398 ], [ -66.311244, -16.817022 ], [ -66.311529, -16.818143 ], [ -66.311937, -16.818818 ], [ -66.311974, -16.819489 ], [ -66.311512, -16.820201 ], [ -66.311312, -16.820831 ], [ -66.311246, -16.822089 ], [ -66.311167, -16.823491 ], [ -66.310953, -16.824963 ], [ -66.311008, -16.826571 ], [ -66.311645, -16.828347 ], [ -66.311377, -16.830324 ], [ -66.311652, -16.831772 ], [ -66.311547, -16.832662 ], [ -66.310947, -16.833243 ], [ -66.30953, -16.833956 ], [ -66.30898, -16.834894 ], [ -66.308675, -16.835887 ], [ -66.308429, -16.837424 ], [ -66.307808, -16.838402 ], [ -66.306195, -16.839337 ], [ -66.305131, -16.840001 ], [ -66.304265, -16.840174 ], [ -66.303979, -16.840567 ], [ -66.303833, -16.841309 ], [ -66.303639, -16.841925 ], [ -66.302726, -16.842476 ], [ -66.302416, -16.843072 ], [ -66.302515, -16.844072 ], [ -66.302746, -16.845074 ], [ -66.302225, -16.845921 ], [ -66.3014, -16.846981 ], [ -66.300523, -16.847678 ], [ -66.299238, -16.847934 ], [ -66.298004, -16.848553 ], [ -66.296098, -16.849741 ], [ -66.29566, -16.850739 ], [ -66.296035, -16.851874 ], [ -66.296348, -16.852788 ], [ -66.296287, -16.854765 ], [ -66.296207, -16.8558 ], [ -66.295708, -16.856546 ], [ -66.294363, -16.85725 ], [ -66.292919, -16.857985 ], [ -66.291973, -16.858098 ], [ -66.290978, -16.857049 ], [ -66.290137, -16.85663 ], [ -66.289215, -16.857339 ], [ -66.273222, -16.879336 ], [ -66.270101, -16.881581 ], [ -66.265938, -16.883469 ], [ -66.264136, -16.884903 ], [ -66.262685, -16.88524 ], [ -66.25986, -16.885267 ], [ -66.258312, -16.885343 ], [ -66.257476, -16.885073 ], [ -66.257062, -16.884412 ], [ -66.256399, -16.885548 ], [ -66.25444, -16.886298 ], [ -66.2523, -16.888016 ], [ -66.250512, -16.888542 ], [ -66.249999, -16.889215 ], [ -66.246645, -16.891208 ], [ -66.24382, -16.893823 ], [ -66.242508, -16.893999 ], [ -66.240385, -16.894488 ], [ -66.238127, -16.895073 ], [ -66.236435, -16.895956 ], [ -66.234722, -16.898642 ], [ -66.233257, -16.900378 ], [ -66.232278, -16.902663 ], [ -66.232329, -16.903834 ], [ -66.231866, -16.904695 ], [ -66.229954, -16.905658 ], [ -66.228696, -16.90654 ], [ -66.228097, -16.907618 ], [ -66.228118, -16.908817 ], [ -66.226971, -16.910188 ], [ -66.225811, -16.912382 ], [ -66.22492, -16.912936 ], [ -66.224293, -16.913712 ], [ -66.223508, -16.914394 ], [ -66.222916, -16.91475 ], [ -66.22226, -16.91496 ], [ -66.221744, -16.915263 ], [ -66.220417, -16.917385 ], [ -66.217789, -16.919571 ], [ -66.219517, -16.921284 ], [ -66.219649, -16.923749 ], [ -66.218931, -16.924485 ], [ -66.218681, -16.925455 ], [ -66.218768, -16.92873 ], [ -66.219427, -16.92968 ], [ -66.219616, -16.930558 ], [ -66.219232, -16.931468 ], [ -66.219152, -16.931988 ], [ -66.21914, -16.932533 ], [ -66.219244, -16.932673 ], [ -66.219315, -16.932726 ], [ -66.219498, -16.932872 ], [ -66.219863, -16.933008 ], [ -66.219985, -16.933119 ], [ -66.220126, -16.933477 ], [ -66.220494, -16.933667 ], [ -66.221247, -16.93372 ], [ -66.221515, -16.933865 ], [ -66.221954, -16.934618 ], [ -66.222377, -16.935697 ], [ -66.222741, -16.936211 ], [ -66.223154, -16.936401 ], [ -66.223535, -16.936536 ], [ -66.224271, -16.937663 ], [ -66.225249, -16.939259 ], [ -66.225656, -16.939695 ], [ -66.226191, -16.940363 ], [ -66.226475, -16.940858 ], [ -66.226872, -16.941987 ], [ -66.227357, -16.942265 ], [ -66.228066, -16.942673 ], [ -66.228889, -16.94301 ], [ -66.229456, -16.942855 ], [ -66.231319, -16.94404 ], [ -66.232183, -16.94416 ], [ -66.232891, -16.944641 ], [ -66.233528, -16.944813 ], [ -66.233883, -16.944962 ], [ -66.234163, -16.945287 ], [ -66.234964, -16.945646 ], [ -66.235817, -16.94584 ], [ -66.236965, -16.946157 ], [ -66.238524, -16.946485 ], [ -66.240304, -16.947303 ], [ -66.241212, -16.947466 ], [ -66.243249, -16.948206 ], [ -66.244986, -16.948159 ], [ -66.246332, -16.94858 ], [ -66.247601, -16.949189 ], [ -66.249584, -16.949713 ], [ -66.250119, -16.950122 ], [ -66.250497, -16.951145 ], [ -66.251102, -16.951816 ], [ -66.252425, -16.953823 ], [ -66.253714, -16.954787 ], [ -66.254954, -16.955727 ], [ -66.256347, -16.955773 ], [ -66.257324, -16.955786 ], [ -66.258363, -16.957314 ], [ -66.259655, -16.959049 ], [ -66.260646, -16.960985 ], [ -66.261425, -16.962959 ], [ -66.262208, -16.964606 ], [ -66.263378, -16.965931 ], [ -66.263113, -16.966664 ], [ -66.262126, -16.967305 ], [ -66.261787, -16.968888 ], [ -66.262009, -16.969381 ], [ -66.263392, -16.970135 ], [ -66.264282, -16.970595 ], [ -66.267948, -16.973042 ], [ -66.268343, -16.973507 ], [ -66.269018, -16.974483 ], [ -66.269471, -16.974903 ], [ -66.269632, -16.975652 ], [ -66.270458, -16.976049 ], [ -66.272291, -16.97624 ], [ -66.27409, -16.976789 ], [ -66.275006, -16.976966 ], [ -66.276143, -16.977645 ], [ -66.27747, -16.978817 ], [ -66.27814, -16.979227 ], [ -66.279102, -16.980204 ], [ -66.280449, -16.981487 ], [ -66.280794, -16.981943 ], [ -66.282355, -16.982764 ], [ -66.29458, -16.985636 ], [ -66.31086, -16.971402 ], [ -66.350068, -16.995523 ], [ -66.312678, -17.011037 ], [ -66.300057, -17.026466 ], [ -66.301906, -17.041573 ], [ -66.318316, -17.052772 ], [ -66.323525, -17.068718 ], [ -66.325157, -17.072095 ], [ -66.326146, -17.071658 ], [ -66.328339, -17.072092 ], [ -66.33078, -17.071584 ], [ -66.333337, -17.071725 ], [ -66.334493, -17.072314 ], [ -66.336444, -17.07419 ], [ -66.337732, -17.075015 ], [ -66.340024, -17.073216 ], [ -66.340776, -17.076129 ], [ -66.341632, -17.076865 ], [ -66.343218, -17.075817 ], [ -66.344101, -17.074629 ], [ -66.344678, -17.074063 ], [ -66.345321, -17.072387 ], [ -66.345731, -17.069967 ], [ -66.346168, -17.068362 ], [ -66.346512, -17.067932 ], [ -66.34802, -17.067662 ], [ -66.349477, -17.066186 ], [ -66.350405, -17.064216 ], [ -66.350599, -17.062619 ], [ -66.350495, -17.061183 ], [ -66.350641, -17.059632 ], [ -66.350712, -17.055121 ], [ -66.352053, -17.056425 ], [ -66.352981, -17.056616 ], [ -66.353851, -17.056627 ], [ -66.354783, -17.05658 ], [ -66.355606, -17.056346 ], [ -66.355938, -17.055163 ], [ -66.356728, -17.054032 ], [ -66.357508, -17.053576 ], [ -66.358618, -17.052951 ], [ -66.358738, -17.052717 ], [ -66.358938, -17.050877 ], [ -66.359153, -17.050588 ], [ -66.360324, -17.0503 ], [ -66.361319, -17.050009 ], [ -66.361921, -17.049523 ], [ -66.362718, -17.049081 ], [ -66.363107, -17.048662 ], [ -66.363459, -17.047847 ], [ -66.363981, -17.047142 ], [ -66.36474, -17.04666 ], [ -66.365309, -17.046599 ], [ -66.365837, -17.046428 ], [ -66.366734, -17.046262 ], [ -66.36743, -17.046257 ], [ -66.367988, -17.045991 ], [ -66.369396, -17.045886 ], [ -66.370913, -17.04593 ], [ -66.37271, -17.045908 ], [ -66.375025, -17.046074 ], [ -66.377673, -17.046131 ], [ -66.379588, -17.046156 ], [ -66.380106, -17.046299 ], [ -66.380431, -17.046759 ], [ -66.380119, -17.047096 ], [ -66.379994, -17.04755 ], [ -66.380698, -17.049653 ], [ -66.380951, -17.050134 ], [ -66.382165, -17.053018 ], [ -66.382834, -17.053748 ], [ -66.385079, -17.054787 ], [ -66.385605, -17.055264 ], [ -66.386452, -17.056248 ], [ -66.386781, -17.056773 ], [ -66.3875, -17.057422 ], [ -66.387985, -17.057591 ], [ -66.389096, -17.057428 ], [ -66.389469, -17.057614 ], [ -66.389679, -17.057952 ], [ -66.390115, -17.05841 ], [ -66.390701, -17.058766 ], [ -66.391437, -17.058904 ], [ -66.393045, -17.058964 ], [ -66.394173, -17.05894 ], [ -66.39464, -17.0591 ], [ -66.395275, -17.059715 ], [ -66.39576, -17.060561 ], [ -66.395928, -17.061339 ], [ -66.396443, -17.06205 ], [ -66.397049, -17.062849 ], [ -66.39767, -17.063052 ], [ -66.398302, -17.063129 ], [ -66.400192, -17.063615 ], [ -66.401323, -17.0644 ], [ -66.401904, -17.065331 ], [ -66.402765, -17.066272 ], [ -66.404187, -17.067807 ], [ -66.404973, -17.068347 ], [ -66.40606, -17.068647 ], [ -66.406918, -17.068754 ], [ -66.407973, -17.069141 ], [ -66.409672, -17.070369 ], [ -66.412194, -17.072053 ], [ -66.413645, -17.073695 ], [ -66.414197, -17.074883 ], [ -66.414517, -17.075156 ], [ -66.415691, -17.075815 ], [ -66.416301, -17.076154 ], [ -66.417596, -17.076533 ], [ -66.418429, -17.076956 ], [ -66.419083, -17.077369 ], [ -66.419359, -17.077738 ], [ -66.419464, -17.078252 ], [ -66.419781, -17.078621 ], [ -66.420046, -17.079171 ], [ -66.422951, -17.080483 ], [ -66.424495, -17.081515 ], [ -66.424521, -17.082491 ], [ -66.425092, -17.083473 ], [ -66.426393, -17.085215 ], [ -66.428836, -17.086109 ], [ -66.429051, -17.087462 ], [ -66.430038, -17.089387 ], [ -66.431504, -17.093268 ], [ -66.433857, -17.095434 ], [ -66.434877, -17.098362 ], [ -66.437724, -17.106534 ], [ -66.438097, -17.107242 ], [ -66.438256, -17.107389 ], [ -66.438551, -17.107763 ], [ -66.438836, -17.108817 ], [ -66.438921, -17.109414 ], [ -66.438924, -17.109563 ], [ -66.438992, -17.109953 ], [ -66.439044, -17.110148 ], [ -66.439045, -17.110217 ], [ -66.439082, -17.110274 ], [ -66.439088, -17.110527 ], [ -66.439134, -17.111021 ], [ -66.439161, -17.111159 ], [ -66.439177, -17.111906 ], [ -66.439146, -17.11216 ], [ -66.439147, -17.112758 ], [ -66.439098, -17.113265 ], [ -66.4391, -17.113369 ], [ -66.439088, -17.113369 ], [ -66.439089, -17.113427 ], [ -66.439022, -17.113635 ], [ -66.439034, -17.114198 ], [ -66.438953, -17.114361 ], [ -66.438884, -17.114454 ], [ -66.438719, -17.114595 ], [ -66.438684, -17.114641 ], [ -66.438567, -17.114735 ], [ -66.438473, -17.11484 ], [ -66.438416, -17.114968 ], [ -66.438395, -17.115072 ], [ -66.4384, -17.115313 ], [ -66.438308, -17.115522 ], [ -66.438309, -17.115557 ], [ -66.438251, -17.115615 ], [ -66.438228, -17.115661 ], [ -66.438192, -17.115674 ], [ -66.438075, -17.115791 ], [ -66.437865, -17.116024 ], [ -66.437778, -17.11644 ], [ -66.43778, -17.116555 ], [ -66.437891, -17.116714 ], [ -66.437915, -17.116714 ], [ -66.438024, -17.116781 ], [ -66.438169, -17.116836 ], [ -66.438279, -17.116972 ], [ -66.438282, -17.117099 ], [ -66.438248, -17.117168 ], [ -66.438166, -17.11725 ], [ -66.438142, -17.117251 ], [ -66.438084, -17.117344 ], [ -66.438051, -17.117494 ], [ -66.43815, -17.117665 ], [ -66.438321, -17.117823 ], [ -66.438359, -17.117891 ], [ -66.43842, -17.117948 ], [ -66.438471, -17.11812 ], [ -66.438475, -17.118304 ], [ -66.438552, -17.118567 ], [ -66.438685, -17.118611 ], [ -66.438792, -17.118609 ], [ -66.438817, -17.118632 ], [ -66.438865, -17.118631 ], [ -66.438865, -17.118654 ], [ -66.438889, -17.118653 ], [ -66.438987, -17.118755 ], [ -66.439035, -17.118778 ], [ -66.439038, -17.118904 ], [ -66.439016, -17.119031 ], [ -66.438993, -17.119054 ], [ -66.438999, -17.119353 ], [ -66.439063, -17.119525 ], [ -66.43916, -17.119615 ], [ -66.439223, -17.119729 ], [ -66.439224, -17.11981 ], [ -66.439263, -17.119947 ], [ -66.439267, -17.120108 ], [ -66.43929, -17.120108 ], [ -66.439389, -17.120233 ], [ -66.439437, -17.120267 ], [ -66.439461, -17.120266 ], [ -66.439461, -17.120278 ], [ -66.439704, -17.120423 ], [ -66.439803, -17.120583 ], [ -66.439841, -17.120709 ], [ -66.439848, -17.121008 ], [ -66.43986, -17.121019 ], [ -66.439863, -17.12118 ], [ -66.439876, -17.121214 ], [ -66.439886, -17.121686 ], [ -66.43969, -17.122057 ], [ -66.43968, -17.122138 ], [ -66.439657, -17.122184 ], [ -66.439658, -17.122219 ], [ -66.439829, -17.122412 ], [ -66.43989, -17.122457 ], [ -66.439964, -17.122547 ], [ -66.440188, -17.122981 ], [ -66.440471, -17.123356 ], [ -66.440509, -17.123424 ], [ -66.440549, -17.123473 ], [ -66.440619, -17.12356 ], [ -66.44068, -17.123605 ], [ -66.440705, -17.123663 ], [ -66.440791, -17.123776 ], [ -66.440935, -17.123874 ], [ -66.440986, -17.123934 ], [ -66.441011, -17.123991 ], [ -66.441, -17.124037 ], [ -66.440871, -17.124143 ], [ -66.440689, -17.124285 ], [ -66.440625, -17.1244 ], [ -66.44058, -17.124511 ], [ -66.44058, -17.124551 ], [ -66.440607, -17.124677 ], [ -66.440656, -17.124722 ], [ -66.440764, -17.124766 ], [ -66.440886, -17.124856 ], [ -66.440815, -17.124915 ], [ -66.440804, -17.12495 ], [ -66.440675, -17.125055 ], [ -66.440523, -17.12523 ], [ -66.440389, -17.125324 ], [ -66.440309, -17.125384 ], [ -66.440194, -17.125489 ], [ -66.440135, -17.125547 ], [ -66.440019, -17.125722 ], [ -66.439926, -17.125827 ], [ -66.439833, -17.125929 ], [ -66.439786, -17.126025 ], [ -66.439578, -17.12633 ], [ -66.439474, -17.126637 ], [ -66.439463, -17.12678 ], [ -66.439528, -17.127023 ], [ -66.439587, -17.127121 ], [ -66.439727, -17.12718 ], [ -66.439867, -17.127221 ], [ -66.440167, -17.127244 ], [ -66.440506, -17.127267 ], [ -66.441905, -17.127255 ], [ -66.44235, -17.127351 ], [ -66.442663, -17.127461 ], [ -66.443161, -17.127798 ], [ -66.443441, -17.128058 ], [ -66.4436, -17.12824 ], [ -66.443881, -17.128511 ], [ -66.444004, -17.128659 ], [ -66.444126, -17.128772 ], [ -66.444311, -17.129022 ], [ -66.444545, -17.129235 ], [ -66.444603, -17.129293 ], [ -66.445294, -17.129719 ], [ -66.445475, -17.129796 ], [ -66.445621, -17.129886 ], [ -66.445803, -17.130032 ], [ -66.445999, -17.130225 ], [ -66.446097, -17.130349 ], [ -66.446219, -17.130451 ], [ -66.446219, -17.130474 ], [ -66.446305, -17.130565 ], [ -66.446736, -17.13058 ], [ -66.446808, -17.130602 ], [ -66.446869, -17.13067 ], [ -66.446933, -17.130876 ], [ -66.447019, -17.13099 ], [ -66.44707, -17.131104 ], [ -66.447361, -17.131283 ], [ -66.44747, -17.131385 ], [ -66.447546, -17.131579 ], [ -66.44755, -17.131763 ], [ -66.447577, -17.13189 ], [ -66.447676, -17.13206 ], [ -66.447835, -17.132219 ], [ -66.448078, -17.132399 ], [ -66.448319, -17.13251 ], [ -66.448489, -17.132611 ], [ -66.448672, -17.132769 ], [ -66.448721, -17.13286 ], [ -66.449041, -17.13328 ], [ -66.449254, -17.133737 ], [ -66.449365, -17.133896 ], [ -66.449502, -17.134159 ], [ -66.449576, -17.134249 ], [ -66.449673, -17.134282 ], [ -66.449866, -17.134383 ], [ -66.449938, -17.134393 ], [ -66.450047, -17.134449 ], [ -66.450143, -17.13447 ], [ -66.450252, -17.134526 ], [ -66.450336, -17.134547 ], [ -66.450409, -17.134615 ], [ -66.450433, -17.134615 ], [ -66.450579, -17.134727 ], [ -66.450579, -17.13475 ], [ -66.450787, -17.134942 ], [ -66.451045, -17.13526 ], [ -66.451118, -17.135317 ], [ -66.451167, -17.135385 ], [ -66.451252, -17.135429 ], [ -66.451605, -17.135723 ], [ -66.451774, -17.135812 ], [ -66.451822, -17.135811 ], [ -66.451895, -17.135856 ], [ -66.451979, -17.135878 ], [ -66.4521, -17.135956 ], [ -66.452257, -17.136011 ], [ -66.452354, -17.136067 ], [ -66.452391, -17.136124 ], [ -66.452396, -17.136354 ], [ -66.452469, -17.136433 ], [ -66.452915, -17.136587 ], [ -66.453267, -17.136845 ], [ -66.45339, -17.136993 ], [ -66.453501, -17.137175 ], [ -66.453747, -17.137459 ], [ -66.454112, -17.137775 ], [ -66.454199, -17.137923 ], [ -66.454322, -17.138082 ], [ -66.454529, -17.138274 ], [ -66.454894, -17.138533 ], [ -66.455137, -17.138747 ], [ -66.455672, -17.139152 ], [ -66.45588, -17.139368 ], [ -66.456102, -17.139697 ], [ -66.456178, -17.139857 ], [ -66.456339, -17.140119 ], [ -66.456501, -17.14045 ], [ -66.45654, -17.140588 ], [ -66.456552, -17.140587 ], [ -66.456582, -17.140863 ], [ -66.45662, -17.140989 ], [ -66.456662, -17.141264 ], [ -66.456589, -17.141634 ], [ -66.456463, -17.14196 ], [ -66.456335, -17.142425 ], [ -66.456011, -17.143052 ], [ -66.455734, -17.143727 ], [ -66.45566, -17.143842 ], [ -66.455607, -17.144122 ], [ -66.455589, -17.144251 ], [ -66.455565, -17.144251 ], [ -66.455428, -17.144564 ], [ -66.455384, -17.144726 ], [ -66.455361, -17.144761 ], [ -66.455381, -17.145163 ], [ -66.455371, -17.145232 ], [ -66.455312, -17.145279 ], [ -66.455193, -17.145316 ], [ -66.455104, -17.145383 ], [ -66.45504, -17.145456 ], [ -66.455019, -17.145584 ], [ -66.455022, -17.14571 ], [ -66.45498, -17.145964 ], [ -66.454946, -17.146068 ], [ -66.454864, -17.14615 ], [ -66.454771, -17.146278 ], [ -66.454724, -17.146313 ], [ -66.454704, -17.146509 ], [ -66.454533, -17.14688 ], [ -66.454383, -17.147136 ], [ -66.454326, -17.147263 ], [ -66.454364, -17.147366 ], [ -66.454437, -17.147457 ], [ -66.454512, -17.147594 ], [ -66.454528, -17.147778 ], [ -66.454375, -17.147895 ], [ -66.454351, -17.147896 ], [ -66.454294, -17.148035 ], [ -66.454295, -17.148069 ], [ -66.454178, -17.148221 ], [ -66.454076, -17.148487 ], [ -66.454021, -17.148707 ], [ -66.453975, -17.148788 ], [ -66.453753, -17.14901 ], [ -66.453625, -17.149185 ], [ -66.453589, -17.149197 ], [ -66.45351, -17.149394 ], [ -66.453514, -17.14959 ], [ -66.453412, -17.149879 ], [ -66.453241, -17.15025 ], [ -66.453199, -17.15055 ], [ -66.453202, -17.150676 ], [ -66.453229, -17.150837 ], [ -66.453356, -17.151157 ], [ -66.453408, -17.151363 ], [ -66.453415, -17.15172 ], [ -66.453529, -17.151994 ], [ -66.453578, -17.152074 ], [ -66.453705, -17.152405 ], [ -66.45372, -17.152555 ], [ -66.453732, -17.152554 ], [ -66.453962, -17.153229 ], [ -66.454017, -17.153562 ], [ -66.454066, -17.154171 ], [ -66.454103, -17.154263 ], [ -66.454105, -17.154355 ], [ -66.454184, -17.154675 ], [ -66.454187, -17.154802 ], [ -66.454341, -17.155329 ], [ -66.454343, -17.155398 ], [ -66.454381, -17.155524 ], [ -66.454402, -17.155937 ], [ -66.454428, -17.156029 ], [ -66.454435, -17.156374 ], [ -66.454461, -17.156454 ], [ -66.454463, -17.156546 ], [ -66.454475, -17.156546 ], [ -66.454526, -17.156683 ], [ -66.454698, -17.156899 ], [ -66.454784, -17.157036 ], [ -66.454894, -17.15716 ], [ -66.454925, -17.157346 ], [ -66.454822, -17.157538 ], [ -66.454843, -17.157802 ], [ -66.454904, -17.157947 ], [ -66.455033, -17.158155 ], [ -66.455215, -17.158269 ], [ -66.4554, -17.158413 ], [ -66.455413, -17.158437 ], [ -66.45565, -17.158671 ], [ -66.455935, -17.158906 ], [ -66.45613, -17.159027 ], [ -66.456131, -17.159073 ], [ -66.456304, -17.159311 ], [ -66.45634, -17.159334 ], [ -66.456879, -17.159946 ], [ -66.457249, -17.160458 ], [ -66.457578, -17.160751 ], [ -66.458129, -17.16134 ], [ -66.45835, -17.161613 ], [ -66.458448, -17.161692 ], [ -66.458472, -17.161737 ], [ -66.458679, -17.161906 ], [ -66.458778, -17.162043 ], [ -66.458839, -17.162088 ], [ -66.458839, -17.162111 ], [ -66.459036, -17.162361 ], [ -66.459195, -17.162531 ], [ -66.459598, -17.162904 ], [ -66.459856, -17.163221 ], [ -66.459868, -17.163256 ], [ -66.460077, -17.163494 ], [ -66.46026, -17.163675 ], [ -66.46047, -17.16397 ], [ -66.460693, -17.164346 ], [ -66.46089, -17.164608 ], [ -66.461063, -17.164881 ], [ -66.461136, -17.164926 ], [ -66.461222, -17.165051 ], [ -66.461449, -17.165314 ], [ -66.461612, -17.165475 ], [ -66.461794, -17.165637 ], [ -66.461957, -17.165816 ], [ -66.462083, -17.16603 ], [ -66.462151, -17.166473 ], [ -66.462008, -17.16712 ], [ -66.461945, -17.167298 ], [ -66.461907, -17.167433 ], [ -66.461885, -17.167525 ], [ -66.461867, -17.167819 ], [ -66.46152, -17.169848 ], [ -66.461435, -17.170547 ], [ -66.461423, -17.170547 ], [ -66.458936, -17.181552 ], [ -66.445868, -17.191598 ], [ -66.435384, -17.19477 ], [ -66.43493, -17.194937 ], [ -66.427987, -17.212944 ], [ -66.416059, -17.21773 ], [ -66.400007, -17.213291 ], [ -66.397876, -17.222497 ], [ -66.397983, -17.235394 ], [ -66.393974, -17.247705 ], [ -66.417478, -17.250601 ], [ -66.418162, -17.250687 ], [ -66.433309, -17.261402 ], [ -66.45382, -17.265402 ], [ -66.453766, -17.27422 ], [ -66.466683, -17.291909 ], [ -66.484423, -17.296106 ], [ -66.493166, -17.317934 ], [ -66.498944, -17.324722 ], [ -66.493034, -17.337131 ], [ -66.490231, -17.341523 ], [ -66.502101, -17.365643 ], [ -66.517434, -17.400187 ], [ -66.50852, -17.410137 ], [ -66.501454, -17.404628 ], [ -66.490365, -17.41174 ], [ -66.491242, -17.425792 ], [ -66.49667, -17.444604 ], [ -66.49521, -17.454153 ], [ -66.488594, -17.457401 ], [ -66.479799, -17.457998 ], [ -66.47428, -17.461968 ], [ -66.437754, -17.482051 ], [ -66.42405, -17.488119 ], [ -66.412, -17.480889 ], [ -66.409079, -17.486989 ], [ -66.398098, -17.490575 ], [ -66.402074, -17.495678 ], [ -66.401852, -17.507035 ], [ -66.3894, -17.51648 ], [ -66.388622, -17.542832 ], [ -66.38079, -17.551184 ], [ -66.366176, -17.557256 ], [ -66.357844, -17.562819 ], [ -66.352232, -17.570602 ], [ -66.355728, -17.571491 ], [ -66.358727, -17.571807 ], [ -66.360899, -17.571684 ], [ -66.362942, -17.57216 ], [ -66.368122, -17.570429 ], [ -66.371585, -17.568464 ], [ -66.375482, -17.563747 ], [ -66.381185, -17.560485 ], [ -66.385877, -17.556541 ], [ -66.387975, -17.555749 ], [ -66.390584, -17.55346 ], [ -66.397078, -17.550037 ], [ -66.404438, -17.547341 ], [ -66.41585, -17.546125 ], [ -66.422757, -17.544314 ], [ -66.426253, -17.544958 ], [ -66.430505, -17.545442 ], [ -66.438483, -17.550361 ], [ -66.446596, -17.559047 ], [ -66.449928, -17.560745 ], [ -66.45513, -17.561581 ], [ -66.457362, -17.561318 ], [ -66.461397, -17.558708 ], [ -66.469368, -17.555434 ], [ -66.471568, -17.555398 ], [ -66.471892, -17.556309 ], [ -66.471846, -17.556559 ], [ -66.471236, -17.55986 ], [ -66.469773, -17.560665 ], [ -66.454733, -17.572142 ], [ -66.439561, -17.567328 ], [ -66.428005, -17.555647 ], [ -66.423007, -17.56202 ], [ -66.417894, -17.562578 ], [ -66.404768, -17.569584 ], [ -66.416892, -17.576469 ], [ -66.425007, -17.583494 ], [ -66.437908, -17.585103 ], [ -66.428615, -17.599341 ], [ -66.431848, -17.604572 ], [ -66.432036, -17.61255 ], [ -66.426379, -17.625774 ], [ -66.422899, -17.623657 ], [ -66.423691, -17.619802 ], [ -66.421471, -17.616918 ], [ -66.416989, -17.613179 ], [ -66.414175, -17.611942 ], [ -66.412469, -17.611928 ], [ -66.411428, -17.61286 ], [ -66.409792, -17.612108 ], [ -66.40478, -17.614186 ], [ -66.404111, -17.615072 ], [ -66.403901, -17.616846 ], [ -66.401574, -17.619585 ], [ -66.400431, -17.620251 ], [ -66.401439, -17.623375 ], [ -66.397179, -17.634163 ], [ -66.39781, -17.63794 ], [ -66.381192, -17.657359 ], [ -66.392634, -17.657862 ], [ -66.392256, -17.670486 ], [ -66.42145, -17.698268 ], [ -66.416428, -17.703328 ], [ -66.413973, -17.701623 ], [ -66.412664, -17.701005 ], [ -66.411295, -17.700359 ], [ -66.410539, -17.699507 ], [ -66.409674, -17.698132 ], [ -66.408455, -17.697786 ], [ -66.407532, -17.697863 ], [ -66.406604, -17.697273 ], [ -66.404444, -17.694797 ], [ -66.403793, -17.693533 ], [ -66.402756, -17.692986 ], [ -66.402155, -17.692876 ], [ -66.401073, -17.6922 ], [ -66.399289, -17.69162 ], [ -66.397907, -17.690261 ], [ -66.396298, -17.68924 ], [ -66.394653, -17.688404 ], [ -66.392678, -17.687344 ], [ -66.390722, -17.687481 ], [ -66.390053, -17.687143 ], [ -66.38897, -17.686241 ], [ -66.38739, -17.685322 ], [ -66.38571, -17.684851 ], [ -66.3844, -17.684743 ], [ -66.383682, -17.684583 ], [ -66.382743, -17.68404 ], [ -66.382099, -17.683266 ], [ -66.380423, -17.682834 ], [ -66.379623, -17.68459 ], [ -66.377776, -17.686542 ], [ -66.376411, -17.686278 ], [ -66.374666, -17.686719 ], [ -66.373715, -17.685477 ], [ -66.372668, -17.685073 ], [ -66.37162, -17.685387 ], [ -66.369436, -17.686475 ], [ -66.367981, -17.687126 ], [ -66.366896, -17.687961 ], [ -66.36596, -17.689634 ], [ -66.364906, -17.691779 ], [ -66.364075, -17.692796 ], [ -66.363055, -17.693989 ], [ -66.36279, -17.694566 ], [ -66.361749, -17.696343 ], [ -66.361094, -17.697019 ], [ -66.360091, -17.697368 ], [ -66.358209, -17.696874 ], [ -66.356773, -17.696251 ], [ -66.354634, -17.69582 ], [ -66.353538, -17.695828 ], [ -66.351538, -17.695488 ], [ -66.350812, -17.695679 ], [ -66.350092, -17.695517 ], [ -66.347958, -17.696356 ], [ -66.347155, -17.696993 ], [ -66.345601, -17.698022 ], [ -66.344894, -17.698572 ], [ -66.344234, -17.699032 ], [ -66.343765, -17.699721 ], [ -66.343917, -17.703647 ], [ -66.344031, -17.705308 ], [ -66.343268, -17.708543 ], [ -66.342864, -17.709344 ], [ -66.34163, -17.710875 ], [ -66.340179, -17.712495 ], [ -66.338878, -17.714519 ], [ -66.337301, -17.716538 ], [ -66.337002, -17.717302 ], [ -66.336925, -17.718368 ], [ -66.336799, -17.718802 ], [ -66.336243, -17.719896 ], [ -66.33539, -17.720801 ], [ -66.334901, -17.721448 ], [ -66.334366, -17.722725 ], [ -66.33425, -17.723217 ], [ -66.334342, -17.725327 ], [ -66.335051, -17.727099 ], [ -66.33505, -17.727101 ], [ -66.335052, -17.727105 ], [ -66.334715, -17.727846 ], [ -66.334613, -17.728487 ], [ -66.334733, -17.729661 ], [ -66.334898, -17.731208 ], [ -66.334881, -17.731644 ], [ -66.334734, -17.731998 ], [ -66.334776, -17.732556 ], [ -66.334962, -17.732799 ], [ -66.335351, -17.733466 ], [ -66.335351, -17.73347 ], [ -66.335352, -17.733472 ], [ -66.335259, -17.734727 ], [ -66.33512, -17.735432 ], [ -66.334874, -17.737504 ], [ -66.334505, -17.739434 ], [ -66.334092, -17.741092 ], [ -66.333826, -17.74233 ], [ -66.3334, -17.744033 ], [ -66.332143, -17.745965 ], [ -66.331169, -17.747039 ], [ -66.32963, -17.748521 ], [ -66.328094, -17.749734 ], [ -66.327132, -17.750039 ], [ -66.326057, -17.750188 ], [ -66.325881, -17.751685 ], [ -66.325353, -17.752295 ], [ -66.324658, -17.752905 ], [ -66.32376, -17.753133 ], [ -66.322406, -17.753709 ], [ -66.321571, -17.754337 ], [ -66.320937, -17.755233 ], [ -66.319986, -17.756403 ], [ -66.319434, -17.75699 ], [ -66.319243, -17.757632 ], [ -66.319013, -17.759216 ], [ -66.318976, -17.760567 ], [ -66.318785, -17.761205 ], [ -66.31702, -17.76204 ], [ -66.315907, -17.762743 ], [ -66.315421, -17.763409 ], [ -66.315131, -17.764467 ], [ -66.314207, -17.765449 ], [ -66.313463, -17.766813 ], [ -66.312469, -17.767532 ], [ -66.311279, -17.767835 ], [ -66.308065, -17.769218 ], [ -66.306431, -17.769239 ], [ -66.304003, -17.769166 ], [ -66.303168, -17.769566 ], [ -66.301399, -17.770881 ], [ -66.300613, -17.772403 ], [ -66.300277, -17.773775 ], [ -66.299783, -17.775131 ], [ -66.299416, -17.777241 ], [ -66.299054, -17.77858 ], [ -66.299123, -17.780919 ], [ -66.298854, -17.782716 ], [ -66.298018, -17.783424 ], [ -66.295962, -17.78598 ], [ -66.294283, -17.788718 ], [ -66.293792, -17.789879 ], [ -66.292717, -17.793167 ], [ -66.292461, -17.794051 ], [ -66.291509, -17.795352 ], [ -66.291111, -17.796267 ], [ -66.291002, -17.797762 ], [ -66.290422, -17.798633 ], [ -66.289292, -17.800245 ], [ -66.289008, -17.801197 ], [ -66.288473, -17.802637 ], [ -66.287511, -17.803299 ], [ -66.286791, -17.805041 ], [ -66.28638, -17.806037 ], [ -66.286553, -17.807653 ], [ -66.286035, -17.810478 ], [ -66.285537, -17.812862 ], [ -66.284928, -17.815176 ], [ -66.283973, -17.818001 ], [ -66.28392, -17.819459 ], [ -66.283824, -17.821138 ], [ -66.282858, -17.82155 ], [ -66.282156, -17.822603 ], [ -66.281317, -17.824914 ], [ -66.280353, -17.827573 ], [ -66.280166, -17.829303 ], [ -66.278927, -17.830511 ], [ -66.278436, -17.832928 ], [ -66.277953, -17.835013 ], [ -66.277697, -17.839361 ], [ -66.277378, -17.841297 ], [ -66.276834, -17.843739 ], [ -66.276309, -17.846596 ], [ -66.276462, -17.849163 ], [ -66.276858, -17.85171 ], [ -66.276861, -17.854685 ], [ -66.276975, -17.856711 ], [ -66.276976, -17.856713 ], [ -66.268455, -17.872742 ], [ -66.26627, -17.876851 ], [ -66.265537, -17.878775 ], [ -66.264347, -17.881898 ], [ -66.264044, -17.882678 ], [ -66.264646, -17.887622 ], [ -66.265453, -17.894274 ], [ -66.266267, -17.901012 ], [ -66.263277, -17.907083 ], [ -66.25613, -17.921586 ], [ -66.255714, -17.922407 ], [ -66.257057, -17.932479 ], [ -66.257546, -17.936144 ], [ -66.258731, -17.945026 ], [ -66.259404, -17.955238 ], [ -66.259527, -17.955572 ], [ -66.259731, -17.955882 ], [ -66.260385, -17.956627 ], [ -66.260533, -17.956901 ], [ -66.260894, -17.957748 ], [ -66.261115, -17.958114 ], [ -66.261215, -17.958377 ], [ -66.261338, -17.95856 ], [ -66.261533, -17.95873 ], [ -66.261835, -17.958865 ], [ -66.262042, -17.959001 ], [ -66.262349, -17.959481 ], [ -66.262547, -17.959858 ], [ -66.262858, -17.960625 ], [ -66.263129, -17.961082 ], [ -66.263398, -17.961424 ], [ -66.263776, -17.961777 ], [ -66.263801, -17.961834 ], [ -66.264531, -17.96247 ], [ -66.26509, -17.962879 ], [ -66.265346, -17.963117 ], [ -66.265468, -17.963197 ], [ -66.265651, -17.96339 ], [ -66.265882, -17.963549 ], [ -66.266148, -17.963684 ], [ -66.266245, -17.963706 ], [ -66.266911, -17.964042 ], [ -66.267299, -17.964258 ], [ -66.267539, -17.964475 ], [ -66.267726, -17.964761 ], [ -66.267864, -17.964918 ], [ -66.268972, -17.966012 ], [ -66.269238, -17.96617 ], [ -66.270455, -17.967169 ], [ -66.270504, -17.967238 ], [ -66.270807, -17.96735 ], [ -66.27111, -17.967496 ], [ -66.271474, -17.967757 ], [ -66.271803, -17.968052 ], [ -66.2726, -17.968568 ], [ -66.273186, -17.9691 ], [ -66.273669, -17.969335 ], [ -66.27392, -17.969433 ], [ -66.274237, -17.969658 ], [ -66.285045, -17.962855 ], [ -66.286277, -17.962514 ], [ -66.286494, -17.962512 ], [ -66.28779, -17.962269 ], [ -66.288139, -17.962266 ], [ -66.288139, -17.962266 ], [ -66.288212, -17.962322 ], [ -66.288442, -17.9624 ], [ -66.289492, -17.96262 ], [ -66.289494, -17.96262 ], [ -66.289612, -17.962618 ], [ -66.289613, -17.962618 ], [ -66.28983, -17.962662 ], [ -66.289832, -17.962662 ], [ -66.289974, -17.962661 ], [ -66.289974, -17.962661 ], [ -66.290336, -17.962726 ], [ -66.29095, -17.962754 ], [ -66.290951, -17.962754 ], [ -66.291551, -17.962725 ], [ -66.292725, -17.962322 ], [ -66.293109, -17.962215 ], [ -66.293205, -17.962214 ], [ -66.293229, -17.962191 ], [ -66.294023, -17.962159 ], [ -66.294024, -17.96216 ], [ -66.294757, -17.962186 ], [ -66.294757, -17.962186 ], [ -66.294949, -17.962161 ], [ -66.295236, -17.962044 ], [ -66.296016, -17.96184 ], [ -66.296388, -17.961767 ], [ -66.298239, -17.961611 ], [ -66.29944, -17.961414 ], [ -66.299692, -17.961354 ], [ -66.300221, -17.961349 ], [ -66.300221, -17.961349 ], [ -66.300451, -17.961404 ], [ -66.300717, -17.961516 ], [ -66.301261, -17.961671 ], [ -66.302188, -17.961765 ], [ -66.30219, -17.961765 ], [ -66.302537, -17.961762 ], [ -66.302922, -17.9617 ], [ -66.304064, -17.961654 ], [ -66.304064, -17.961654 ], [ -66.304065, -17.961677 ], [ -66.304067, -17.961677 ], [ -66.304137, -17.961676 ], [ -66.304137, -17.961676 ], [ -66.304475, -17.961753 ], [ -66.304477, -17.961753 ], [ -66.305281, -17.961734 ], [ -66.306085, -17.96161 ], [ -66.307876, -17.961442 ], [ -66.308057, -17.961441 ], [ -66.308663, -17.961424 ], [ -66.309112, -17.961369 ], [ -66.309666, -17.961312 ], [ -66.30986, -17.961131 ], [ -66.309997, -17.960831 ], [ -66.310208, -17.960351 ], [ -66.310366, -17.959578 ], [ -66.310543, -17.959334 ], [ -66.311041, -17.958824 ], [ -66.311934, -17.958125 ], [ -66.312531, -17.957751 ], [ -66.313031, -17.957378 ], [ -66.313471, -17.956982 ], [ -66.313826, -17.956519 ], [ -66.314651, -17.955292 ], [ -66.315513, -17.954122 ], [ -66.315643, -17.953902 ], [ -66.315714, -17.953821 ], [ -66.316079, -17.953208 ], [ -66.316578, -17.951881 ], [ -66.316942, -17.951268 ], [ -66.317274, -17.950885 ], [ -66.317583, -17.950618 ], [ -66.318143, -17.950233 ], [ -66.318395, -17.950138 ], [ -66.318491, -17.950137 ], [ -66.318755, -17.950077 ], [ -66.319428, -17.950047 ], [ -66.319825, -17.949985 ], [ -66.320269, -17.949946 ], [ -66.320271, -17.949946 ], [ -66.320908, -17.949997 ], [ -66.32091, -17.949997 ], [ -66.321148, -17.949994 ], [ -66.321149, -17.949995 ], [ -66.321269, -17.950016 ], [ -66.321644, -17.950173 ], [ -66.322008, -17.950365 ], [ -66.322117, -17.950387 ], [ -66.322554, -17.950658 ], [ -66.323196, -17.950985 ], [ -66.323812, -17.951139 ], [ -66.32433, -17.951226 ], [ -66.325811, -17.951291 ], [ -66.32662, -17.951466 ], [ -66.326669, -17.951512 ], [ -66.326798, -17.952177 ], [ -66.326836, -17.95228 ], [ -66.32698, -17.952436 ], [ -66.327134, -17.952559 ], [ -66.335246, -17.959101 ], [ -66.33749, -17.96058 ], [ -66.362118, -17.961627 ], [ -66.36919, -17.9621 ], [ -66.369287, -17.962134 ], [ -66.384596, -17.96295 ], [ -66.384712, -17.962998 ], [ -66.38482, -17.963091 ], [ -66.384875, -17.963138 ], [ -66.385018, -17.963226 ], [ -66.385167, -17.963359 ], [ -66.385276, -17.963466 ], [ -66.385364, -17.963533 ], [ -66.385459, -17.963593 ], [ -66.385534, -17.963647 ], [ -66.386295, -17.964067 ], [ -66.387983, -17.96513 ], [ -66.389781, -17.966318 ], [ -66.390149, -17.966576 ], [ -66.390367, -17.966684 ], [ -66.390599, -17.966779 ], [ -66.390983, -17.96685 ], [ -66.391272, -17.966881 ], [ -66.391272, -17.96688 ], [ -66.391561, -17.966832 ], [ -66.391562, -17.966832 ], [ -66.392247, -17.966946 ], [ -66.392561, -17.967082 ], [ -66.393024, -17.967501 ], [ -66.393109, -17.967558 ], [ -66.393109, -17.967581 ], [ -66.393378, -17.967877 ], [ -66.393563, -17.96822 ], [ -66.394311, -17.970039 ], [ -66.394337, -17.970154 ], [ -66.395831, -17.973656 ], [ -66.395945, -17.974045 ], [ -66.396037, -17.97455 ], [ -66.396212, -17.97587 ], [ -66.396328, -17.976398 ], [ -66.39655, -17.976809 ], [ -66.397408, -17.977903 ], [ -66.39777, -17.978819 ], [ -66.398485, -17.979973 ], [ -66.398865, -17.98044 ], [ -66.399414, -17.980986 ], [ -66.399755, -17.981269 ], [ -66.400362, -17.981596 ], [ -66.401099, -17.981795 ], [ -66.401521, -17.98186 ], [ -66.401523, -17.98186 ], [ -66.401858, -17.981856 ], [ -66.402434, -17.981781 ], [ -66.404807, -17.980999 ], [ -66.405668, -17.980406 ], [ -66.406099, -17.980102 ], [ -66.406929, -17.979663 ], [ -66.407206, -17.979483 ], [ -66.410526, -17.977432 ], [ -66.431439, -17.973363 ], [ -66.433161, -17.973261 ], [ -66.435439, -17.974926 ] ], [ [ -66.416904, -17.704188 ], [ -66.416537, -17.707207 ], [ -66.416193, -17.710626 ], [ -66.41607, -17.711688 ], [ -66.416068, -17.711688 ], [ -66.416191, -17.710626 ], [ -66.416534, -17.707207 ], [ -66.416901, -17.704188 ], [ -66.416428, -17.703328 ], [ -66.416904, -17.704188 ] ], [ [ -66.418332, -17.711634 ], [ -66.418333, -17.711634 ], [ -66.41607, -17.711688 ], [ -66.41607, -17.711688 ], [ -66.418332, -17.711634 ] ], [ [ -66.713498, -17.689734 ], [ -66.707856, -17.691255 ], [ -66.700396, -17.70429 ], [ -66.675929, -17.73392 ], [ -66.655716, -17.734651 ], [ -66.645142, -17.742579 ], [ -66.623442, -17.74352 ], [ -66.613461, -17.746312 ], [ -66.613461, -17.746312 ], [ -66.623442, -17.74352 ], [ -66.645142, -17.742579 ], [ -66.655716, -17.734651 ], [ -66.675929, -17.73392 ], [ -66.700395, -17.70429 ], [ -66.707856, -17.691254 ], [ -66.713498, -17.689734 ], [ -66.724444, -17.682739 ], [ -66.724444, -17.682739 ], [ -66.713498, -17.689734 ] ], [ [ -66.414779, -17.908606 ], [ -66.414779, -17.908605 ], [ -66.417667, -17.909894 ], [ -66.417775, -17.909925 ], [ -66.417774, -17.909926 ], [ -66.417664, -17.909894 ], [ -66.414779, -17.908606 ] ], [ [ -66.414698, -17.90875 ], [ -66.414637, -17.908879 ], [ -66.414616, -17.908977 ], [ -66.414592, -17.909084 ], [ -66.414666, -17.909228 ], [ -66.414683, -17.909358 ], [ -66.414696, -17.909499 ], [ -66.414736, -17.909645 ], [ -66.414746, -17.909782 ], [ -66.414709, -17.909932 ], [ -66.414756, -17.910107 ], [ -66.414742, -17.910414 ], [ -66.414767, -17.910538 ], [ -66.414788, -17.910661 ], [ -66.414966, -17.910739 ], [ -66.415315, -17.910828 ], [ -66.415489, -17.910936 ], [ -66.415604, -17.911188 ], [ -66.415676, -17.911323 ], [ -66.41571, -17.911445 ], [ -66.415943, -17.911638 ], [ -66.415964, -17.911688 ], [ -66.415899, -17.911756 ], [ -66.415812, -17.911851 ], [ -66.415702, -17.912034 ], [ -66.415584, -17.912223 ], [ -66.415549, -17.912379 ], [ -66.415543, -17.912526 ], [ -66.415662, -17.912704 ], [ -66.415822, -17.912854 ], [ -66.415856, -17.913216 ], [ -66.415859, -17.913354 ], [ -66.415781, -17.913568 ], [ -66.415676, -17.913669 ], [ -66.415664, -17.914129 ], [ -66.415593, -17.91434 ], [ -66.415636, -17.914458 ], [ -66.415653, -17.914635 ], [ -66.415638, -17.914739 ], [ -66.415658, -17.915002 ], [ -66.415732, -17.915202 ], [ -66.415825, -17.91529 ], [ -66.415948, -17.915339 ], [ -66.415942, -17.915467 ], [ -66.415922, -17.915551 ], [ -66.415949, -17.915651 ], [ -66.415959, -17.915736 ], [ -66.416039, -17.915788 ], [ -66.416111, -17.916009 ], [ -66.416235, -17.916133 ], [ -66.416293, -17.916374 ], [ -66.416454, -17.916432 ], [ -66.416506, -17.916526 ], [ -66.416547, -17.916634 ], [ -66.416553, -17.916687 ], [ -66.416499, -17.916772 ], [ -66.416544, -17.916923 ], [ -66.416626, -17.917031 ], [ -66.416664, -17.917236 ], [ -66.416811, -17.91733 ], [ -66.416823, -17.917362 ], [ -66.417188, -17.917721 ], [ -66.417807, -17.918417 ], [ -66.418571, -17.918638 ], [ -66.4187, -17.918746 ], [ -66.418811, -17.918941 ], [ -66.418847, -17.919002 ], [ -66.418861, -17.919049 ], [ -66.418842, -17.91978 ], [ -66.418895, -17.920165 ], [ -66.418819, -17.920454 ], [ -66.41873, -17.920858 ], [ -66.418849, -17.921524 ], [ -66.418853, -17.92166 ], [ -66.418857, -17.922143 ], [ -66.418795, -17.922532 ], [ -66.418664, -17.923235 ], [ -66.418668, -17.923293 ], [ -66.418502, -17.923767 ], [ -66.418393, -17.924223 ], [ -66.42103, -17.925161 ], [ -66.423032, -17.926225 ], [ -66.423031, -17.926226 ], [ -66.421028, -17.925161 ], [ -66.41839, -17.924223 ], [ -66.4185, -17.923767 ], [ -66.418665, -17.923293 ], [ -66.418662, -17.923235 ], [ -66.418793, -17.922532 ], [ -66.418854, -17.922143 ], [ -66.41885, -17.92166 ], [ -66.418847, -17.921524 ], [ -66.418728, -17.920858 ], [ -66.418816, -17.920454 ], [ -66.418892, -17.920165 ], [ -66.418839, -17.91978 ], [ -66.418859, -17.919049 ], [ -66.418845, -17.919002 ], [ -66.418808, -17.918941 ], [ -66.418698, -17.918746 ], [ -66.418568, -17.918638 ], [ -66.417804, -17.918417 ], [ -66.417186, -17.917721 ], [ -66.41682, -17.917362 ], [ -66.416808, -17.91733 ], [ -66.416661, -17.917236 ], [ -66.416623, -17.917031 ], [ -66.416542, -17.916923 ], [ -66.416496, -17.916772 ], [ -66.41655, -17.916687 ], [ -66.416544, -17.916634 ], [ -66.416503, -17.916526 ], [ -66.416451, -17.916432 ], [ -66.416291, -17.916373 ], [ -66.416232, -17.916133 ], [ -66.416109, -17.916009 ], [ -66.416037, -17.915788 ], [ -66.415956, -17.915735 ], [ -66.415946, -17.915651 ], [ -66.415919, -17.915551 ], [ -66.41594, -17.915467 ], [ -66.415946, -17.915338 ], [ -66.415823, -17.91529 ], [ -66.415729, -17.915202 ], [ -66.415656, -17.915002 ], [ -66.415636, -17.914739 ], [ -66.41565, -17.914635 ], [ -66.415633, -17.914458 ], [ -66.415591, -17.91434 ], [ -66.415661, -17.914129 ], [ -66.415674, -17.913669 ], [ -66.415778, -17.913568 ], [ -66.415857, -17.913354 ], [ -66.415853, -17.913215 ], [ -66.415819, -17.912854 ], [ -66.41566, -17.912704 ], [ -66.415541, -17.912526 ], [ -66.415546, -17.912379 ], [ -66.415582, -17.912223 ], [ -66.4157, -17.912034 ], [ -66.41581, -17.91185 ], [ -66.415896, -17.911756 ], [ -66.415961, -17.911688 ], [ -66.415941, -17.911638 ], [ -66.415707, -17.911445 ], [ -66.415673, -17.911323 ], [ -66.415601, -17.911188 ], [ -66.415487, -17.910936 ], [ -66.415312, -17.910828 ], [ -66.414963, -17.910739 ], [ -66.414786, -17.910661 ], [ -66.414765, -17.910538 ], [ -66.41474, -17.910414 ], [ -66.414754, -17.910107 ], [ -66.414706, -17.909932 ], [ -66.414744, -17.909781 ], [ -66.414734, -17.909645 ], [ -66.414693, -17.909499 ], [ -66.414681, -17.909358 ], [ -66.414664, -17.909228 ], [ -66.41459, -17.909084 ], [ -66.414613, -17.908977 ], [ -66.414634, -17.908879 ], [ -66.414696, -17.90875 ], [ -66.414777, -17.908605 ], [ -66.414779, -17.908606 ], [ -66.414698, -17.90875 ] ], [ [ -66.423728, -17.925666 ], [ -66.426463, -17.923752 ], [ -66.428715, -17.921334 ], [ -66.431156, -17.918251 ], [ -66.433577, -17.917163 ], [ -66.436776, -17.916464 ], [ -66.43831, -17.915428 ], [ -66.438311, -17.915429 ], [ -66.436779, -17.916464 ], [ -66.43358, -17.917163 ], [ -66.431159, -17.918251 ], [ -66.428718, -17.921334 ], [ -66.426466, -17.923752 ], [ -66.42373, -17.925666 ], [ -66.423034, -17.926226 ], [ -66.423032, -17.926225 ], [ -66.423728, -17.925666 ] ], [ [ -66.438313, -17.915428 ], [ -66.439193, -17.91786 ], [ -66.438979, -17.918941 ], [ -66.438843, -17.921188 ], [ -66.441435, -17.923968 ], [ -66.445929, -17.927034 ], [ -66.44958, -17.929069 ], [ -66.451031, -17.930488 ], [ -66.451794, -17.931275 ], [ -66.455053, -17.933602 ], [ -66.456931, -17.936896 ], [ -66.457995, -17.938328 ], [ -66.459288, -17.938807 ], [ -66.459034, -17.939497 ], [ -66.457139, -17.944455 ], [ -66.456943, -17.944967 ], [ -66.456134, -17.947082 ], [ -66.455285, -17.950035 ], [ -66.453978, -17.950916 ], [ -66.446917, -17.954764 ], [ -66.445672, -17.956559 ], [ -66.442777, -17.956997 ], [ -66.440131, -17.958378 ], [ -66.435051, -17.962199 ], [ -66.433381, -17.963211 ], [ -66.435049, -17.962199 ], [ -66.440129, -17.958378 ], [ -66.442774, -17.956997 ], [ -66.44567, -17.956559 ], [ -66.446914, -17.954764 ], [ -66.453976, -17.950916 ], [ -66.455282, -17.950035 ], [ -66.456132, -17.947082 ], [ -66.456941, -17.944967 ], [ -66.457136, -17.944455 ], [ -66.459031, -17.939497 ], [ -66.459286, -17.938807 ], [ -66.457993, -17.938328 ], [ -66.456928, -17.936896 ], [ -66.455051, -17.933602 ], [ -66.451791, -17.931275 ], [ -66.451029, -17.930488 ], [ -66.449577, -17.929069 ], [ -66.445927, -17.927034 ], [ -66.441433, -17.923968 ], [ -66.43884, -17.921188 ], [ -66.438977, -17.918941 ], [ -66.43919, -17.91786 ], [ -66.438311, -17.915429 ], [ -66.438313, -17.915428 ] ], [ [ -66.481949, -17.825779 ], [ -66.481949, -17.825899 ], [ -66.481949, -17.826019 ], [ -66.481452, -17.826737 ], [ -66.480705, -17.827576 ], [ -66.480705, -17.827696 ], [ -66.479957, -17.828295 ], [ -66.479833, -17.828296 ], [ -66.479833, -17.828415 ], [ -66.479085, -17.828895 ], [ -66.479085, -17.829015 ], [ -66.47896, -17.829015 ], [ -66.478462, -17.829614 ], [ -66.477715, -17.830094 ], [ -66.476605, -17.830363 ], [ -66.476396, -17.830133 ], [ -66.478106, -17.829028 ], [ -66.480077, -17.82681 ], [ -66.481735, -17.82528 ], [ -66.483832, -17.824561 ], [ -66.485795, -17.824558 ], [ -66.483445, -17.824939 ], [ -66.481949, -17.825779 ] ], [ [ -66.675683, -17.242079 ], [ -66.673991, -17.247062 ], [ -66.64978, -17.280058 ], [ -66.673991, -17.247063 ], [ -66.675683, -17.242079 ] ], [ [ -66.680499, -17.121769 ], [ -66.677605, -17.127054 ], [ -66.677958, -17.126233 ], [ -66.680499, -17.121769 ] ] ] ] } }
]
}
