{
"type": "FeatureCollection",
"name": "METROPOLITANA",
"crs": { "type": "name", "properties": { "name": "urn:ogc:def:crs:OGC:1.3:CRS84" } },
"bbox": [ -66.517434, -17.703328, -65.778030, -16.919571 ],                                                                        
"features": [
{ "type": "Feature", "properties": { "NOMBRE": "Metropolitana", "NIVEL": "Regiones", "PROVINCIA": "", "REGION": "", "DEPARTAMENTO": "Cochabamba" }, "bbox": [ -66.517434, -17.703328, -65.77803, -16.919571 ], "geometry": { "type": "MultiPolygon", "coordinates": [ [ [ [ -66.073515, -17.473731 ], [ -66.082492, -17.476103 ], [ -66.109749, -17.483301 ], [ -66.129262, -17.502082 ], [ -66.129538, -17.502389 ], [ -66.127591, -17.511108 ], [ -66.127823, -17.512246 ], [ -66.130577, -17.51325 ], [ -66.130997, -17.513465 ], [ -66.132881, -17.5144 ], [ -66.133472, -17.514505 ], [ -66.13509, -17.51468 ], [ -66.136193, -17.514071 ], [ -66.141186, -17.513078 ], [ -66.141826, -17.51297 ], [ -66.142386, -17.513046 ], [ -66.143981, -17.513646 ], [ -66.146262, -17.515266 ], [ -66.147401, -17.516197 ], [ -66.148778, -17.517901 ], [ -66.149395, -17.519518 ], [ -66.14939, -17.519521 ], [ -66.149395, -17.519532 ], [ -66.162306, -17.525799 ], [ -66.164485, -17.53407 ], [ -66.175167, -17.525924 ], [ -66.198326, -17.50474 ], [ -66.20834, -17.509451 ], [ -66.222644, -17.503694 ], [ -66.232806, -17.504417 ], [ -66.235625, -17.504439 ], [ -66.235603, -17.504546 ], [ -66.237908, -17.505269 ], [ -66.238824, -17.504886 ], [ -66.239664, -17.504825 ], [ -66.240922, -17.504186 ], [ -66.24174, -17.504069 ], [ -66.242909, -17.504111 ], [ -66.245725, -17.502358 ], [ -66.246296, -17.502291 ], [ -66.247046, -17.501895 ], [ -66.247468, -17.501893 ], [ -66.249302, -17.500836 ], [ -66.25041, -17.500472 ], [ -66.251105, -17.49971 ], [ -66.252214, -17.497636 ], [ -66.253082, -17.497691 ], [ -66.253631, -17.497287 ], [ -66.254344, -17.495814 ], [ -66.254913, -17.49437 ], [ -66.255329, -17.493336 ], [ -66.255636, -17.492312 ], [ -66.255826, -17.491405 ], [ -66.256013, -17.490686 ], [ -66.256609, -17.489901 ], [ -66.256942, -17.49006 ], [ -66.257096, -17.489819 ], [ -66.257273, -17.489321 ], [ -66.257605, -17.489083 ], [ -66.259548, -17.487971 ], [ -66.262377, -17.485961 ], [ -66.263359, -17.485325 ], [ -66.264203, -17.485016 ], [ -66.264924, -17.484587 ], [ -66.26533, -17.484294 ], [ -66.26564, -17.483243 ], [ -66.266936, -17.480162 ], [ -66.267433, -17.479971 ], [ -66.267656, -17.48002 ], [ -66.267907, -17.47932 ], [ -66.268185, -17.479109 ], [ -66.268506, -17.478658 ], [ -66.268757, -17.478495 ], [ -66.268678, -17.478151 ], [ -66.26887, -17.477963 ], [ -66.269103, -17.47703 ], [ -66.269603, -17.47661 ], [ -66.269879, -17.475945 ], [ -66.270496, -17.474871 ], [ -66.270841, -17.474832 ], [ -66.271985, -17.473839 ], [ -66.272546, -17.473975 ], [ -66.272887, -17.473415 ], [ -66.273064, -17.473308 ], [ -66.27339, -17.472986 ], [ -66.273899, -17.472859 ], [ -66.273942, -17.472758 ], [ -66.273783, -17.471887 ], [ -66.273946, -17.471093 ], [ -66.27433, -17.470928 ], [ -66.274921, -17.470101 ], [ -66.275685, -17.467777 ], [ -66.275697, -17.467743 ], [ -66.275715, -17.467752 ], [ -66.280267, -17.459617 ], [ -66.280267, -17.459617 ], [ -66.275715, -17.467752 ], [ -66.275703, -17.467773 ], [ -66.290609, -17.474472 ], [ -66.298305, -17.477021 ], [ -66.304936, -17.47742 ], [ -66.31381, -17.479244 ], [ -66.325533, -17.483888 ], [ -66.311169, -17.504224 ], [ -66.311949, -17.513198 ], [ -66.307814, -17.52097 ], [ -66.314354, -17.531888 ], [ -66.305853, -17.541416 ], [ -66.307388, -17.552933 ], [ -66.308636, -17.559635 ], [ -66.28992, -17.579848 ], [ -66.289766, -17.583925 ], [ -66.289495, -17.591114 ], [ -66.289518, -17.59147 ], [ -66.289344, -17.592463 ], [ -66.288148, -17.601389 ], [ -66.293088, -17.599445 ], [ -66.293524, -17.599533 ], [ -66.293937, -17.599678 ], [ -66.294471, -17.599984 ], [ -66.295126, -17.600242 ], [ -66.295284, -17.60024 ], [ -66.295587, -17.600318 ], [ -66.296555, -17.600434 ], [ -66.296834, -17.600512 ], [ -66.297052, -17.600636 ], [ -66.297212, -17.600888 ], [ -66.297348, -17.601256 ], [ -66.297448, -17.601739 ], [ -66.297572, -17.602071 ], [ -66.29784, -17.602322 ], [ -66.298024, -17.602655 ], [ -66.298055, -17.603438 ], [ -66.298312, -17.603792 ], [ -66.298883, -17.604178 ], [ -66.299405, -17.604461 ], [ -66.299527, -17.604598 ], [ -66.299676, -17.605057 ], [ -66.299909, -17.605458 ], [ -66.300104, -17.605537 ], [ -66.300688, -17.606003 ], [ -66.301161, -17.606229 ], [ -66.301344, -17.606377 ], [ -66.301659, -17.606477 ], [ -66.30195, -17.606497 ], [ -66.302156, -17.606587 ], [ -66.302412, -17.606884 ], [ -66.302473, -17.606883 ], [ -66.302497, -17.606918 ], [ -66.302957, -17.606982 ], [ -66.303261, -17.607163 ], [ -66.303552, -17.607206 ], [ -66.303771, -17.607377 ], [ -66.30404, -17.607708 ], [ -66.304126, -17.607938 ], [ -66.304416, -17.607935 ], [ -66.304598, -17.60799 ], [ -66.304744, -17.608093 ], [ -66.304905, -17.608517 ], [ -66.305113, -17.608826 ], [ -66.305406, -17.609123 ], [ -66.306169, -17.609242 ], [ -66.306592, -17.609237 ], [ -66.307054, -17.609497 ], [ -66.3072, -17.609622 ], [ -66.307385, -17.610116 ], [ -66.307569, -17.610391 ], [ -66.307915, -17.611263 ], [ -66.308062, -17.611515 ], [ -66.308269, -17.611755 ], [ -66.308671, -17.61205 ], [ -66.308865, -17.612152 ], [ -66.30962, -17.612789 ], [ -66.310343, -17.6139 ], [ -66.310636, -17.614196 ], [ -66.31122, -17.614616 ], [ -66.312019, -17.6147 ], [ -66.312811, -17.615441 ], [ -66.31292, -17.615474 ], [ -66.313367, -17.615481 ], [ -66.31349, -17.615664 ], [ -66.313651, -17.6161 ], [ -66.313858, -17.616317 ], [ -66.314137, -17.61636 ], [ -66.314534, -17.616172 ], [ -66.314752, -17.616123 ], [ -66.314861, -17.616168 ], [ -66.315788, -17.617196 ], [ -66.316056, -17.617366 ], [ -66.316879, -17.617472 ], [ -66.317791, -17.61805 ], [ -66.318203, -17.61808 ], [ -66.319064, -17.618452 ], [ -66.31973, -17.618525 ], [ -66.320483, -17.618886 ], [ -66.321246, -17.619028 ], [ -66.322008, -17.618996 ], [ -66.322553, -17.619037 ], [ -66.322842, -17.618907 ], [ -66.323094, -17.618662 ], [ -66.323127, -17.618635 ], [ -66.323382, -17.618463 ], [ -66.323673, -17.618495 ], [ -66.323916, -17.618688 ], [ -66.324256, -17.618753 ], [ -66.324655, -17.618761 ], [ -66.325596, -17.61852 ], [ -66.326382, -17.618443 ], [ -66.326564, -17.618464 ], [ -66.326807, -17.618692 ], [ -66.326894, -17.618898 ], [ -66.326814, -17.619544 ], [ -66.327012, -17.620015 ], [ -66.327325, -17.621395 ], [ -66.327659, -17.622255 ], [ -66.328163, -17.623195 ], [ -66.328469, -17.623618 ], [ -66.328808, -17.623718 ], [ -66.329195, -17.623749 ], [ -66.329863, -17.623984 ], [ -66.33008, -17.623993 ], [ -66.330372, -17.624105 ], [ -66.330871, -17.624549 ], [ -66.331396, -17.625131 ], [ -66.332284, -17.625675 ], [ -66.332845, -17.62628 ], [ -66.333494, -17.627276 ], [ -66.333739, -17.62755 ], [ -66.334299, -17.628051 ], [ -66.33452, -17.628371 ], [ -66.334898, -17.628736 ], [ -66.335166, -17.629056 ], [ -66.33567, -17.629949 ], [ -66.335993, -17.631029 ], [ -66.336062, -17.632043 ], [ -66.336086, -17.633552 ], [ -66.335945, -17.633992 ], [ -66.335731, -17.634398 ], [ -66.335229, -17.635141 ], [ -66.33519, -17.636294 ], [ -66.33527, -17.63718 ], [ -66.335283, -17.638828 ], [ -66.335213, -17.639094 ], [ -66.335242, -17.639636 ], [ -66.335278, -17.639647 ], [ -66.337822, -17.640522 ], [ -66.339593, -17.64214 ], [ -66.347822, -17.647604 ], [ -66.351279, -17.656709 ], [ -66.352468, -17.670299 ], [ -66.353172, -17.67674 ], [ -66.341663, -17.68694 ], [ -66.350091, -17.695511 ], [ -66.350088, -17.695512 ], [ -66.350092, -17.695517 ], [ -66.350812, -17.695679 ], [ -66.351538, -17.695488 ], [ -66.353538, -17.695828 ], [ -66.354634, -17.69582 ], [ -66.356773, -17.696251 ], [ -66.358209, -17.696874 ], [ -66.360091, -17.697368 ], [ -66.361094, -17.697019 ], [ -66.361749, -17.696343 ], [ -66.36279, -17.694566 ], [ -66.363055, -17.693989 ], [ -66.364075, -17.692796 ], [ -66.364906, -17.691779 ], [ -66.36596, -17.689634 ], [ -66.366896, -17.687961 ], [ -66.367981, -17.687126 ], [ -66.369436, -17.686475 ], [ -66.37162, -17.685387 ], [ -66.372668, -17.685073 ], [ -66.373715, -17.685477 ], [ -66.374666, -17.686719 ], [ -66.376411, -17.686278 ], [ -66.377776, -17.686542 ], [ -66.379623, -17.68459 ], [ -66.380423, -17.682834 ], [ -66.382099, -17.683266 ], [ -66.382743, -17.68404 ], [ -66.383682, -17.684583 ], [ -66.3844, -17.684743 ], [ -66.38571, -17.684851 ], [ -66.38739, -17.685322 ], [ -66.38897, -17.686241 ], [ -66.390053, -17.687143 ], [ -66.390722, -17.687481 ], [ -66.392678, -17.687344 ], [ -66.394653, -17.688404 ], [ -66.396298, -17.68924 ], [ -66.397907, -17.690261 ], [ -66.399289, -17.69162 ], [ -66.401073, -17.6922 ], [ -66.402155, -17.692876 ], [ -66.402756, -17.692986 ], [ -66.403793, -17.693533 ], [ -66.404444, -17.694797 ], [ -66.406604, -17.697273 ], [ -66.407532, -17.697863 ], [ -66.408455, -17.697786 ], [ -66.409674, -17.698132 ], [ -66.410539, -17.699507 ], [ -66.411295, -17.700359 ], [ -66.412664, -17.701005 ], [ -66.413973, -17.701623 ], [ -66.416428, -17.703328 ], [ -66.42145, -17.698268 ], [ -66.392256, -17.670486 ], [ -66.392634, -17.657862 ], [ -66.381192, -17.657359 ], [ -66.39781, -17.63794 ], [ -66.397179, -17.634163 ], [ -66.401439, -17.623375 ], [ -66.400431, -17.620251 ], [ -66.401574, -17.619585 ], [ -66.403901, -17.616846 ], [ -66.404111, -17.615072 ], [ -66.40478, -17.614186 ], [ -66.409792, -17.612108 ], [ -66.411428, -17.61286 ], [ -66.412469, -17.611928 ], [ -66.414175, -17.611942 ], [ -66.416989, -17.613179 ], [ -66.421471, -17.616918 ], [ -66.423691, -17.619802 ], [ -66.422899, -17.623657 ], [ -66.426379, -17.625774 ], [ -66.432036, -17.61255 ], [ -66.431848, -17.604572 ], [ -66.428615, -17.599341 ], [ -66.437908, -17.585103 ], [ -66.425007, -17.583494 ], [ -66.416892, -17.576469 ], [ -66.404768, -17.569584 ], [ -66.417894, -17.562578 ], [ -66.423007, -17.56202 ], [ -66.428005, -17.555647 ], [ -66.439561, -17.567328 ], [ -66.454733, -17.572142 ], [ -66.469773, -17.560665 ], [ -66.471236, -17.55986 ], [ -66.471846, -17.556559 ], [ -66.471892, -17.556309 ], [ -66.471568, -17.555398 ], [ -66.469368, -17.555434 ], [ -66.461397, -17.558708 ], [ -66.457362, -17.561318 ], [ -66.45513, -17.561581 ], [ -66.449928, -17.560745 ], [ -66.446596, -17.559047 ], [ -66.438483, -17.550361 ], [ -66.430505, -17.545442 ], [ -66.426253, -17.544958 ], [ -66.422757, -17.544314 ], [ -66.41585, -17.546125 ], [ -66.404438, -17.547341 ], [ -66.397078, -17.550037 ], [ -66.390584, -17.55346 ], [ -66.387975, -17.555749 ], [ -66.385877, -17.556541 ], [ -66.381185, -17.560485 ], [ -66.375482, -17.563747 ], [ -66.371585, -17.568464 ], [ -66.368122, -17.570429 ], [ -66.362942, -17.57216 ], [ -66.360899, -17.571684 ], [ -66.358727, -17.571807 ], [ -66.355728, -17.571491 ], [ -66.352232, -17.570602 ], [ -66.357844, -17.562819 ], [ -66.366176, -17.557256 ], [ -66.38079, -17.551184 ], [ -66.388622, -17.542832 ], [ -66.3894, -17.51648 ], [ -66.401852, -17.507035 ], [ -66.402074, -17.495678 ], [ -66.398098, -17.490575 ], [ -66.409079, -17.486989 ], [ -66.412, -17.480889 ], [ -66.42405, -17.488119 ], [ -66.437754, -17.482051 ], [ -66.47428, -17.461968 ], [ -66.479799, -17.457998 ], [ -66.488594, -17.457401 ], [ -66.49521, -17.454153 ], [ -66.49667, -17.444604 ], [ -66.491242, -17.425792 ], [ -66.490365, -17.41174 ], [ -66.501454, -17.404628 ], [ -66.50852, -17.410137 ], [ -66.517434, -17.400187 ], [ -66.502101, -17.365643 ], [ -66.490231, -17.341523 ], [ -66.493034, -17.337131 ], [ -66.498944, -17.324722 ], [ -66.493166, -17.317934 ], [ -66.484423, -17.296106 ], [ -66.466683, -17.291909 ], [ -66.453766, -17.27422 ], [ -66.45382, -17.265402 ], [ -66.433309, -17.261402 ], [ -66.418162, -17.250687 ], [ -66.417478, -17.250601 ], [ -66.393974, -17.247705 ], [ -66.397983, -17.235394 ], [ -66.397876, -17.222497 ], [ -66.400007, -17.213291 ], [ -66.416059, -17.21773 ], [ -66.427987, -17.212944 ], [ -66.43493, -17.194937 ], [ -66.435384, -17.19477 ], [ -66.445868, -17.191598 ], [ -66.458936, -17.181552 ], [ -66.461423, -17.170547 ], [ -66.461435, -17.170547 ], [ -66.46152, -17.169848 ], [ -66.461867, -17.167819 ], [ -66.461885, -17.167525 ], [ -66.461907, -17.167433 ], [ -66.461945, -17.167298 ], [ -66.462008, -17.16712 ], [ -66.462151, -17.166473 ], [ -66.462083, -17.16603 ], [ -66.461957, -17.165816 ], [ -66.461794, -17.165637 ], [ -66.461612, -17.165475 ], [ -66.461449, -17.165314 ], [ -66.461222, -17.165051 ], [ -66.461136, -17.164926 ], [ -66.461063, -17.164881 ], [ -66.46089, -17.164608 ], [ -66.460693, -17.164346 ], [ -66.46047, -17.16397 ], [ -66.46026, -17.163675 ], [ -66.460077, -17.163494 ], [ -66.459868, -17.163256 ], [ -66.459856, -17.163221 ], [ -66.459598, -17.162904 ], [ -66.459195, -17.162531 ], [ -66.459036, -17.162361 ], [ -66.458839, -17.162111 ], [ -66.458839, -17.162088 ], [ -66.458778, -17.162043 ], [ -66.458679, -17.161906 ], [ -66.458472, -17.161737 ], [ -66.458448, -17.161692 ], [ -66.45835, -17.161613 ], [ -66.458129, -17.16134 ], [ -66.457578, -17.160751 ], [ -66.457249, -17.160458 ], [ -66.456879, -17.159946 ], [ -66.45634, -17.159334 ], [ -66.456304, -17.159311 ], [ -66.456131, -17.159073 ], [ -66.45613, -17.159027 ], [ -66.455935, -17.158906 ], [ -66.45565, -17.158671 ], [ -66.455413, -17.158437 ], [ -66.4554, -17.158413 ], [ -66.455215, -17.158269 ], [ -66.455033, -17.158155 ], [ -66.454904, -17.157947 ], [ -66.454843, -17.157802 ], [ -66.454822, -17.157538 ], [ -66.454925, -17.157346 ], [ -66.454894, -17.15716 ], [ -66.454784, -17.157036 ], [ -66.454698, -17.156899 ], [ -66.454526, -17.156683 ], [ -66.454475, -17.156546 ], [ -66.454463, -17.156546 ], [ -66.454461, -17.156454 ], [ -66.454435, -17.156374 ], [ -66.454428, -17.156029 ], [ -66.454402, -17.155937 ], [ -66.454381, -17.155524 ], [ -66.454343, -17.155398 ], [ -66.454341, -17.155329 ], [ -66.454187, -17.154802 ], [ -66.454184, -17.154675 ], [ -66.454105, -17.154355 ], [ -66.454103, -17.154263 ], [ -66.454066, -17.154171 ], [ -66.454017, -17.153562 ], [ -66.453962, -17.153229 ], [ -66.453732, -17.152554 ], [ -66.45372, -17.152555 ], [ -66.453705, -17.152405 ], [ -66.453578, -17.152074 ], [ -66.453529, -17.151994 ], [ -66.453415, -17.15172 ], [ -66.453408, -17.151363 ], [ -66.453356, -17.151157 ], [ -66.453229, -17.150837 ], [ -66.453202, -17.150676 ], [ -66.453199, -17.15055 ], [ -66.453241, -17.15025 ], [ -66.453412, -17.149879 ], [ -66.453514, -17.14959 ], [ -66.45351, -17.149394 ], [ -66.453589, -17.149197 ], [ -66.453625, -17.149185 ], [ -66.453753, -17.14901 ], [ -66.453975, -17.148788 ], [ -66.454021, -17.148707 ], [ -66.454076, -17.148487 ], [ -66.454178, -17.148221 ], [ -66.454295, -17.148069 ], [ -66.454294, -17.148035 ], [ -66.454351, -17.147896 ], [ -66.454375, -17.147895 ], [ -66.454528, -17.147778 ], [ -66.454512, -17.147594 ], [ -66.454437, -17.147457 ], [ -66.454364, -17.147366 ], [ -66.454326, -17.147263 ], [ -66.454383, -17.147136 ], [ -66.454533, -17.14688 ], [ -66.454704, -17.146509 ], [ -66.454724, -17.146313 ], [ -66.454771, -17.146278 ], [ -66.454864, -17.14615 ], [ -66.454946, -17.146068 ], [ -66.45498, -17.145964 ], [ -66.455022, -17.14571 ], [ -66.455019, -17.145584 ], [ -66.45504, -17.145456 ], [ -66.455104, -17.145383 ], [ -66.455193, -17.145316 ], [ -66.455312, -17.145279 ], [ -66.455371, -17.145232 ], [ -66.455381, -17.145163 ], [ -66.455361, -17.144761 ], [ -66.455384, -17.144726 ], [ -66.455428, -17.144564 ], [ -66.455565, -17.144251 ], [ -66.455589, -17.144251 ], [ -66.455607, -17.144122 ], [ -66.45566, -17.143842 ], [ -66.455734, -17.143727 ], [ -66.456011, -17.143052 ], [ -66.456335, -17.142425 ], [ -66.456463, -17.14196 ], [ -66.456589, -17.141634 ], [ -66.456662, -17.141264 ], [ -66.45662, -17.140989 ], [ -66.456582, -17.140863 ], [ -66.456552, -17.140587 ], [ -66.45654, -17.140588 ], [ -66.456501, -17.14045 ], [ -66.456339, -17.140119 ], [ -66.456178, -17.139857 ], [ -66.456102, -17.139697 ], [ -66.45588, -17.139368 ], [ -66.455672, -17.139152 ], [ -66.455137, -17.138747 ], [ -66.454894, -17.138533 ], [ -66.454529, -17.138274 ], [ -66.454322, -17.138082 ], [ -66.454199, -17.137923 ], [ -66.454112, -17.137775 ], [ -66.453747, -17.137459 ], [ -66.453501, -17.137175 ], [ -66.45339, -17.136993 ], [ -66.453267, -17.136845 ], [ -66.452915, -17.136587 ], [ -66.452469, -17.136433 ], [ -66.452396, -17.136354 ], [ -66.452391, -17.136124 ], [ -66.452354, -17.136067 ], [ -66.452257, -17.136011 ], [ -66.4521, -17.135956 ], [ -66.451979, -17.135878 ], [ -66.451895, -17.135856 ], [ -66.451822, -17.135811 ], [ -66.451774, -17.135812 ], [ -66.451605, -17.135723 ], [ -66.451252, -17.135429 ], [ -66.451167, -17.135385 ], [ -66.451118, -17.135317 ], [ -66.451045, -17.13526 ], [ -66.450787, -17.134942 ], [ -66.450579, -17.13475 ], [ -66.450579, -17.134727 ], [ -66.450433, -17.134615 ], [ -66.450409, -17.134615 ], [ -66.450336, -17.134547 ], [ -66.450252, -17.134526 ], [ -66.450143, -17.13447 ], [ -66.450047, -17.134449 ], [ -66.449938, -17.134393 ], [ -66.449866, -17.134383 ], [ -66.449673, -17.134282 ], [ -66.449576, -17.134249 ], [ -66.449502, -17.134159 ], [ -66.449365, -17.133896 ], [ -66.449254, -17.133737 ], [ -66.449041, -17.13328 ], [ -66.448721, -17.13286 ], [ -66.448672, -17.132769 ], [ -66.448489, -17.132611 ], [ -66.448319, -17.13251 ], [ -66.448078, -17.132399 ], [ -66.447835, -17.132219 ], [ -66.447676, -17.13206 ], [ -66.447577, -17.13189 ], [ -66.44755, -17.131763 ], [ -66.447546, -17.131579 ], [ -66.44747, -17.131385 ], [ -66.447361, -17.131283 ], [ -66.44707, -17.131104 ], [ -66.447019, -17.13099 ], [ -66.446933, -17.130876 ], [ -66.446869, -17.13067 ], [ -66.446808, -17.130602 ], [ -66.446736, -17.13058 ], [ -66.446305, -17.130565 ], [ -66.446219, -17.130474 ], [ -66.446219, -17.130451 ], [ -66.446097, -17.130349 ], [ -66.445999, -17.130225 ], [ -66.445803, -17.130032 ], [ -66.445621, -17.129886 ], [ -66.445475, -17.129796 ], [ -66.445294, -17.129719 ], [ -66.444603, -17.129293 ], [ -66.444545, -17.129235 ], [ -66.444311, -17.129022 ], [ -66.444126, -17.128772 ], [ -66.444004, -17.128659 ], [ -66.443881, -17.128511 ], [ -66.4436, -17.12824 ], [ -66.443441, -17.128058 ], [ -66.443161, -17.127798 ], [ -66.442663, -17.127461 ], [ -66.44235, -17.127351 ], [ -66.441905, -17.127255 ], [ -66.440506, -17.127267 ], [ -66.440167, -17.127244 ], [ -66.439867, -17.127221 ], [ -66.439727, -17.12718 ], [ -66.439587, -17.127121 ], [ -66.439528, -17.127023 ], [ -66.439463, -17.12678 ], [ -66.439474, -17.126637 ], [ -66.439578, -17.12633 ], [ -66.439786, -17.126025 ], [ -66.439833, -17.125929 ], [ -66.439926, -17.125827 ], [ -66.440019, -17.125722 ], [ -66.440135, -17.125547 ], [ -66.440194, -17.125489 ], [ -66.440309, -17.125384 ], [ -66.440389, -17.125324 ], [ -66.440523, -17.12523 ], [ -66.440675, -17.125055 ], [ -66.440804, -17.12495 ], [ -66.440815, -17.124915 ], [ -66.440886, -17.124856 ], [ -66.440764, -17.124766 ], [ -66.440656, -17.124722 ], [ -66.440607, -17.124677 ], [ -66.44058, -17.124551 ], [ -66.44058, -17.124511 ], [ -66.440625, -17.1244 ], [ -66.440689, -17.124285 ], [ -66.440871, -17.124143 ], [ -66.441, -17.124037 ], [ -66.441011, -17.123991 ], [ -66.440986, -17.123934 ], [ -66.440935, -17.123874 ], [ -66.440791, -17.123776 ], [ -66.440705, -17.123663 ], [ -66.44068, -17.123605 ], [ -66.440619, -17.12356 ], [ -66.440549, -17.123473 ], [ -66.440509, -17.123424 ], [ -66.440471, -17.123356 ], [ -66.440188, -17.122981 ], [ -66.439964, -17.122547 ], [ -66.43989, -17.122457 ], [ -66.439829, -17.122412 ], [ -66.439658, -17.122219 ], [ -66.439657, -17.122184 ], [ -66.43968, -17.122138 ], [ -66.43969, -17.122057 ], [ -66.439886, -17.121686 ], [ -66.439876, -17.121214 ], [ -66.439863, -17.12118 ], [ -66.43986, -17.121019 ], [ -66.439848, -17.121008 ], [ -66.439841, -17.120709 ], [ -66.439803, -17.120583 ], [ -66.439704, -17.120423 ], [ -66.439461, -17.120278 ], [ -66.439461, -17.120266 ], [ -66.439437, -17.120267 ], [ -66.439389, -17.120233 ], [ -66.43929, -17.120108 ], [ -66.439267, -17.120108 ], [ -66.439263, -17.119947 ], [ -66.439224, -17.11981 ], [ -66.439223, -17.119729 ], [ -66.43916, -17.119615 ], [ -66.439063, -17.119525 ], [ -66.438999, -17.119353 ], [ -66.438993, -17.119054 ], [ -66.439016, -17.119031 ], [ -66.439038, -17.118904 ], [ -66.439035, -17.118778 ], [ -66.438987, -17.118755 ], [ -66.438889, -17.118653 ], [ -66.438865, -17.118654 ], [ -66.438865, -17.118631 ], [ -66.438817, -17.118632 ], [ -66.438792, -17.118609 ], [ -66.438685, -17.118611 ], [ -66.438552, -17.118567 ], [ -66.438475, -17.118304 ], [ -66.438471, -17.11812 ], [ -66.43842, -17.117948 ], [ -66.438359, -17.117891 ], [ -66.438321, -17.117823 ], [ -66.43815, -17.117665 ], [ -66.438051, -17.117494 ], [ -66.438084, -17.117344 ], [ -66.438142, -17.117251 ], [ -66.438166, -17.11725 ], [ -66.438248, -17.117168 ], [ -66.438282, -17.117099 ], [ -66.438279, -17.116972 ], [ -66.438169, -17.116836 ], [ -66.438024, -17.116781 ], [ -66.437915, -17.116714 ], [ -66.437891, -17.116714 ], [ -66.43778, -17.116555 ], [ -66.437778, -17.11644 ], [ -66.437865, -17.116024 ], [ -66.438075, -17.115791 ], [ -66.438192, -17.115674 ], [ -66.438228, -17.115661 ], [ -66.438251, -17.115615 ], [ -66.438309, -17.115557 ], [ -66.438308, -17.115522 ], [ -66.4384, -17.115313 ], [ -66.438395, -17.115072 ], [ -66.438416, -17.114968 ], [ -66.438473, -17.11484 ], [ -66.438567, -17.114735 ], [ -66.438684, -17.114641 ], [ -66.438719, -17.114595 ], [ -66.438884, -17.114454 ], [ -66.438953, -17.114361 ], [ -66.439034, -17.114198 ], [ -66.439022, -17.113635 ], [ -66.439089, -17.113427 ], [ -66.439088, -17.113369 ], [ -66.4391, -17.113369 ], [ -66.439098, -17.113265 ], [ -66.439147, -17.112758 ], [ -66.439146, -17.11216 ], [ -66.439177, -17.111906 ], [ -66.439161, -17.111159 ], [ -66.439134, -17.111021 ], [ -66.439088, -17.110527 ], [ -66.439082, -17.110274 ], [ -66.439045, -17.110217 ], [ -66.439044, -17.110148 ], [ -66.438992, -17.109953 ], [ -66.438924, -17.109563 ], [ -66.438921, -17.109414 ], [ -66.438836, -17.108817 ], [ -66.438551, -17.107763 ], [ -66.438256, -17.107389 ], [ -66.438097, -17.107242 ], [ -66.437724, -17.106534 ], [ -66.434877, -17.098362 ], [ -66.433857, -17.095434 ], [ -66.431504, -17.093268 ], [ -66.430038, -17.089387 ], [ -66.429051, -17.087462 ], [ -66.428836, -17.086109 ], [ -66.426393, -17.085215 ], [ -66.425092, -17.083473 ], [ -66.424521, -17.082491 ], [ -66.424495, -17.081515 ], [ -66.422951, -17.080483 ], [ -66.420046, -17.079171 ], [ -66.419781, -17.078621 ], [ -66.419464, -17.078252 ], [ -66.419359, -17.077738 ], [ -66.419083, -17.077369 ], [ -66.418429, -17.076956 ], [ -66.417596, -17.076533 ], [ -66.416301, -17.076154 ], [ -66.415691, -17.075815 ], [ -66.414517, -17.075156 ], [ -66.414197, -17.074883 ], [ -66.413645, -17.073695 ], [ -66.412194, -17.072053 ], [ -66.409672, -17.070369 ], [ -66.407973, -17.069141 ], [ -66.406918, -17.068754 ], [ -66.40606, -17.068647 ], [ -66.404973, -17.068347 ], [ -66.404187, -17.067807 ], [ -66.402765, -17.066272 ], [ -66.401904, -17.065331 ], [ -66.401323, -17.0644 ], [ -66.400192, -17.063615 ], [ -66.398302, -17.063129 ], [ -66.39767, -17.063052 ], [ -66.397049, -17.062849 ], [ -66.396443, -17.06205 ], [ -66.395928, -17.061339 ], [ -66.39576, -17.060561 ], [ -66.395275, -17.059715 ], [ -66.39464, -17.0591 ], [ -66.394173, -17.05894 ], [ -66.393045, -17.058964 ], [ -66.391437, -17.058904 ], [ -66.390701, -17.058766 ], [ -66.390115, -17.05841 ], [ -66.389679, -17.057952 ], [ -66.389469, -17.057614 ], [ -66.389096, -17.057428 ], [ -66.387985, -17.057591 ], [ -66.3875, -17.057422 ], [ -66.386781, -17.056773 ], [ -66.386452, -17.056248 ], [ -66.385605, -17.055264 ], [ -66.385079, -17.054787 ], [ -66.382834, -17.053748 ], [ -66.382165, -17.053018 ], [ -66.380951, -17.050134 ], [ -66.380698, -17.049653 ], [ -66.379994, -17.04755 ], [ -66.380119, -17.047096 ], [ -66.380431, -17.046759 ], [ -66.380106, -17.046299 ], [ -66.379588, -17.046156 ], [ -66.377673, -17.046131 ], [ -66.375025, -17.046074 ], [ -66.37271, -17.045908 ], [ -66.370913, -17.04593 ], [ -66.369396, -17.045886 ], [ -66.367988, -17.045991 ], [ -66.36743, -17.046257 ], [ -66.366734, -17.046262 ], [ -66.365837, -17.046428 ], [ -66.365309, -17.046599 ], [ -66.36474, -17.04666 ], [ -66.363981, -17.047142 ], [ -66.363459, -17.047847 ], [ -66.363107, -17.048662 ], [ -66.362718, -17.049081 ], [ -66.361921, -17.049523 ], [ -66.361319, -17.050009 ], [ -66.360324, -17.0503 ], [ -66.359153, -17.050588 ], [ -66.358938, -17.050877 ], [ -66.358738, -17.052717 ], [ -66.358618, -17.052951 ], [ -66.357508, -17.053576 ], [ -66.356728, -17.054032 ], [ -66.355938, -17.055163 ], [ -66.355606, -17.056346 ], [ -66.354783, -17.05658 ], [ -66.353851, -17.056627 ], [ -66.352981, -17.056616 ], [ -66.352053, -17.056425 ], [ -66.350712, -17.055121 ], [ -66.350641, -17.059632 ], [ -66.350495, -17.061183 ], [ -66.350599, -17.062619 ], [ -66.350405, -17.064216 ], [ -66.349477, -17.066186 ], [ -66.34802, -17.067662 ], [ -66.346512, -17.067932 ], [ -66.346168, -17.068362 ], [ -66.345731, -17.069967 ], [ -66.345321, -17.072387 ], [ -66.344678, -17.074063 ], [ -66.344101, -17.074629 ], [ -66.343218, -17.075817 ], [ -66.341632, -17.076865 ], [ -66.340776, -17.076129 ], [ -66.340024, -17.073216 ], [ -66.337732, -17.075015 ], [ -66.336444, -17.07419 ], [ -66.334493, -17.072314 ], [ -66.333337, -17.071725 ], [ -66.33078, -17.071584 ], [ -66.328339, -17.072092 ], [ -66.326146, -17.071658 ], [ -66.325157, -17.072095 ], [ -66.323525, -17.068718 ], [ -66.318316, -17.052772 ], [ -66.301906, -17.041573 ], [ -66.300057, -17.026466 ], [ -66.312678, -17.011037 ], [ -66.350068, -16.995523 ], [ -66.31086, -16.971402 ], [ -66.29458, -16.985636 ], [ -66.282355, -16.982764 ], [ -66.280794, -16.981943 ], [ -66.280449, -16.981487 ], [ -66.279102, -16.980204 ], [ -66.27814, -16.979227 ], [ -66.27747, -16.978817 ], [ -66.276143, -16.977645 ], [ -66.275006, -16.976966 ], [ -66.27409, -16.976789 ], [ -66.272291, -16.97624 ], [ -66.270458, -16.976049 ], [ -66.269632, -16.975652 ], [ -66.269471, -16.974903 ], [ -66.269018, -16.974483 ], [ -66.268343, -16.973507 ], [ -66.267948, -16.973042 ], [ -66.264282, -16.970595 ], [ -66.263392, -16.970135 ], [ -66.262009, -16.969381 ], [ -66.261787, -16.968888 ], [ -66.262126, -16.967305 ], [ -66.263113, -16.966664 ], [ -66.263378, -16.965931 ], [ -66.262208, -16.964606 ], [ -66.261425, -16.962959 ], [ -66.260646, -16.960985 ], [ -66.259655, -16.959049 ], [ -66.258363, -16.957314 ], [ -66.257324, -16.955786 ], [ -66.256347, -16.955773 ], [ -66.254954, -16.955727 ], [ -66.253714, -16.954787 ], [ -66.252425, -16.953823 ], [ -66.251102, -16.951816 ], [ -66.250497, -16.951145 ], [ -66.250119, -16.950122 ], [ -66.249584, -16.949713 ], [ -66.247601, -16.949189 ], [ -66.246332, -16.94858 ], [ -66.244986, -16.948159 ], [ -66.243249, -16.948206 ], [ -66.241212, -16.947466 ], [ -66.240304, -16.947303 ], [ -66.238524, -16.946485 ], [ -66.236965, -16.946157 ], [ -66.235817, -16.94584 ], [ -66.234964, -16.945646 ], [ -66.234163, -16.945287 ], [ -66.233883, -16.944962 ], [ -66.233528, -16.944813 ], [ -66.232891, -16.944641 ], [ -66.232183, -16.94416 ], [ -66.231319, -16.94404 ], [ -66.229456, -16.942855 ], [ -66.228889, -16.94301 ], [ -66.228066, -16.942673 ], [ -66.227357, -16.942265 ], [ -66.226872, -16.941987 ], [ -66.226475, -16.940858 ], [ -66.226191, -16.940363 ], [ -66.225656, -16.939695 ], [ -66.225249, -16.939259 ], [ -66.224271, -16.937663 ], [ -66.223535, -16.936536 ], [ -66.223154, -16.936401 ], [ -66.222741, -16.936211 ], [ -66.222377, -16.935697 ], [ -66.221954, -16.934618 ], [ -66.221515, -16.933865 ], [ -66.221247, -16.93372 ], [ -66.220494, -16.933667 ], [ -66.220126, -16.933477 ], [ -66.219985, -16.933119 ], [ -66.219863, -16.933008 ], [ -66.219498, -16.932872 ], [ -66.219315, -16.932726 ], [ -66.219244, -16.932673 ], [ -66.21914, -16.932533 ], [ -66.219152, -16.931988 ], [ -66.219232, -16.931468 ], [ -66.219616, -16.930558 ], [ -66.219427, -16.92968 ], [ -66.218768, -16.92873 ], [ -66.218681, -16.925455 ], [ -66.218931, -16.924485 ], [ -66.219649, -16.923749 ], [ -66.219517, -16.921284 ], [ -66.217789, -16.919571 ], [ -66.217835, -16.920003 ], [ -66.217787, -16.920087 ], [ -66.21777, -16.920166 ], [ -66.217736, -16.920213 ], [ -66.217693, -16.920341 ], [ -66.217657, -16.920354 ], [ -66.217624, -16.920435 ], [ -66.217591, -16.920493 ], [ -66.217579, -16.920494 ], [ -66.217522, -16.920576 ], [ -66.217485, -16.920614 ], [ -66.217483, -16.920618 ], [ -66.217476, -16.920623 ], [ -66.217429, -16.920625 ], [ -66.217323, -16.920674 ], [ -66.217228, -16.920689 ], [ -66.216897, -16.920769 ], [ -66.216754, -16.920773 ], [ -66.216589, -16.920824 ], [ -66.216365, -16.920912 ], [ -66.216282, -16.920938 ], [ -66.216143, -16.921034 ], [ -66.216085, -16.921093 ], [ -66.215981, -16.921177 ], [ -66.215899, -16.921226 ], [ -66.215842, -16.921296 ], [ -66.215795, -16.921321 ], [ -66.215785, -16.921356 ], [ -66.215668, -16.921428 ], [ -66.215669, -16.921451 ], [ -66.21552, -16.921577 ], [ -66.215333, -16.921738 ], [ -66.215263, -16.921774 ], [ -66.215109, -16.921814 ], [ -66.214919, -16.92182 ], [ -66.214847, -16.921834 ], [ -66.214669, -16.921839 ], [ -66.214393, -16.921802 ], [ -66.214226, -16.921808 ], [ -66.214094, -16.921778 ], [ -66.2137, -16.92179 ], [ -66.213629, -16.921804 ], [ -66.213559, -16.921829 ], [ -66.213535, -16.92183 ], [ -66.213476, -16.921855 ], [ -66.213452, -16.921856 ], [ -66.21337, -16.921904 ], [ -66.213301, -16.921964 ], [ -66.213208, -16.922025 ], [ -66.212931, -16.922286 ], [ -66.212669, -16.922627 ], [ -66.212543, -16.922769 ], [ -66.212283, -16.92318 ], [ -66.212195, -16.923366 ], [ -66.212104, -16.923495 ], [ -66.212037, -16.923612 ], [ -66.212038, -16.923647 ], [ -66.211958, -16.923741 ], [ -66.211925, -16.923811 ], [ -66.211901, -16.923823 ], [ -66.211902, -16.923835 ], [ -66.211745, -16.924115 ], [ -66.211563, -16.924351 ], [ -66.211009, -16.924885 ], [ -66.210928, -16.924934 ], [ -66.210857, -16.924959 ], [ -66.210799, -16.924996 ], [ -66.210681, -16.925045 ], [ -66.210587, -16.925094 ], [ -66.210423, -16.925157 ], [ -66.210211, -16.925256 ], [ -66.210153, -16.925292 ], [ -66.210082, -16.925317 ], [ -66.210024, -16.925354 ], [ -66.209908, -16.925449 ], [ -66.209666, -16.925675 ], [ -66.209609, -16.925746 ], [ -66.209474, -16.925968 ], [ -66.209374, -16.926167 ], [ -66.209342, -16.926271 ], [ -66.209243, -16.926515 ], [ -66.209201, -16.926678 ], [ -66.209147, -16.926817 ], [ -66.209116, -16.926967 ], [ -66.209073, -16.927072 ], [ -66.209033, -16.927303 ], [ -66.208991, -16.927442 ], [ -66.2089, -16.927893 ], [ -66.208902, -16.92795 ], [ -66.208881, -16.92802 ], [ -66.208883, -16.928088 ], [ -66.208841, -16.928239 ], [ -66.208822, -16.928377 ], [ -66.208746, -16.928587 ], [ -66.20868, -16.928726 ], [ -66.2086, -16.928844 ], [ -66.208534, -16.928972 ], [ -66.20842, -16.929137 ], [ -66.208329, -16.929243 ], [ -66.208192, -16.929431 ], [ -66.208023, -16.929701 ], [ -66.207849, -16.930165 ], [ -66.207851, -16.9302 ], [ -66.20783, -16.930292 ], [ -66.207823, -16.930419 ], [ -66.207801, -16.930477 ], [ -66.207781, -16.930592 ], [ -66.207739, -16.930732 ], [ -66.207619, -16.931057 ], [ -66.207552, -16.931185 ], [ -66.20752, -16.93129 ], [ -66.207409, -16.931511 ], [ -66.207128, -16.931968 ], [ -66.206967, -16.932157 ], [ -66.206783, -16.932335 ], [ -66.206644, -16.932443 ], [ -66.206551, -16.932526 ], [ -66.20611, -16.932851 ], [ -66.205655, -16.933141 ], [ -66.205562, -16.933213 ], [ -66.205434, -16.933297 ], [ -66.205028, -16.933632 ], [ -66.204949, -16.933738 ], [ -66.204868, -16.933821 ], [ -66.204573, -16.934244 ], [ -66.204348, -16.934595 ], [ -66.204245, -16.934725 ], [ -66.203996, -16.9351 ], [ -66.203964, -16.935205 ], [ -66.203884, -16.935299 ], [ -66.203625, -16.935721 ], [ -66.203581, -16.935814 ], [ -66.203535, -16.935884 ], [ -66.203147, -16.936678 ], [ -66.203148, -16.936701 ], [ -66.203136, -16.936701 ], [ -66.202973, -16.937143 ], [ -66.202839, -16.937399 ], [ -66.20276, -16.937528 ], [ -66.202669, -16.937635 ], [ -66.202623, -16.937705 ], [ -66.202256, -16.938096 ], [ -66.202209, -16.938132 ], [ -66.20221, -16.938143 ], [ -66.201711, -16.938538 ], [ -66.201595, -16.938622 ], [ -66.201478, -16.938683 ], [ -66.201373, -16.938756 ], [ -66.201279, -16.938793 ], [ -66.201197, -16.938842 ], [ -66.201126, -16.938855 ], [ -66.200902, -16.938943 ], [ -66.200784, -16.93897 ], [ -66.200655, -16.93902 ], [ -66.200536, -16.939047 ], [ -66.200029, -16.939212 ], [ -66.199876, -16.939275 ], [ -66.199782, -16.939301 ], [ -66.199653, -16.939374 ], [ -66.199571, -16.939411 ], [ -66.199441, -16.939449 ], [ -66.199289, -16.939535 ], [ -66.198999, -16.939751 ], [ -66.198838, -16.939928 ], [ -66.19877, -16.940034 ], [ -66.198657, -16.940186 ], [ -66.198589, -16.940292 ], [ -66.198475, -16.940445 ], [ -66.198408, -16.940562 ], [ -66.198352, -16.940678 ], [ -66.198273, -16.940796 ], [ -66.198218, -16.940924 ], [ -66.19814, -16.941064 ], [ -66.198096, -16.941169 ], [ -66.19805, -16.941228 ], [ -66.197941, -16.941518 ], [ -66.197908, -16.941577 ], [ -66.197909, -16.941611 ], [ -66.197886, -16.941646 ], [ -66.197888, -16.941692 ], [ -66.197813, -16.941913 ], [ -66.197813, -16.941936 ], [ -66.19778, -16.941994 ], [ -66.197781, -16.942017 ], [ -66.197704, -16.942215 ], [ -66.197682, -16.94225 ], [ -66.197683, -16.942284 ], [ -66.197616, -16.942413 ], [ -66.197409, -16.942626 ], [ -66.197074, -16.942924 ], [ -66.197062, -16.942924 ], [ -66.196914, -16.943124 ], [ -66.196845, -16.943184 ], [ -66.196744, -16.943382 ], [ -66.196646, -16.943615 ], [ -66.196625, -16.943708 ], [ -66.196495, -16.944068 ], [ -66.196461, -16.944126 ], [ -66.196441, -16.944219 ], [ -66.196407, -16.944277 ], [ -66.196375, -16.944382 ], [ -66.196365, -16.944439 ], [ -66.19632, -16.944498 ], [ -66.19631, -16.944544 ], [ -66.196232, -16.944696 ], [ -66.196163, -16.94479 ], [ -66.196119, -16.944872 ], [ -66.196073, -16.944931 ], [ -66.19604, -16.945001 ], [ -66.195948, -16.945096 ], [ -66.195858, -16.945248 ], [ -66.1958, -16.945296 ], [ -66.195665, -16.94553 ], [ -66.195563, -16.945682 ], [ -66.195519, -16.945787 ], [ -66.195397, -16.946032 ], [ -66.195331, -16.946183 ], [ -66.19523, -16.946359 ], [ -66.195162, -16.946453 ], [ -66.195004, -16.946699 ], [ -66.194901, -16.946829 ], [ -66.194845, -16.946922 ], [ -66.194741, -16.947029 ], [ -66.194684, -16.9471 ], [ -66.194316, -16.947467 ], [ -66.194235, -16.947539 ], [ -66.194131, -16.947646 ], [ -66.194063, -16.947728 ], [ -66.193602, -16.948179 ], [ -66.193405, -16.948335 ], [ -66.193323, -16.948383 ], [ -66.1933, -16.948407 ], [ -66.193195, -16.948479 ], [ -66.193089, -16.948517 ], [ -66.193018, -16.948531 ], [ -66.192924, -16.948568 ], [ -66.19244, -16.94871 ], [ -66.192274, -16.94875 ], [ -66.191921, -16.948888 ], [ -66.19177, -16.949007 ], [ -66.191759, -16.949031 ], [ -66.19169, -16.949102 ], [ -66.191691, -16.949113 ], [ -66.191667, -16.949114 ], [ -66.191633, -16.949184 ], [ -66.191599, -16.94922 ], [ -66.191568, -16.949358 ], [ -66.191525, -16.949475 ], [ -66.191526, -16.949498 ], [ -66.191504, -16.949556 ], [ -66.191456, -16.949879 ], [ -66.191413, -16.950006 ], [ -66.191404, -16.950087 ], [ -66.191339, -16.950284 ], [ -66.191257, -16.950643 ], [ -66.191158, -16.950864 ], [ -66.191136, -16.950934 ], [ -66.191023, -16.951087 ], [ -66.190711, -16.951384 ], [ -66.190618, -16.951444 ], [ -66.190524, -16.951493 ], [ -66.190431, -16.951553 ], [ -66.190255, -16.951628 ], [ -66.190114, -16.951701 ], [ -66.189879, -16.951789 ], [ -66.189748, -16.951816 ], [ -66.18969, -16.951841 ], [ -66.189583, -16.951868 ], [ -66.189523, -16.95187 ], [ -66.189323, -16.951933 ], [ -66.189239, -16.951936 ], [ -66.189169, -16.951961 ], [ -66.189133, -16.951963 ], [ -66.189062, -16.951988 ], [ -66.188899, -16.952096 ], [ -66.188875, -16.952097 ], [ -66.188818, -16.952156 ], [ -66.188725, -16.952228 ], [ -66.18869, -16.952264 ], [ -66.188691, -16.952275 ], [ -66.188655, -16.952276 ], [ -66.188509, -16.952534 ], [ -66.18844, -16.952605 ], [ -66.188442, -16.952651 ], [ -66.188397, -16.952721 ], [ -66.188399, -16.952767 ], [ -66.188308, -16.952908 ], [ -66.188264, -16.953001 ], [ -66.188207, -16.953072 ], [ -66.187971, -16.953469 ], [ -66.187938, -16.953562 ], [ -66.187857, -16.953634 ], [ -66.187815, -16.953773 ], [ -66.187723, -16.953891 ], [ -66.187645, -16.954031 ], [ -66.187577, -16.954125 ], [ -66.187533, -16.95423 ], [ -66.187419, -16.954383 ], [ -66.18742, -16.954394 ], [ -66.187385, -16.95443 ], [ -66.18734, -16.954512 ], [ -66.187295, -16.95457 ], [ -66.187261, -16.95464 ], [ -66.187135, -16.954771 ], [ -66.186872, -16.955078 ], [ -66.186781, -16.955207 ], [ -66.186746, -16.955231 ], [ -66.1867, -16.95529 ], [ -66.186701, -16.955313 ], [ -66.186622, -16.95543 ], [ -66.186578, -16.955523 ], [ -66.186487, -16.955653 ], [ -66.186465, -16.955722 ], [ -66.18641, -16.95585 ], [ -66.186349, -16.956116 ], [ -66.18633, -16.956255 ], [ -66.186323, -16.956404 ], [ -66.186305, -16.956565 ], [ -66.186312, -16.956749 ], [ -66.186293, -16.956876 ], [ -66.186302, -16.957128 ], [ -66.186315, -16.957151 ], [ -66.186346, -16.957356 ], [ -66.186363, -16.957815 ], [ -66.186325, -16.95808 ], [ -66.186227, -16.958347 ], [ -66.186184, -16.958487 ], [ -66.186076, -16.958789 ], [ -66.186032, -16.958882 ], [ -66.185975, -16.958964 ], [ -66.185931, -16.959057 ], [ -66.185714, -16.959328 ], [ -66.185529, -16.959506 ], [ -66.185356, -16.959661 ], [ -66.185216, -16.959758 ], [ -66.185065, -16.959877 ], [ -66.184949, -16.95995 ], [ -66.184891, -16.959998 ], [ -66.184844, -16.960022 ], [ -66.184682, -16.960154 ], [ -66.184613, -16.960236 ], [ -66.184569, -16.960352 ], [ -66.184525, -16.960434 ], [ -66.184481, -16.96055 ], [ -66.184462, -16.960677 ], [ -66.184418, -16.960782 ], [ -66.184386, -16.960898 ], [ -66.18438, -16.961059 ], [ -66.184326, -16.961198 ], [ -66.184285, -16.961395 ], [ -66.184166, -16.96172 ], [ -66.184109, -16.961814 ], [ -66.184077, -16.961895 ], [ -66.184032, -16.961977 ], [ -66.18402, -16.961977 ], [ -66.184021, -16.962 ], [ -66.183975, -16.962048 ], [ -66.183874, -16.962235 ], [ -66.183828, -16.962271 ], [ -66.183678, -16.962425 ], [ -66.183447, -16.962627 ], [ -66.183295, -16.962713 ], [ -66.18313, -16.962787 ], [ -66.18286, -16.962887 ], [ -66.182421, -16.962959 ], [ -66.182268, -16.963021 ], [ -66.181724, -16.963176 ], [ -66.18157, -16.963204 ], [ -66.181416, -16.963244 ], [ -66.180812, -16.963355 ], [ -66.180185, -16.963501 ], [ -66.18009, -16.963539 ], [ -66.17996, -16.963566 ], [ -66.179831, -16.963628 ], [ -66.179595, -16.963704 ], [ -66.17942, -16.963801 ], [ -66.179302, -16.963851 ], [ -66.179209, -16.963912 ], [ -66.179103, -16.963949 ], [ -66.17908, -16.963973 ], [ -66.179068, -16.963974 ], [ -66.179068, -16.963985 ], [ -66.178999, -16.964056 ], [ -66.179, -16.96409 ], [ -66.178989, -16.964091 ], [ -66.178817, -16.964303 ], [ -66.178772, -16.964385 ], [ -66.178726, -16.964421 ], [ -66.178703, -16.964456 ], [ -66.178684, -16.964583 ], [ -66.178629, -16.964711 ], [ -66.178633, -16.964814 ], [ -66.178601, -16.96493 ], [ -66.178579, -16.964977 ], [ -66.178548, -16.965115 ], [ -66.178527, -16.965173 ], [ -66.178493, -16.965232 ], [ -66.17844, -16.965406 ], [ -66.178338, -16.96557 ], [ -66.178247, -16.965699 ], [ -66.178041, -16.965935 ], [ -66.177695, -16.966268 ], [ -66.177242, -16.966615 ], [ -66.177149, -16.966676 ], [ -66.177137, -16.966676 ], [ -66.176787, -16.966905 ], [ -66.176471, -16.967065 ], [ -66.176156, -16.96727 ], [ -66.175993, -16.967367 ], [ -66.175795, -16.9675 ], [ -66.175409, -16.96773 ], [ -66.175304, -16.967803 ], [ -66.175211, -16.967852 ], [ -66.175094, -16.967936 ], [ -66.174978, -16.968008 ], [ -66.174385, -16.968464 ], [ -66.174339, -16.968511 ], [ -66.174316, -16.968523 ], [ -66.174292, -16.968524 ], [ -66.174095, -16.968691 ], [ -66.174025, -16.968739 ], [ -66.174014, -16.96874 ], [ -66.173944, -16.968799 ], [ -66.173792, -16.968896 ], [ -66.173676, -16.96898 ], [ -66.173547, -16.969053 ], [ -66.173432, -16.969149 ], [ -66.17328, -16.969245 ], [ -66.173164, -16.969341 ], [ -66.173047, -16.969413 ], [ -66.1727, -16.969712 ], [ -66.172655, -16.96977 ], [ -66.172598, -16.969864 ], [ -66.17253, -16.969947 ], [ -66.172485, -16.97004 ], [ -66.172488, -16.970109 ], [ -66.172439, -16.970397 ], [ -66.172416, -16.970421 ], [ -66.172423, -16.970616 ], [ -66.172389, -16.970686 ], [ -66.172398, -16.970927 ], [ -66.172367, -16.971066 ], [ -66.172369, -16.9711 ], [ -66.172304, -16.971297 ], [ -66.172294, -16.971355 ], [ -66.172261, -16.971413 ], [ -66.172206, -16.971553 ], [ -66.172116, -16.971705 ], [ -66.172014, -16.971846 ], [ -66.171922, -16.971952 ], [ -66.171829, -16.972024 ], [ -66.171668, -16.972179 ], [ -66.171563, -16.972251 ], [ -66.171446, -16.972312 ], [ -66.171365, -16.972372 ], [ -66.171213, -16.972457 ], [ -66.17113, -16.972494 ], [ -66.171002, -16.972567 ], [ -66.170955, -16.972603 ], [ -66.170663, -16.972785 ], [ -66.170641, -16.97282 ], [ -66.170594, -16.972856 ], [ -66.170553, -16.973018 ], [ -66.170517, -16.973341 ], [ -66.170513, -16.97357 ], [ -66.170472, -16.973767 ], [ -66.170474, -16.973824 ], [ -66.17041, -16.97401 ], [ -66.170241, -16.974302 ], [ -66.170196, -16.974361 ], [ -66.170127, -16.974432 ], [ -66.170081, -16.974503 ], [ -66.169783, -16.974822 ], [ -66.169772, -16.974845 ], [ -66.169461, -16.975177 ], [ -66.169288, -16.975332 ], [ -66.169265, -16.975367 ], [ -66.169196, -16.975426 ], [ -66.169163, -16.975496 ], [ -66.169038, -16.975673 ], [ -66.169005, -16.975766 ], [ -66.168997, -16.975858 ], [ -66.168977, -16.975962 ], [ -66.168985, -16.976179 ], [ -66.168976, -16.976283 ], [ -66.168979, -16.976363 ], [ -66.168945, -16.97641 ], [ -66.16894, -16.976583 ], [ -66.168908, -16.976699 ], [ -66.168852, -16.976815 ], [ -66.168784, -16.976898 ], [ -66.168564, -16.9771 ], [ -66.168494, -16.977137 ], [ -66.168471, -16.97716 ], [ -66.168412, -16.977185 ], [ -66.168377, -16.977209 ], [ -66.168307, -16.977234 ], [ -66.168237, -16.977294 ], [ -66.168015, -16.977405 ], [ -66.167862, -16.97749 ], [ -66.167758, -16.977562 ], [ -66.167607, -16.977693 ], [ -66.167505, -16.977823 ], [ -66.167458, -16.97787 ], [ -66.167415, -16.977998 ], [ -66.167348, -16.978126 ], [ -66.167317, -16.978242 ], [ -66.16725, -16.978382 ], [ -66.167218, -16.978475 ], [ -66.167151, -16.978615 ], [ -66.16712, -16.978731 ], [ -66.167076, -16.978847 ], [ -66.167043, -16.978905 ], [ -66.167031, -16.978906 ], [ -66.167041, -16.979181 ], [ -66.167029, -16.979181 ], [ -66.167, -16.979366 ], [ -66.166913, -16.97961 ], [ -66.166858, -16.979738 ], [ -66.166802, -16.979843 ], [ -66.166769, -16.979924 ], [ -66.166713, -16.980029 ], [ -66.166651, -16.980284 ], [ -66.166643, -16.980387 ], [ -66.166612, -16.980538 ], [ -66.166588, -16.98086 ], [ -66.166547, -16.981033 ], [ -66.16651, -16.981333 ], [ -66.166458, -16.981541 ], [ -66.166347, -16.981763 ], [ -66.166324, -16.981787 ], [ -66.166324, -16.98181 ], [ -66.166141, -16.982011 ], [ -66.166001, -16.982119 ], [ -66.165605, -16.982384 ], [ -66.165477, -16.982457 ], [ -66.16529, -16.982578 ], [ -66.165116, -16.98271 ], [ -66.165022, -16.982758 ], [ -66.164988, -16.982805 ], [ -66.164929, -16.98283 ], [ -66.16493, -16.982842 ], [ -66.164872, -16.982901 ], [ -66.164747, -16.983077 ], [ -66.164701, -16.983125 ], [ -66.164679, -16.983171 ], [ -66.164644, -16.983195 ], [ -66.164524, -16.983498 ], [ -66.164479, -16.983579 ], [ -66.164456, -16.983603 ], [ -66.164402, -16.983754 ], [ -66.164357, -16.983836 ], [ -66.164358, -16.98387 ], [ -66.164302, -16.983953 ], [ -66.164281, -16.984045 ], [ -66.164203, -16.984197 ], [ -66.164169, -16.984244 ], [ -66.164171, -16.98429 ], [ -66.164127, -16.984394 ], [ -66.164004, -16.984639 ], [ -66.163958, -16.984687 ], [ -66.163902, -16.98478 ], [ -66.163765, -16.984957 ], [ -66.163661, -16.985052 ], [ -66.163568, -16.985124 ], [ -66.163218, -16.985353 ], [ -66.163078, -16.985427 ], [ -66.162962, -16.985511 ], [ -66.162739, -16.985621 ], [ -66.162657, -16.985681 ], [ -66.162622, -16.985694 ], [ -66.162483, -16.985802 ], [ -66.162424, -16.985827 ], [ -66.162342, -16.985875 ], [ -66.16218, -16.986007 ], [ -66.162017, -16.986127 ], [ -66.161855, -16.98627 ], [ -66.161634, -16.986426 ], [ -66.161269, -16.986788 ], [ -66.161242, -16.986806 ], [ -66.161136, -16.986855 ], [ -66.161101, -16.986879 ], [ -66.161043, -16.986904 ], [ -66.16102, -16.986928 ], [ -66.16096, -16.98693 ], [ -66.160925, -16.986942 ], [ -66.160746, -16.986948 ], [ -66.16065, -16.986928 ], [ -66.16059, -16.98693 ], [ -66.160493, -16.986899 ], [ -66.160422, -16.986901 ], [ -66.160314, -16.986881 ], [ -66.160016, -16.986892 ], [ -66.159921, -16.986928 ], [ -66.159804, -16.986978 ], [ -66.159746, -16.987026 ], [ -66.159687, -16.987051 ], [ -66.159536, -16.98717 ], [ -66.159491, -16.987229 ], [ -66.15926, -16.987443 ], [ -66.159214, -16.987502 ], [ -66.159202, -16.987503 ], [ -66.159054, -16.987702 ], [ -66.159021, -16.987772 ], [ -66.158987, -16.987819 ], [ -66.158932, -16.987947 ], [ -66.158841, -16.988065 ], [ -66.158807, -16.988135 ], [ -66.158762, -16.988205 ], [ -66.158407, -16.98863 ], [ -66.158351, -16.988724 ], [ -66.158282, -16.988783 ], [ -66.158156, -16.988948 ], [ -66.158144, -16.988949 ], [ -66.158134, -16.988983 ], [ -66.157965, -16.989276 ], [ -66.15792, -16.989335 ], [ -66.157654, -16.989917 ], [ -66.157594, -16.990217 ], [ -66.157555, -16.990471 ], [ -66.157568, -16.990815 ], [ -66.157595, -16.990918 ], [ -66.157621, -16.990963 ], [ -66.157624, -16.991066 ], [ -66.157668, -16.991283 ], [ -66.157672, -16.991397 ], [ -66.157631, -16.991582 ], [ -66.157534, -16.991873 ], [ -66.157503, -16.992 ], [ -66.157428, -16.99222 ], [ -66.157429, -16.992266 ], [ -66.157417, -16.992267 ], [ -66.157388, -16.99244 ], [ -66.157367, -16.992521 ], [ -66.157368, -16.992544 ], [ -66.157313, -16.992672 ], [ -66.157315, -16.992729 ], [ -66.157258, -16.992823 ], [ -66.157218, -16.993019 ], [ -66.157195, -16.993043 ], [ -66.157151, -16.993148 ], [ -66.156961, -16.993165 ], [ -66.15689, -16.99319 ], [ -66.156712, -16.993231 ], [ -66.156618, -16.993268 ], [ -66.156372, -16.993402 ], [ -66.156199, -16.993557 ], [ -66.156085, -16.993721 ], [ -66.155903, -16.993957 ], [ -66.155858, -16.994038 ], [ -66.15584, -16.9942 ], [ -66.155807, -16.994281 ], [ -66.155809, -16.994339 ], [ -66.155713, -16.994629 ], [ -66.155623, -16.994792 ], [ -66.155486, -16.994969 ], [ -66.15543, -16.995062 ], [ -66.155383, -16.995098 ], [ -66.15535, -16.995157 ], [ -66.155351, -16.995203 ], [ -66.155261, -16.995343 ], [ -66.155169, -16.99545 ], [ -66.155101, -16.995555 ], [ -66.154885, -16.995826 ], [ -66.154723, -16.995992 ], [ -66.154587, -16.996169 ], [ -66.154403, -16.99637 ], [ -66.154277, -16.996523 ], [ -66.154093, -16.996712 ], [ -66.153968, -16.996889 ], [ -66.153899, -16.99696 ], [ -66.153743, -16.997263 ], [ -66.153675, -16.997369 ], [ -66.153574, -16.997556 ], [ -66.153517, -16.997626 ], [ -66.153496, -16.997696 ], [ -66.153153, -16.998109 ], [ -66.1529, -16.998381 ], [ -66.152773, -16.9985 ], [ -66.152669, -16.998583 ], [ -66.152589, -16.998678 ], [ -66.152404, -16.998844 ], [ -66.152021, -16.999167 ], [ -66.15186, -16.999321 ], [ -66.151848, -16.999321 ], [ -66.15172, -16.999417 ], [ -66.151626, -16.999455 ], [ -66.151556, -16.999514 ], [ -66.151475, -16.999563 ], [ -66.151393, -16.999623 ], [ -66.151288, -16.999684 ], [ -66.1511, -16.999863 ], [ -66.151058, -16.999932 ], [ -66.151014, -17.000025 ], [ -66.15098, -17.000072 ], [ -66.150913, -17.000201 ], [ -66.150869, -17.000305 ], [ -66.150824, -17.000387 ], [ -66.15079, -17.000468 ], [ -66.150679, -17.000667 ], [ -66.15041, -17.000814 ], [ -66.150257, -17.000876 ], [ -66.150127, -17.000915 ], [ -66.14996, -17.00092 ], [ -66.149915, -17.000923 ], [ -66.149702, -17.000962 ], [ -66.149616, -17.000977 ], [ -66.149521, -17.001003 ], [ -66.14945, -17.001005 ], [ -66.149119, -17.001108 ], [ -66.149072, -17.001132 ], [ -66.149037, -17.001133 ], [ -66.14899, -17.001158 ], [ -66.148863, -17.001288 ], [ -66.148771, -17.001394 ], [ -66.148633, -17.001513 ], [ -66.148437, -17.001715 ], [ -66.148402, -17.001739 ], [ -66.148368, -17.001786 ], [ -66.148344, -17.001798 ], [ -66.14824, -17.001893 ], [ -66.148147, -17.001954 ], [ -66.148105, -17.00199 ], [ -66.148043, -17.002037 ], [ -66.147984, -17.002081 ], [ -66.147902, -17.002111 ], [ -66.147863, -17.002135 ], [ -66.147817, -17.002153 ], [ -66.147704, -17.002232 ], [ -66.147599, -17.002316 ], [ -66.147541, -17.002352 ], [ -66.147504, -17.002383 ], [ -66.147442, -17.002441 ], [ -66.147414, -17.002471 ], [ -66.147334, -17.002577 ], [ -66.14723, -17.002683 ], [ -66.147208, -17.00273 ], [ -66.14706, -17.002907 ], [ -66.147009, -17.002959 ], [ -66.146991, -17.002989 ], [ -66.146958, -17.003059 ], [ -66.146912, -17.003118 ], [ -66.146878, -17.003177 ], [ -66.146857, -17.003235 ], [ -66.146788, -17.003317 ], [ -66.14673, -17.003517 ], [ -66.146528, -17.003809 ], [ -66.146308, -17.004166 ], [ -66.146141, -17.004269 ], [ -66.145261, -17.004302 ], [ -66.144904, -17.00437 ], [ -66.144417, -17.0046 ], [ -66.143822, -17.004828 ], [ -66.143228, -17.005161 ], [ -66.14299, -17.005229 ], [ -66.142907, -17.005275 ], [ -66.142645, -17.005344 ], [ -66.142169, -17.005538 ], [ -66.140624, -17.006318 ], [ -66.139827, -17.006546 ], [ -66.138828, -17.006717 ], [ -66.138495, -17.006889 ], [ -66.138103, -17.007199 ], [ -66.137449, -17.007819 ], [ -66.137199, -17.00814 ], [ -66.136926, -17.008543 ], [ -66.136772, -17.008899 ], [ -66.136736, -17.00906 ], [ -66.136558, -17.009577 ], [ -66.136428, -17.010371 ], [ -66.136428, -17.010544 ], [ -66.136297, -17.010912 ], [ -66.135965, -17.011417 ], [ -66.135085, -17.012325 ], [ -66.134824, -17.012566 ], [ -66.133385, -17.014047 ], [ -66.133076, -17.014265 ], [ -66.132506, -17.014563 ], [ -66.13222, -17.014758 ], [ -66.132006, -17.014999 ], [ -66.131757, -17.015344 ], [ -66.131424, -17.015723 ], [ -66.131008, -17.016091 ], [ -66.130734, -17.016274 ], [ -66.130104, -17.016595 ], [ -66.129462, -17.017008 ], [ -66.128998, -17.01749 ], [ -66.128796, -17.017766 ], [ -66.128464, -17.018341 ], [ -66.128226, -17.018651 ], [ -66.127786, -17.01911 ], [ -66.127347, -17.019673 ], [ -66.126098, -17.021097 ], [ -66.125231, -17.022235 ], [ -66.124506, -17.0229 ], [ -66.124161, -17.023256 ], [ -66.124078, -17.023406 ], [ -66.123947, -17.023831 ], [ -66.123947, -17.024004 ], [ -66.123829, -17.024499 ], [ -66.123662, -17.024947 ], [ -66.123484, -17.025246 ], [ -66.123175, -17.025521 ], [ -66.122604, -17.025773 ], [ -66.122426, -17.025888 ], [ -66.122164, -17.026348 ], [ -66.121784, -17.027405 ], [ -66.121654, -17.027704 ], [ -66.121464, -17.028061 ], [ -66.120881, -17.028796 ], [ -66.120632, -17.029348 ], [ -66.120454, -17.029612 ], [ -66.12018, -17.029876 ], [ -66.119978, -17.030163 ], [ -66.119931, -17.030278 ], [ -66.119574, -17.03083 ], [ -66.119443, -17.030979 ], [ -66.118753, -17.031277 ], [ -66.118349, -17.031403 ], [ -66.117992, -17.031586 ], [ -66.11779, -17.031735 ], [ -66.117552, -17.032149 ], [ -66.117434, -17.032701 ], [ -66.117244, -17.033425 ], [ -66.117137, -17.033724 ], [ -66.117054, -17.034115 ], [ -66.116935, -17.034426 ], [ -66.116769, -17.035081 ], [ -66.116555, -17.035668 ], [ -66.116306, -17.036001 ], [ -66.115854, -17.036391 ], [ -66.115545, -17.036724 ], [ -66.115378, -17.036989 ], [ -66.115141, -17.037448 ], [ -66.115046, -17.03769 ], [ -66.115046, -17.037943 ], [ -66.115141, -17.038242 ], [ -66.115713, -17.038877 ], [ -66.11582, -17.039049 ], [ -66.115915, -17.039326 ], [ -66.115903, -17.039637 ], [ -66.115594, -17.040361 ], [ -66.115595, -17.040994 ], [ -66.115678, -17.041638 ], [ -66.115667, -17.041914 ], [ -66.115536, -17.042133 ], [ -66.115334, -17.042282 ], [ -66.11487, -17.042523 ], [ -66.114608, -17.042695 ], [ -66.114418, -17.042867 ], [ -66.11424, -17.043108 ], [ -66.114038, -17.043441 ], [ -66.113693, -17.0442 ], [ -66.113325, -17.045246 ], [ -66.113182, -17.045534 ], [ -66.112945, -17.046235 ], [ -66.112262, -17.047314 ], [ -66.11184, -17.048097 ], [ -66.111423, -17.048533 ], [ -66.111007, -17.048866 ], [ -66.110567, -17.049164 ], [ -66.110472, -17.049199 ], [ -66.11027, -17.049325 ], [ -66.109092, -17.049886 ], [ -66.108593, -17.05008 ], [ -66.106582, -17.050697 ], [ -66.106226, -17.050834 ], [ -66.105869, -17.051006 ], [ -66.105595, -17.051167 ], [ -66.10531, -17.051396 ], [ -66.105048, -17.051729 ], [ -66.104846, -17.052212 ], [ -66.104894, -17.052765 ], [ -66.105097, -17.053214 ], [ -66.105252, -17.053686 ], [ -66.105276, -17.05425 ], [ -66.105228, -17.054641 ], [ -66.10505, -17.055377 ], [ -66.104836, -17.055998 ], [ -66.10467, -17.056308 ], [ -66.104444, -17.056595 ], [ -66.10423, -17.056825 ], [ -66.103731, -17.05725 ], [ -66.103445, -17.057456 ], [ -66.10316, -17.05772 ], [ -66.102553, -17.058444 ], [ -66.102434, -17.058513 ], [ -66.102399, -17.058512 ], [ -66.101495, -17.059442 ], [ -66.10115, -17.059706 ], [ -66.100912, -17.059855 ], [ -66.100698, -17.059855 ], [ -66.100424, -17.059889 ], [ -66.099949, -17.060083 ], [ -66.099604, -17.060313 ], [ -66.099426, -17.060466 ], [ -66.099239, -17.060727 ], [ -66.099233, -17.061109 ], [ -66.099352, -17.061316 ], [ -66.084358, -17.085641 ], [ -66.082344, -17.08965 ], [ -66.0768, -17.10437 ], [ -66.076522, -17.104759 ], [ -66.069256, -17.112429 ], [ -66.069161, -17.112403 ], [ -66.05878, -17.125971 ], [ -66.054111, -17.134934 ], [ -66.039779, -17.141568 ], [ -66.032574, -17.148589 ], [ -66.032354, -17.14887 ], [ -66.028382, -17.155217 ], [ -66.028136, -17.155472 ], [ -66.011924, -17.170283 ], [ -66.006852, -17.17395 ], [ -66.006083, -17.17441 ], [ -66.001615, -17.175609 ], [ -65.988252, -17.180865 ], [ -65.987472, -17.181551 ], [ -65.983471, -17.185886 ], [ -66.001386, -17.220487 ], [ -66.001907, -17.22134 ], [ -66.003072, -17.223246 ], [ -66.001355, -17.227273 ], [ -65.988483, -17.260371 ], [ -65.986587, -17.293593 ], [ -65.977676, -17.312239 ], [ -65.955254, -17.337251 ], [ -65.948488, -17.34363 ], [ -65.947789, -17.343777 ], [ -65.935832, -17.347359 ], [ -65.919461, -17.357585 ], [ -65.904439, -17.374935 ], [ -65.904392, -17.374911 ], [ -65.894226, -17.375241 ], [ -65.873555, -17.379938 ], [ -65.863427, -17.378744 ], [ -65.830632, -17.366093 ], [ -65.79217, -17.338656 ], [ -65.77803, -17.356492 ], [ -65.778402, -17.356528 ], [ -65.778909, -17.356686 ], [ -65.779223, -17.356822 ], [ -65.779513, -17.35697 ], [ -65.77973, -17.357049 ], [ -65.780043, -17.357105 ], [ -65.780562, -17.357263 ], [ -65.780792, -17.357377 ], [ -65.781082, -17.357583 ], [ -65.781241, -17.357812 ], [ -65.781427, -17.358248 ], [ -65.78149, -17.358558 ], [ -65.781556, -17.359018 ], [ -65.781668, -17.359329 ], [ -65.781865, -17.359742 ], [ -65.782109, -17.360109 ], [ -65.782389, -17.360406 ], [ -65.782583, -17.360543 ], [ -65.782825, -17.360645 ], [ -65.783138, -17.36069 ], [ -65.78327, -17.360689 ], [ -65.783486, -17.360653 ], [ -65.783893, -17.360559 ], [ -65.784299, -17.360303 ], [ -65.784465, -17.360164 ], [ -65.784797, -17.359748 ], [ -65.78495, -17.359505 ], [ -65.785266, -17.358836 ], [ -65.785337, -17.35872 ], [ -65.785479, -17.358547 ], [ -65.785646, -17.358396 ], [ -65.785908, -17.358222 ], [ -65.7861, -17.358198 ], [ -65.786281, -17.358266 ], [ -65.786342, -17.358369 ], [ -65.78637, -17.358634 ], [ -65.786298, -17.359069 ], [ -65.786147, -17.359518 ], [ -65.786007, -17.359853 ], [ -65.785807, -17.360188 ], [ -65.785535, -17.360523 ], [ -65.785298, -17.360766 ], [ -65.784988, -17.36101 ], [ -65.784107, -17.361625 ], [ -65.783799, -17.361961 ], [ -65.783622, -17.362261 ], [ -65.783532, -17.362511 ], [ -65.783532, -17.362529 ], [ -65.783844, -17.362504 ], [ -65.784597, -17.3622 ], [ -65.785266, -17.36184 ], [ -65.785564, -17.361631 ], [ -65.785874, -17.361445 ], [ -65.78616, -17.361248 ], [ -65.786602, -17.360992 ], [ -65.787487, -17.360653 ], [ -65.788493, -17.360371 ], [ -65.788781, -17.360346 ], [ -65.789094, -17.360391 ], [ -65.789311, -17.36047 ], [ -65.789445, -17.36063 ], [ -65.789446, -17.360734 ], [ -65.789429, -17.360763 ], [ -65.78943, -17.360832 ], [ -65.789324, -17.361017 ], [ -65.789136, -17.361283 ], [ -65.788863, -17.361607 ], [ -65.788484, -17.362 ], [ -65.787866, -17.36251 ], [ -65.787651, -17.36265 ], [ -65.787307, -17.362997 ], [ -65.787178, -17.363228 ], [ -65.787026, -17.363562 ], [ -65.786922, -17.363943 ], [ -65.78676, -17.364438 ], [ -65.78655, -17.3649 ], [ -65.786432, -17.365085 ], [ -65.786127, -17.36565 ], [ -65.786034, -17.365939 ], [ -65.786016, -17.366 ], [ -65.785966, -17.366163 ], [ -65.785946, -17.366508 ], [ -65.786103, -17.366576 ], [ -65.786429, -17.366667 ], [ -65.786933, -17.366687 ], [ -65.787197, -17.366639 ], [ -65.787413, -17.366569 ], [ -65.787808, -17.366474 ], [ -65.788312, -17.366426 ], [ -65.78883, -17.366515 ], [ -65.789108, -17.366686 ], [ -65.789351, -17.366926 ], [ -65.789609, -17.36735 ], [ -65.78973, -17.367476 ], [ -65.79007, -17.367762 ], [ -65.79036, -17.367898 ], [ -65.790721, -17.367919 ], [ -65.7909, -17.367815 ], [ -65.791019, -17.367676 ], [ -65.791148, -17.367445 ], [ -65.791217, -17.367214 ], [ -65.791262, -17.366949 ], [ -65.79132, -17.366765 ], [ -65.791474, -17.366545 ], [ -65.791616, -17.366383 ], [ -65.791796, -17.366325 ], [ -65.792024, -17.366323 ], [ -65.792253, -17.366357 ], [ -65.792554, -17.366447 ], [ -65.792734, -17.366446 ], [ -65.792902, -17.366422 ], [ -65.793489, -17.366292 ], [ -65.793801, -17.366198 ], [ -65.794065, -17.366162 ], [ -65.79433, -17.36623 ], [ -65.794366, -17.366275 ], [ -65.794392, -17.366402 ], [ -65.794333, -17.366517 ], [ -65.794061, -17.366853 ], [ -65.793859, -17.367038 ], [ -65.793586, -17.367339 ], [ -65.793468, -17.367547 ], [ -65.793435, -17.367777 ], [ -65.793438, -17.368065 ], [ -65.793463, -17.368133 ], [ -65.793548, -17.368202 ], [ -65.795585, -17.367741 ], [ -65.79592, -17.367567 ], [ -65.796, -17.367244 ], [ -65.798496, -17.366491 ], [ -65.801053, -17.369352 ], [ -65.807706, -17.379332 ], [ -65.810101, -17.381022 ], [ -65.829937, -17.390444 ], [ -65.830421, -17.390771 ], [ -65.830868, -17.390952 ], [ -65.8314, -17.39119 ], [ -65.831931, -17.391371 ], [ -65.832171, -17.391416 ], [ -65.832616, -17.39139 ], [ -65.833097, -17.391399 ], [ -65.833733, -17.391384 ], [ -65.83437, -17.391403 ], [ -65.835235, -17.391351 ], [ -65.83598, -17.39137 ], [ -65.836665, -17.391343 ], [ -65.837506, -17.391338 ], [ -65.838288, -17.391437 ], [ -65.838988, -17.391674 ], [ -65.839448, -17.39189 ], [ -65.840315, -17.392069 ], [ -65.842081, -17.392058 ], [ -65.843067, -17.39211 ], [ -65.843971, -17.392288 ], [ -65.844802, -17.392421 ], [ -65.845368, -17.39259 ], [ -65.845719, -17.392761 ], [ -65.846298, -17.392976 ], [ -65.847202, -17.393178 ], [ -65.848154, -17.393345 ], [ -65.849188, -17.393419 ], [ -65.850016, -17.393345 ], [ -65.850772, -17.393259 ], [ -65.851746, -17.393254 ], [ -65.852721, -17.39342 ], [ -65.853699, -17.393771 ], [ -65.854665, -17.394191 ], [ -65.856008, -17.394885 ], [ -65.856672, -17.395157 ], [ -65.857444, -17.395405 ], [ -65.859192, -17.39582 ], [ -65.86077, -17.396133 ], [ -65.862058, -17.396366 ], [ -65.863312, -17.396669 ], [ -65.864049, -17.397021 ], [ -65.86491, -17.397592 ], [ -65.866244, -17.398619 ], [ -65.866995, -17.399109 ], [ -65.867672, -17.39945 ], [ -65.868325, -17.399757 ], [ -65.869134, -17.400074 ], [ -65.869832, -17.400185 ], [ -65.87147, -17.400405 ], [ -65.871975, -17.400494 ], [ -65.872457, -17.400548 ], [ -65.872914, -17.400568 ], [ -65.873431, -17.400611 ], [ -65.874153, -17.40071 ], [ -65.875081, -17.400935 ], [ -65.875722, -17.401207 ], [ -65.877123, -17.401807 ], [ -65.878538, -17.402717 ], [ -65.879348, -17.404015 ], [ -65.879309, -17.404026 ], [ -65.879329, -17.40406 ], [ -65.864177, -17.408351 ], [ -65.853879, -17.409455 ], [ -65.861112, -17.42009 ], [ -65.861074, -17.420093 ], [ -65.861104, -17.420138 ], [ -65.848235, -17.421068 ], [ -65.845026, -17.430926 ], [ -65.855378, -17.439316 ], [ -65.859466, -17.457565 ], [ -65.859496, -17.457537 ], [ -65.877181, -17.443799 ], [ -65.888091, -17.444618 ], [ -65.891071, -17.451169 ], [ -65.907477, -17.46131 ], [ -65.919648, -17.464504 ], [ -65.936954, -17.465324 ], [ -65.937852, -17.4657 ], [ -65.939482, -17.467026 ], [ -65.939645, -17.468323 ], [ -65.939317, -17.470215 ], [ -65.939386, -17.472112 ], [ -65.93978, -17.473013 ], [ -65.941445, -17.474326 ], [ -65.942913, -17.475931 ], [ -65.946071, -17.479416 ], [ -65.950186, -17.478004 ], [ -65.952816, -17.476504 ], [ -65.970677, -17.485693 ], [ -65.972463, -17.490738 ], [ -65.975365, -17.492376 ], [ -65.975999, -17.4932 ], [ -65.976332, -17.495233 ], [ -65.976286, -17.496602 ], [ -65.975772, -17.497964 ], [ -65.982217, -17.500407 ], [ -65.986102, -17.500464 ], [ -65.98706, -17.50001 ], [ -65.98798, -17.499412 ], [ -65.989567, -17.498411 ], [ -65.991128, -17.4982 ], [ -65.992797, -17.498917 ], [ -66.00161, -17.503599 ], [ -66.002394, -17.503967 ], [ -66.01844, -17.507163 ], [ -66.019952, -17.503639 ], [ -66.021614, -17.498793 ], [ -66.035215, -17.496128 ], [ -66.043811, -17.497383 ], [ -66.056622, -17.494574 ], [ -66.065415, -17.487496 ], [ -66.066991, -17.480786 ], [ -66.06833, -17.475008 ], [ -66.072544, -17.473556 ], [ -66.072679, -17.473511 ], [ -66.072679, -17.473511 ], [ -66.073515, -17.473731 ] ], [ [ -66.280267, -17.459617 ], [ -66.280267, -17.459617 ], [ -66.280267, -17.459617 ], [ -66.280267, -17.459617 ] ], [ [ -66.282913, -17.059289 ], [ -66.273632, -17.063763 ], [ -66.301906, -17.041573 ], [ -66.282913, -17.059289 ] ], [ [ -66.302066, -17.432348 ], [ -66.294881, -17.445143 ], [ -66.305979, -17.42538 ], [ -66.302066, -17.432348 ] ], [ [ -66.265339, -17.454851 ], [ -66.265339, -17.454851 ], [ -66.265397, -17.454866 ], [ -66.265339, -17.454851 ] ], [ [ -66.264261, -17.45462 ], [ -66.264121, -17.454566 ], [ -66.264261, -17.45462 ], [ -66.264278, -17.454625 ], [ -66.264261, -17.45462 ] ], [ [ -66.263995, -17.454518 ], [ -66.263984, -17.454503 ], [ -66.263995, -17.454518 ], [ -66.263995, -17.454518 ] ], [ [ -66.263573, -17.454301 ], [ -66.263174, -17.454039 ], [ -66.262944, -17.45386 ], [ -66.263174, -17.454039 ], [ -66.263573, -17.454301 ], [ -66.263573, -17.454301 ] ], [ [ -66.262, -17.453056 ], [ -66.262, -17.453056 ], [ -66.262039, -17.453091 ], [ -66.262, -17.453056 ] ], [ [ -66.261529, -17.452748 ], [ -66.26118, -17.452623 ], [ -66.261138, -17.452602 ], [ -66.26118, -17.452623 ], [ -66.261529, -17.452748 ], [ -66.261944, -17.453019 ], [ -66.261529, -17.452748 ] ], [ [ -66.259144, -17.451896 ], [ -66.258879, -17.451783 ], [ -66.257559, -17.450856 ], [ -66.257338, -17.450558 ], [ -66.257559, -17.450856 ], [ -66.258879, -17.451783 ], [ -66.259144, -17.451896 ], [ -66.259249, -17.451928 ], [ -66.259144, -17.451896 ] ], [ [ -66.257335, -17.450553 ], [ -66.257335, -17.450553 ], [ -66.257338, -17.450558 ], [ -66.257335, -17.450553 ] ], [ [ -66.257335, -17.450553 ], [ -66.253988, -17.443729 ], [ -66.252398, -17.442242 ], [ -66.253988, -17.443729 ], [ -66.257335, -17.450553 ], [ -66.257335, -17.450553 ] ], [ [ -66.245943, -17.436702 ], [ -66.247184, -17.428365 ], [ -66.247184, -17.428365 ], [ -66.245943, -17.436702 ], [ -66.245943, -17.436702 ] ], [ [ -66.207377, -17.370981 ], [ -66.207411, -17.372595 ], [ -66.207486, -17.376229 ], [ -66.207528, -17.379652 ], [ -66.208191, -17.381838 ], [ -66.207975, -17.383054 ], [ -66.207972, -17.386314 ], [ -66.208026, -17.389575 ], [ -66.208181, -17.392376 ], [ -66.208341, -17.395503 ], [ -66.208341, -17.395503 ], [ -66.208181, -17.392376 ], [ -66.208026, -17.389575 ], [ -66.207972, -17.386314 ], [ -66.207975, -17.383054 ], [ -66.208191, -17.381838 ], [ -66.207528, -17.379652 ], [ -66.207486, -17.376229 ], [ -66.207411, -17.372595 ], [ -66.207243, -17.370266 ], [ -66.198828, -17.374249 ], [ -66.20728, -17.369959 ], [ -66.207377, -17.370981 ] ], [ [ -66.193466, -17.360631 ], [ -66.193466, -17.360631 ], [ -66.193478, -17.360665 ], [ -66.193466, -17.360631 ] ], [ [ -66.187081, -17.343208 ], [ -66.187036, -17.343011 ], [ -66.187215, -17.336873 ], [ -66.187035, -17.328763 ], [ -66.186938, -17.328661 ], [ -66.186641, -17.328204 ], [ -66.186195, -17.327343 ], [ -66.186149, -17.327274 ], [ -66.1861, -17.327197 ], [ -66.186155, -17.327266 ], [ -66.186195, -17.327343 ], [ -66.186326, -17.327539 ], [ -66.18648, -17.32778 ], [ -66.186634, -17.328045 ], [ -66.186776, -17.328298 ], [ -66.186906, -17.328539 ], [ -66.187107, -17.328758 ], [ -66.187379, -17.328627 ], [ -66.187387, -17.328964 ], [ -66.187215, -17.336873 ], [ -66.187036, -17.343011 ], [ -66.187081, -17.343208 ], [ -66.189788, -17.351072 ], [ -66.187081, -17.343208 ] ], [ [ -66.18575, -17.326764 ], [ -66.185567, -17.326616 ], [ -66.185567, -17.326593 ], [ -66.184761, -17.325831 ], [ -66.184626, -17.32566 ], [ -66.184152, -17.324722 ], [ -66.18395, -17.324218 ], [ -66.183695, -17.32345 ], [ -66.183515, -17.322819 ], [ -66.183426, -17.322602 ], [ -66.183423, -17.322568 ], [ -66.1835, -17.322754 ], [ -66.18363, -17.323018 ], [ -66.18376, -17.323283 ], [ -66.183878, -17.323535 ], [ -66.183996, -17.323788 ], [ -66.184066, -17.324064 ], [ -66.184135, -17.324397 ], [ -66.184241, -17.324661 ], [ -66.184395, -17.324891 ], [ -66.184537, -17.325156 ], [ -66.184643, -17.325409 ], [ -66.184809, -17.325673 ], [ -66.184987, -17.325892 ], [ -66.185224, -17.326123 ], [ -66.185426, -17.326318 ], [ -66.185651, -17.326549 ], [ -66.185817, -17.326779 ], [ -66.185995, -17.327032 ], [ -66.1861, -17.327197 ], [ -66.18575, -17.326764 ] ], [ [ -66.183394, -17.322501 ], [ -66.183253, -17.322213 ], [ -66.183123, -17.321903 ], [ -66.183017, -17.321605 ], [ -66.182888, -17.32134 ], [ -66.182734, -17.321064 ], [ -66.18258, -17.320822 ], [ -66.18239, -17.320615 ], [ -66.182188, -17.320408 ], [ -66.181999, -17.320189 ], [ -66.181845, -17.319947 ], [ -66.181739, -17.319694 ], [ -66.181621, -17.319442 ], [ -66.181491, -17.319166 ], [ -66.181397, -17.318901 ], [ -66.181292, -17.318591 ], [ -66.181283, -17.318571 ], [ -66.181273, -17.318552 ], [ -66.181148, -17.318278 ], [ -66.181091, -17.318086 ], [ -66.181056, -17.317994 ], [ -66.18095, -17.317718 ], [ -66.18082, -17.317465 ], [ -66.180703, -17.317212 ], [ -66.180585, -17.316925 ], [ -66.180467, -17.316649 ], [ -66.180337, -17.316385 ], [ -66.180219, -17.316132 ], [ -66.180077, -17.315879 ], [ -66.18001, -17.315748 ], [ -66.17921, -17.314802 ], [ -66.178649, -17.314313 ], [ -66.177905, -17.313608 ], [ -66.177684, -17.313334 ], [ -66.177499, -17.313049 ], [ -66.17736, -17.312728 ], [ -66.177219, -17.312258 ], [ -66.177035, -17.312053 ], [ -66.176455, -17.31176 ], [ -66.176358, -17.311669 ], [ -66.176218, -17.311339 ], [ -66.176164, -17.311318 ], [ -66.17589, -17.311236 ], [ -66.175835, -17.311207 ], [ -66.175712, -17.31096 ], [ -66.175666, -17.310662 ], [ -66.175668, -17.310375 ], [ -66.17561, -17.3101 ], [ -66.17554, -17.309835 ], [ -66.175494, -17.309548 ], [ -66.175483, -17.309424 ], [ -66.175423, -17.309298 ], [ -66.175214, -17.309013 ], [ -66.174817, -17.308925 ], [ -66.174684, -17.308857 ], [ -66.174551, -17.308755 ], [ -66.174476, -17.30863 ], [ -66.174348, -17.308182 ], [ -66.174162, -17.307874 ], [ -66.17404, -17.30776 ], [ -66.17406, -17.307576 ], [ -66.174299, -17.306986 ], [ -66.174016, -17.306598 ], [ -66.173668, -17.305981 ], [ -66.162823, -17.288785 ], [ -66.161428, -17.286577 ], [ -66.162823, -17.288785 ], [ -66.174012, -17.305845 ], [ -66.17436, -17.306462 ], [ -66.174531, -17.306697 ], [ -66.174483, -17.306814 ], [ -66.174374, -17.307077 ], [ -66.174283, -17.307348 ], [ -66.174276, -17.307513 ], [ -66.174298, -17.307788 ], [ -66.17438, -17.308052 ], [ -66.174486, -17.308316 ], [ -66.1747, -17.308535 ], [ -66.174888, -17.308607 ], [ -66.174895, -17.308619 ], [ -66.175028, -17.308721 ], [ -66.175161, -17.308789 ], [ -66.175256, -17.30881 ], [ -66.175389, -17.309009 ], [ -66.175471, -17.309273 ], [ -66.175483, -17.309424 ], [ -66.175598, -17.309664 ], [ -66.17588, -17.310535 ], [ -66.176218, -17.311339 ], [ -66.176438, -17.311423 ], [ -66.176688, -17.31155 ], [ -66.176792, -17.311617 ], [ -66.176813, -17.311631 ], [ -66.176938, -17.311712 ], [ -66.177175, -17.311908 ], [ -66.177365, -17.31215 ], [ -66.177507, -17.312414 ], [ -66.177613, -17.312667 ], [ -66.17773, -17.312931 ], [ -66.177872, -17.313173 ], [ -66.178074, -17.313415 ], [ -66.178276, -17.313611 ], [ -66.178478, -17.313807 ], [ -66.178691, -17.314003 ], [ -66.178893, -17.314221 ], [ -66.179083, -17.314452 ], [ -66.179273, -17.314671 ], [ -66.179438, -17.314924 ], [ -66.179616, -17.315154 ], [ -66.179782, -17.315396 ], [ -66.179948, -17.315626 ], [ -66.18001, -17.315748 ], [ -66.180068, -17.315816 ], [ -66.180601, -17.316708 ], [ -66.180906, -17.317602 ], [ -66.181071, -17.318014 ], [ -66.181091, -17.318086 ], [ -66.181162, -17.31827 ], [ -66.181283, -17.318571 ], [ -66.18177, -17.319444 ], [ -66.182166, -17.320084 ], [ -66.183023, -17.32103 ], [ -66.183085, -17.321133 ], [ -66.183316, -17.321889 ], [ -66.183344, -17.322096 ], [ -66.183369, -17.322119 ], [ -66.183423, -17.322568 ], [ -66.183394, -17.322501 ] ], [ [ -66.156152, -17.27825 ], [ -66.137755, -17.283813 ], [ -66.15611, -17.278166 ], [ -66.156165, -17.278246 ], [ -66.156152, -17.27825 ] ], [ [ -66.143698, -17.260243 ], [ -66.156245, -17.278125 ], [ -66.15611, -17.278166 ], [ -66.143698, -17.260243 ] ], [ [ -66.126978, -17.291209 ], [ -66.126994, -17.291272 ], [ -66.126978, -17.291209 ], [ -66.126969, -17.291172 ], [ -66.126978, -17.291209 ] ], [ [ -66.127221, -17.298561 ], [ -66.127227, -17.298597 ], [ -66.127221, -17.298561 ], [ -66.127194, -17.298401 ], [ -66.127221, -17.298561 ] ], [ [ -66.12604, -17.303372 ], [ -66.126015, -17.303512 ], [ -66.12604, -17.303372 ], [ -66.126133, -17.302857 ], [ -66.12604, -17.303372 ] ], [ [ -66.129105, -17.345379 ], [ -66.129713, -17.346345 ], [ -66.129306, -17.347379 ], [ -66.12981, -17.352416 ], [ -66.129923, -17.352602 ], [ -66.130369, -17.357993 ], [ -66.131079, -17.361175 ], [ -66.131082, -17.361499 ], [ -66.133541, -17.37321 ], [ -66.133457, -17.373293 ], [ -66.133541, -17.37321 ], [ -66.13039, -17.358202 ], [ -66.130369, -17.357993 ], [ -66.128275, -17.337095 ], [ -66.129105, -17.345379 ] ], [ [ -66.134995, -17.383978 ], [ -66.134981, -17.38398 ], [ -66.135015, -17.384034 ], [ -66.134981, -17.38398 ], [ -66.131896, -17.379058 ], [ -66.131896, -17.379058 ], [ -66.134995, -17.383978 ] ], [ [ -66.116535, -17.412478 ], [ -66.115834, -17.412501 ], [ -66.116561, -17.412412 ], [ -66.116535, -17.412478 ] ], [ [ -66.111433, -17.414941 ], [ -66.112184, -17.414067 ], [ -66.113245, -17.413079 ], [ -66.114052, -17.412559 ], [ -66.111433, -17.414941 ] ], [ [ -66.109625, -17.416567 ], [ -66.110251, -17.415868 ], [ -66.111433, -17.414941 ], [ -66.109625, -17.416567 ] ], [ [ -66.105688, -17.420699 ], [ -66.105058, -17.42263 ], [ -66.105118, -17.421753 ], [ -66.105688, -17.420699 ], [ -66.106635, -17.419061 ], [ -66.107386, -17.418245 ], [ -66.105688, -17.420699 ] ], [ [ -66.104728, -17.423643 ], [ -66.102237, -17.425999 ], [ -66.104728, -17.423643 ], [ -66.104728, -17.423643 ] ], [ [ -66.099522, -17.432995 ], [ -66.099507, -17.432997 ], [ -66.099524, -17.432989 ], [ -66.099522, -17.432995 ] ], [ [ -66.091199, -17.439015 ], [ -66.090637, -17.439906 ], [ -66.08986, -17.440146 ], [ -66.090821, -17.4396 ], [ -66.091199, -17.439015 ], [ -66.091313, -17.438296 ], [ -66.091199, -17.439015 ] ], [ [ -66.087699, -17.444599 ], [ -66.087663, -17.443005 ], [ -66.087734, -17.442357 ], [ -66.087699, -17.444599 ] ], [ [ -66.086404, -17.44871 ], [ -66.086794, -17.447359 ], [ -66.086932, -17.447034 ], [ -66.086404, -17.44871 ] ], [ [ -66.085469, -17.449948 ], [ -66.085905, -17.449175 ], [ -66.086404, -17.44871 ], [ -66.085469, -17.449948 ] ], [ [ -66.079503, -17.455825 ], [ -66.079492, -17.455837 ], [ -66.079563, -17.455602 ], [ -66.080185, -17.455139 ], [ -66.080994, -17.454502 ], [ -66.079503, -17.455825 ] ], [ [ -66.315514, -17.416454 ], [ -66.316513, -17.414372 ], [ -66.316648, -17.414398 ], [ -66.315514, -17.416454 ] ], [ [ -66.230577, -17.427561 ], [ -66.230577, -17.427561 ], [ -66.228185, -17.427082 ], [ -66.230577, -17.427561 ] ], [ [ -66.215258, -17.404427 ], [ -66.214232, -17.397138 ], [ -66.214232, -17.397138 ], [ -66.215258, -17.404427 ], [ -66.216584, -17.415905 ], [ -66.217905, -17.425024 ], [ -66.217905, -17.425024 ], [ -66.216584, -17.415905 ], [ -66.215258, -17.404427 ] ], [ [ -66.213271, -17.397019 ], [ -66.212816, -17.39683 ], [ -66.212816, -17.39683 ], [ -66.213271, -17.397019 ] ], [ [ -66.210107, -17.395618 ], [ -66.210024, -17.395612 ], [ -66.210107, -17.395618 ], [ -66.210795, -17.396244 ], [ -66.210914, -17.396352 ], [ -66.210914, -17.396352 ], [ -66.210795, -17.396244 ], [ -66.210107, -17.395618 ] ], [ [ -66.364059, -17.287729 ], [ -66.364183, -17.287725 ], [ -66.36408, -17.287729 ], [ -66.364011, -17.287731 ], [ -66.364059, -17.287729 ] ], [ [ -66.259789, -17.089358 ], [ -66.262657, -17.096026 ], [ -66.267003, -17.106132 ], [ -66.259789, -17.089358 ] ] ] ] } }
]
}
