{
"type": "FeatureCollection",
"name": "ALALAY",
"crs": { "type": "name", "properties": { "name": "urn:ogc:def:crs:OGC:1.3:CRS84" } },
"bbox": [ -65.734274, -17.941921, -65.471792, -17.652002 ],                                                                        
"features": [
{ "type": "Feature", "properties": { "NOMBRE": "Alalay", "NIVEL": "Municipios", "PROVINCIA": "Mizque", "REGION": "Cono Sur", "DEPARTAMENTO": "Cochabamba" }, "bbox": [ -65.734274, -17.941921, -65.471792, -17.652002 ], "geometry": { "type": "MultiPolygon", "coordinates": [ [ [ [ -65.643264, -17.660671 ], [ -65.641838, -17.661499 ], [ -65.632719, -17.668705 ], [ -65.630481, -17.670541 ], [ -65.61193, -17.684747 ], [ -65.587324, -17.68537 ], [ -65.578655, -17.694934 ], [ -65.57771, -17.695326 ], [ -65.551639, -17.708357 ], [ -65.541951, -17.701806 ], [ -65.541779, -17.701919 ], [ -65.541769, -17.701931 ], [ -65.541541, -17.702075 ], [ -65.541441, -17.702154 ], [ -65.541257, -17.702355 ], [ -65.54108, -17.70253 ], [ -65.541039, -17.70266 ], [ -65.540679, -17.703369 ], [ -65.540185, -17.704259 ], [ -65.540161, -17.70427 ], [ -65.537097, -17.708804 ], [ -65.536984, -17.709114 ], [ -65.536703, -17.709431 ], [ -65.536447, -17.709623 ], [ -65.535983, -17.71003 ], [ -65.535787, -17.710245 ], [ -65.535149, -17.711099 ], [ -65.535087, -17.711201 ], [ -65.535025, -17.711362 ], [ -65.53481, -17.712107 ], [ -65.534564, -17.712426 ], [ -65.534259, -17.712708 ], [ -65.533879, -17.713151 ], [ -65.533781, -17.713288 ], [ -65.533683, -17.71339 ], [ -65.533179, -17.714107 ], [ -65.533069, -17.714232 ], [ -65.532393, -17.715177 ], [ -65.532282, -17.71536 ], [ -65.532085, -17.71561 ], [ -65.531839, -17.715986 ], [ -65.531143, -17.716619 ], [ -65.530266, -17.717319 ], [ -65.529718, -17.71769 ], [ -65.529535, -17.717859 ], [ -65.529437, -17.717996 ], [ -65.529339, -17.718086 ], [ -65.529093, -17.718451 ], [ -65.528982, -17.718645 ], [ -65.528684, -17.719274 ], [ -65.528607, -17.719561 ], [ -65.528532, -17.719778 ], [ -65.528495, -17.719847 ], [ -65.528459, -17.719846 ], [ -65.528458, -17.719927 ], [ -65.528268, -17.720592 ], [ -65.527895, -17.721404 ], [ -65.527291, -17.722338 ], [ -65.52669, -17.723112 ], [ -65.526541, -17.72342 ], [ -65.526341, -17.723935 ], [ -65.526314, -17.724119 ], [ -65.526251, -17.724303 ], [ -65.526226, -17.724429 ], [ -65.526087, -17.724842 ], [ -65.526, -17.725036 ], [ -65.525926, -17.725161 ], [ -65.525864, -17.725322 ], [ -65.525666, -17.725629 ], [ -65.525519, -17.725823 ], [ -65.52519, -17.726105 ], [ -65.524666, -17.726488 ], [ -65.524314, -17.726655 ], [ -65.523962, -17.726845 ], [ -65.523671, -17.726966 ], [ -65.523417, -17.727054 ], [ -65.523319, -17.72711 ], [ -65.523198, -17.727143 ], [ -65.523077, -17.72721 ], [ -65.52292, -17.727265 ], [ -65.522652, -17.727433 ], [ -65.522469, -17.727603 ], [ -65.522346, -17.72775 ], [ -65.52221, -17.728002 ], [ -65.522172, -17.728128 ], [ -65.522073, -17.728333 ], [ -65.521864, -17.728641 ], [ -65.521752, -17.728904 ], [ -65.52164, -17.729098 ], [ -65.521379, -17.729704 ], [ -65.521264, -17.730129 ], [ -65.521264, -17.730175 ], [ -65.520878, -17.731033 ], [ -65.52047, -17.731775 ], [ -65.5202, -17.73215 ], [ -65.520113, -17.73231 ], [ -65.519991, -17.732446 ], [ -65.519757, -17.732788 ], [ -65.519647, -17.732913 ], [ -65.519524, -17.733095 ], [ -65.519414, -17.733209 ], [ -65.519279, -17.733379 ], [ -65.519034, -17.733628 ], [ -65.518924, -17.733719 ], [ -65.518838, -17.733821 ], [ -65.51868, -17.733922 ], [ -65.518522, -17.734058 ], [ -65.517463, -17.734788 ], [ -65.517183, -17.735002 ], [ -65.51672, -17.735306 ], [ -65.516013, -17.735893 ], [ -65.515818, -17.736039 ], [ -65.515684, -17.736175 ], [ -65.515086, -17.736683 ], [ -65.514891, -17.736784 ], [ -65.514782, -17.736874 ], [ -65.514199, -17.737164 ], [ -65.512817, -17.737727 ], [ -65.512477, -17.737917 ], [ -65.51216, -17.738131 ], [ -65.511817, -17.73854 ], [ -65.511681, -17.73878 ], [ -65.511455, -17.739421 ], [ -65.511344, -17.73965 ], [ -65.510813, -17.740516 ], [ -65.510293, -17.741521 ], [ -65.510242, -17.74167 ], [ -65.509593, -17.74242 ], [ -65.509386, -17.742601 ], [ -65.508886, -17.742984 ], [ -65.50829, -17.743354 ], [ -65.508035, -17.743465 ], [ -65.50766, -17.743573 ], [ -65.505884, -17.743865 ], [ -65.505678, -17.743919 ], [ -65.505351, -17.74404 ], [ -65.50489, -17.744286 ], [ -65.504487, -17.744625 ], [ -65.504414, -17.744658 ], [ -65.504023, -17.745043 ], [ -65.503778, -17.745327 ], [ -65.503384, -17.745885 ], [ -65.503152, -17.746157 ], [ -65.502783, -17.746658 ], [ -65.502232, -17.747259 ], [ -65.502075, -17.747342 ], [ -65.501768, -17.747473 ], [ -65.501402, -17.747549 ], [ -65.501341, -17.747582 ], [ -65.501293, -17.747581 ], [ -65.501027, -17.747702 ], [ -65.500894, -17.747779 ], [ -65.50055, -17.748175 ], [ -65.50044, -17.748276 ], [ -65.500403, -17.748332 ], [ -65.500184, -17.748535 ], [ -65.500159, -17.74858 ], [ -65.499818, -17.748838 ], [ -65.499722, -17.748859 ], [ -65.499527, -17.748992 ], [ -65.49879, -17.749311 ], [ -65.498355, -17.749463 ], [ -65.498005, -17.749628 ], [ -65.497604, -17.749884 ], [ -65.49724, -17.750095 ], [ -65.496804, -17.750316 ], [ -65.496719, -17.750371 ], [ -65.496719, -17.750394 ], [ -65.496609, -17.750473 ], [ -65.496438, -17.750653 ], [ -65.496231, -17.750821 ], [ -65.496133, -17.750934 ], [ -65.49593, -17.751036 ], [ -65.495579, -17.751125 ], [ -65.495405, -17.751296 ], [ -65.49526, -17.751466 ], [ -65.495124, -17.751672 ], [ -65.495121, -17.751798 ], [ -65.495094, -17.751958 ], [ -65.495069, -17.752015 ], [ -65.495022, -17.752566 ], [ -65.494931, -17.752932 ], [ -65.494592, -17.753752 ], [ -65.494563, -17.753993 ], [ -65.494556, -17.754349 ], [ -65.494432, -17.755173 ], [ -65.494391, -17.756034 ], [ -65.494258, -17.756744 ], [ -65.494087, -17.75751 ], [ -65.494024, -17.75767 ], [ -65.493972, -17.757864 ], [ -65.49372, -17.758514 ], [ -65.493457, -17.759083 ], [ -65.493295, -17.75939 ], [ -65.492949, -17.759911 ], [ -65.492642, -17.760295 ], [ -65.492345, -17.760772 ], [ -65.492306, -17.760944 ], [ -65.49229, -17.761139 ], [ -65.492278, -17.76115 ], [ -65.492299, -17.761288 ], [ -65.492293, -17.761564 ], [ -65.492254, -17.761735 ], [ -65.492031, -17.762133 ], [ -65.491859, -17.762348 ], [ -65.491217, -17.763265 ], [ -65.491057, -17.763469 ], [ -65.490948, -17.763558 ], [ -65.490705, -17.763703 ], [ -65.490559, -17.763838 ], [ -65.490324, -17.764212 ], [ -65.490261, -17.764372 ], [ -65.490199, -17.764474 ], [ -65.489954, -17.764946 ], [ -65.489825, -17.765225 ], [ -65.489627, -17.765355 ], [ -65.489444, -17.765515 ], [ -65.489188, -17.765631 ], [ -65.489138, -17.765647 ], [ -65.48895, -17.765724 ], [ -65.488618, -17.76583 ], [ -65.488529, -17.765849 ], [ -65.488421, -17.765885 ], [ -65.488354, -17.765894 ], [ -65.488313, -17.765894 ], [ -65.487904, -17.765955 ], [ -65.472693, -17.769244 ], [ -65.474688, -17.786975 ], [ -65.483372, -17.8097 ], [ -65.482227, -17.834442 ], [ -65.481939, -17.837059 ], [ -65.481616, -17.845013 ], [ -65.483804, -17.852866 ], [ -65.482876, -17.853667 ], [ -65.482719, -17.853689 ], [ -65.482202, -17.853859 ], [ -65.481647, -17.854386 ], [ -65.481297, -17.85488 ], [ -65.481007, -17.855224 ], [ -65.480778, -17.85543 ], [ -65.48067, -17.855499 ], [ -65.480513, -17.855567 ], [ -65.480332, -17.85567 ], [ -65.480079, -17.855853 ], [ -65.480031, -17.85591 ], [ -65.479825, -17.856312 ], [ -65.479752, -17.856531 ], [ -65.479559, -17.856864 ], [ -65.479353, -17.857117 ], [ -65.479184, -17.857289 ], [ -65.47904, -17.85738 ], [ -65.478619, -17.857562 ], [ -65.478474, -17.857607 ], [ -65.478245, -17.857825 ], [ -65.47798, -17.858042 ], [ -65.477642, -17.858386 ], [ -65.47751, -17.858489 ], [ -65.476954, -17.859085 ], [ -65.476471, -17.859717 ], [ -65.47629, -17.859877 ], [ -65.475376, -17.860309 ], [ -65.475075, -17.860365 ], [ -65.474834, -17.860445 ], [ -65.474654, -17.860467 ], [ -65.474642, -17.86049 ], [ -65.47415, -17.860394 ], [ -65.473489, -17.86039 ], [ -65.472852, -17.86049 ], [ -65.47272, -17.860536 ], [ -65.4726, -17.860558 ], [ -65.472515, -17.860615 ], [ -65.472407, -17.860649 ], [ -65.472238, -17.860741 ], [ -65.472034, -17.860802 ], [ -65.471934, -17.860901 ], [ -65.471792, -17.861 ], [ -65.472101, -17.861153 ], [ -65.472368, -17.861341 ], [ -65.472608, -17.8614 ], [ -65.47292, -17.861505 ], [ -65.47304, -17.861575 ], [ -65.473363, -17.861854 ], [ -65.473697, -17.862225 ], [ -65.473816, -17.862479 ], [ -65.473923, -17.862757 ], [ -65.474103, -17.862988 ], [ -65.474365, -17.86329 ], [ -65.474855, -17.864007 ], [ -65.475034, -17.864331 ], [ -65.475188, -17.86469 ], [ -65.475258, -17.865082 ], [ -65.475256, -17.865601 ], [ -65.47528, -17.865705 ], [ -65.47547, -17.866098 ], [ -65.475613, -17.866306 ], [ -65.475985, -17.866458 ], [ -65.476093, -17.866482 ], [ -65.476537, -17.866692 ], [ -65.476861, -17.866763 ], [ -65.476933, -17.866764 ], [ -65.477041, -17.866787 ], [ -65.477665, -17.866791 ], [ -65.477834, -17.866769 ], [ -65.478182, -17.866771 ], [ -65.478506, -17.866831 ], [ -65.479771, -17.867218 ], [ -65.48012, -17.86737 ], [ -65.480592, -17.867559 ], [ -65.481228, -17.867862 ], [ -65.48142, -17.86792 ], [ -65.481516, -17.867921 ], [ -65.481516, -17.867932 ], [ -65.482128, -17.868155 ], [ -65.482356, -17.868203 ], [ -65.482548, -17.868284 ], [ -65.482764, -17.868355 ], [ -65.483027, -17.868495 ], [ -65.483291, -17.868612 ], [ -65.484071, -17.868858 ], [ -65.484754, -17.869105 ], [ -65.48551, -17.869455 ], [ -65.485738, -17.869526 ], [ -65.485929, -17.869607 ], [ -65.486061, -17.869643 ], [ -65.486157, -17.869689 ], [ -65.486492, -17.869768 ], [ -65.47764, -17.890392 ], [ -65.489914, -17.899254 ], [ -65.49312, -17.885246 ], [ -65.501343, -17.887684 ], [ -65.501505, -17.887728 ], [ -65.524235, -17.89464 ], [ -65.52456, -17.89476 ], [ -65.524821, -17.894942 ], [ -65.538048, -17.9024 ], [ -65.544907, -17.915079 ], [ -65.544746, -17.915174 ], [ -65.544554, -17.915269 ], [ -65.544329, -17.915365 ], [ -65.544044, -17.91541 ], [ -65.543826, -17.915533 ], [ -65.54373, -17.915554 ], [ -65.543609, -17.915609 ], [ -65.543138, -17.915762 ], [ -65.542776, -17.915904 ], [ -65.542098, -17.916248 ], [ -65.541745, -17.916506 ], [ -65.541659, -17.916654 ], [ -65.541585, -17.916721 ], [ -65.541572, -17.916813 ], [ -65.541536, -17.916824 ], [ -65.541424, -17.917017 ], [ -65.541314, -17.917153 ], [ -65.541277, -17.917233 ], [ -65.54102, -17.917481 ], [ -65.540959, -17.917595 ], [ -65.540738, -17.917832 ], [ -65.54047, -17.918091 ], [ -65.540298, -17.918318 ], [ -65.540211, -17.9185 ], [ -65.539996, -17.919185 ], [ -65.539827, -17.919929 ], [ -65.539608, -17.920097 ], [ -65.539427, -17.920174 ], [ -65.539089, -17.920271 ], [ -65.538992, -17.920316 ], [ -65.538776, -17.920312 ], [ -65.538595, -17.9204 ], [ -65.538424, -17.920524 ], [ -65.5384, -17.920569 ], [ -65.538384, -17.921499 ], [ -65.53837, -17.921648 ], [ -65.538319, -17.921808 ], [ -65.53827, -17.921876 ], [ -65.538136, -17.921966 ], [ -65.538052, -17.921999 ], [ -65.537859, -17.922018 ], [ -65.537355, -17.922009 ], [ -65.537152, -17.921982 ], [ -65.536767, -17.921975 ], [ -65.536503, -17.921994 ], [ -65.536153, -17.922091 ], [ -65.53585, -17.922269 ], [ -65.53551, -17.922493 ], [ -65.535012, -17.922874 ], [ -65.534854, -17.922975 ], [ -65.534854, -17.922998 ], [ -65.534684, -17.923086 ], [ -65.534479, -17.92314 ], [ -65.534239, -17.923159 ], [ -65.533891, -17.923153 ], [ -65.53365, -17.923206 ], [ -65.533517, -17.923215 ], [ -65.533202, -17.923393 ], [ -65.532823, -17.923799 ], [ -65.532375, -17.924056 ], [ -65.532001, -17.924152 ], [ -65.531688, -17.924181 ], [ -65.531507, -17.924235 ], [ -65.530889, -17.924592 ], [ -65.530633, -17.92484 ], [ -65.529975, -17.925402 ], [ -65.529743, -17.925627 ], [ -65.529549, -17.92575 ], [ -65.529343, -17.92585 ], [ -65.5285, -17.926053 ], [ -65.528378, -17.926131 ], [ -65.528101, -17.926207 ], [ -65.527858, -17.926352 ], [ -65.527627, -17.926543 ], [ -65.527336, -17.926721 ], [ -65.527105, -17.926901 ], [ -65.527031, -17.92698 ], [ -65.526822, -17.927275 ], [ -65.526761, -17.927331 ], [ -65.526737, -17.927376 ], [ -65.526517, -17.927556 ], [ -65.526275, -17.927713 ], [ -65.526165, -17.927803 ], [ -65.526068, -17.927858 ], [ -65.525581, -17.928263 ], [ -65.52535, -17.928431 ], [ -65.524829, -17.928732 ], [ -65.524793, -17.928731 ], [ -65.524756, -17.928753 ], [ -65.524419, -17.928851 ], [ -65.524382, -17.928873 ], [ -65.524166, -17.928915 ], [ -65.523779, -17.929057 ], [ -65.52373, -17.929091 ], [ -65.523694, -17.92909 ], [ -65.523652, -17.929139 ], [ -65.52361, -17.929201 ], [ -65.523563, -17.929252 ], [ -65.523542, -17.929283 ], [ -65.523543, -17.929375 ], [ -65.523555, -17.929416 ], [ -65.52357, -17.92949 ], [ -65.523701, -17.929651 ], [ -65.523809, -17.929793 ], [ -65.523918, -17.929935 ], [ -65.523944, -17.93002 ], [ -65.524053, -17.930162 ], [ -65.524143, -17.930258 ], [ -65.524555, -17.930725 ], [ -65.524921, -17.931099 ], [ -65.525121, -17.931333 ], [ -65.525144, -17.931413 ], [ -65.525541, -17.932064 ], [ -65.525764, -17.932355 ], [ -65.5258, -17.932379 ], [ -65.526517, -17.933253 ], [ -65.526787, -17.933648 ], [ -65.527516, -17.934569 ], [ -65.527738, -17.934894 ], [ -65.528044, -17.935302 ], [ -65.528269, -17.93549 ], [ -65.528519, -17.935621 ], [ -65.528721, -17.935705 ], [ -65.529343, -17.935877 ], [ -65.529963, -17.936095 ], [ -65.530261, -17.936249 ], [ -65.530689, -17.93651 ], [ -65.53089, -17.936697 ], [ -65.531031, -17.936872 ], [ -65.538792, -17.941921 ], [ -65.539015, -17.941803 ], [ -65.539186, -17.941685 ], [ -65.562366, -17.92807 ], [ -65.562356, -17.928057 ], [ -65.572876, -17.91519 ], [ -65.609039, -17.902889 ], [ -65.609048, -17.902898 ], [ -65.60907, -17.90289 ], [ -65.609081, -17.9029 ], [ -65.631003, -17.887105 ], [ -65.631558, -17.886798 ], [ -65.631983, -17.886706 ], [ -65.648587, -17.882911 ], [ -65.648618, -17.882912 ], [ -65.648618, -17.882912 ], [ -65.648755, -17.882914 ], [ -65.651182, -17.882195 ], [ -65.65165, -17.882066 ], [ -65.660931, -17.862566 ], [ -65.698666, -17.847325 ], [ -65.698751, -17.847283 ], [ -65.709114, -17.837012 ], [ -65.709215, -17.836907 ], [ -65.722638, -17.823327 ], [ -65.722629, -17.823368 ], [ -65.72267, -17.823328 ], [ -65.721574, -17.792822 ], [ -65.718855, -17.775355 ], [ -65.700134, -17.757443 ], [ -65.723927, -17.748822 ], [ -65.726016, -17.748347 ], [ -65.72595, -17.748057 ], [ -65.723869, -17.738884 ], [ -65.723777, -17.738456 ], [ -65.731613, -17.723859 ], [ -65.729734, -17.703962 ], [ -65.733898, -17.670174 ], [ -65.734211, -17.666979 ], [ -65.734274, -17.666337 ], [ -65.721494, -17.674696 ], [ -65.707101, -17.660316 ], [ -65.661691, -17.658767 ], [ -65.660838, -17.652094 ], [ -65.660814, -17.652002 ], [ -65.643264, -17.660671 ] ] ] ] } }
]
}
