{
"type": "FeatureCollection",
"name": "ANZALDO",
"crs": { "type": "name", "properties": { "name": "urn:ogc:def:crs:OGC:1.3:CRS84" } },
"bbox": [ -66.035962, -17.996429, -65.789809, -17.668958 ],                                                                        
"features": [
{ "type": "Feature", "properties": { "NOMBRE": "Anzaldo", "NIVEL": "Municipios", "PROVINCIA": "Esteban Arze", "REGION": "Valles", "DEPARTAMENTO": "Cochabamba" }, "bbox": [ -66.035962, -17.996429, -65.789809, -17.668958 ], "geometry": { "type": "MultiPolygon", "coordinates": [ [ [ [ -65.898379, -17.672122 ], [ -65.894522, -17.676888 ], [ -65.893586, -17.678941 ], [ -65.893424, -17.681222 ], [ -65.893949, -17.683593 ], [ -65.893668, -17.684921 ], [ -65.891902, -17.687438 ], [ -65.891639, -17.691492 ], [ -65.891038, -17.692503 ], [ -65.889583, -17.693439 ], [ -65.88834, -17.693703 ], [ -65.886563, -17.694748 ], [ -65.884661, -17.696611 ], [ -65.881241, -17.697766 ], [ -65.877864, -17.697551 ], [ -65.880385, -17.705384 ], [ -65.876305, -17.708523 ], [ -65.876282, -17.708613 ], [ -65.860517, -17.73549 ], [ -65.868018, -17.753183 ], [ -65.863716, -17.775936 ], [ -65.863584, -17.776507 ], [ -65.876677, -17.79631 ], [ -65.87658, -17.796218 ], [ -65.870606, -17.80559 ], [ -65.852401, -17.82027 ], [ -65.852164, -17.820545 ], [ -65.84657, -17.825921 ], [ -65.830733, -17.823621 ], [ -65.830327, -17.824106 ], [ -65.829984, -17.824891 ], [ -65.829675, -17.825444 ], [ -65.829246, -17.826045 ], [ -65.828254, -17.827107 ], [ -65.827921, -17.827684 ], [ -65.827779, -17.82803 ], [ -65.827738, -17.82894 ], [ -65.827552, -17.829897 ], [ -65.827328, -17.830508 ], [ -65.826934, -17.830935 ], [ -65.826179, -17.83156 ], [ -65.825466, -17.832771 ], [ -65.825071, -17.833176 ], [ -65.824784, -17.833384 ], [ -65.823906, -17.833606 ], [ -65.823642, -17.83371 ], [ -65.823055, -17.834196 ], [ -65.822709, -17.834623 ], [ -65.822329, -17.835373 ], [ -65.821564, -17.836193 ], [ -65.82135, -17.836493 ], [ -65.820638, -17.83695 ], [ -65.81973, -17.837649 ], [ -65.819533, -17.838008 ], [ -65.819409, -17.838366 ], [ -65.819347, -17.838894 ], [ -65.819357, -17.840019 ], [ -65.819323, -17.840743 ], [ -65.819193, -17.841457 ], [ -65.819101, -17.842261 ], [ -65.819097, -17.842675 ], [ -65.819218, -17.843362 ], [ -65.819468, -17.843897 ], [ -65.819703, -17.844284 ], [ -65.819792, -17.844592 ], [ -65.819989, -17.844876 ], [ -65.820574, -17.845441 ], [ -65.820773, -17.845817 ], [ -65.820989, -17.846503 ], [ -65.821625, -17.847824 ], [ -65.822054, -17.848281 ], [ -65.798398, -17.857775 ], [ -65.789809, -17.863844 ], [ -65.802029, -17.876253 ], [ -65.801119, -17.886557 ], [ -65.800778, -17.887123 ], [ -65.800579, -17.888653 ], [ -65.800391, -17.889045 ], [ -65.800286, -17.889333 ], [ -65.79998, -17.890944 ], [ -65.799877, -17.891393 ], [ -65.799701, -17.891785 ], [ -65.799596, -17.891981 ], [ -65.799398, -17.892511 ], [ -65.79934, -17.892719 ], [ -65.799211, -17.892973 ], [ -65.799142, -17.893272 ], [ -65.799013, -17.893572 ], [ -65.79882, -17.894504 ], [ -65.798799, -17.89478 ], [ -65.798602, -17.895459 ], [ -65.798345, -17.896093 ], [ -65.797982, -17.896832 ], [ -65.797912, -17.897074 ], [ -65.797879, -17.897269 ], [ -65.797857, -17.897534 ], [ -65.797823, -17.897706 ], [ -65.797802, -17.897948 ], [ -65.797804, -17.898109 ], [ -65.797719, -17.89919 ], [ -65.797722, -17.899431 ], [ -65.79769, -17.899799 ], [ -65.797678, -17.899799 ], [ -65.797607, -17.899903 ], [ -65.797549, -17.900064 ], [ -65.797435, -17.900674 ], [ -65.797195, -17.901779 ], [ -65.797162, -17.901998 ], [ -65.797164, -17.902239 ], [ -65.797089, -17.90301 ], [ -65.796903, -17.903597 ], [ -65.796833, -17.903736 ], [ -65.796403, -17.90498 ], [ -65.796243, -17.905751 ], [ -65.796185, -17.905947 ], [ -65.796033, -17.90627 ], [ -65.795798, -17.906674 ], [ -65.795716, -17.90687 ], [ -65.795681, -17.90702 ], [ -65.795635, -17.907135 ], [ -65.795601, -17.907377 ], [ -65.795592, -17.907595 ], [ -65.795546, -17.907814 ], [ -65.795538, -17.908216 ], [ -65.795526, -17.908228 ], [ -65.795959, -17.908351 ], [ -65.796367, -17.908394 ], [ -65.796559, -17.90845 ], [ -65.797014, -17.908458 ], [ -65.797375, -17.908559 ], [ -65.79758, -17.908695 ], [ -65.798052, -17.909163 ], [ -65.798076, -17.909232 ], [ -65.798222, -17.909392 ], [ -65.798344, -17.909586 ], [ -65.798332, -17.909598 ], [ -65.798501, -17.909792 ], [ -65.798611, -17.909963 ], [ -65.798685, -17.910124 ], [ -65.798758, -17.910227 ], [ -65.798856, -17.910467 ], [ -65.798931, -17.910754 ], [ -65.799053, -17.910994 ], [ -65.799224, -17.911257 ], [ -65.799406, -17.911475 ], [ -65.799611, -17.911634 ], [ -65.799647, -17.911691 ], [ -65.799816, -17.911747 ], [ -65.800068, -17.91186 ], [ -65.800537, -17.912018 ], [ -65.801079, -17.912232 ], [ -65.801452, -17.912413 ], [ -65.801669, -17.912596 ], [ -65.801949, -17.913007 ], [ -65.802279, -17.913568 ], [ -65.802316, -17.913694 ], [ -65.802364, -17.91374 ], [ -65.80251, -17.913946 ], [ -65.802742, -17.914323 ], [ -65.802914, -17.914759 ], [ -65.802952, -17.914908 ], [ -65.803025, -17.915091 ], [ -65.803051, -17.915206 ], [ -65.803149, -17.915469 ], [ -65.803237, -17.915837 ], [ -65.803252, -17.916124 ], [ -65.80345, -17.916743 ], [ -65.80362, -17.91696 ], [ -65.803754, -17.917166 ], [ -65.803984, -17.917371 ], [ -65.804092, -17.917439 ], [ -65.804129, -17.917508 ], [ -65.804286, -17.917633 ], [ -65.804577, -17.917987 ], [ -65.804795, -17.918181 ], [ -65.805096, -17.918328 ], [ -65.805505, -17.918486 ], [ -65.805973, -17.918575 ], [ -65.806527, -17.918823 ], [ -65.806985, -17.919107 ], [ -65.807106, -17.91921 ], [ -65.807227, -17.919358 ], [ -65.807325, -17.919541 ], [ -65.807349, -17.919553 ], [ -65.807349, -17.919576 ], [ -65.807397, -17.91961 ], [ -65.807473, -17.919931 ], [ -65.807499, -17.920126 ], [ -65.807504, -17.920666 ], [ -65.807462, -17.921138 ], [ -65.807427, -17.921299 ], [ -65.807429, -17.921471 ], [ -65.807518, -17.92193 ], [ -65.808213, -17.923098 ], [ -65.80836, -17.92343 ], [ -65.808458, -17.923601 ], [ -65.808533, -17.923934 ], [ -65.80856, -17.924175 ], [ -65.808635, -17.924508 ], [ -65.808671, -17.924531 ], [ -65.808745, -17.924657 ], [ -65.809133, -17.92509 ], [ -65.809134, -17.925182 ], [ -65.809197, -17.92555 ], [ -65.809284, -17.925848 ], [ -65.809551, -17.926099 ], [ -65.809624, -17.926236 ], [ -65.809711, -17.9265 ], [ -65.809712, -17.926615 ], [ -65.809689, -17.926764 ], [ -65.809632, -17.926972 ], [ -65.809573, -17.92711 ], [ -65.809487, -17.927216 ], [ -65.80943, -17.927282 ], [ -65.809342, -17.927435 ], [ -65.809303, -17.92756 ], [ -65.809258, -17.927848 ], [ -65.809259, -17.92794 ], [ -65.809307, -17.92802 ], [ -65.809309, -17.928021 ], [ -65.809477, -17.928191 ], [ -65.809598, -17.928282 ], [ -65.809766, -17.928338 ], [ -65.809965, -17.928358 ], [ -65.81025, -17.928334 ], [ -65.810537, -17.928332 ], [ -65.810669, -17.928296 ], [ -65.811112, -17.928293 ], [ -65.811118, -17.928294 ], [ -65.811143, -17.928294 ], [ -65.811323, -17.928315 ], [ -65.811792, -17.928427 ], [ -65.811948, -17.928483 ], [ -65.811984, -17.928517 ], [ -65.811951, -17.928736 ], [ -65.811833, -17.928943 ], [ -65.811786, -17.92907 ], [ -65.811764, -17.929185 ], [ -65.81174, -17.92922 ], [ -65.811717, -17.929347 ], [ -65.811733, -17.929668 ], [ -65.811783, -17.929863 ], [ -65.812051, -17.930344 ], [ -65.812306, -17.930652 ], [ -65.812742, -17.931109 ], [ -65.812743, -17.931143 ], [ -65.812767, -17.931143 ], [ -65.812767, -17.931189 ], [ -65.812853, -17.931326 ], [ -65.812865, -17.931395 ], [ -65.812902, -17.931464 ], [ -65.812927, -17.931556 ], [ -65.813231, -17.932036 ], [ -65.813606, -17.932321 ], [ -65.81369, -17.932354 ], [ -65.814076, -17.932639 ], [ -65.814367, -17.932913 ], [ -65.814574, -17.933244 ], [ -65.814612, -17.933393 ], [ -65.814661, -17.933496 ], [ -65.814699, -17.933726 ], [ -65.814701, -17.933898 ], [ -65.814726, -17.934025 ], [ -65.814729, -17.934266 ], [ -65.814815, -17.934472 ], [ -65.81489, -17.934805 ], [ -65.814891, -17.934897 ], [ -65.814916, -17.934989 ], [ -65.814895, -17.935253 ], [ -65.814721, -17.935829 ], [ -65.814475, -17.936279 ], [ -65.814358, -17.936533 ], [ -65.8143, -17.936763 ], [ -65.814207, -17.937017 ], [ -65.814077, -17.937236 ], [ -65.813971, -17.937363 ], [ -65.813722, -17.937583 ], [ -65.813448, -17.937781 ], [ -65.813258, -17.937886 ], [ -65.813067, -17.937956 ], [ -65.812685, -17.938143 ], [ -65.812304, -17.938306 ], [ -65.811458, -17.938749 ], [ -65.810995, -17.939121 ], [ -65.810568, -17.939584 ], [ -65.810474, -17.939722 ], [ -65.81032, -17.939873 ], [ -65.810131, -17.940104 ], [ -65.809777, -17.940624 ], [ -65.809661, -17.940981 ], [ -65.809595, -17.941533 ], [ -65.809559, -17.941556 ], [ -65.809477, -17.941729 ], [ -65.808722, -17.941746 ], [ -65.808627, -17.941793 ], [ -65.808627, -17.941816 ], [ -65.808592, -17.941874 ], [ -65.808499, -17.942162 ], [ -65.808336, -17.942588 ], [ -65.808253, -17.942692 ], [ -65.808253, -17.942715 ], [ -65.80823, -17.942715 ], [ -65.808194, -17.94275 ], [ -65.808134, -17.942751 ], [ -65.80813, -17.94275 ], [ -65.808103, -17.94275 ], [ -65.807878, -17.942707 ], [ -65.807582, -17.942709 ], [ -65.807535, -17.942721 ], [ -65.807428, -17.94279 ], [ -65.807285, -17.942929 ], [ -65.807191, -17.943045 ], [ -65.807026, -17.94331 ], [ -65.80672, -17.943876 ], [ -65.806449, -17.944292 ], [ -65.80619, -17.944753 ], [ -65.806143, -17.944811 ], [ -65.80598, -17.945226 ], [ -65.805947, -17.945502 ], [ -65.805948, -17.945617 ], [ -65.805925, -17.945732 ], [ -65.80593, -17.946146 ], [ -65.805981, -17.946421 ], [ -65.806067, -17.946685 ], [ -65.806238, -17.947017 ], [ -65.806312, -17.9472 ], [ -65.806336, -17.9472 ], [ -65.806629, -17.947727 ], [ -65.806789, -17.948105 ], [ -65.806813, -17.948105 ], [ -65.806899, -17.948334 ], [ -65.806984, -17.948437 ], [ -65.807009, -17.948505 ], [ -65.80718, -17.948768 ], [ -65.807387, -17.949135 ], [ -65.807632, -17.949638 ], [ -65.807669, -17.949753 ], [ -65.80778, -17.949982 ], [ -65.807805, -17.950097 ], [ -65.807866, -17.9502 ], [ -65.80794, -17.950464 ], [ -65.807966, -17.950624 ], [ -65.807972, -17.951187 ], [ -65.808009, -17.951268 ], [ -65.808072, -17.951531 ], [ -65.808376, -17.951954 ], [ -65.808376, -17.951989 ], [ -65.808485, -17.952092 ], [ -65.808582, -17.952229 ], [ -65.808851, -17.952721 ], [ -65.809428, -17.954004 ], [ -65.809466, -17.954187 ], [ -65.8096, -17.954462 ], [ -65.809982, -17.955413 ], [ -65.809983, -17.955528 ], [ -65.810032, -17.955597 ], [ -65.810069, -17.955723 ], [ -65.810154, -17.95586 ], [ -65.810168, -17.955987 ], [ -65.810327, -17.956273 ], [ -65.8104, -17.956444 ], [ -65.811107, -17.95752 ], [ -65.811241, -17.957771 ], [ -65.811436, -17.958046 ], [ -65.811436, -17.95808 ], [ -65.811497, -17.958137 ], [ -65.811497, -17.95816 ], [ -65.811521, -17.95816 ], [ -65.811691, -17.9584 ], [ -65.811715, -17.9584 ], [ -65.811715, -17.958434 ], [ -65.811788, -17.958514 ], [ -65.811812, -17.958514 ], [ -65.812079, -17.958822 ], [ -65.812553, -17.959497 ], [ -65.812784, -17.959783 ], [ -65.813029, -17.960263 ], [ -65.813152, -17.960561 ], [ -65.813372, -17.961008 ], [ -65.813583, -17.961249 ], [ -65.813778, -17.961515 ], [ -65.813801, -17.961718 ], [ -65.813862, -17.96187 ], [ -65.813984, -17.962153 ], [ -65.814291, -17.962874 ], [ -65.814354, -17.963196 ], [ -65.814346, -17.963563 ], [ -65.814288, -17.963736 ], [ -65.814147, -17.964002 ], [ -65.814018, -17.96421 ], [ -65.813842, -17.964556 ], [ -65.813747, -17.964706 ], [ -65.813724, -17.964798 ], [ -65.813665, -17.964902 ], [ -65.813642, -17.964982 ], [ -65.81356, -17.965155 ], [ -65.813468, -17.965466 ], [ -65.813378, -17.966053 ], [ -65.813432, -17.96657 ], [ -65.813566, -17.966833 ], [ -65.813714, -17.967188 ], [ -65.813726, -17.967188 ], [ -65.813884, -17.967451 ], [ -65.813934, -17.967589 ], [ -65.813934, -17.967635 ], [ -65.814129, -17.967886 ], [ -65.814202, -17.968024 ], [ -65.814202, -17.968047 ], [ -65.814214, -17.968047 ], [ -65.814239, -17.968104 ], [ -65.814445, -17.968378 ], [ -65.814482, -17.96847 ], [ -65.814616, -17.968641 ], [ -65.81497, -17.969259 ], [ -65.815056, -17.969442 ], [ -65.815495, -17.970209 ], [ -65.815557, -17.970358 ], [ -65.816033, -17.971159 ], [ -65.816119, -17.971331 ], [ -65.816228, -17.971491 ], [ -65.81641, -17.971685 ], [ -65.816676, -17.971936 ], [ -65.816773, -17.972004 ], [ -65.816809, -17.97205 ], [ -65.817111, -17.9723 ], [ -65.817691, -17.972675 ], [ -65.818522, -17.973094 ], [ -65.819605, -17.973546 ], [ -65.819786, -17.973648 ], [ -65.81981, -17.973647 ], [ -65.81981, -17.973659 ], [ -65.820135, -17.97376 ], [ -65.820219, -17.973805 ], [ -65.820508, -17.973895 ], [ -65.820664, -17.973986 ], [ -65.821242, -17.974234 ], [ -65.821447, -17.974336 ], [ -65.821821, -17.974563 ], [ -65.822147, -17.974791 ], [ -65.822594, -17.975155 ], [ -65.823004, -17.975428 ], [ -65.823185, -17.975507 ], [ -65.823269, -17.975564 ], [ -65.82386, -17.975847 ], [ -65.824461, -17.976095 ], [ -65.82457, -17.976163 ], [ -65.824847, -17.976299 ], [ -65.825221, -17.976514 ], [ -65.825318, -17.976594 ], [ -65.825354, -17.976651 ], [ -65.82539, -17.976674 ], [ -65.825441, -17.976926 ], [ -65.825468, -17.977168 ], [ -65.825473, -17.977696 ], [ -65.825416, -17.977904 ], [ -65.825406, -17.978168 ], [ -65.825372, -17.978295 ], [ -65.825373, -17.978375 ], [ -65.82535, -17.978467 ], [ -65.825351, -17.978628 ], [ -65.825328, -17.978674 ], [ -65.825332, -17.979088 ], [ -65.825554, -17.979615 ], [ -65.825762, -17.98005 ], [ -65.825847, -17.980153 ], [ -65.826077, -17.980335 ], [ -65.826464, -17.9807 ], [ -65.826791, -17.981054 ], [ -65.826952, -17.981535 ], [ -65.826918, -17.981673 ], [ -65.826921, -17.981983 ], [ -65.82712, -17.982614 ], [ -65.827291, -17.982958 ], [ -65.827427, -17.983313 ], [ -65.827626, -17.984001 ], [ -65.827887, -17.984826 ], [ -65.828306, -17.985938 ], [ -65.828529, -17.98658 ], [ -65.82859, -17.986694 ], [ -65.828664, -17.986935 ], [ -65.828738, -17.987095 ], [ -65.828905, -17.98727 ], [ -65.82923, -17.987599 ], [ -65.829616, -17.98815 ], [ -65.832014, -17.992882 ], [ -65.833919, -17.991068 ], [ -65.8353, -17.989413 ], [ -65.839577, -17.985829 ], [ -65.842278, -17.984324 ], [ -65.844455, -17.980954 ], [ -65.847754, -17.980239 ], [ -65.85053, -17.978519 ], [ -65.854158, -17.977397 ], [ -65.859167, -17.974561 ], [ -65.863342, -17.97066 ], [ -65.866252, -17.969572 ], [ -65.867858, -17.970445 ], [ -65.869596, -17.971511 ], [ -65.871542, -17.973442 ], [ -65.872861, -17.976371 ], [ -65.874876, -17.978302 ], [ -65.877518, -17.978836 ], [ -65.880299, -17.980302 ], [ -65.882732, -17.982033 ], [ -65.884212, -17.981751 ], [ -65.886627, -17.981636 ], [ -65.888992, -17.982282 ], [ -65.890103, -17.982902 ], [ -65.89038, -17.984566 ], [ -65.890519, -17.985897 ], [ -65.89191, -17.986098 ], [ -65.8933, -17.986032 ], [ -65.895179, -17.985434 ], [ -65.896708, -17.986699 ], [ -65.897124, -17.988296 ], [ -65.897889, -17.989495 ], [ -65.899071, -17.98863 ], [ -65.900393, -17.988098 ], [ -65.901645, -17.9873 ], [ -65.904496, -17.987834 ], [ -65.906582, -17.988833 ], [ -65.908529, -17.990298 ], [ -65.91131, -17.991364 ], [ -65.912884, -17.99261 ], [ -65.91423, -17.993894 ], [ -65.915621, -17.993961 ], [ -65.918125, -17.99323 ], [ -65.919794, -17.992299 ], [ -65.921533, -17.992633 ], [ -65.923063, -17.993765 ], [ -65.924592, -17.995629 ], [ -65.926609, -17.996095 ], [ -65.928486, -17.996429 ], [ -65.930295, -17.995697 ], [ -65.931895, -17.993235 ], [ -65.9328, -17.991106 ], [ -65.933288, -17.988112 ], [ -65.935306, -17.984785 ], [ -65.937218, -17.982054 ], [ -65.938715, -17.982058 ], [ -65.939897, -17.982923 ], [ -65.941218, -17.98279 ], [ -65.943722, -17.980196 ], [ -65.943375, -17.978266 ], [ -65.943153, -17.975552 ], [ -65.944054, -17.972826 ], [ -65.943305, -17.970027 ], [ -65.94308, -17.968592 ], [ -65.943396, -17.967099 ], [ -65.944356, -17.965292 ], [ -65.945481, -17.962351 ], [ -65.944732, -17.960485 ], [ -65.944807, -17.959624 ], [ -65.945707, -17.958405 ], [ -65.947282, -17.958118 ], [ -65.949306, -17.958406 ], [ -65.950431, -17.958047 ], [ -65.951031, -17.957043 ], [ -65.951256, -17.955493 ], [ -65.951434, -17.952943 ], [ -65.952552, -17.951423 ], [ -65.953483, -17.950758 ], [ -65.955558, -17.950349 ], [ -65.957704, -17.950085 ], [ -65.958379, -17.949511 ], [ -65.959429, -17.949152 ], [ -65.960403, -17.949368 ], [ -65.961303, -17.950085 ], [ -65.961452, -17.950946 ], [ -65.961302, -17.952309 ], [ -65.961552, -17.953372 ], [ -65.961527, -17.954443 ], [ -65.961976, -17.955825 ], [ -65.962951, -17.956687 ], [ -65.964975, -17.956902 ], [ -65.9661, -17.956045 ], [ -65.96817, -17.954762 ], [ -65.969145, -17.954762 ], [ -65.96997, -17.95426 ], [ -65.972294, -17.948807 ], [ -65.973194, -17.948018 ], [ -65.974694, -17.947205 ], [ -65.980166, -17.942997 ], [ -65.982179, -17.942277 ], [ -65.984948, -17.94055 ], [ -65.986164, -17.939553 ], [ -65.986314, -17.938549 ], [ -65.987909, -17.936296 ], [ -65.989087, -17.93532 ], [ -65.990028, -17.93527 ], [ -65.990961, -17.934746 ], [ -65.991336, -17.933813 ], [ -65.991186, -17.932594 ], [ -65.991336, -17.931661 ], [ -65.99276, -17.9308 ], [ -65.992835, -17.929724 ], [ -65.992565, -17.92879 ], [ -65.992611, -17.927643 ], [ -65.993248, -17.926321 ], [ -65.993733, -17.924712 ], [ -65.99375, -17.922835 ], [ -65.99366, -17.921401 ], [ -65.994314, -17.920281 ], [ -65.995503, -17.919816 ], [ -65.998017, -17.917213 ], [ -66.001614, -17.914702 ], [ -66.002139, -17.912908 ], [ -66.002888, -17.912693 ], [ -66.004387, -17.912621 ], [ -66.005391, -17.911854 ], [ -66.006066, -17.910706 ], [ -66.007639, -17.909845 ], [ -66.009738, -17.91006 ], [ -66.011887, -17.908501 ], [ -66.013161, -17.906492 ], [ -66.013685, -17.899891 ], [ -66.015034, -17.897523 ], [ -66.015184, -17.891783 ], [ -66.017357, -17.890204 ], [ -66.020204, -17.886186 ], [ -66.020504, -17.884177 ], [ -66.018255, -17.881163 ], [ -66.019004, -17.879656 ], [ -66.022826, -17.878293 ], [ -66.025748, -17.87614 ], [ -66.027696, -17.872408 ], [ -66.027021, -17.869297 ], [ -66.027171, -17.866786 ], [ -66.028145, -17.865781 ], [ -66.030018, -17.865924 ], [ -66.031666, -17.864991 ], [ -66.032565, -17.863269 ], [ -66.03279, -17.860901 ], [ -66.033838, -17.858246 ], [ -66.034384, -17.856259 ], [ -66.03377, -17.85595 ], [ -66.032826, -17.85539 ], [ -66.031582, -17.854214 ], [ -66.031154, -17.853801 ], [ -66.030035, -17.852927 ], [ -66.02925, -17.852192 ], [ -66.029251, -17.852123 ], [ -66.02818, -17.851158 ], [ -66.027553, -17.850171 ], [ -66.025996, -17.848552 ], [ -66.025187, -17.847862 ], [ -66.024747, -17.847563 ], [ -66.023685, -17.847136 ], [ -66.022848, -17.84695 ], [ -66.022108, -17.846673 ], [ -66.021822, -17.8465 ], [ -66.021429, -17.84619 ], [ -66.021145, -17.845743 ], [ -66.021028, -17.845342 ], [ -66.020983, -17.845009 ], [ -66.020983, -17.845008 ], [ -66.020983, -17.845005 ], [ -66.021032, -17.844822 ], [ -66.021298, -17.844502 ], [ -66.021658, -17.84424 ], [ -66.022163, -17.843944 ], [ -66.022763, -17.843694 ], [ -66.023099, -17.843604 ], [ -66.023423, -17.843433 ], [ -66.0237, -17.843228 ], [ -66.023844, -17.843057 ], [ -66.023905, -17.842896 ], [ -66.023918, -17.842695 ], [ -66.023825, -17.842386 ], [ -66.02354, -17.842019 ], [ -66.022542, -17.841076 ], [ -66.021887, -17.840593 ], [ -66.021219, -17.840328 ], [ -66.020766, -17.840052 ], [ -66.020505, -17.839673 ], [ -66.020144, -17.838229 ], [ -66.020026, -17.838034 ], [ -66.019681, -17.837747 ], [ -66.019359, -17.837597 ], [ -66.018893, -17.837515 ], [ -66.018223, -17.837513 ], [ -66.017398, -17.837407 ], [ -66.016928, -17.837011 ], [ -66.016922, -17.837008 ], [ -66.016732, -17.836847 ], [ -66.016489, -17.836588 ], [ -66.016288, -17.836334 ], [ -66.015908, -17.836079 ], [ -66.015491, -17.835879 ], [ -66.014965, -17.835769 ], [ -66.014019, -17.835756 ], [ -66.012883, -17.835524 ], [ -66.012431, -17.83529 ], [ -66.012068, -17.835004 ], [ -66.011649, -17.83456 ], [ -66.011641, -17.834094 ], [ -66.011641, -17.834093 ], [ -66.011641, -17.834089 ], [ -66.011945, -17.833219 ], [ -66.012304, -17.832641 ], [ -66.013511, -17.830792 ], [ -66.013762, -17.830044 ], [ -66.014092, -17.829548 ], [ -66.014726, -17.828783 ], [ -66.014983, -17.828399 ], [ -66.015282, -17.827561 ], [ -66.015417, -17.827301 ], [ -66.016124, -17.82648 ], [ -66.016517, -17.825779 ], [ -66.016846, -17.825408 ], [ -66.017348, -17.824596 ], [ -66.017461, -17.82421 ], [ -66.017517, -17.823676 ], [ -66.017643, -17.823245 ], [ -66.017936, -17.822828 ], [ -66.018109, -17.822466 ], [ -66.018184, -17.822217 ], [ -66.018404, -17.821024 ], [ -66.01842, -17.819857 ], [ -66.01842, -17.819857 ], [ -66.01842, -17.819852 ], [ -66.01852, -17.819557 ], [ -66.019218, -17.818474 ], [ -66.019625, -17.817683 ], [ -66.0199, -17.816844 ], [ -66.020023, -17.816596 ], [ -66.020316, -17.816213 ], [ -66.021757, -17.815162 ], [ -66.022291, -17.814669 ], [ -66.022742, -17.814129 ], [ -66.025078, -17.811566 ], [ -66.02548, -17.811059 ], [ -66.025493, -17.810108 ], [ -66.025493, -17.810108 ], [ -66.025493, -17.810103 ], [ -66.025545, -17.809819 ], [ -66.025781, -17.809242 ], [ -66.026622, -17.808206 ], [ -66.027087, -17.807472 ], [ -66.027237, -17.807053 ], [ -66.027301, -17.806735 ], [ -66.027538, -17.806078 ], [ -66.027977, -17.805515 ], [ -66.028914, -17.804481 ], [ -66.029119, -17.804359 ], [ -66.029215, -17.804349 ], [ -66.029735, -17.80406 ], [ -66.029873, -17.803618 ], [ -66.030081, -17.802425 ], [ -66.030343, -17.801655 ], [ -66.030637, -17.801203 ], [ -66.031208, -17.800619 ], [ -66.031574, -17.800112 ], [ -66.031894, -17.799536 ], [ -66.032157, -17.798697 ], [ -66.032161, -17.798372 ], [ -66.032161, -17.798372 ], [ -66.032162, -17.798367 ], [ -66.032528, -17.797871 ], [ -66.03397, -17.796719 ], [ -66.034407, -17.796292 ], [ -66.03475, -17.795716 ], [ -66.035862, -17.794183 ], [ -66.035962, -17.793878 ], [ -66.035953, -17.793666 ], [ -66.035953, -17.79351 ], [ -66.024589, -17.790789 ], [ -66.023226, -17.77637 ], [ -66.023227, -17.776368 ], [ -66.023226, -17.776365 ], [ -66.023418, -17.775745 ], [ -66.025385, -17.766622 ], [ -66.025145, -17.76641 ], [ -66.024094, -17.765291 ], [ -66.023671, -17.764739 ], [ -66.023151, -17.764196 ], [ -66.022114, -17.76293 ], [ -66.021429, -17.762214 ], [ -66.020481, -17.761438 ], [ -66.020305, -17.761151 ], [ -66.020189, -17.760876 ], [ -66.020055, -17.760169 ], [ -66.019454, -17.759397 ], [ -66.019159, -17.759075 ], [ -66.01878, -17.758762 ], [ -66.01857, -17.758406 ], [ -66.018526, -17.758087 ], [ -66.018526, -17.758083 ], [ -66.018526, -17.758082 ], [ -66.018543, -17.757742 ], [ -66.018543, -17.757548 ], [ -66.002068, -17.763826 ], [ -66.001816, -17.763926 ], [ -66.001822, -17.763926 ], [ -66.00181, -17.763931 ], [ -66.001822, -17.763931 ], [ -66.001617, -17.764012 ], [ -66.000289, -17.764144 ], [ -66.000286, -17.76414 ], [ -65.991316, -17.751583 ], [ -65.991317, -17.751579 ], [ -65.991316, -17.751578 ], [ -65.99404, -17.735106 ], [ -65.998585, -17.729505 ], [ -65.99521, -17.724096 ], [ -65.98858, -17.723592 ], [ -65.985453, -17.721373 ], [ -65.985454, -17.721369 ], [ -65.985453, -17.721369 ], [ -65.986676, -17.717213 ], [ -65.981687, -17.708611 ], [ -65.98169, -17.708612 ], [ -65.981687, -17.708606 ], [ -65.966341, -17.703768 ], [ -65.958133, -17.700654 ], [ -65.94816, -17.699907 ], [ -65.947675, -17.700188 ], [ -65.947579, -17.700221 ], [ -65.947387, -17.70023 ], [ -65.946797, -17.700359 ], [ -65.946447, -17.700469 ], [ -65.946134, -17.700545 ], [ -65.945436, -17.700662 ], [ -65.945172, -17.700681 ], [ -65.944931, -17.700735 ], [ -65.944774, -17.70079 ], [ -65.944449, -17.700855 ], [ -65.943171, -17.701273 ], [ -65.943038, -17.701341 ], [ -65.942808, -17.701429 ], [ -65.942568, -17.701449 ], [ -65.942508, -17.701436 ], [ -65.942461, -17.701344 ], [ -65.942413, -17.701343 ], [ -65.942232, -17.70141 ], [ -65.942028, -17.701453 ], [ -65.941824, -17.701427 ], [ -65.941643, -17.70133 ], [ -65.941337, -17.701245 ], [ -65.941132, -17.701164 ], [ -65.940871, -17.700965 ], [ -65.940576, -17.700616 ], [ -65.939882, -17.699629 ], [ -65.939622, -17.699338 ], [ -65.93948, -17.699221 ], [ -65.939171, -17.699021 ], [ -65.939027, -17.699008 ], [ -65.938907, -17.699017 ], [ -65.938774, -17.699073 ], [ -65.938569, -17.699116 ], [ -65.938233, -17.6991 ], [ -65.937946, -17.69905 ], [ -65.937922, -17.699026 ], [ -65.937696, -17.69892 ], [ -65.937554, -17.698803 ], [ -65.93734, -17.698662 ], [ -65.936973, -17.698323 ], [ -65.936698, -17.698216 ], [ -65.936244, -17.698094 ], [ -65.936244, -17.698083 ], [ -65.936196, -17.698082 ], [ -65.936076, -17.698046 ], [ -65.935862, -17.697939 ], [ -65.935826, -17.697939 ], [ -65.935719, -17.697868 ], [ -65.93547, -17.697658 ], [ -65.935411, -17.697588 ], [ -65.93512, -17.696952 ], [ -65.935016, -17.696686 ], [ -65.934938, -17.696294 ], [ -65.934931, -17.695926 ], [ -65.93492, -17.695914 ], [ -65.934869, -17.695259 ], [ -65.934767, -17.694878 ], [ -65.934652, -17.694543 ], [ -65.934477, -17.694207 ], [ -65.934289, -17.693894 ], [ -65.934043, -17.693523 ], [ -65.933959, -17.693487 ], [ -65.933734, -17.693311 ], [ -65.933338, -17.69326 ], [ -65.932583, -17.693214 ], [ -65.93214, -17.693105 ], [ -65.931627, -17.693108 ], [ -65.931242, -17.692941 ], [ -65.930926, -17.69286 ], [ -65.930473, -17.69263 ], [ -65.930102, -17.691946 ], [ -65.930097, -17.691601 ], [ -65.930069, -17.6913 ], [ -65.93017, -17.690812 ], [ -65.930236, -17.690422 ], [ -65.930237, -17.690307 ], [ -65.930312, -17.690101 ], [ -65.930339, -17.689952 ], [ -65.93055, -17.689472 ], [ -65.930688, -17.689026 ], [ -65.930768, -17.688662 ], [ -65.930719, -17.688426 ], [ -65.930565, -17.688461 ], [ -65.930348, -17.688481 ], [ -65.929952, -17.688475 ], [ -65.929511, -17.688297 ], [ -65.929345, -17.688168 ], [ -65.929309, -17.688167 ], [ -65.929072, -17.687911 ], [ -65.928991, -17.687749 ], [ -65.928748, -17.687113 ], [ -65.928681, -17.686813 ], [ -65.928646, -17.686744 ], [ -65.928646, -17.686687 ], [ -65.928556, -17.686317 ], [ -65.928544, -17.686317 ], [ -65.928514, -17.685914 ], [ -65.928492, -17.685788 ], [ -65.928494, -17.685638 ], [ -65.92846, -17.685488 ], [ -65.928453, -17.68435 ], [ -65.928107, -17.68338 ], [ -65.927921, -17.683009 ], [ -65.927909, -17.682963 ], [ -65.927874, -17.682928 ], [ -65.927841, -17.682732 ], [ -65.92786, -17.682215 ], [ -65.927898, -17.682066 ], [ -65.927905, -17.68163 ], [ -65.927871, -17.681491 ], [ -65.927873, -17.68133 ], [ -65.927738, -17.680731 ], [ -65.92747, -17.680198 ], [ -65.927446, -17.680175 ], [ -65.927283, -17.679851 ], [ -65.927121, -17.67948 ], [ -65.926995, -17.679019 ], [ -65.926918, -17.678569 ], [ -65.926911, -17.678259 ], [ -65.926656, -17.676841 ], [ -65.926695, -17.674968 ], [ -65.926876, -17.674132 ], [ -65.926879, -17.673891 ], [ -65.926857, -17.673787 ], [ -65.926848, -17.67358 ], [ -65.926826, -17.673453 ], [ -65.926829, -17.673235 ], [ -65.926592, -17.672174 ], [ -65.926537, -17.67184 ], [ -65.926469, -17.671597 ], [ -65.92647, -17.67154 ], [ -65.926413, -17.671355 ], [ -65.926482, -17.671023 ], [ -65.926476, -17.670635 ], [ -65.91859, -17.668958 ], [ -65.916, -17.67076 ], [ -65.910164, -17.673835 ], [ -65.901821, -17.675435 ], [ -65.898379, -17.672122 ] ] ] ] } }
]
}
