{
"type": "FeatureCollection",
"name": "ARANI",
"crs": { "type": "name", "properties": { "name": "urn:ogc:def:crs:OGC:1.3:CRS84" } },
"bbox": [ -65.813446, -17.674696, -65.654665, -17.513440 ],                                                                        
"features": [
{ "type": "Feature", "properties": { "NOMBRE": "Arani", "NIVEL": "Municipios", "PROVINCIA": "Arani", "REGION": "Cono Sur", "DEPARTAMENTO": "Cochabamba" }, "bbox": [ -65.813446, -17.674696, -65.654665, -17.51344 ], "geometry": { "type": "MultiPolygon", "coordinates": [ [ [ [ -65.695197, -17.518582 ], [ -65.6938, -17.525514 ], [ -65.671239, -17.540659 ], [ -65.675477, -17.554209 ], [ -65.676217, -17.570368 ], [ -65.681702, -17.588243 ], [ -65.690677, -17.59794 ], [ -65.679744, -17.611295 ], [ -65.669297, -17.62135 ], [ -65.654665, -17.628974 ], [ -65.660762, -17.651808 ], [ -65.660893, -17.651742 ], [ -65.661691, -17.658767 ], [ -65.707101, -17.660316 ], [ -65.716922, -17.670107 ], [ -65.717389, -17.670586 ], [ -65.721494, -17.674696 ], [ -65.728382, -17.670117 ], [ -65.734276, -17.666318 ], [ -65.734274, -17.666337 ], [ -65.734481, -17.666202 ], [ -65.734494, -17.666177 ], [ -65.734522, -17.665986 ], [ -65.744773, -17.645547 ], [ -65.753875, -17.636731 ], [ -65.754018, -17.636676 ], [ -65.75408, -17.636616 ], [ -65.756212, -17.635792 ], [ -65.766548, -17.631797 ], [ -65.77649, -17.629584 ], [ -65.77943, -17.620134 ], [ -65.793408, -17.610908 ], [ -65.796193, -17.603199 ], [ -65.798526, -17.599109 ], [ -65.810223, -17.597427 ], [ -65.813446, -17.596812 ], [ -65.8116, -17.593768 ], [ -65.81141, -17.593039 ], [ -65.810849, -17.591938 ], [ -65.810478, -17.591211 ], [ -65.810219, -17.590329 ], [ -65.810632, -17.589628 ], [ -65.810881, -17.587465 ], [ -65.811468, -17.582353 ], [ -65.810039, -17.57929 ], [ -65.809971, -17.578646 ], [ -65.809432, -17.573523 ], [ -65.807704, -17.557121 ], [ -65.80775, -17.547884 ], [ -65.800925, -17.548074 ], [ -65.797277, -17.547701 ], [ -65.797242, -17.547873 ], [ -65.795234, -17.54708 ], [ -65.793173, -17.547127 ], [ -65.776976, -17.536229 ], [ -65.767754, -17.525811 ], [ -65.767185, -17.524934 ], [ -65.766637, -17.523569 ], [ -65.765697, -17.522417 ], [ -65.764641, -17.521646 ], [ -65.764473, -17.52052 ], [ -65.763292, -17.517078 ], [ -65.76177, -17.517876 ], [ -65.761577, -17.518808 ], [ -65.760969, -17.519702 ], [ -65.751612, -17.517221 ], [ -65.737651, -17.520449 ], [ -65.715361, -17.51344 ], [ -65.70331, -17.516425 ], [ -65.695197, -17.518582 ] ] ] ] } }
]
}
