{
"type": "FeatureCollection",
"name": "ARBIETO",
"crs": { "type": "name", "properties": { "name": "urn:ogc:def:crs:OGC:1.3:CRS84" } },
"bbox": [ -66.149390, -17.607635, -65.962182, -17.473511 ],                                                                        
"features": [
{ "type": "Feature", "properties": { "NOMBRE": "Arbieto", "NIVEL": "Municipios", "PROVINCIA": "Esteban Arze", "REGION": "Valles", "DEPARTAMENTO": "Cochabamba" }, "bbox": [ -66.14939, -17.607635, -65.962182, -17.473511 ], "geometry": { "type": "MultiPolygon", "coordinates": [ [ [ [ -66.06833, -17.475008 ], [ -66.066993, -17.48078 ], [ -66.066991, -17.480786 ], [ -66.065431, -17.487519 ], [ -66.056635, -17.494589 ], [ -66.043811, -17.497383 ], [ -66.046556, -17.506547 ], [ -66.046528, -17.508306 ], [ -66.046191, -17.509322 ], [ -66.04628, -17.510436 ], [ -66.04663, -17.510797 ], [ -66.04742, -17.515159 ], [ -66.046517, -17.520769 ], [ -66.049429, -17.521574 ], [ -66.050012, -17.520153 ], [ -66.050923, -17.520366 ], [ -66.051712, -17.518788 ], [ -66.057487, -17.516353 ], [ -66.066268, -17.523033 ], [ -66.072216, -17.524241 ], [ -66.077681, -17.524192 ], [ -66.079925, -17.527939 ], [ -66.084881, -17.528297 ], [ -66.084977, -17.529166 ], [ -66.085038, -17.530038 ], [ -66.085004, -17.530461 ], [ -66.084957, -17.531038 ], [ -66.08504, -17.53148 ], [ -66.084936, -17.531741 ], [ -66.084475, -17.53233 ], [ -66.084328, -17.532814 ], [ -66.084091, -17.533247 ], [ -66.083199, -17.53372 ], [ -66.082743, -17.534123 ], [ -66.082096, -17.535212 ], [ -66.082152, -17.5353 ], [ -66.080739, -17.536384 ], [ -66.080837, -17.536623 ], [ -66.080197, -17.537027 ], [ -66.07997, -17.537316 ], [ -66.079957, -17.537537 ], [ -66.080088, -17.537676 ], [ -66.079708, -17.53809 ], [ -66.079346, -17.538266 ], [ -66.079239, -17.538441 ], [ -66.079074, -17.53859 ], [ -66.079071, -17.538692 ], [ -66.079067, -17.538829 ], [ -66.079226, -17.538879 ], [ -66.079178, -17.538939 ], [ -66.079134, -17.538935 ], [ -66.079013, -17.538926 ], [ -66.07871, -17.539082 ], [ -66.078671, -17.539173 ], [ -66.078486, -17.539611 ], [ -66.078285, -17.539546 ], [ -66.077792, -17.539685 ], [ -66.077575, -17.539965 ], [ -66.077562, -17.540201 ], [ -66.077542, -17.540574 ], [ -66.077241, -17.541001 ], [ -66.077061, -17.541258 ], [ -66.076959, -17.541657 ], [ -66.076733, -17.542043 ], [ -66.076318, -17.54197 ], [ -66.075447, -17.542261 ], [ -66.075411, -17.542586 ], [ -66.075342, -17.542718 ], [ -66.075099, -17.542902 ], [ -66.074775, -17.542948 ], [ -66.074478, -17.543369 ], [ -66.074203, -17.543701 ], [ -66.073626, -17.543889 ], [ -66.073364, -17.544207 ], [ -66.073391, -17.544361 ], [ -66.073189, -17.544209 ], [ -66.072844, -17.544097 ], [ -66.071934, -17.544359 ], [ -66.071762, -17.54429 ], [ -66.071507, -17.544316 ], [ -66.071225, -17.544501 ], [ -66.070471, -17.545026 ], [ -66.070106, -17.545451 ], [ -66.069681, -17.545159 ], [ -66.069154, -17.545044 ], [ -66.068897, -17.544988 ], [ -66.068486, -17.54513 ], [ -66.067966, -17.545227 ], [ -66.067708, -17.545257 ], [ -66.067482, -17.545284 ], [ -66.067012, -17.545406 ], [ -66.066695, -17.545488 ], [ -66.066095, -17.545413 ], [ -66.064969, -17.545696 ], [ -66.064303, -17.546057 ], [ -66.063773, -17.546431 ], [ -66.063477, -17.546765 ], [ -66.063191, -17.54717 ], [ -66.062774, -17.547399 ], [ -66.06187, -17.547441 ], [ -66.061347, -17.547988 ], [ -66.060908, -17.548388 ], [ -66.06033, -17.54874 ], [ -66.059563, -17.54983 ], [ -66.058661, -17.550226 ], [ -66.058321, -17.550285 ], [ -66.057889, -17.550137 ], [ -66.057593, -17.55041 ], [ -66.057151, -17.550444 ], [ -66.056813, -17.550471 ], [ -66.05601, -17.550712 ], [ -66.055347, -17.550639 ], [ -66.054253, -17.550639 ], [ -66.053872, -17.550808 ], [ -66.053531, -17.551084 ], [ -66.052727, -17.551227 ], [ -66.052128, -17.551266 ], [ -66.051688, -17.551515 ], [ -66.051165, -17.551592 ], [ -66.050778, -17.551509 ], [ -66.050442, -17.550926 ], [ -66.050105, -17.550508 ], [ -66.049993, -17.550237 ], [ -66.049782, -17.550085 ], [ -66.049572, -17.550058 ], [ -66.049338, -17.549884 ], [ -66.048898, -17.550021 ], [ -66.048684, -17.549671 ], [ -66.047923, -17.549519 ], [ -66.047359, -17.549407 ], [ -66.046917, -17.54908 ], [ -66.046421, -17.549123 ], [ -66.045469, -17.548871 ], [ -66.044762, -17.548946 ], [ -66.044444, -17.548789 ], [ -66.044661, -17.548272 ], [ -66.04452, -17.548039 ], [ -66.043876, -17.547636 ], [ -66.04387, -17.547431 ], [ -66.043218, -17.547092 ], [ -66.042419, -17.546579 ], [ -66.042089, -17.546179 ], [ -66.041546, -17.545832 ], [ -66.040815, -17.54548 ], [ -66.04024, -17.544935 ], [ -66.039947, -17.544482 ], [ -66.039407, -17.54333 ], [ -66.039085, -17.542952 ], [ -66.038584, -17.542719 ], [ -66.038192, -17.542813 ], [ -66.037686, -17.543134 ], [ -66.037642, -17.54324 ], [ -66.037436, -17.543304 ], [ -66.037316, -17.543209 ], [ -66.03711, -17.543186 ], [ -66.036346, -17.543265 ], [ -66.036101, -17.543587 ], [ -66.034368, -17.543941 ], [ -66.034117, -17.544519 ], [ -66.033686, -17.544631 ], [ -66.033004, -17.54505 ], [ -66.032522, -17.54522 ], [ -66.031829, -17.545464 ], [ -66.030259, -17.545407 ], [ -66.028572, -17.545941 ], [ -66.026626, -17.546093 ], [ -66.026229, -17.546375 ], [ -66.025334, -17.546815 ], [ -66.024298, -17.547035 ], [ -66.023566, -17.547751 ], [ -66.022543, -17.548106 ], [ -66.021407, -17.547628 ], [ -66.021246, -17.547517 ], [ -66.02024, -17.546824 ], [ -66.019564, -17.546814 ], [ -66.018202, -17.546795 ], [ -66.016091, -17.546508 ], [ -66.014575, -17.546723 ], [ -66.013506, -17.547634 ], [ -66.012915, -17.548454 ], [ -66.011683, -17.549146 ], [ -66.011024, -17.549181 ], [ -66.010101, -17.548758 ], [ -66.009202, -17.548805 ], [ -66.007926, -17.548878 ], [ -66.005979, -17.549677 ], [ -66.004733, -17.550336 ], [ -66.003845, -17.550732 ], [ -66.002447, -17.551483 ], [ -66.000984, -17.552527 ], [ -66.000025, -17.553973 ], [ -65.99849, -17.554614 ], [ -65.998488, -17.555277 ], [ -65.997896, -17.555914 ], [ -65.997027, -17.556396 ], [ -65.996717, -17.557112 ], [ -65.990707, -17.569845 ], [ -65.98577, -17.571666 ], [ -65.985344, -17.571575 ], [ -65.98184, -17.572835 ], [ -65.981839, -17.572858 ], [ -65.974422, -17.574811 ], [ -65.970571, -17.57886 ], [ -65.96863, -17.5839 ], [ -65.968562, -17.584263 ], [ -65.968557, -17.58448 ], [ -65.968529, -17.584651 ], [ -65.968464, -17.584877 ], [ -65.968449, -17.585026 ], [ -65.96841, -17.58515 ], [ -65.968405, -17.585356 ], [ -65.968379, -17.585446 ], [ -65.968366, -17.586017 ], [ -65.968397, -17.5862 ], [ -65.968476, -17.586362 ], [ -65.968724, -17.587442 ], [ -65.968718, -17.587693 ], [ -65.9688, -17.588277 ], [ -65.9688, -17.588768 ], [ -65.96882, -17.58894 ], [ -65.968815, -17.589157 ], [ -65.968833, -17.589385 ], [ -65.968824, -17.589739 ], [ -65.96887, -17.58999 ], [ -65.968906, -17.590303 ], [ -65.969012, -17.590537 ], [ -65.969116, -17.590692 ], [ -65.969202, -17.590945 ], [ -65.969266, -17.59112 ], [ -65.969329, -17.591217 ], [ -65.969433, -17.591372 ], [ -65.96962, -17.591545 ], [ -65.969744, -17.59166 ], [ -65.969888, -17.591736 ], [ -65.970052, -17.591793 ], [ -65.970094, -17.591831 ], [ -65.970156, -17.591889 ], [ -65.970218, -17.591966 ], [ -65.970139, -17.592104 ], [ -65.970019, -17.592224 ], [ -65.969837, -17.592324 ], [ -65.969757, -17.592423 ], [ -65.969677, -17.592542 ], [ -65.969517, -17.59272 ], [ -65.969416, -17.5928 ], [ -65.969276, -17.592939 ], [ -65.968904, -17.593372 ], [ -65.968819, -17.59345 ], [ -65.968784, -17.593449 ], [ -65.968675, -17.593526 ], [ -65.96865, -17.59356 ], [ -65.968554, -17.593615 ], [ -65.968098, -17.593815 ], [ -65.967879, -17.59394 ], [ -65.967612, -17.594173 ], [ -65.967148, -17.594675 ], [ -65.966807, -17.595009 ], [ -65.966261, -17.59543 ], [ -65.965789, -17.59576 ], [ -65.963547, -17.59703 ], [ -65.96298, -17.597312 ], [ -65.962588, -17.597632 ], [ -65.962457, -17.597751 ], [ -65.962296, -17.59791 ], [ -65.962216, -17.59797 ], [ -65.962182, -17.598001 ], [ -65.963833, -17.598503 ], [ -65.967047, -17.599446 ], [ -65.968138, -17.599668 ], [ -65.969853, -17.600169 ], [ -65.973942, -17.600965 ], [ -65.975153, -17.601096 ], [ -65.977816, -17.601795 ], [ -65.978247, -17.60182 ], [ -65.979745, -17.601756 ], [ -65.981555, -17.601739 ], [ -65.982549, -17.601685 ], [ -65.983664, -17.601793 ], [ -65.98436, -17.601944 ], [ -65.985103, -17.602177 ], [ -65.988271, -17.603349 ], [ -65.988822, -17.603409 ], [ -65.989686, -17.603596 ], [ -65.990848, -17.603565 ], [ -65.991904, -17.603891 ], [ -65.992719, -17.604216 ], [ -65.995814, -17.605077 ], [ -65.996582, -17.605344 ], [ -65.997894, -17.605632 ], [ -65.998674, -17.605811 ], [ -65.999161, -17.605806 ], [ -65.999646, -17.605709 ], [ -66.000231, -17.605796 ], [ -66.000814, -17.605791 ], [ -66.001785, -17.605595 ], [ -66.001797, -17.605592 ], [ -66.001783, -17.605592 ], [ -66.019521, -17.600546 ], [ -66.044954, -17.604954 ], [ -66.053513, -17.600511 ], [ -66.065977, -17.601147 ], [ -66.093133, -17.603351 ], [ -66.119588, -17.607635 ], [ -66.13379, -17.603133 ], [ -66.137099, -17.599412 ], [ -66.139354, -17.596282 ], [ -66.129558, -17.581795 ], [ -66.116267, -17.546333 ], [ -66.129589, -17.533525 ], [ -66.129823, -17.5324 ], [ -66.131974, -17.528981 ], [ -66.13285, -17.528373 ], [ -66.134448, -17.527915 ], [ -66.135776, -17.526946 ], [ -66.136877, -17.524316 ], [ -66.137897, -17.523849 ], [ -66.142248, -17.524378 ], [ -66.14939, -17.519521 ], [ -66.148778, -17.517901 ], [ -66.147401, -17.516197 ], [ -66.146262, -17.515266 ], [ -66.143981, -17.513646 ], [ -66.142386, -17.513046 ], [ -66.141826, -17.51297 ], [ -66.141186, -17.513078 ], [ -66.136193, -17.514071 ], [ -66.13509, -17.51468 ], [ -66.133472, -17.514505 ], [ -66.132881, -17.5144 ], [ -66.130997, -17.513465 ], [ -66.130577, -17.51325 ], [ -66.127823, -17.512246 ], [ -66.127591, -17.511108 ], [ -66.129538, -17.502389 ], [ -66.109749, -17.483301 ], [ -66.082492, -17.476103 ], [ -66.073515, -17.473731 ], [ -66.072679, -17.473511 ], [ -66.06833, -17.475008 ] ] ] ] } }
]
}
