{
"type": "FeatureCollection",
"name": "BOLIVAR",
"crs": { "type": "name", "properties": { "name": "urn:ogc:def:crs:OGC:1.3:CRS84" } },
"bbox": [ -66.846670, -18.136279, -66.414592, -17.880379 ],                                                                        
"features": [
{ "type": "Feature", "properties": { "NOMBRE": "Bolivar", "NIVEL": "Municipios", "PROVINCIA": "Bolívar", "REGION": "Andina", "DEPARTAMENTO": "Cochabamba" }, "bbox": [ -66.84667, -18.136279, -66.414592, -17.880379 ], "geometry": { "type": "MultiPolygon", "coordinates": [ [ [ [ -66.417775, -17.909925 ], [ -66.417774, -17.909926 ], [ -66.417664, -17.909894 ], [ -66.414779, -17.908606 ], [ -66.414698, -17.90875 ], [ -66.414637, -17.908879 ], [ -66.414616, -17.908977 ], [ -66.414592, -17.909084 ], [ -66.414666, -17.909228 ], [ -66.414683, -17.909358 ], [ -66.414696, -17.909499 ], [ -66.414736, -17.909645 ], [ -66.414746, -17.909782 ], [ -66.414709, -17.909932 ], [ -66.414756, -17.910107 ], [ -66.414742, -17.910414 ], [ -66.414767, -17.910538 ], [ -66.414788, -17.910661 ], [ -66.414966, -17.910739 ], [ -66.415315, -17.910828 ], [ -66.415489, -17.910936 ], [ -66.415604, -17.911188 ], [ -66.415676, -17.911323 ], [ -66.41571, -17.911445 ], [ -66.415943, -17.911638 ], [ -66.415964, -17.911688 ], [ -66.415899, -17.911756 ], [ -66.415812, -17.911851 ], [ -66.415702, -17.912034 ], [ -66.415584, -17.912223 ], [ -66.415549, -17.912379 ], [ -66.415543, -17.912526 ], [ -66.415662, -17.912704 ], [ -66.415822, -17.912854 ], [ -66.415856, -17.913216 ], [ -66.415859, -17.913354 ], [ -66.415781, -17.913568 ], [ -66.415676, -17.913669 ], [ -66.415664, -17.914129 ], [ -66.415593, -17.91434 ], [ -66.415636, -17.914458 ], [ -66.415653, -17.914635 ], [ -66.415638, -17.914739 ], [ -66.415658, -17.915002 ], [ -66.415732, -17.915202 ], [ -66.415825, -17.91529 ], [ -66.415948, -17.915339 ], [ -66.415942, -17.915467 ], [ -66.415922, -17.915551 ], [ -66.415949, -17.915651 ], [ -66.415959, -17.915736 ], [ -66.416039, -17.915788 ], [ -66.416111, -17.916009 ], [ -66.416235, -17.916133 ], [ -66.416293, -17.916374 ], [ -66.416454, -17.916432 ], [ -66.416506, -17.916526 ], [ -66.416547, -17.916634 ], [ -66.416553, -17.916687 ], [ -66.416499, -17.916772 ], [ -66.416544, -17.916923 ], [ -66.416626, -17.917031 ], [ -66.416664, -17.917236 ], [ -66.416811, -17.91733 ], [ -66.416823, -17.917362 ], [ -66.417188, -17.917721 ], [ -66.417807, -17.918417 ], [ -66.418571, -17.918638 ], [ -66.4187, -17.918746 ], [ -66.418811, -17.918941 ], [ -66.418847, -17.919002 ], [ -66.418861, -17.919049 ], [ -66.418842, -17.91978 ], [ -66.418895, -17.920165 ], [ -66.418819, -17.920454 ], [ -66.41873, -17.920858 ], [ -66.418849, -17.921524 ], [ -66.418853, -17.92166 ], [ -66.418857, -17.922143 ], [ -66.418795, -17.922532 ], [ -66.418664, -17.923235 ], [ -66.418668, -17.923293 ], [ -66.418502, -17.923767 ], [ -66.418393, -17.924223 ], [ -66.42103, -17.925161 ], [ -66.423032, -17.926225 ], [ -66.423728, -17.925666 ], [ -66.426463, -17.923752 ], [ -66.428715, -17.921334 ], [ -66.431156, -17.918251 ], [ -66.433577, -17.917163 ], [ -66.436776, -17.916464 ], [ -66.43831, -17.915428 ], [ -66.438311, -17.915429 ], [ -66.438313, -17.915428 ], [ -66.439193, -17.91786 ], [ -66.438979, -17.918941 ], [ -66.438843, -17.921188 ], [ -66.441435, -17.923968 ], [ -66.445929, -17.927034 ], [ -66.44958, -17.929069 ], [ -66.451031, -17.930488 ], [ -66.451794, -17.931275 ], [ -66.455053, -17.933602 ], [ -66.456931, -17.936896 ], [ -66.457995, -17.938328 ], [ -66.459288, -17.938807 ], [ -66.459034, -17.939497 ], [ -66.457139, -17.944455 ], [ -66.456943, -17.944967 ], [ -66.456134, -17.947082 ], [ -66.455285, -17.950035 ], [ -66.453978, -17.950916 ], [ -66.446917, -17.954764 ], [ -66.445672, -17.956559 ], [ -66.442777, -17.956997 ], [ -66.440131, -17.958378 ], [ -66.435051, -17.962199 ], [ -66.433381, -17.963211 ], [ -66.432883, -17.966421 ], [ -66.432572, -17.969904 ], [ -66.431464, -17.973288 ], [ -66.431439, -17.973363 ], [ -66.433161, -17.973261 ], [ -66.435439, -17.974926 ], [ -66.438354, -17.976772 ], [ -66.440151, -17.977409 ], [ -66.441217, -17.977787 ], [ -66.445221, -17.979287 ], [ -66.446123, -17.981093 ], [ -66.446151, -17.98115 ], [ -66.454904, -17.98801 ], [ -66.461274, -17.993381 ], [ -66.471302, -18.000057 ], [ -66.472609, -18.000563 ], [ -66.471837, -18.003668 ], [ -66.474476, -18.006581 ], [ -66.47943, -18.01053 ], [ -66.484033, -18.012971 ], [ -66.485278, -18.013809 ], [ -66.485051, -18.014206 ], [ -66.485977, -18.015164 ], [ -66.486738, -18.015715 ], [ -66.487119, -18.015991 ], [ -66.48912, -18.01744 ], [ -66.492818, -18.02104 ], [ -66.493546, -18.02195 ], [ -66.493431, -18.022046 ], [ -66.494718, -18.02295 ], [ -66.498798, -18.026524 ], [ -66.50174, -18.028405 ], [ -66.512068, -18.03635 ], [ -66.51588, -18.041838 ], [ -66.518395, -18.046597 ], [ -66.521555, -18.049091 ], [ -66.525729, -18.052384 ], [ -66.533453, -18.058439 ], [ -66.53979, -18.060828 ], [ -66.541279, -18.06155 ], [ -66.548361, -18.065227 ], [ -66.556813, -18.068628 ], [ -66.557322, -18.068833 ], [ -66.561964, -18.071362 ], [ -66.565852, -18.072614 ], [ -66.566383, -18.072198 ], [ -66.572413, -18.075254 ], [ -66.573402, -18.075389 ], [ -66.577512, -18.075987 ], [ -66.589669, -18.083347 ], [ -66.595322, -18.084284 ], [ -66.601095, -18.082345 ], [ -66.607309, -18.082534 ], [ -66.616687, -18.08342 ], [ -66.616789, -18.083586 ], [ -66.617016, -18.083954 ], [ -66.624268, -18.090649 ], [ -66.624755, -18.090926 ], [ -66.629455, -18.092583 ], [ -66.629928, -18.092914 ], [ -66.635164, -18.096718 ], [ -66.641733, -18.099697 ], [ -66.652154, -18.107323 ], [ -66.656964, -18.10933 ], [ -66.663736, -18.111735 ], [ -66.664886, -18.112264 ], [ -66.670626, -18.114908 ], [ -66.683079, -18.119755 ], [ -66.689488, -18.121703 ], [ -66.692341, -18.12309 ], [ -66.694174, -18.123982 ], [ -66.700452, -18.128721 ], [ -66.712663, -18.136279 ], [ -66.720411, -18.128213 ], [ -66.723643, -18.126551 ], [ -66.730835, -18.126475 ], [ -66.732479, -18.127468 ], [ -66.7482, -18.130622 ], [ -66.758996, -18.130486 ], [ -66.794067, -18.130039 ], [ -66.794454, -18.130047 ], [ -66.800289, -18.123395 ], [ -66.804262, -18.119765 ], [ -66.815039, -18.11211 ], [ -66.817377, -18.10998 ], [ -66.820738, -18.103541 ], [ -66.823152, -18.098917 ], [ -66.84667, -18.054115 ], [ -66.841818, -18.051409 ], [ -66.828418, -18.034779 ], [ -66.822917, -18.027013 ], [ -66.822338, -18.026196 ], [ -66.822155, -18.025936 ], [ -66.821294, -18.024721 ], [ -66.813943, -18.016995 ], [ -66.812142, -18.015102 ], [ -66.801217, -18.003702 ], [ -66.788416, -17.988194 ], [ -66.78142, -17.984636 ], [ -66.774287, -17.977567 ], [ -66.767032, -17.969901 ], [ -66.76018, -17.964089 ], [ -66.749631, -17.953437 ], [ -66.748037, -17.952525 ], [ -66.747275, -17.952089 ], [ -66.742792, -17.945384 ], [ -66.741326, -17.946232 ], [ -66.730433, -17.951349 ], [ -66.714277, -17.951575 ], [ -66.701174, -17.948772 ], [ -66.696707, -17.947179 ], [ -66.693686, -17.946101 ], [ -66.686816, -17.942481 ], [ -66.679619, -17.938625 ], [ -66.674485, -17.934983 ], [ -66.667822, -17.929838 ], [ -66.663018, -17.928894 ], [ -66.658143, -17.927467 ], [ -66.65148, -17.928338 ], [ -66.646428, -17.929295 ], [ -66.642174, -17.92779 ], [ -66.640607, -17.926285 ], [ -66.639125, -17.926943 ], [ -66.637316, -17.925397 ], [ -66.635977, -17.926036 ], [ -66.633783, -17.924483 ], [ -66.630521, -17.921879 ], [ -66.626402, -17.917879 ], [ -66.618182, -17.918453 ], [ -66.617882, -17.918459 ], [ -66.614497, -17.915252 ], [ -66.609695, -17.915546 ], [ -66.604933, -17.914399 ], [ -66.604355, -17.914402 ], [ -66.59685, -17.911594 ], [ -66.583771, -17.906795 ], [ -66.571826, -17.902281 ], [ -66.562751, -17.898574 ], [ -66.559715, -17.89686 ], [ -66.560109, -17.896504 ], [ -66.558026, -17.893317 ], [ -66.558864, -17.89021 ], [ -66.559351, -17.889968 ], [ -66.555166, -17.889074 ], [ -66.553945, -17.889153 ], [ -66.551718, -17.888659 ], [ -66.548729, -17.888765 ], [ -66.546174, -17.890292 ], [ -66.545209, -17.891862 ], [ -66.5449, -17.894713 ], [ -66.539552, -17.895112 ], [ -66.537086, -17.892585 ], [ -66.536197, -17.891137 ], [ -66.535303, -17.890657 ], [ -66.535035, -17.890438 ], [ -66.53502, -17.890504 ], [ -66.535259, -17.891358 ], [ -66.53534, -17.891936 ], [ -66.535083, -17.892141 ], [ -66.534812, -17.892197 ], [ -66.534584, -17.892125 ], [ -66.534415, -17.892965 ], [ -66.53445, -17.89327 ], [ -66.533721, -17.893759 ], [ -66.533802, -17.894275 ], [ -66.533099, -17.89437 ], [ -66.532567, -17.895296 ], [ -66.532527, -17.895932 ], [ -66.531801, -17.896149 ], [ -66.530949, -17.897045 ], [ -66.529984, -17.898516 ], [ -66.529377, -17.898945 ], [ -66.529311, -17.899393 ], [ -66.527811, -17.899789 ], [ -66.527184, -17.900089 ], [ -66.526842, -17.900201 ], [ -66.526395, -17.900589 ], [ -66.526163, -17.900694 ], [ -66.526111, -17.900819 ], [ -66.526158, -17.901028 ], [ -66.526012, -17.901254 ], [ -66.525896, -17.901711 ], [ -66.525419, -17.901402 ], [ -66.524949, -17.900948 ], [ -66.5241, -17.90053 ], [ -66.522508, -17.898742 ], [ -66.520176, -17.894471 ], [ -66.519832, -17.894286 ], [ -66.517065, -17.895276 ], [ -66.513608, -17.896406 ], [ -66.51359, -17.898931 ], [ -66.513421, -17.899429 ], [ -66.512082, -17.899242 ], [ -66.511848, -17.899119 ], [ -66.511616, -17.899344 ], [ -66.511397, -17.899247 ], [ -66.511176, -17.899016 ], [ -66.510384, -17.898761 ], [ -66.508894, -17.898503 ], [ -66.506924, -17.898729 ], [ -66.501541, -17.897253 ], [ -66.500501, -17.896898 ], [ -66.499724, -17.89654 ], [ -66.499681, -17.896516 ], [ -66.499679, -17.896485 ], [ -66.499396, -17.895906 ], [ -66.498793, -17.895735 ], [ -66.498411, -17.895181 ], [ -66.498263, -17.894868 ], [ -66.497683, -17.894326 ], [ -66.497181, -17.894847 ], [ -66.496158, -17.894007 ], [ -66.495276, -17.893171 ], [ -66.492738, -17.891434 ], [ -66.491852, -17.890475 ], [ -66.488788, -17.888045 ], [ -66.481111, -17.880764 ], [ -66.478615, -17.880784 ], [ -66.475065, -17.881311 ], [ -66.472351, -17.882736 ], [ -66.471336, -17.883956 ], [ -66.46708, -17.884401 ], [ -66.467078, -17.884401 ], [ -66.46233, -17.88038 ], [ -66.462328, -17.880379 ], [ -66.461012, -17.881361 ], [ -66.452251, -17.887848 ], [ -66.441337, -17.897116 ], [ -66.438022, -17.89999 ], [ -66.436906, -17.900905 ], [ -66.435367, -17.902285 ], [ -66.435088, -17.902646 ], [ -66.43414, -17.902855 ], [ -66.432508, -17.904874 ], [ -66.43097, -17.906423 ], [ -66.429762, -17.907444 ], [ -66.426436, -17.908392 ], [ -66.426435, -17.908392 ], [ -66.424702, -17.908273 ], [ -66.4247, -17.908273 ], [ -66.422112, -17.909109 ], [ -66.421163, -17.909416 ], [ -66.421162, -17.909416 ], [ -66.420166, -17.909293 ], [ -66.420164, -17.909293 ], [ -66.417775, -17.909925 ] ] ] ] } }
]
}
