{
"type": "FeatureCollection",
"name": "CAPINOTA",
"crs": { "type": "name", "properties": { "name": "urn:ogc:def:crs:OGC:1.3:CRS84" } },
"bbox": [ -66.353172, -17.957332, -66.108036, -17.599445 ],                                                                        
"features": [
{ "type": "Feature", "properties": { "NOMBRE": "Capinota", "NIVEL": "Municipios", "PROVINCIA": "Capinota", "REGION": "Valles", "DEPARTAMENTO": "Cochabamba" }, "bbox": [ -66.353172, -17.957332, -66.108036, -17.599445 ], "geometry": { "type": "MultiPolygon", "coordinates": [ [ [ [ -66.288148, -17.601389 ], [ -66.282652, -17.607743 ], [ -66.280059, -17.610343 ], [ -66.279023, -17.612034 ], [ -66.276917, -17.614485 ], [ -66.275208, -17.616729 ], [ -66.27226, -17.620195 ], [ -66.270559, -17.621204 ], [ -66.267519, -17.622622 ], [ -66.265425, -17.623625 ], [ -66.261198, -17.624712 ], [ -66.25971, -17.623671 ], [ -66.256712, -17.621158 ], [ -66.256169, -17.620798 ], [ -66.255857, -17.620263 ], [ -66.255784, -17.618762 ], [ -66.250919, -17.618737 ], [ -66.247844, -17.618212 ], [ -66.245065, -17.616889 ], [ -66.241763, -17.618072 ], [ -66.240099, -17.617692 ], [ -66.240653, -17.615958 ], [ -66.235563, -17.613519 ], [ -66.234239, -17.613559 ], [ -66.233937, -17.613762 ], [ -66.233066, -17.614369 ], [ -66.231251, -17.613881 ], [ -66.228888, -17.612442 ], [ -66.228633, -17.612068 ], [ -66.226393, -17.610657 ], [ -66.22514, -17.610476 ], [ -66.224176, -17.610157 ], [ -66.222416, -17.608728 ], [ -66.222098, -17.608924 ], [ -66.221267, -17.608854 ], [ -66.22079, -17.608651 ], [ -66.220349, -17.6099 ], [ -66.219304, -17.611255 ], [ -66.217736, -17.613026 ], [ -66.21616, -17.614398 ], [ -66.215012, -17.616104 ], [ -66.214322, -17.617106 ], [ -66.213486, -17.617861 ], [ -66.21285, -17.618642 ], [ -66.211743, -17.619476 ], [ -66.210388, -17.620985 ], [ -66.2099, -17.622548 ], [ -66.209525, -17.624414 ], [ -66.20907, -17.626346 ], [ -66.208288, -17.627834 ], [ -66.207572, -17.629392 ], [ -66.206551, -17.630797 ], [ -66.205237, -17.632507 ], [ -66.203989, -17.634013 ], [ -66.202561, -17.635565 ], [ -66.201253, -17.637386 ], [ -66.199846, -17.638941 ], [ -66.199332, -17.639723 ], [ -66.198955, -17.640633 ], [ -66.197864, -17.640918 ], [ -66.197334, -17.641327 ], [ -66.196878, -17.641567 ], [ -66.19581, -17.642548 ], [ -66.195636, -17.644649 ], [ -66.194884, -17.645619 ], [ -66.193769, -17.64608 ], [ -66.193241, -17.646685 ], [ -66.19434, -17.647614 ], [ -66.194527, -17.649749 ], [ -66.193725, -17.650307 ], [ -66.193165, -17.650219 ], [ -66.191954, -17.650048 ], [ -66.189067, -17.649617 ], [ -66.185683, -17.649458 ], [ -66.184858, -17.649906 ], [ -66.183214, -17.650842 ], [ -66.182821, -17.650687 ], [ -66.181505, -17.651976 ], [ -66.173523, -17.655844 ], [ -66.171352, -17.656471 ], [ -66.168425, -17.656628 ], [ -66.163509, -17.6628 ], [ -66.158292, -17.670454 ], [ -66.152454, -17.678443 ], [ -66.152893, -17.67892 ], [ -66.160461, -17.686024 ], [ -66.160418, -17.686038 ], [ -66.160419, -17.686039 ], [ -66.159977, -17.68618 ], [ -66.159507, -17.686592 ], [ -66.158819, -17.687904 ], [ -66.158281, -17.688808 ], [ -66.157927, -17.689259 ], [ -66.157891, -17.689267 ], [ -66.157886, -17.689273 ], [ -66.157658, -17.689326 ], [ -66.156915, -17.689373 ], [ -66.156475, -17.689496 ], [ -66.156246, -17.689612 ], [ -66.155701, -17.690003 ], [ -66.154756, -17.690879 ], [ -66.153112, -17.692883 ], [ -66.152397, -17.693512 ], [ -66.152043, -17.694031 ], [ -66.151809, -17.694517 ], [ -66.151564, -17.694924 ], [ -66.150811, -17.695722 ], [ -66.149443, -17.696842 ], [ -66.149248, -17.697124 ], [ -66.148924, -17.698031 ], [ -66.148826, -17.699157 ], [ -66.148818, -17.699737 ], [ -66.14885, -17.700034 ], [ -66.149095, -17.700561 ], [ -66.150519, -17.702515 ], [ -66.151332, -17.703517 ], [ -66.151567, -17.703907 ], [ -66.151832, -17.704696 ], [ -66.151932, -17.705312 ], [ -66.15214, -17.70585 ], [ -66.152479, -17.706527 ], [ -66.152603, -17.707098 ], [ -66.153295, -17.708268 ], [ -66.153469, -17.708646 ], [ -66.153524, -17.709034 ], [ -66.153518, -17.709546 ], [ -66.153485, -17.709683 ], [ -66.153529, -17.710529 ], [ -66.153534, -17.710625 ], [ -66.153106, -17.711252 ], [ -66.153087, -17.711328 ], [ -66.153081, -17.711818 ], [ -66.15293, -17.712317 ], [ -66.152698, -17.712689 ], [ -66.151517, -17.71412 ], [ -66.15045, -17.715119 ], [ -66.149244, -17.716617 ], [ -66.148455, -17.717415 ], [ -66.148018, -17.717796 ], [ -66.147083, -17.718786 ], [ -66.146708, -17.719065 ], [ -66.146104, -17.719433 ], [ -66.145959, -17.719567 ], [ -66.145678, -17.719962 ], [ -66.145401, -17.72005 ], [ -66.145368, -17.720054 ], [ -66.145363, -17.720056 ], [ -66.144482, -17.720187 ], [ -66.143719, -17.720403 ], [ -66.143687, -17.720408 ], [ -66.143682, -17.720409 ], [ -66.143235, -17.720477 ], [ -66.14295, -17.720575 ], [ -66.142696, -17.720788 ], [ -66.142523, -17.721172 ], [ -66.142477, -17.721946 ], [ -66.14234, -17.722297 ], [ -66.142035, -17.722783 ], [ -66.141849, -17.723213 ], [ -66.141699, -17.724645 ], [ -66.141587, -17.724951 ], [ -66.141557, -17.725384 ], [ -66.141599, -17.725874 ], [ -66.141768, -17.726627 ], [ -66.141774, -17.727106 ], [ -66.141732, -17.727583 ], [ -66.141593, -17.728105 ], [ -66.141347, -17.728569 ], [ -66.140751, -17.729267 ], [ -66.139335, -17.730352 ], [ -66.139079, -17.730667 ], [ -66.138773, -17.731142 ], [ -66.138173, -17.733103 ], [ -66.137622, -17.733961 ], [ -66.136981, -17.735364 ], [ -66.136638, -17.735906 ], [ -66.136382, -17.736199 ], [ -66.136068, -17.736445 ], [ -66.135716, -17.736793 ], [ -66.135191, -17.737469 ], [ -66.134389, -17.738335 ], [ -66.133127, -17.739559 ], [ -66.133093, -17.739562 ], [ -66.133093, -17.739562 ], [ -66.132166, -17.739626 ], [ -66.131807, -17.739712 ], [ -66.131565, -17.739869 ], [ -66.131468, -17.739993 ], [ -66.131442, -17.74014 ], [ -66.131658, -17.741031 ], [ -66.131758, -17.742479 ], [ -66.13175, -17.743093 ], [ -66.131624, -17.743592 ], [ -66.131526, -17.743751 ], [ -66.131125, -17.744178 ], [ -66.130774, -17.744458 ], [ -66.130603, -17.74466 ], [ -66.130456, -17.74492 ], [ -66.130303, -17.745647 ], [ -66.129924, -17.746211 ], [ -66.129812, -17.746517 ], [ -66.12978, -17.747074 ], [ -66.129822, -17.747553 ], [ -66.130013, -17.748489 ], [ -66.130493, -17.749373 ], [ -66.130866, -17.750163 ], [ -66.130811, -17.75072 ], [ -66.130454, -17.751399 ], [ -66.130365, -17.752718 ], [ -66.130596, -17.754258 ], [ -66.130588, -17.754839 ], [ -66.130435, -17.755577 ], [ -66.130052, -17.756448 ], [ -66.129452, -17.758262 ], [ -66.12903, -17.760283 ], [ -66.129026, -17.760625 ], [ -66.12918, -17.761629 ], [ -66.129135, -17.762345 ], [ -66.129019, -17.762959 ], [ -66.128993, -17.764028 ], [ -66.129092, -17.764633 ], [ -66.12945, -17.765708 ], [ -66.129505, -17.766051 ], [ -66.129474, -17.766597 ], [ -66.128766, -17.768466 ], [ -66.128719, -17.769296 ], [ -66.128834, -17.769685 ], [ -66.128888, -17.770096 ], [ -66.128856, -17.77071 ], [ -66.128679, -17.771402 ], [ -66.12821, -17.772398 ], [ -66.128122, -17.772704 ], [ -66.127856, -17.774704 ], [ -66.127875, -17.775991 ], [ -66.127988, -17.776482 ], [ -66.128479, -17.777445 ], [ -66.12866, -17.779144 ], [ -66.12889, -17.779853 ], [ -66.129135, -17.780426 ], [ -66.129392, -17.780873 ], [ -66.129758, -17.781345 ], [ -66.130054, -17.781577 ], [ -66.130494, -17.781833 ], [ -66.130837, -17.782156 ], [ -66.131155, -17.782639 ], [ -66.131767, -17.783444 ], [ -66.132337, -17.784773 ], [ -66.133015, -17.786057 ], [ -66.133356, -17.786551 ], [ -66.133604, -17.786828 ], [ -66.134105, -17.787215 ], [ -66.135166, -17.787821 ], [ -66.135667, -17.788044 ], [ -66.136444, -17.788202 ], [ -66.137496, -17.788341 ], [ -66.138057, -17.788485 ], [ -66.138688, -17.788801 ], [ -66.138705, -17.788814 ], [ -66.138719, -17.788821 ], [ -66.139431, -17.789377 ], [ -66.140034, -17.79 ], [ -66.140274, -17.790361 ], [ -66.140528, -17.790963 ], [ -66.14058, -17.791588 ], [ -66.14058, -17.791589 ], [ -66.140581, -17.791599 ], [ -66.140474, -17.792053 ], [ -66.140119, -17.792553 ], [ -66.139061, -17.793276 ], [ -66.137953, -17.793197 ], [ -66.138846, -17.794624 ], [ -66.138985, -17.795103 ], [ -66.13908, -17.7966 ], [ -66.139362, -17.797832 ], [ -66.139765, -17.799166 ], [ -66.139556, -17.799603 ], [ -66.139562, -17.799969 ], [ -66.139601, -17.80014 ], [ -66.139821, -17.800492 ], [ -66.140259, -17.800923 ], [ -66.140296, -17.801037 ], [ -66.140268, -17.80154 ], [ -66.140056, -17.802526 ], [ -66.139964, -17.802778 ], [ -66.139949, -17.803327 ], [ -66.139903, -17.803488 ], [ -66.139715, -17.803684 ], [ -66.139586, -17.803891 ], [ -66.139473, -17.804292 ], [ -66.139464, -17.805253 ], [ -66.139546, -17.805927 ], [ -66.139512, -17.806065 ], [ -66.139323, -17.806238 ], [ -66.138802, -17.806586 ], [ -66.13865, -17.806805 ], [ -66.138389, -17.807711 ], [ -66.138235, -17.808628 ], [ -66.13824, -17.808913 ], [ -66.138367, -17.809404 ], [ -66.138359, -17.809656 ], [ -66.137809, -17.810484 ], [ -66.137496, -17.811162 ], [ -66.137294, -17.812022 ], [ -66.137289, -17.812445 ], [ -66.137224, -17.812915 ], [ -66.137168, -17.813921 ], [ -66.137002, -17.814838 ], [ -66.136448, -17.816913 ], [ -66.136362, -17.818321 ], [ -66.136347, -17.819866 ], [ -66.13637, -17.820517 ], [ -66.136492, -17.820558 ], [ -66.137056, -17.82059 ], [ -66.138267, -17.820568 ], [ -66.139558, -17.820759 ], [ -66.139859, -17.820916 ], [ -66.140101, -17.821108 ], [ -66.140395, -17.821494 ], [ -66.140532, -17.82187 ], [ -66.140562, -17.822259 ], [ -66.140498, -17.822797 ], [ -66.140647, -17.823161 ], [ -66.140793, -17.82332 ], [ -66.140856, -17.823502 ], [ -66.140858, -17.82364 ], [ -66.140421, -17.824765 ], [ -66.140377, -17.825017 ], [ -66.140421, -17.825565 ], [ -66.140544, -17.825781 ], [ -66.140981, -17.826189 ], [ -66.141117, -17.826462 ], [ -66.14106, -17.82668 ], [ -66.140944, -17.826898 ], [ -66.140865, -17.827219 ], [ -66.140869, -17.827459 ], [ -66.141202, -17.828096 ], [ -66.141364, -17.828518 ], [ -66.141366, -17.829455 ], [ -66.141264, -17.829799 ], [ -66.141244, -17.83084 ], [ -66.141332, -17.831137 ], [ -66.141262, -17.831443 ], [ -66.141219, -17.831888 ], [ -66.140558, -17.832873 ], [ -66.139978, -17.833345 ], [ -66.139071, -17.833871 ], [ -66.138372, -17.834556 ], [ -66.137497, -17.836082 ], [ -66.136861, -17.837821 ], [ -66.136223, -17.839656 ], [ -66.135799, -17.840815 ], [ -66.135273, -17.841973 ], [ -66.134438, -17.843514 ], [ -66.133809, -17.844767 ], [ -66.132227, -17.847003 ], [ -66.130021, -17.850015 ], [ -66.128473, -17.852167 ], [ -66.12735, -17.853746 ], [ -66.126322, -17.855128 ], [ -66.125991, -17.856045 ], [ -66.125674, -17.856724 ], [ -66.125399, -17.857373 ], [ -66.125045, -17.858201 ], [ -66.124767, -17.858958 ], [ -66.124374, -17.859895 ], [ -66.124061, -17.860543 ], [ -66.123756, -17.861323 ], [ -66.123546, -17.86171 ], [ -66.123451, -17.861991 ], [ -66.123309, -17.862357 ], [ -66.122721, -17.863733 ], [ -66.122344, -17.86466 ], [ -66.12152, -17.866566 ], [ -66.121025, -17.867816 ], [ -66.120624, -17.868808 ], [ -66.119848, -17.870625 ], [ -66.119424, -17.871638 ], [ -66.119142, -17.872284 ], [ -66.119, -17.872672 ], [ -66.118432, -17.87395 ], [ -66.118101, -17.874812 ], [ -66.117843, -17.875372 ], [ -66.116392, -17.878896 ], [ -66.116162, -17.878734 ], [ -66.115727, -17.878625 ], [ -66.115134, -17.878672 ], [ -66.114618, -17.878804 ], [ -66.114052, -17.879016 ], [ -66.113745, -17.87928 ], [ -66.113334, -17.87991 ], [ -66.113159, -17.880276 ], [ -66.112466, -17.881352 ], [ -66.112148, -17.881718 ], [ -66.112172, -17.881741 ], [ -66.11195, -17.88221 ], [ -66.111301, -17.884005 ], [ -66.111031, -17.884417 ], [ -66.110361, -17.886464 ], [ -66.110081, -17.887116 ], [ -66.109811, -17.887551 ], [ -66.109576, -17.887826 ], [ -66.109304, -17.888067 ], [ -66.108466, -17.888994 ], [ -66.108207, -17.889338 ], [ -66.108057, -17.889772 ], [ -66.108036, -17.890035 ], [ -66.108427, -17.890925 ], [ -66.108897, -17.891278 ], [ -66.109941, -17.89179 ], [ -66.110229, -17.891972 ], [ -66.11088, -17.892553 ], [ -66.111134, -17.89286 ], [ -66.111293, -17.893203 ], [ -66.111441, -17.893671 ], [ -66.111878, -17.895923 ], [ -66.111965, -17.89602 ], [ -66.112299, -17.896089 ], [ -66.112475, -17.89622 ], [ -66.112617, -17.896382 ], [ -66.124188, -17.902338 ], [ -66.124414, -17.902598 ], [ -66.124844, -17.902902 ], [ -66.126866, -17.904695 ], [ -66.127774, -17.905469 ], [ -66.128434, -17.90604 ], [ -66.129405, -17.906886 ], [ -66.130376, -17.907631 ], [ -66.132108, -17.909179 ], [ -66.133908, -17.910789 ], [ -66.134386, -17.910847 ], [ -66.134762, -17.910699 ], [ -66.135087, -17.910138 ], [ -66.135313, -17.910069 ], [ -66.135505, -17.910091 ], [ -66.135684, -17.910159 ], [ -66.135875, -17.91017 ], [ -66.136743, -17.909802 ], [ -66.137029, -17.909801 ], [ -66.137281, -17.909846 ], [ -66.137581, -17.909982 ], [ -66.138387, -17.910597 ], [ -66.13906, -17.911029 ], [ -66.13942, -17.911131 ], [ -66.139886, -17.911164 ], [ -66.140461, -17.911437 ], [ -66.141147, -17.911892 ], [ -66.141976, -17.91255 ], [ -66.142495, -17.912614 ], [ -66.142948, -17.912563 ], [ -66.143696, -17.912456 ], [ -66.144649, -17.91227 ], [ -66.144922, -17.912178 ], [ -66.145292, -17.91212 ], [ -66.145674, -17.912164 ], [ -66.146299, -17.912483 ], [ -66.146658, -17.912596 ], [ -66.14735, -17.912571 ], [ -66.147767, -17.91249 ], [ -66.148433, -17.912271 ], [ -66.148801, -17.912053 ], [ -66.149278, -17.911994 ], [ -66.14978, -17.912061 ], [ -66.15008, -17.912175 ], [ -66.15079, -17.912755 ], [ -66.151418, -17.913405 ], [ -66.151622, -17.913461 ], [ -66.151825, -17.913461 ], [ -66.152194, -17.913357 ], [ -66.152538, -17.913184 ], [ -66.153965, -17.912643 ], [ -66.156706, -17.912235 ], [ -66.158612, -17.911841 ], [ -66.15879, -17.911738 ], [ -66.16197, -17.911032 ], [ -66.169704, -17.914094 ], [ -66.181916, -17.915097 ], [ -66.195575, -17.91518 ], [ -66.197901, -17.924576 ], [ -66.20691, -17.930512 ], [ -66.241394, -17.934719 ], [ -66.248958, -17.938386 ], [ -66.24595, -17.957332 ], [ -66.252691, -17.956459 ], [ -66.259404, -17.955238 ], [ -66.258731, -17.945026 ], [ -66.257546, -17.936144 ], [ -66.257057, -17.932479 ], [ -66.255714, -17.922407 ], [ -66.25613, -17.921586 ], [ -66.263277, -17.907083 ], [ -66.266267, -17.901012 ], [ -66.265453, -17.894274 ], [ -66.264646, -17.887622 ], [ -66.264044, -17.882678 ], [ -66.264347, -17.881898 ], [ -66.265537, -17.878775 ], [ -66.266266, -17.876845 ], [ -66.268594, -17.872466 ], [ -66.276974, -17.856705 ], [ -66.276859, -17.855927 ], [ -66.27686, -17.854679 ], [ -66.276857, -17.851704 ], [ -66.276461, -17.849157 ], [ -66.276307, -17.84659 ], [ -66.276833, -17.843733 ], [ -66.277377, -17.841291 ], [ -66.277696, -17.839355 ], [ -66.277952, -17.835007 ], [ -66.278435, -17.832922 ], [ -66.278926, -17.830505 ], [ -66.280165, -17.829297 ], [ -66.280352, -17.827567 ], [ -66.281316, -17.824908 ], [ -66.282154, -17.822597 ], [ -66.282857, -17.821544 ], [ -66.283823, -17.821132 ], [ -66.283919, -17.819453 ], [ -66.283972, -17.817995 ], [ -66.284926, -17.81517 ], [ -66.285536, -17.812856 ], [ -66.286034, -17.810472 ], [ -66.286552, -17.807647 ], [ -66.286379, -17.806031 ], [ -66.28679, -17.805035 ], [ -66.28751, -17.803293 ], [ -66.288472, -17.802631 ], [ -66.289007, -17.801191 ], [ -66.289291, -17.800239 ], [ -66.290421, -17.798627 ], [ -66.291001, -17.797756 ], [ -66.291109, -17.796261 ], [ -66.291507, -17.795346 ], [ -66.29246, -17.794045 ], [ -66.292716, -17.793161 ], [ -66.29379, -17.789873 ], [ -66.294282, -17.788712 ], [ -66.295961, -17.785974 ], [ -66.298017, -17.783418 ], [ -66.298853, -17.78271 ], [ -66.299122, -17.780913 ], [ -66.299053, -17.778574 ], [ -66.299415, -17.777235 ], [ -66.299782, -17.775125 ], [ -66.300276, -17.773769 ], [ -66.300611, -17.772397 ], [ -66.301398, -17.770875 ], [ -66.303167, -17.76956 ], [ -66.304001, -17.76916 ], [ -66.30643, -17.769233 ], [ -66.308064, -17.769212 ], [ -66.311278, -17.767829 ], [ -66.312468, -17.767526 ], [ -66.313462, -17.766807 ], [ -66.314206, -17.765443 ], [ -66.31513, -17.764461 ], [ -66.31542, -17.763403 ], [ -66.315906, -17.762737 ], [ -66.317019, -17.762034 ], [ -66.318784, -17.761199 ], [ -66.318975, -17.760561 ], [ -66.319011, -17.75921 ], [ -66.319242, -17.757626 ], [ -66.319433, -17.756984 ], [ -66.319985, -17.756397 ], [ -66.320936, -17.755227 ], [ -66.32157, -17.754331 ], [ -66.322405, -17.753703 ], [ -66.323759, -17.753127 ], [ -66.324657, -17.752899 ], [ -66.325352, -17.752289 ], [ -66.32588, -17.751679 ], [ -66.326056, -17.750182 ], [ -66.32713, -17.750033 ], [ -66.328093, -17.749728 ], [ -66.329629, -17.748515 ], [ -66.331168, -17.747033 ], [ -66.332142, -17.74596 ], [ -66.333398, -17.744027 ], [ -66.333825, -17.742324 ], [ -66.334091, -17.741086 ], [ -66.334504, -17.739428 ], [ -66.334873, -17.737498 ], [ -66.335119, -17.735426 ], [ -66.335258, -17.734721 ], [ -66.335351, -17.73347 ], [ -66.334963, -17.732805 ], [ -66.334777, -17.732561 ], [ -66.334776, -17.732556 ], [ -66.334775, -17.732555 ], [ -66.334733, -17.731992 ], [ -66.33488, -17.731638 ], [ -66.334897, -17.731202 ], [ -66.334732, -17.729655 ], [ -66.334612, -17.728481 ], [ -66.334714, -17.72784 ], [ -66.33505, -17.727101 ], [ -66.334342, -17.725331 ], [ -66.334342, -17.725327 ], [ -66.334341, -17.725325 ], [ -66.334249, -17.723211 ], [ -66.334364, -17.722719 ], [ -66.3349, -17.721442 ], [ -66.335389, -17.720795 ], [ -66.336242, -17.71989 ], [ -66.336798, -17.718796 ], [ -66.336924, -17.718362 ], [ -66.337001, -17.717296 ], [ -66.3373, -17.716532 ], [ -66.338877, -17.714513 ], [ -66.340178, -17.712489 ], [ -66.341629, -17.710869 ], [ -66.342863, -17.709338 ], [ -66.343267, -17.708537 ], [ -66.34403, -17.705302 ], [ -66.343916, -17.703641 ], [ -66.343764, -17.699715 ], [ -66.344233, -17.699026 ], [ -66.344893, -17.698566 ], [ -66.3456, -17.698016 ], [ -66.347154, -17.696987 ], [ -66.347956, -17.69635 ], [ -66.350088, -17.695512 ], [ -66.341663, -17.68694 ], [ -66.353172, -17.67674 ], [ -66.352468, -17.670299 ], [ -66.351279, -17.656709 ], [ -66.347822, -17.647604 ], [ -66.339593, -17.64214 ], [ -66.337822, -17.640522 ], [ -66.335278, -17.639647 ], [ -66.335242, -17.639636 ], [ -66.335213, -17.639094 ], [ -66.335283, -17.638828 ], [ -66.33527, -17.63718 ], [ -66.33519, -17.636294 ], [ -66.335229, -17.635141 ], [ -66.335731, -17.634398 ], [ -66.335945, -17.633992 ], [ -66.336086, -17.633552 ], [ -66.336062, -17.632043 ], [ -66.335993, -17.631029 ], [ -66.33567, -17.629949 ], [ -66.335166, -17.629056 ], [ -66.334898, -17.628736 ], [ -66.33452, -17.628371 ], [ -66.334299, -17.628051 ], [ -66.333739, -17.62755 ], [ -66.333494, -17.627276 ], [ -66.332845, -17.62628 ], [ -66.332284, -17.625675 ], [ -66.331396, -17.625131 ], [ -66.330871, -17.624549 ], [ -66.330372, -17.624105 ], [ -66.33008, -17.623993 ], [ -66.329863, -17.623984 ], [ -66.329195, -17.623749 ], [ -66.328808, -17.623718 ], [ -66.328469, -17.623618 ], [ -66.328163, -17.623195 ], [ -66.327659, -17.622255 ], [ -66.327325, -17.621395 ], [ -66.327012, -17.620015 ], [ -66.326814, -17.619544 ], [ -66.326894, -17.618898 ], [ -66.326807, -17.618692 ], [ -66.326564, -17.618464 ], [ -66.326382, -17.618443 ], [ -66.325596, -17.61852 ], [ -66.324655, -17.618761 ], [ -66.324256, -17.618753 ], [ -66.323916, -17.618688 ], [ -66.323673, -17.618495 ], [ -66.323382, -17.618463 ], [ -66.323127, -17.618635 ], [ -66.323094, -17.618662 ], [ -66.322842, -17.618907 ], [ -66.322553, -17.619037 ], [ -66.322008, -17.618996 ], [ -66.321246, -17.619028 ], [ -66.320483, -17.618886 ], [ -66.31973, -17.618525 ], [ -66.319064, -17.618452 ], [ -66.318203, -17.61808 ], [ -66.317791, -17.61805 ], [ -66.316879, -17.617472 ], [ -66.316056, -17.617366 ], [ -66.315788, -17.617196 ], [ -66.314861, -17.616168 ], [ -66.314752, -17.616123 ], [ -66.314534, -17.616172 ], [ -66.314137, -17.61636 ], [ -66.313858, -17.616317 ], [ -66.313651, -17.6161 ], [ -66.31349, -17.615664 ], [ -66.313367, -17.615481 ], [ -66.31292, -17.615474 ], [ -66.312811, -17.615441 ], [ -66.312019, -17.6147 ], [ -66.31122, -17.614616 ], [ -66.310636, -17.614196 ], [ -66.310343, -17.6139 ], [ -66.30962, -17.612789 ], [ -66.308865, -17.612152 ], [ -66.308671, -17.61205 ], [ -66.308269, -17.611755 ], [ -66.308062, -17.611515 ], [ -66.307915, -17.611263 ], [ -66.307569, -17.610391 ], [ -66.307385, -17.610116 ], [ -66.3072, -17.609622 ], [ -66.307054, -17.609497 ], [ -66.306592, -17.609237 ], [ -66.306169, -17.609242 ], [ -66.305406, -17.609123 ], [ -66.305113, -17.608826 ], [ -66.304905, -17.608517 ], [ -66.304744, -17.608093 ], [ -66.304598, -17.60799 ], [ -66.304416, -17.607935 ], [ -66.304126, -17.607938 ], [ -66.30404, -17.607708 ], [ -66.303771, -17.607377 ], [ -66.303552, -17.607206 ], [ -66.303261, -17.607163 ], [ -66.302957, -17.606982 ], [ -66.302497, -17.606918 ], [ -66.302473, -17.606883 ], [ -66.302412, -17.606884 ], [ -66.302156, -17.606587 ], [ -66.30195, -17.606497 ], [ -66.301659, -17.606477 ], [ -66.301344, -17.606377 ], [ -66.301161, -17.606229 ], [ -66.300688, -17.606003 ], [ -66.300104, -17.605537 ], [ -66.299909, -17.605458 ], [ -66.299676, -17.605057 ], [ -66.299527, -17.604598 ], [ -66.299405, -17.604461 ], [ -66.298883, -17.604178 ], [ -66.298312, -17.603792 ], [ -66.298055, -17.603438 ], [ -66.298024, -17.602655 ], [ -66.29784, -17.602322 ], [ -66.297572, -17.602071 ], [ -66.297448, -17.601739 ], [ -66.297348, -17.601256 ], [ -66.297212, -17.600888 ], [ -66.297052, -17.600636 ], [ -66.296834, -17.600512 ], [ -66.296555, -17.600434 ], [ -66.295587, -17.600318 ], [ -66.295284, -17.60024 ], [ -66.295126, -17.600242 ], [ -66.294471, -17.599984 ], [ -66.293937, -17.599678 ], [ -66.293524, -17.599533 ], [ -66.293088, -17.599445 ], [ -66.288148, -17.601389 ] ] ] ] } }
]
}
