{
"type": "FeatureCollection",
"name": "CLIZA",
"crs": { "type": "name", "properties": { "name": "urn:ogc:def:crs:OGC:1.3:CRS84" } },
"bbox": [ -65.996717, -17.644946, -65.886083, -17.538074 ],                                                                        
"features": [
{ "type": "Feature", "properties": { "NOMBRE": "Cliza", "NIVEL": "Municipios", "PROVINCIA": "German Jordan", "REGION": "Valles", "DEPARTAMENTO": "Cochabamba" }, "bbox": [ -65.996717, -17.644946, -65.886083, -17.538074 ], "geometry": { "type": "MultiPolygon", "coordinates": [ [ [ [ -65.894103, -17.567485 ], [ -65.894108, -17.567504 ], [ -65.894008, -17.568232 ], [ -65.893797, -17.568629 ], [ -65.893669, -17.568872 ], [ -65.893603, -17.569043 ], [ -65.893542, -17.569199 ], [ -65.89358, -17.569425 ], [ -65.893581, -17.569448 ], [ -65.893588, -17.569685 ], [ -65.893704, -17.569982 ], [ -65.893994, -17.570642 ], [ -65.89421, -17.571116 ], [ -65.894424, -17.571501 ], [ -65.894498, -17.571659 ], [ -65.894512, -17.571972 ], [ -65.894515, -17.572187 ], [ -65.894517, -17.57234 ], [ -65.894487, -17.572596 ], [ -65.894442, -17.572679 ], [ -65.894258, -17.573224 ], [ -65.89411, -17.573441 ], [ -65.89397, -17.573602 ], [ -65.893661, -17.573959 ], [ -65.893185, -17.574391 ], [ -65.89242, -17.575119 ], [ -65.891818, -17.575662 ], [ -65.891237, -17.576215 ], [ -65.890093, -17.57719 ], [ -65.889758, -17.57751 ], [ -65.889579, -17.577693 ], [ -65.889484, -17.578036 ], [ -65.889411, -17.578598 ], [ -65.889372, -17.579134 ], [ -65.88926, -17.579762 ], [ -65.889204, -17.580079 ], [ -65.888996, -17.580941 ], [ -65.888848, -17.581454 ], [ -65.888454, -17.58293 ], [ -65.888329, -17.583658 ], [ -65.888252, -17.584183 ], [ -65.888161, -17.584507 ], [ -65.888051, -17.584703 ], [ -65.887611, -17.585325 ], [ -65.887189, -17.585689 ], [ -65.886656, -17.586281 ], [ -65.88621, -17.586863 ], [ -65.886083, -17.58695 ], [ -65.886137, -17.590071 ], [ -65.886166, -17.591765 ], [ -65.886376, -17.592046 ], [ -65.886395, -17.592071 ], [ -65.886539, -17.592263 ], [ -65.886537, -17.592991 ], [ -65.886524, -17.598993 ], [ -65.926745, -17.611015 ], [ -65.937798, -17.60539 ], [ -65.940325, -17.612511 ], [ -65.940541, -17.612961 ], [ -65.940805, -17.613368 ], [ -65.941105, -17.613741 ], [ -65.941403, -17.614228 ], [ -65.94146, -17.614343 ], [ -65.941525, -17.614596 ], [ -65.941522, -17.61471 ], [ -65.941553, -17.614917 ], [ -65.941547, -17.615179 ], [ -65.941518, -17.615384 ], [ -65.94148, -17.615463 ], [ -65.94144, -17.615656 ], [ -65.941377, -17.615814 ], [ -65.941336, -17.616007 ], [ -65.94126, -17.6162 ], [ -65.941234, -17.616313 ], [ -65.941218, -17.616484 ], [ -65.941138, -17.616824 ], [ -65.941074, -17.617017 ], [ -65.941047, -17.617165 ], [ -65.940982, -17.61738 ], [ -65.940955, -17.617528 ], [ -65.940839, -17.61789 ], [ -65.940799, -17.618072 ], [ -65.940775, -17.618094 ], [ -65.940662, -17.618406 ], [ -65.94098, -17.618527 ], [ -65.941164, -17.618525 ], [ -65.941506, -17.618532 ], [ -65.942086, -17.618612 ], [ -65.942388, -17.618582 ], [ -65.942611, -17.618566 ], [ -65.942782, -17.618576 ], [ -65.942848, -17.618575 ], [ -65.943137, -17.618571 ], [ -65.943267, -17.618493 ], [ -65.943403, -17.618195 ], [ -65.943476, -17.618094 ], [ -65.943941, -17.617592 ], [ -65.944479, -17.617491 ], [ -65.944675, -17.61749 ], [ -65.944705, -17.617493 ], [ -65.944768, -17.617495 ], [ -65.944852, -17.617516 ], [ -65.944911, -17.617515 ], [ -65.945051, -17.617504 ], [ -65.945247, -17.617501 ], [ -65.94549, -17.617493 ], [ -65.945716, -17.617499 ], [ -65.945943, -17.617482 ], [ -65.946421, -17.617414 ], [ -65.946647, -17.617397 ], [ -65.946827, -17.617356 ], [ -65.946993, -17.617349 ], [ -65.947257, -17.617275 ], [ -65.947508, -17.617247 ], [ -65.947747, -17.617196 ], [ -65.948425, -17.617213 ], [ -65.948622, -17.617184 ], [ -65.948741, -17.617183 ], [ -65.94902, -17.617153 ], [ -65.94914, -17.617151 ], [ -65.949259, -17.617124 ], [ -65.949379, -17.617122 ], [ -65.949524, -17.617043 ], [ -65.94961, -17.617412 ], [ -65.954908, -17.639103 ], [ -65.954975, -17.639506 ], [ -65.955749, -17.640462 ], [ -65.955993, -17.640708 ], [ -65.95702, -17.641578 ], [ -65.957335, -17.641872 ], [ -65.957627, -17.642096 ], [ -65.958569, -17.64301 ], [ -65.959117, -17.643515 ], [ -65.959841, -17.644081 ], [ -65.960283, -17.644526 ], [ -65.960361, -17.644607 ], [ -65.960456, -17.644695 ], [ -65.960673, -17.644946 ], [ -65.970239, -17.632401 ], [ -65.970304, -17.632272 ], [ -65.970395, -17.632143 ], [ -65.970433, -17.632054 ], [ -65.970472, -17.631964 ], [ -65.970523, -17.631823 ], [ -65.970574, -17.631681 ], [ -65.97061, -17.631489 ], [ -65.970656, -17.631301 ], [ -65.970666, -17.630829 ], [ -65.970626, -17.629535 ], [ -65.970585, -17.62926 ], [ -65.970552, -17.629168 ], [ -65.970531, -17.629042 ], [ -65.970409, -17.628685 ], [ -65.970226, -17.628349 ], [ -65.970006, -17.628104 ], [ -65.969857, -17.627872 ], [ -65.969648, -17.627615 ], [ -65.969544, -17.62751 ], [ -65.969383, -17.627266 ], [ -65.969163, -17.627009 ], [ -65.968651, -17.626528 ], [ -65.968396, -17.626237 ], [ -65.968155, -17.625842 ], [ -65.968064, -17.625657 ], [ -65.967765, -17.625216 ], [ -65.967732, -17.625124 ], [ -65.967445, -17.624694 ], [ -65.967319, -17.624451 ], [ -65.967083, -17.623874 ], [ -65.967031, -17.623588 ], [ -65.966965, -17.623346 ], [ -65.966965, -17.623342 ], [ -65.966965, -17.623341 ], [ -65.966967, -17.623266 ], [ -65.966907, -17.622774 ], [ -65.966874, -17.622648 ], [ -65.966837, -17.622201 ], [ -65.966838, -17.622198 ], [ -65.966838, -17.622196 ], [ -65.966861, -17.621695 ], [ -65.966888, -17.62157 ], [ -65.966896, -17.62073 ], [ -65.966801, -17.620214 ], [ -65.966632, -17.619844 ], [ -65.966403, -17.619461 ], [ -65.96616, -17.619159 ], [ -65.965759, -17.618521 ], [ -65.965354, -17.618031 ], [ -65.96403, -17.616639 ], [ -65.963974, -17.6165 ], [ -65.963893, -17.615916 ], [ -65.963893, -17.615912 ], [ -65.963893, -17.615911 ], [ -65.963906, -17.615364 ], [ -65.963938, -17.615179 ], [ -65.963966, -17.614881 ], [ -65.963954, -17.61467 ], [ -65.963917, -17.61441 ], [ -65.963688, -17.614092 ], [ -65.963405, -17.613922 ], [ -65.96314, -17.613831 ], [ -65.962731, -17.613729 ], [ -65.962381, -17.613435 ], [ -65.962208, -17.613214 ], [ -65.961863, -17.612702 ], [ -65.961829, -17.612599 ], [ -65.961726, -17.612425 ], [ -65.961466, -17.611882 ], [ -65.961373, -17.611765 ], [ -65.961224, -17.611522 ], [ -65.961157, -17.611349 ], [ -65.961066, -17.611175 ], [ -65.960886, -17.610726 ], [ -65.960725, -17.610493 ], [ -65.96038, -17.609503 ], [ -65.960244, -17.609214 ], [ -65.960095, -17.608959 ], [ -65.959992, -17.608819 ], [ -65.959678, -17.60848 ], [ -65.959468, -17.608326 ], [ -65.959282, -17.60815 ], [ -65.959038, -17.607882 ], [ -65.958584, -17.607471 ], [ -65.95842, -17.607364 ], [ -65.958103, -17.607029 ], [ -65.957979, -17.606904 ], [ -65.957833, -17.606749 ], [ -65.95774, -17.606624 ], [ -65.957743, -17.606623 ], [ -65.95774, -17.606619 ], [ -65.958425, -17.606564 ], [ -65.958707, -17.606325 ], [ -65.958955, -17.606092 ], [ -65.959123, -17.605835 ], [ -65.959288, -17.605394 ], [ -65.959316, -17.60519 ], [ -65.959311, -17.604908 ], [ -65.959124, -17.603773 ], [ -65.959124, -17.603769 ], [ -65.959124, -17.603769 ], [ -65.959126, -17.6037 ], [ -65.959358, -17.60293 ], [ -65.959382, -17.60293 ], [ -65.959516, -17.602796 ], [ -65.959745, -17.602677 ], [ -65.959841, -17.602645 ], [ -65.960308, -17.602554 ], [ -65.960427, -17.602557 ], [ -65.960761, -17.602497 ], [ -65.961001, -17.602411 ], [ -65.961182, -17.602302 ], [ -65.961401, -17.602124 ], [ -65.961802, -17.601758 ], [ -65.96201, -17.601523 ], [ -65.962133, -17.601355 ], [ -65.962197, -17.601174 ], [ -65.962201, -17.600996 ], [ -65.962127, -17.600617 ], [ -65.96206, -17.600444 ], [ -65.96189, -17.600098 ], [ -65.961661, -17.599681 ], [ -65.961549, -17.599427 ], [ -65.961549, -17.599422 ], [ -65.961549, -17.599422 ], [ -65.961571, -17.598977 ], [ -65.961628, -17.59884 ], [ -65.961737, -17.598622 ], [ -65.961845, -17.598367 ], [ -65.961964, -17.598199 ], [ -65.962182, -17.598001 ], [ -65.962216, -17.59797 ], [ -65.962296, -17.59791 ], [ -65.962457, -17.597751 ], [ -65.962588, -17.597632 ], [ -65.96298, -17.597312 ], [ -65.963547, -17.59703 ], [ -65.965789, -17.59576 ], [ -65.966261, -17.59543 ], [ -65.966807, -17.595009 ], [ -65.967148, -17.594675 ], [ -65.967612, -17.594173 ], [ -65.967879, -17.59394 ], [ -65.968098, -17.593815 ], [ -65.968554, -17.593615 ], [ -65.96865, -17.59356 ], [ -65.968675, -17.593526 ], [ -65.968784, -17.593449 ], [ -65.968819, -17.59345 ], [ -65.968904, -17.593372 ], [ -65.969276, -17.592939 ], [ -65.969416, -17.5928 ], [ -65.969517, -17.59272 ], [ -65.969677, -17.592542 ], [ -65.969757, -17.592423 ], [ -65.969837, -17.592324 ], [ -65.970019, -17.592224 ], [ -65.970139, -17.592104 ], [ -65.970218, -17.591966 ], [ -65.970156, -17.591889 ], [ -65.970094, -17.591831 ], [ -65.970052, -17.591793 ], [ -65.969888, -17.591736 ], [ -65.969744, -17.59166 ], [ -65.96962, -17.591545 ], [ -65.969433, -17.591372 ], [ -65.969329, -17.591217 ], [ -65.969266, -17.59112 ], [ -65.969202, -17.590945 ], [ -65.969116, -17.590692 ], [ -65.969012, -17.590537 ], [ -65.968906, -17.590303 ], [ -65.96887, -17.58999 ], [ -65.968824, -17.589739 ], [ -65.968833, -17.589385 ], [ -65.968815, -17.589157 ], [ -65.96882, -17.58894 ], [ -65.9688, -17.588768 ], [ -65.9688, -17.588277 ], [ -65.968718, -17.587693 ], [ -65.968724, -17.587442 ], [ -65.968476, -17.586362 ], [ -65.968397, -17.5862 ], [ -65.968366, -17.586017 ], [ -65.968379, -17.585446 ], [ -65.968405, -17.585356 ], [ -65.96841, -17.58515 ], [ -65.968449, -17.585026 ], [ -65.968464, -17.584877 ], [ -65.968529, -17.584651 ], [ -65.968557, -17.58448 ], [ -65.968562, -17.584263 ], [ -65.96863, -17.5839 ], [ -65.970571, -17.57886 ], [ -65.974422, -17.574811 ], [ -65.981839, -17.572858 ], [ -65.98184, -17.572835 ], [ -65.985344, -17.571575 ], [ -65.98577, -17.571666 ], [ -65.990707, -17.569845 ], [ -65.996717, -17.557112 ], [ -65.982097, -17.561193 ], [ -65.980923, -17.557524 ], [ -65.980923, -17.557524 ], [ -65.980921, -17.557518 ], [ -65.980866, -17.557554 ], [ -65.980858, -17.557559 ], [ -65.980711, -17.557561 ], [ -65.980568, -17.557564 ], [ -65.980564, -17.557564 ], [ -65.980392, -17.557621 ], [ -65.980375, -17.557627 ], [ -65.980038, -17.557572 ], [ -65.979638, -17.557578 ], [ -65.979406, -17.557541 ], [ -65.978313, -17.557598 ], [ -65.978039, -17.557561 ], [ -65.97764, -17.557567 ], [ -65.977135, -17.557595 ], [ -65.976567, -17.557583 ], [ -65.976398, -17.557546 ], [ -65.97623, -17.557548 ], [ -65.97256, -17.55705 ], [ -65.972552, -17.556585 ], [ -65.972589, -17.553911 ], [ -65.97192, -17.553988 ], [ -65.967481, -17.554046 ], [ -65.967462, -17.554047 ], [ -65.967488, -17.554414 ], [ -65.967537, -17.554882 ], [ -65.967541, -17.555715 ], [ -65.967593, -17.556562 ], [ -65.967588, -17.557258 ], [ -65.967622, -17.557807 ], [ -65.967653, -17.558036 ], [ -65.967649, -17.558184 ], [ -65.967668, -17.558402 ], [ -65.967657, -17.55984 ], [ -65.967707, -17.560241 ], [ -65.967701, -17.560983 ], [ -65.967851, -17.561798 ], [ -65.967918, -17.562274 ], [ -65.967919, -17.562281 ], [ -65.967818, -17.562263 ], [ -65.967697, -17.562265 ], [ -65.967576, -17.562247 ], [ -65.967518, -17.5622 ], [ -65.9674, -17.562152 ], [ -65.96734, -17.56215 ], [ -65.967246, -17.562114 ], [ -65.96708, -17.562087 ], [ -65.966298, -17.562067 ], [ -65.966295, -17.562067 ], [ -65.965985, -17.562116 ], [ -65.965709, -17.562201 ], [ -65.965421, -17.562319 ], [ -65.965252, -17.562418 ], [ -65.965058, -17.562573 ], [ -65.963896, -17.563388 ], [ -65.963775, -17.563488 ], [ -65.963291, -17.563796 ], [ -65.963116, -17.563934 ], [ -65.963109, -17.563939 ], [ -65.962837, -17.563887 ], [ -65.961997, -17.563672 ], [ -65.961726, -17.563574 ], [ -65.961168, -17.563571 ], [ -65.961155, -17.563571 ], [ -65.960628, -17.563706 ], [ -65.960183, -17.563923 ], [ -65.959648, -17.564057 ], [ -65.959644, -17.564058 ], [ -65.959358, -17.564074 ], [ -65.958597, -17.563937 ], [ -65.958021, -17.563927 ], [ -65.957586, -17.563914 ], [ -65.957394, -17.563887 ], [ -65.957232, -17.563871 ], [ -65.95707, -17.563805 ], [ -65.957067, -17.56365 ], [ -65.957064, -17.563486 ], [ -65.957061, -17.563302 ], [ -65.957062, -17.563068 ], [ -65.95696, -17.562837 ], [ -65.956774, -17.562193 ], [ -65.956762, -17.562193 ], [ -65.956719, -17.561975 ], [ -65.956684, -17.561951 ], [ -65.956686, -17.561883 ], [ -65.956652, -17.561813 ], [ -65.956599, -17.561515 ], [ -65.956481, -17.56101 ], [ -65.956502, -17.560108 ], [ -65.956514, -17.560109 ], [ -65.956556, -17.559836 ], [ -65.956566, -17.559413 ], [ -65.956546, -17.559287 ], [ -65.956548, -17.559196 ], [ -65.956387, -17.558438 ], [ -65.956253, -17.558092 ], [ -65.956254, -17.558047 ], [ -65.956118, -17.557758 ], [ -65.956052, -17.557528 ], [ -65.955996, -17.557412 ], [ -65.955921, -17.557056 ], [ -65.955891, -17.556804 ], [ -65.955926, -17.55435 ], [ -65.95551, -17.553815 ], [ -65.955347, -17.553674 ], [ -65.955148, -17.553543 ], [ -65.955067, -17.553472 ], [ -65.954914, -17.553377 ], [ -65.954761, -17.553305 ], [ -65.954585, -17.553198 ], [ -65.954362, -17.553089 ], [ -65.95389, -17.552906 ], [ -65.953397, -17.552894 ], [ -65.953379, -17.552893 ], [ -65.953092, -17.552943 ], [ -65.951834, -17.553334 ], [ -65.951641, -17.55334 ], [ -65.951631, -17.55334 ], [ -65.95131, -17.553321 ], [ -65.951099, -17.553213 ], [ -65.950994, -17.553119 ], [ -65.950879, -17.552967 ], [ -65.950728, -17.552804 ], [ -65.950636, -17.552653 ], [ -65.950604, -17.552527 ], [ -65.950599, -17.55223 ], [ -65.950688, -17.552004 ], [ -65.950799, -17.551824 ], [ -65.951017, -17.551658 ], [ -65.951113, -17.551637 ], [ -65.951185, -17.551605 ], [ -65.951436, -17.551543 ], [ -65.952285, -17.551557 ], [ -65.952852, -17.551567 ], [ -65.952852, -17.551567 ], [ -65.95376, -17.551384 ], [ -65.95406, -17.551278 ], [ -65.954362, -17.551114 ], [ -65.954451, -17.551028 ], [ -65.954508, -17.550853 ], [ -65.954557, -17.550757 ], [ -65.954515, -17.550639 ], [ -65.954503, -17.550504 ], [ -65.95442, -17.55036 ], [ -65.954286, -17.550187 ], [ -65.95323, -17.549179 ], [ -65.953033, -17.548945 ], [ -65.952987, -17.54891 ], [ -65.952929, -17.548817 ], [ -65.952663, -17.548525 ], [ -65.952476, -17.548372 ], [ -65.952141, -17.548009 ], [ -65.951896, -17.547819 ], [ -65.951692, -17.547686 ], [ -65.951568, -17.547552 ], [ -65.951465, -17.547418 ], [ -65.951343, -17.547342 ], [ -65.95128, -17.547188 ], [ -65.951155, -17.546996 ], [ -65.953076, -17.543485 ], [ -65.95286, -17.543621 ], [ -65.952583, -17.543568 ], [ -65.952408, -17.543374 ], [ -65.952329, -17.543065 ], [ -65.952299, -17.542755 ], [ -65.952406, -17.54213 ], [ -65.952254, -17.541988 ], [ -65.952077, -17.541916 ], [ -65.951785, -17.541797 ], [ -65.951524, -17.541652 ], [ -65.951441, -17.541349 ], [ -65.951291, -17.54104 ], [ -65.951143, -17.540773 ], [ -65.950999, -17.540712 ], [ -65.950823, -17.540653 ], [ -65.950624, -17.540666 ], [ -65.950259, -17.540757 ], [ -65.949866, -17.540905 ], [ -65.949575, -17.541164 ], [ -65.949037, -17.541402 ], [ -65.948667, -17.54148 ], [ -65.948158, -17.541431 ], [ -65.94725, -17.541253 ], [ -65.94701, -17.541332 ], [ -65.946546, -17.541653 ], [ -65.946208, -17.541716 ], [ -65.94599, -17.541664 ], [ -65.945722, -17.541521 ], [ -65.945173, -17.541221 ], [ -65.944607, -17.54097 ], [ -65.94412, -17.541051 ], [ -65.94392, -17.541296 ], [ -65.94381, -17.541575 ], [ -65.943573, -17.541669 ], [ -65.943318, -17.541654 ], [ -65.943095, -17.541517 ], [ -65.942706, -17.541357 ], [ -65.942518, -17.541146 ], [ -65.942449, -17.540886 ], [ -65.942257, -17.540386 ], [ -65.942229, -17.540146 ], [ -65.942152, -17.540015 ], [ -65.942019, -17.539975 ], [ -65.941917, -17.539995 ], [ -65.941845, -17.540018 ], [ -65.941778, -17.540085 ], [ -65.941685, -17.540253 ], [ -65.941522, -17.540642 ], [ -65.941382, -17.540799 ], [ -65.94115, -17.540884 ], [ -65.941011, -17.540998 ], [ -65.940989, -17.541142 ], [ -65.941081, -17.541272 ], [ -65.941319, -17.541402 ], [ -65.94135, -17.54153 ], [ -65.941299, -17.541682 ], [ -65.941141, -17.541758 ], [ -65.940912, -17.541776 ], [ -65.940728, -17.5417 ], [ -65.940396, -17.541637 ], [ -65.940299, -17.541585 ], [ -65.940259, -17.541421 ], [ -65.940336, -17.541297 ], [ -65.940415, -17.541112 ], [ -65.940475, -17.540931 ], [ -65.940461, -17.540827 ], [ -65.940394, -17.54073 ], [ -65.940229, -17.540588 ], [ -65.940119, -17.540273 ], [ -65.940092, -17.540183 ], [ -65.940076, -17.540055 ], [ -65.940071, -17.540034 ], [ -65.940044, -17.539917 ], [ -65.940023, -17.539885 ], [ -65.940009, -17.53986 ], [ -65.939986, -17.539859 ], [ -65.939938, -17.539846 ], [ -65.939866, -17.53989 ], [ -65.939562, -17.540168 ], [ -65.939527, -17.540191 ], [ -65.939392, -17.5403 ], [ -65.939322, -17.540344 ], [ -65.93926, -17.540354 ], [ -65.939022, -17.540348 ], [ -65.938893, -17.540276 ], [ -65.938857, -17.540276 ], [ -65.938835, -17.540229 ], [ -65.938717, -17.540158 ], [ -65.938636, -17.540076 ], [ -65.938365, -17.539989 ], [ -65.938246, -17.539986 ], [ -65.938114, -17.540006 ], [ -65.937641, -17.539891 ], [ -65.937546, -17.539888 ], [ -65.937147, -17.53965 ], [ -65.93702, -17.539498 ], [ -65.936892, -17.539392 ], [ -65.936834, -17.539322 ], [ -65.93668, -17.539284 ], [ -65.936597, -17.539282 ], [ -65.936597, -17.539271 ], [ -65.936383, -17.539277 ], [ -65.936383, -17.539288 ], [ -65.93624, -17.539285 ], [ -65.936221, -17.539101 ], [ -65.936226, -17.538896 ], [ -65.936214, -17.538896 ], [ -65.936161, -17.538632 ], [ -65.936078, -17.538584 ], [ -65.935972, -17.538558 ], [ -65.935817, -17.538554 ], [ -65.935805, -17.538577 ], [ -65.935492, -17.53874 ], [ -65.935468, -17.53874 ], [ -65.935346, -17.538885 ], [ -65.935029, -17.539197 ], [ -65.934944, -17.539252 ], [ -65.934764, -17.539304 ], [ -65.934693, -17.539303 ], [ -65.934486, -17.539 ], [ -65.934288, -17.538813 ], [ -65.934194, -17.538765 ], [ -65.933946, -17.53869 ], [ -65.933827, -17.538687 ], [ -65.933647, -17.538762 ], [ -65.933533, -17.539056 ], [ -65.933481, -17.539249 ], [ -65.933452, -17.539314 ], [ -65.933387, -17.539365 ], [ -65.933347, -17.539371 ], [ -65.933085, -17.539376 ], [ -65.932914, -17.539566 ], [ -65.932878, -17.539603 ], [ -65.932814, -17.539673 ], [ -65.93275, -17.539736 ], [ -65.932659, -17.539776 ], [ -65.932516, -17.539696 ], [ -65.932471, -17.53968 ], [ -65.932376, -17.539678 ], [ -65.932051, -17.539818 ], [ -65.931841, -17.539676 ], [ -65.931783, -17.539617 ], [ -65.931624, -17.539293 ], [ -65.931446, -17.539255 ], [ -65.931244, -17.53925 ], [ -65.931045, -17.539119 ], [ -65.930836, -17.53892 ], [ -65.930812, -17.538919 ], [ -65.930725, -17.538689 ], [ -65.930603, -17.538367 ], [ -65.93043, -17.53812 ], [ -65.930182, -17.538074 ], [ -65.93004, -17.538113 ], [ -65.929834, -17.538241 ], [ -65.929709, -17.538579 ], [ -65.929513, -17.539401 ], [ -65.929414, -17.539702 ], [ -65.929365, -17.539902 ], [ -65.929405, -17.540539 ], [ -65.929404, -17.540585 ], [ -65.929269, -17.540753 ], [ -65.929133, -17.540955 ], [ -65.928962, -17.541144 ], [ -65.928876, -17.541268 ], [ -65.928414, -17.541679 ], [ -65.928256, -17.541789 ], [ -65.927967, -17.541941 ], [ -65.927352, -17.542303 ], [ -65.927206, -17.542402 ], [ -65.92701, -17.542659 ], [ -65.926984, -17.542761 ], [ -65.926959, -17.542795 ], [ -65.9267, -17.543679 ], [ -65.926219, -17.544855 ], [ -65.926044, -17.545216 ], [ -65.925955, -17.545453 ], [ -65.925953, -17.545533 ], [ -65.925864, -17.545782 ], [ -65.925751, -17.546019 ], [ -65.9257, -17.546177 ], [ -65.925612, -17.546358 ], [ -65.925406, -17.547004 ], [ -65.925314, -17.547355 ], [ -65.925272, -17.547628 ], [ -65.925091, -17.548229 ], [ -65.924978, -17.548477 ], [ -65.924952, -17.548568 ], [ -65.924803, -17.548827 ], [ -65.924726, -17.549053 ], [ -65.924722, -17.549247 ], [ -65.92467, -17.549428 ], [ -65.924665, -17.549634 ], [ -65.924703, -17.550023 ], [ -65.924724, -17.550606 ], [ -65.924715, -17.550983 ], [ -65.924678, -17.551062 ], [ -65.924676, -17.551153 ], [ -65.92461, -17.551402 ], [ -65.924598, -17.551402 ], [ -65.924597, -17.551459 ], [ -65.924419, -17.551911 ], [ -65.924035, -17.553043 ], [ -65.923925, -17.553669 ], [ -65.923823, -17.553963 ], [ -65.923822, -17.554009 ], [ -65.923784, -17.554076 ], [ -65.923739, -17.554463 ], [ -65.923685, -17.554725 ], [ -65.923683, -17.554804 ], [ -65.923686, -17.555229 ], [ -65.923665, -17.555565 ], [ -65.923696, -17.555852 ], [ -65.923699, -17.556076 ], [ -65.923688, -17.556164 ], [ -65.923693, -17.556463 ], [ -65.923682, -17.556637 ], [ -65.923687, -17.556899 ], [ -65.923714, -17.556986 ], [ -65.923734, -17.557135 ], [ -65.923802, -17.557285 ], [ -65.923883, -17.55739 ], [ -65.924145, -17.557853 ], [ -65.924317, -17.55812 ], [ -65.924671, -17.558757 ], [ -65.924954, -17.55937 ], [ -65.925043, -17.559612 ], [ -65.925077, -17.55967 ], [ -65.925171, -17.560243 ], [ -65.925225, -17.560941 ], [ -65.925257, -17.561102 ], [ -65.925264, -17.561319 ], [ -65.925293, -17.561559 ], [ -65.925288, -17.562301 ], [ -65.925275, -17.562324 ], [ -65.925271, -17.562484 ], [ -65.925232, -17.56262 ], [ -65.925206, -17.563201 ], [ -65.925284, -17.56342 ], [ -65.925523, -17.563883 ], [ -65.925657, -17.56424 ], [ -65.925697, -17.564573 ], [ -65.925751, -17.564814 ], [ -65.925751, -17.56527 ], [ -65.925797, -17.56534 ], [ -65.925797, -17.565363 ], [ -65.925809, -17.565363 ], [ -65.925798, -17.565797 ], [ -65.925762, -17.565819 ], [ -65.925731, -17.566629 ], [ -65.925703, -17.566788 ], [ -65.925697, -17.567039 ], [ -65.925657, -17.567209 ], [ -65.925637, -17.567574 ], [ -65.925765, -17.567989 ], [ -65.925769, -17.568238 ], [ -65.925772, -17.568437 ], [ -65.925829, -17.568736 ], [ -65.925833, -17.568985 ], [ -65.926046, -17.569281 ], [ -65.922585, -17.567487 ], [ -65.908511, -17.570171 ], [ -65.908438, -17.570212 ], [ -65.908332, -17.570163 ], [ -65.908036, -17.570017 ], [ -65.907463, -17.569706 ], [ -65.907099, -17.569502 ], [ -65.906981, -17.569465 ], [ -65.906828, -17.569381 ], [ -65.906663, -17.56932 ], [ -65.906403, -17.569256 ], [ -65.905931, -17.569085 ], [ -65.90547, -17.568947 ], [ -65.904786, -17.568701 ], [ -65.904219, -17.568516 ], [ -65.903545, -17.568362 ], [ -65.903037, -17.568212 ], [ -65.902668, -17.568191 ], [ -65.902372, -17.568149 ], [ -65.901289, -17.568122 ], [ -65.900183, -17.568116 ], [ -65.899875, -17.568063 ], [ -65.899198, -17.568023 ], [ -65.899032, -17.567984 ], [ -65.897974, -17.567957 ], [ -65.897293, -17.568043 ], [ -65.897008, -17.568036 ], [ -65.896007, -17.56809 ], [ -65.895457, -17.568202 ], [ -65.895145, -17.568065 ], [ -65.894624, -17.567937 ], [ -65.894403, -17.567731 ], [ -65.894103, -17.567485 ] ] ] ] } }
]
}
