{
"type": "FeatureCollection",
"name": "COCHABAMBA",
"crs": { "type": "name", "properties": { "name": "urn:ogc:def:crs:OGC:1.3:CRS84" } },
"bbox": [ -66.280267, -17.534070, -66.072248, -17.278246 ],                                                                        
"features": [
{ "type": "Feature", "properties": { "NOMBRE": "Cochabamba", "NIVEL": "Municipios", "PROVINCIA": "Cercado", "REGION": "Metropolitana", "DEPARTAMENTO": "Cochabamba" }, "bbox": [ -66.280267, -17.53407, -66.072248, -17.278246 ], "geometry": { "type": "MultiPolygon", "coordinates": [ [ [ [ -66.137755, -17.283813 ], [ -66.129868, -17.284973 ], [ -66.129256, -17.28523 ], [ -66.128803, -17.28542 ], [ -66.127836, -17.286499 ], [ -66.127112, -17.288326 ], [ -66.127025, -17.288818 ], [ -66.126837, -17.289888 ], [ -66.12676, -17.290326 ], [ -66.126978, -17.291209 ], [ -66.127297, -17.2925 ], [ -66.126791, -17.294944 ], [ -66.126697, -17.295397 ], [ -66.127221, -17.298561 ], [ -66.127276, -17.298894 ], [ -66.12708, -17.300802 ], [ -66.126281, -17.302031 ], [ -66.12604, -17.303372 ], [ -66.125952, -17.303857 ], [ -66.125736, -17.305057 ], [ -66.125795, -17.306327 ], [ -66.125809, -17.30663 ], [ -66.125538, -17.307858 ], [ -66.125079, -17.309941 ], [ -66.123007, -17.313286 ], [ -66.122803, -17.313616 ], [ -66.12273, -17.313876 ], [ -66.122095, -17.316148 ], [ -66.127255, -17.331354 ], [ -66.128275, -17.337095 ], [ -66.129105, -17.345379 ], [ -66.129713, -17.346345 ], [ -66.129306, -17.347379 ], [ -66.12981, -17.352416 ], [ -66.129923, -17.352602 ], [ -66.130369, -17.357993 ], [ -66.131079, -17.361175 ], [ -66.131082, -17.361499 ], [ -66.133541, -17.37321 ], [ -66.133077, -17.373665 ], [ -66.131825, -17.374891 ], [ -66.131896, -17.379058 ], [ -66.134995, -17.383978 ], [ -66.134981, -17.38398 ], [ -66.135104, -17.384176 ], [ -66.129669, -17.387922 ], [ -66.127401, -17.389486 ], [ -66.126984, -17.389773 ], [ -66.119528, -17.40482 ], [ -66.117871, -17.40906 ], [ -66.116561, -17.412412 ], [ -66.116535, -17.412478 ], [ -66.114052, -17.412559 ], [ -66.111433, -17.414941 ], [ -66.109625, -17.416567 ], [ -66.107386, -17.418245 ], [ -66.105688, -17.420699 ], [ -66.104728, -17.423643 ], [ -66.102237, -17.425999 ], [ -66.10181, -17.426403 ], [ -66.101588, -17.426613 ], [ -66.099524, -17.432989 ], [ -66.099522, -17.432995 ], [ -66.097406, -17.433294 ], [ -66.096276, -17.432835 ], [ -66.095231, -17.43282 ], [ -66.094364, -17.43322 ], [ -66.093501, -17.433384 ], [ -66.092695, -17.433845 ], [ -66.092617, -17.434906 ], [ -66.091725, -17.43684 ], [ -66.091404, -17.43772 ], [ -66.091199, -17.439015 ], [ -66.090637, -17.439906 ], [ -66.08986, -17.440146 ], [ -66.088241, -17.441421 ], [ -66.087734, -17.442357 ], [ -66.087699, -17.444599 ], [ -66.086404, -17.44871 ], [ -66.084332, -17.451453 ], [ -66.084063, -17.452865 ], [ -66.083034, -17.453824 ], [ -66.080994, -17.454502 ], [ -66.079503, -17.455825 ], [ -66.079492, -17.455837 ], [ -66.076577, -17.459161 ], [ -66.072379, -17.463948 ], [ -66.072248, -17.464096 ], [ -66.072266, -17.464504 ], [ -66.072625, -17.472995 ], [ -66.072679, -17.473511 ], [ -66.073515, -17.473731 ], [ -66.082492, -17.476103 ], [ -66.109749, -17.483301 ], [ -66.129262, -17.502082 ], [ -66.129538, -17.502389 ], [ -66.127591, -17.511108 ], [ -66.127823, -17.512246 ], [ -66.130577, -17.51325 ], [ -66.130997, -17.513465 ], [ -66.132881, -17.5144 ], [ -66.133472, -17.514505 ], [ -66.13509, -17.51468 ], [ -66.136193, -17.514071 ], [ -66.141186, -17.513078 ], [ -66.141826, -17.51297 ], [ -66.142386, -17.513046 ], [ -66.143981, -17.513646 ], [ -66.146262, -17.515266 ], [ -66.147401, -17.516197 ], [ -66.148778, -17.517901 ], [ -66.149395, -17.519518 ], [ -66.14939, -17.519521 ], [ -66.149395, -17.519532 ], [ -66.162306, -17.525799 ], [ -66.164485, -17.53407 ], [ -66.175167, -17.525924 ], [ -66.198326, -17.50474 ], [ -66.20834, -17.509451 ], [ -66.222644, -17.503694 ], [ -66.232806, -17.504417 ], [ -66.235625, -17.504439 ], [ -66.235603, -17.504546 ], [ -66.237908, -17.505269 ], [ -66.238824, -17.504886 ], [ -66.239664, -17.504825 ], [ -66.240922, -17.504186 ], [ -66.24174, -17.504069 ], [ -66.242909, -17.504111 ], [ -66.245725, -17.502358 ], [ -66.246296, -17.502291 ], [ -66.247046, -17.501895 ], [ -66.247468, -17.501893 ], [ -66.249302, -17.500836 ], [ -66.25041, -17.500472 ], [ -66.251105, -17.49971 ], [ -66.252214, -17.497636 ], [ -66.253082, -17.497691 ], [ -66.253631, -17.497287 ], [ -66.254344, -17.495814 ], [ -66.254913, -17.49437 ], [ -66.255329, -17.493336 ], [ -66.255636, -17.492312 ], [ -66.255826, -17.491405 ], [ -66.256013, -17.490686 ], [ -66.256609, -17.489901 ], [ -66.256942, -17.49006 ], [ -66.257096, -17.489819 ], [ -66.257273, -17.489321 ], [ -66.257605, -17.489083 ], [ -66.259548, -17.487971 ], [ -66.262377, -17.485961 ], [ -66.263359, -17.485325 ], [ -66.264203, -17.485016 ], [ -66.264924, -17.484587 ], [ -66.26533, -17.484294 ], [ -66.26564, -17.483243 ], [ -66.266936, -17.480162 ], [ -66.267433, -17.479971 ], [ -66.267656, -17.48002 ], [ -66.267907, -17.47932 ], [ -66.268185, -17.479109 ], [ -66.268506, -17.478658 ], [ -66.268757, -17.478495 ], [ -66.268678, -17.478151 ], [ -66.26887, -17.477963 ], [ -66.269103, -17.47703 ], [ -66.269603, -17.47661 ], [ -66.269879, -17.475945 ], [ -66.270496, -17.474871 ], [ -66.270841, -17.474832 ], [ -66.271985, -17.473839 ], [ -66.272546, -17.473975 ], [ -66.272887, -17.473415 ], [ -66.273064, -17.473308 ], [ -66.27339, -17.472986 ], [ -66.273899, -17.472859 ], [ -66.273942, -17.472758 ], [ -66.273783, -17.471887 ], [ -66.273946, -17.471093 ], [ -66.27433, -17.470928 ], [ -66.274921, -17.470101 ], [ -66.275685, -17.467777 ], [ -66.275697, -17.467743 ], [ -66.275715, -17.467752 ], [ -66.280267, -17.459617 ], [ -66.266767, -17.455242 ], [ -66.26621, -17.455012 ], [ -66.265781, -17.454975 ], [ -66.265583, -17.454914 ], [ -66.265339, -17.454851 ], [ -66.265216, -17.45485 ], [ -66.265032, -17.454827 ], [ -66.264788, -17.454746 ], [ -66.264604, -17.454723 ], [ -66.264261, -17.45462 ], [ -66.263995, -17.454518 ], [ -66.263959, -17.454472 ], [ -66.263573, -17.454301 ], [ -66.263174, -17.454039 ], [ -66.26263, -17.453616 ], [ -66.262, -17.453056 ], [ -66.261529, -17.452748 ], [ -66.26118, -17.452623 ], [ -66.260782, -17.452429 ], [ -66.260541, -17.452373 ], [ -66.259553, -17.452021 ], [ -66.259144, -17.451896 ], [ -66.258879, -17.451783 ], [ -66.257559, -17.450856 ], [ -66.257335, -17.450553 ], [ -66.253988, -17.443729 ], [ -66.251686, -17.441576 ], [ -66.245943, -17.436702 ], [ -66.247184, -17.428365 ], [ -66.23922, -17.427943 ], [ -66.230577, -17.427561 ], [ -66.217905, -17.425024 ], [ -66.216584, -17.415905 ], [ -66.215258, -17.404427 ], [ -66.214232, -17.397138 ], [ -66.213601, -17.397157 ], [ -66.213392, -17.39707 ], [ -66.212816, -17.39683 ], [ -66.212512, -17.396753 ], [ -66.210914, -17.396352 ], [ -66.210795, -17.396244 ], [ -66.210107, -17.395618 ], [ -66.208409, -17.395507 ], [ -66.208341, -17.395503 ], [ -66.208181, -17.392376 ], [ -66.208026, -17.389575 ], [ -66.207972, -17.386314 ], [ -66.207975, -17.383054 ], [ -66.208191, -17.381838 ], [ -66.207528, -17.379652 ], [ -66.207486, -17.376229 ], [ -66.207411, -17.372595 ], [ -66.207243, -17.370266 ], [ -66.198828, -17.374249 ], [ -66.198265, -17.374534 ], [ -66.193466, -17.360631 ], [ -66.190325, -17.352633 ], [ -66.187081, -17.343208 ], [ -66.187036, -17.343011 ], [ -66.187215, -17.336873 ], [ -66.187035, -17.328763 ], [ -66.186938, -17.328661 ], [ -66.186641, -17.328204 ], [ -66.186195, -17.327343 ], [ -66.186149, -17.327274 ], [ -66.1861, -17.327197 ], [ -66.18575, -17.326764 ], [ -66.185567, -17.326616 ], [ -66.185567, -17.326593 ], [ -66.184761, -17.325831 ], [ -66.184626, -17.32566 ], [ -66.184152, -17.324722 ], [ -66.18395, -17.324218 ], [ -66.183695, -17.32345 ], [ -66.183515, -17.322819 ], [ -66.183426, -17.322602 ], [ -66.183423, -17.322568 ], [ -66.183394, -17.322501 ], [ -66.183253, -17.322213 ], [ -66.183123, -17.321903 ], [ -66.183017, -17.321605 ], [ -66.182888, -17.32134 ], [ -66.182734, -17.321064 ], [ -66.18258, -17.320822 ], [ -66.18239, -17.320615 ], [ -66.182188, -17.320408 ], [ -66.181999, -17.320189 ], [ -66.181845, -17.319947 ], [ -66.181739, -17.319694 ], [ -66.181621, -17.319442 ], [ -66.181491, -17.319166 ], [ -66.181397, -17.318901 ], [ -66.181292, -17.318591 ], [ -66.181283, -17.318571 ], [ -66.181273, -17.318552 ], [ -66.181148, -17.318278 ], [ -66.181091, -17.318086 ], [ -66.181056, -17.317994 ], [ -66.18095, -17.317718 ], [ -66.18082, -17.317465 ], [ -66.180703, -17.317212 ], [ -66.180585, -17.316925 ], [ -66.180467, -17.316649 ], [ -66.180337, -17.316385 ], [ -66.180219, -17.316132 ], [ -66.180077, -17.315879 ], [ -66.18001, -17.315748 ], [ -66.17921, -17.314802 ], [ -66.178649, -17.314313 ], [ -66.177905, -17.313608 ], [ -66.177684, -17.313334 ], [ -66.177499, -17.313049 ], [ -66.17736, -17.312728 ], [ -66.177219, -17.312258 ], [ -66.177035, -17.312053 ], [ -66.176455, -17.31176 ], [ -66.176358, -17.311669 ], [ -66.176218, -17.311339 ], [ -66.176164, -17.311318 ], [ -66.17589, -17.311236 ], [ -66.175835, -17.311207 ], [ -66.175712, -17.31096 ], [ -66.175666, -17.310662 ], [ -66.175668, -17.310375 ], [ -66.17561, -17.3101 ], [ -66.17554, -17.309835 ], [ -66.175494, -17.309548 ], [ -66.175483, -17.309424 ], [ -66.175423, -17.309298 ], [ -66.175214, -17.309013 ], [ -66.174817, -17.308925 ], [ -66.174684, -17.308857 ], [ -66.174551, -17.308755 ], [ -66.174476, -17.30863 ], [ -66.174348, -17.308182 ], [ -66.174162, -17.307874 ], [ -66.17404, -17.30776 ], [ -66.17406, -17.307576 ], [ -66.174299, -17.306986 ], [ -66.174016, -17.306598 ], [ -66.173668, -17.305981 ], [ -66.162823, -17.288785 ], [ -66.156165, -17.278246 ], [ -66.156152, -17.27825 ], [ -66.137755, -17.283813 ] ] ] ] } }
]
}
