{
"type": "FeatureCollection",
"name": "COLCAPIRHUA",
"crs": { "type": "name", "properties": { "name": "urn:ogc:def:crs:OGC:1.3:CRS84" } },
"bbox": [ -66.255817, -17.428365, -66.207280, -17.350353 ],                                                                        
"features": [
{ "type": "Feature", "properties": { "NOMBRE": "Colcapirhua", "NIVEL": "Municipios", "PROVINCIA": "Quillacollo", "REGION": "Metropolitana", "DEPARTAMENTO": "Cochabamba" }, "bbox": [ -66.255817, -17.428365, -66.20728, -17.350353 ], "geometry": { "type": "MultiPolygon", "coordinates": [ [ [ [ -66.244717, -17.353356 ], [ -66.244708, -17.353368 ], [ -66.244444, -17.353533 ], [ -66.244337, -17.353632 ], [ -66.243703, -17.354069 ], [ -66.243344, -17.354367 ], [ -66.242293, -17.355505 ], [ -66.241839, -17.35585 ], [ -66.241109, -17.356493 ], [ -66.240044, -17.357263 ], [ -66.239889, -17.357344 ], [ -66.23935, -17.357723 ], [ -66.23856, -17.358355 ], [ -66.238369, -17.358458 ], [ -66.237818, -17.358895 ], [ -66.236562, -17.359757 ], [ -66.235998, -17.360044 ], [ -66.235542, -17.360217 ], [ -66.234569, -17.360378 ], [ -66.233957, -17.360447 ], [ -66.232513, -17.360458 ], [ -66.232321, -17.360424 ], [ -66.231924, -17.360401 ], [ -66.231648, -17.360447 ], [ -66.228036, -17.361688 ], [ -66.22734, -17.361861 ], [ -66.226008, -17.362401 ], [ -66.225553, -17.362631 ], [ -66.224114, -17.363217 ], [ -66.223082, -17.363596 ], [ -66.222278, -17.363929 ], [ -66.221691, -17.364147 ], [ -66.221499, -17.364239 ], [ -66.220923, -17.364446 ], [ -66.219652, -17.365021 ], [ -66.219508, -17.365067 ], [ -66.218849, -17.365388 ], [ -66.218153, -17.365687 ], [ -66.218009, -17.365768 ], [ -66.214206, -17.367181 ], [ -66.213787, -17.367365 ], [ -66.212563, -17.367836 ], [ -66.211388, -17.36833 ], [ -66.21044, -17.368766 ], [ -66.20728, -17.369959 ], [ -66.207377, -17.370981 ], [ -66.207411, -17.372595 ], [ -66.207486, -17.376229 ], [ -66.207528, -17.379652 ], [ -66.208191, -17.381838 ], [ -66.207975, -17.383054 ], [ -66.207972, -17.386314 ], [ -66.208026, -17.389575 ], [ -66.208181, -17.392376 ], [ -66.208341, -17.395503 ], [ -66.208409, -17.395507 ], [ -66.210107, -17.395618 ], [ -66.210795, -17.396244 ], [ -66.210914, -17.396352 ], [ -66.212512, -17.396753 ], [ -66.212816, -17.39683 ], [ -66.213392, -17.39707 ], [ -66.213601, -17.397157 ], [ -66.214232, -17.397138 ], [ -66.215258, -17.404427 ], [ -66.216584, -17.415905 ], [ -66.217905, -17.425024 ], [ -66.230577, -17.427561 ], [ -66.23922, -17.427943 ], [ -66.247184, -17.428365 ], [ -66.252029, -17.423817 ], [ -66.252136, -17.423709 ], [ -66.25222, -17.423623 ], [ -66.252298, -17.423549 ], [ -66.252471, -17.423411 ], [ -66.252566, -17.42333 ], [ -66.252902, -17.423047 ], [ -66.253262, -17.422774 ], [ -66.253536, -17.422566 ], [ -66.254118, -17.422012 ], [ -66.254237, -17.42185 ], [ -66.254543, -17.421474 ], [ -66.254644, -17.421391 ], [ -66.254785, -17.421153 ], [ -66.254852, -17.42089 ], [ -66.254819, -17.420554 ], [ -66.254469, -17.42001 ], [ -66.254322, -17.419712 ], [ -66.254298, -17.419712 ], [ -66.254064, -17.419092 ], [ -66.253813, -17.41799 ], [ -66.25371, -17.417404 ], [ -66.253597, -17.416922 ], [ -66.253521, -17.416463 ], [ -66.253506, -17.416164 ], [ -66.253415, -17.415532 ], [ -66.253302, -17.415073 ], [ -66.252929, -17.413787 ], [ -66.25289, -17.413149 ], [ -66.252804, -17.412777 ], [ -66.252661, -17.412529 ], [ -66.252506, -17.412306 ], [ -66.252467, -17.412054 ], [ -66.252464, -17.41172 ], [ -66.252629, -17.411501 ], [ -66.253024, -17.411362 ], [ -66.253576, -17.41137 ], [ -66.254009, -17.411472 ], [ -66.254851, -17.411732 ], [ -66.255391, -17.41173 ], [ -66.255582, -17.41166 ], [ -66.255665, -17.411579 ], [ -66.255783, -17.411372 ], [ -66.255817, -17.411199 ], [ -66.255816, -17.411038 ], [ -66.255741, -17.41074 ], [ -66.255301, -17.409983 ], [ -66.255265, -17.40996 ], [ -66.255215, -17.4098 ], [ -66.255196, -17.409122 ], [ -66.254927, -17.408629 ], [ -66.254852, -17.408376 ], [ -66.254825, -17.408031 ], [ -66.254832, -17.407595 ], [ -66.25499, -17.406594 ], [ -66.255008, -17.406054 ], [ -66.254931, -17.405525 ], [ -66.25483, -17.4051 ], [ -66.254756, -17.404917 ], [ -66.254718, -17.404699 ], [ -66.254411, -17.404045 ], [ -66.254314, -17.403907 ], [ -66.254156, -17.403747 ], [ -66.253782, -17.403531 ], [ -66.253758, -17.403496 ], [ -66.252991, -17.40298 ], [ -66.252921, -17.402744 ], [ -66.253013, -17.40224 ], [ -66.253009, -17.401527 ], [ -66.25294, -17.40114 ], [ -66.252857, -17.400725 ], [ -66.252577, -17.399502 ], [ -66.252507, -17.398525 ], [ -66.252486, -17.397743 ], [ -66.252362, -17.396204 ], [ -66.252375, -17.393936 ], [ -66.252391, -17.393677 ], [ -66.252407, -17.393417 ], [ -66.252434, -17.393288 ], [ -66.252424, -17.393099 ], [ -66.251912, -17.393191 ], [ -66.250928, -17.393335 ], [ -66.251018, -17.392264 ], [ -66.251024, -17.391893 ], [ -66.251042, -17.391728 ], [ -66.251014, -17.391211 ], [ -66.251047, -17.390706 ], [ -66.251059, -17.388994 ], [ -66.251009, -17.388718 ], [ -66.250945, -17.388086 ], [ -66.250956, -17.386225 ], [ -66.251117, -17.38503 ], [ -66.251176, -17.384881 ], [ -66.251246, -17.384536 ], [ -66.251356, -17.383134 ], [ -66.251414, -17.382744 ], [ -66.251503, -17.381744 ], [ -66.251867, -17.380469 ], [ -66.251913, -17.380078 ], [ -66.252022, -17.379426 ], [ -66.25211, -17.378577 ], [ -66.252134, -17.378216 ], [ -66.252141, -17.377782 ], [ -66.252107, -17.37751 ], [ -66.252117, -17.376823 ], [ -66.252143, -17.376371 ], [ -66.25208, -17.375556 ], [ -66.252103, -17.375249 ], [ -66.251934, -17.374631 ], [ -66.251897, -17.374528 ], [ -66.251883, -17.374367 ], [ -66.251771, -17.373977 ], [ -66.251685, -17.37377 ], [ -66.251703, -17.373195 ], [ -66.251748, -17.372862 ], [ -66.251853, -17.372551 ], [ -66.252517, -17.368901 ], [ -66.252567, -17.368657 ], [ -66.249012, -17.368857 ], [ -66.250427, -17.35972 ], [ -66.250247, -17.35972 ], [ -66.249935, -17.359777 ], [ -66.249778, -17.359777 ], [ -66.249224, -17.359536 ], [ -66.248621, -17.359375 ], [ -66.248429, -17.359376 ], [ -66.247708, -17.359548 ], [ -66.247634, -17.359295 ], [ -66.247657, -17.359134 ], [ -66.247752, -17.358916 ], [ -66.248335, -17.35802 ], [ -66.248418, -17.357847 ], [ -66.248536, -17.357503 ], [ -66.248606, -17.357101 ], [ -66.248626, -17.356549 ], [ -66.248566, -17.354734 ], [ -66.248559, -17.353723 ], [ -66.248507, -17.353217 ], [ -66.248538, -17.352448 ], [ -66.248485, -17.351724 ], [ -66.248453, -17.350621 ], [ -66.248347, -17.350353 ], [ -66.248229, -17.350452 ], [ -66.248011, -17.350604 ], [ -66.24782, -17.350731 ], [ -66.247546, -17.350935 ], [ -66.246525, -17.351747 ], [ -66.245725, -17.352598 ], [ -66.245175, -17.353115 ], [ -66.244717, -17.353356 ] ] ] ] } }
]
}
