{
"type": "FeatureCollection",
"name": "COLOMI",
"crs": { "type": "name", "properties": { "name": "urn:ogc:def:crs:OGC:1.3:CRS84" } },
"bbox": [ -66.312850, -17.379938, -65.702703, -16.534419 ],                                                                        
"features": [
{ "type": "Feature", "properties": { "NOMBRE": "Colomi", "NIVEL": "Municipios", "PROVINCIA": "Chapare", "REGION": "Tropico", "DEPARTAMENTO": "Cochabamba" }, "bbox": [ -66.31285, -17.379938, -65.702703, -16.534419 ], "geometry": { "type": "MultiPolygon", "coordinates": [ [ [ [ -66.02651, -16.608419 ], [ -66.012063, -16.640141 ], [ -66.00318, -16.645815 ], [ -66.003179, -16.645815 ], [ -65.999882, -16.64845 ], [ -66.000443, -16.647959 ], [ -65.982749, -16.659586 ], [ -65.983412, -16.676058 ], [ -65.98296, -16.676905 ], [ -65.962885, -16.706631 ], [ -65.957233, -16.738975 ], [ -65.956881, -16.74052 ], [ -65.955689, -16.742438 ], [ -65.947823, -16.755492 ], [ -65.961936, -16.788118 ], [ -65.989093, -16.829735 ], [ -65.889015, -16.9128 ], [ -65.889341, -16.946478 ], [ -65.888251, -16.949028 ], [ -65.869314, -17.003458 ], [ -65.868529, -17.006756 ], [ -65.865164, -17.017506 ], [ -65.865442, -17.018188 ], [ -65.88131, -17.061923 ], [ -65.881279, -17.062781 ], [ -65.88406, -17.122896 ], [ -65.883895, -17.123756 ], [ -65.858573, -17.208142 ], [ -65.8444, -17.253545 ], [ -65.844396, -17.253559 ], [ -65.844396, -17.253559 ], [ -65.844396, -17.25356 ], [ -65.729522, -17.269848 ], [ -65.702703, -17.268462 ], [ -65.704702, -17.269307 ], [ -65.705702, -17.269735 ], [ -65.706522, -17.27025 ], [ -65.706977, -17.270421 ], [ -65.707705, -17.27085 ], [ -65.709362, -17.2717 ], [ -65.710666, -17.272868 ], [ -65.711246, -17.273146 ], [ -65.711767, -17.273423 ], [ -65.712111, -17.273581 ], [ -65.712297, -17.273837 ], [ -65.712524, -17.274439 ], [ -65.713006, -17.276162 ], [ -65.714606, -17.280507 ], [ -65.71463, -17.280508 ], [ -65.714617, -17.280588 ], [ -65.715203, -17.282803 ], [ -65.715496, -17.284197 ], [ -65.71546, -17.284353 ], [ -65.715463, -17.284369 ], [ -65.715267, -17.285226 ], [ -65.715236, -17.285657 ], [ -65.715209, -17.285765 ], [ -65.715205, -17.285829 ], [ -65.715087, -17.286307 ], [ -65.714945, -17.286761 ], [ -65.714644, -17.287395 ], [ -65.714285, -17.287959 ], [ -65.713854, -17.28851 ], [ -65.713506, -17.289018 ], [ -65.71344, -17.290527 ], [ -65.713419, -17.290545 ], [ -65.713413, -17.290698 ], [ -65.706811, -17.296478 ], [ -65.706404, -17.297018 ], [ -65.706103, -17.297652 ], [ -65.705724, -17.299131 ], [ -65.703513, -17.303479 ], [ -65.709743, -17.306399 ], [ -65.71065, -17.307376 ], [ -65.710627, -17.307532 ], [ -65.710635, -17.30754 ], [ -65.710549, -17.308149 ], [ -65.710438, -17.308307 ], [ -65.71024, -17.3086 ], [ -65.709766, -17.309068 ], [ -65.709362, -17.309535 ], [ -65.709024, -17.309869 ], [ -65.708404, -17.310261 ], [ -65.723414, -17.32118 ], [ -65.723311, -17.321265 ], [ -65.723402, -17.321331 ], [ -65.722995, -17.321666 ], [ -65.722104, -17.321744 ], [ -65.721488, -17.321819 ], [ -65.721009, -17.321892 ], [ -65.720395, -17.322098 ], [ -65.719831, -17.322179 ], [ -65.719314, -17.322292 ], [ -65.718964, -17.32241 ], [ -65.718612, -17.322607 ], [ -65.718308, -17.322829 ], [ -65.717978, -17.323118 ], [ -65.717803, -17.323341 ], [ -65.717915, -17.323514 ], [ -65.718125, -17.323783 ], [ -65.718679, -17.324186 ], [ -65.719625, -17.32476 ], [ -65.720099, -17.325013 ], [ -65.720394, -17.325227 ], [ -65.72077, -17.325557 ], [ -65.721133, -17.325921 ], [ -65.721533, -17.326275 ], [ -65.722072, -17.326816 ], [ -65.722557, -17.327115 ], [ -65.723218, -17.32759 ], [ -65.723711, -17.328026 ], [ -65.724302, -17.328396 ], [ -65.72506, -17.328805 ], [ -65.725762, -17.329052 ], [ -65.726396, -17.329091 ], [ -65.72684, -17.329079 ], [ -65.727333, -17.329011 ], [ -65.728123, -17.32902 ], [ -65.72853, -17.329053 ], [ -65.729401, -17.329224 ], [ -65.730177, -17.329346 ], [ -65.730618, -17.329461 ], [ -65.730868, -17.329547 ], [ -65.730915, -17.329583 ], [ -65.731042, -17.329792 ], [ -65.731283, -17.330291 ], [ -65.73179, -17.331232 ], [ -65.732082, -17.33156 ], [ -65.732698, -17.331908 ], [ -65.73309, -17.332067 ], [ -65.733423, -17.332178 ], [ -65.733659, -17.332322 ], [ -65.733847, -17.332487 ], [ -65.734393, -17.333268 ], [ -65.734694, -17.333757 ], [ -65.735228, -17.33455 ], [ -65.735732, -17.335089 ], [ -65.73617, -17.335341 ], [ -65.736526, -17.335465 ], [ -65.737503, -17.335718 ], [ -65.738112, -17.335848 ], [ -65.73902, -17.335951 ], [ -65.740445, -17.335999 ], [ -65.740827, -17.336077 ], [ -65.741326, -17.336261 ], [ -65.741918, -17.336586 ], [ -65.742474, -17.336943 ], [ -65.743004, -17.337335 ], [ -65.743591, -17.337911 ], [ -65.744613, -17.338876 ], [ -65.745085, -17.339186 ], [ -65.74557, -17.339473 ], [ -65.746328, -17.33987 ], [ -65.747282, -17.340247 ], [ -65.74797, -17.340508 ], [ -65.748616, -17.34075 ], [ -65.749283, -17.340991 ], [ -65.74991, -17.341234 ], [ -65.750635, -17.34132 ], [ -65.751098, -17.341372 ], [ -65.751481, -17.341442 ], [ -65.751988, -17.341784 ], [ -65.752273, -17.341993 ], [ -65.752518, -17.342279 ], [ -65.752876, -17.342597 ], [ -65.753093, -17.342653 ], [ -65.753383, -17.342813 ], [ -65.753881, -17.343282 ], [ -65.754074, -17.343338 ], [ -65.754315, -17.343371 ], [ -65.755204, -17.343412 ], [ -65.755804, -17.343375 ], [ -65.756105, -17.343373 ], [ -65.756464, -17.343256 ], [ -65.756752, -17.343254 ], [ -65.756885, -17.343276 ], [ -65.757115, -17.343425 ], [ -65.757297, -17.343642 ], [ -65.757432, -17.343883 ], [ -65.757566, -17.344055 ], [ -65.758158, -17.344294 ], [ -65.758376, -17.34443 ], [ -65.758559, -17.34466 ], [ -65.75856, -17.344798 ], [ -65.758547, -17.344882 ], [ -65.758547, -17.344918 ], [ -65.758514, -17.345126 ], [ -65.758397, -17.345437 ], [ -65.758321, -17.34579 ], [ -65.758309, -17.345927 ], [ -65.758335, -17.346076 ], [ -65.758504, -17.346168 ], [ -65.758684, -17.346144 ], [ -65.758792, -17.346085 ], [ -65.758954, -17.345567 ], [ -65.759024, -17.345394 ], [ -65.759071, -17.345336 ], [ -65.75925, -17.345231 ], [ -65.759969, -17.345043 ], [ -65.760088, -17.344962 ], [ -65.76035, -17.344742 ], [ -65.760457, -17.344683 ], [ -65.760613, -17.344648 ], [ -65.760733, -17.34467 ], [ -65.760843, -17.344762 ], [ -65.760892, -17.344865 ], [ -65.760871, -17.345118 ], [ -65.760866, -17.345133 ], [ -65.760857, -17.345238 ], [ -65.760741, -17.345561 ], [ -65.760445, -17.345907 ], [ -65.76004, -17.346232 ], [ -65.759827, -17.346452 ], [ -65.759767, -17.346487 ], [ -65.759746, -17.346571 ], [ -65.759747, -17.346609 ], [ -65.759823, -17.346931 ], [ -65.759884, -17.347058 ], [ -65.759935, -17.347264 ], [ -65.759936, -17.347414 ], [ -65.759923, -17.347464 ], [ -65.759924, -17.347533 ], [ -65.759782, -17.348073 ], [ -65.759789, -17.348117 ], [ -65.760134, -17.348863 ], [ -65.760353, -17.349161 ], [ -65.760673, -17.349758 ], [ -65.760785, -17.350125 ], [ -65.760922, -17.350481 ], [ -65.761166, -17.35086 ], [ -65.761446, -17.351169 ], [ -65.761737, -17.351409 ], [ -65.761918, -17.351442 ], [ -65.762218, -17.351418 ], [ -65.762479, -17.351302 ], [ -65.76248, -17.35129 ], [ -65.762024, -17.350281 ], [ -65.761995, -17.349936 ], [ -65.762015, -17.349913 ], [ -65.762007, -17.349819 ], [ -65.762232, -17.349553 ], [ -65.76234, -17.349541 ], [ -65.762425, -17.349552 ], [ -65.762992, -17.349825 ], [ -65.76315, -17.349928 ], [ -65.763729, -17.35012 ], [ -65.76426, -17.350324 ], [ -65.764937, -17.350712 ], [ -65.765762, -17.35134 ], [ -65.766053, -17.351638 ], [ -65.766664, -17.352486 ], [ -65.766932, -17.352784 ], [ -65.767138, -17.352932 ], [ -65.767392, -17.35308 ], [ -65.767547, -17.353079 ], [ -65.767546, -17.352996 ], [ -65.767468, -17.35256 ], [ -65.767182, -17.35171 ], [ -65.767095, -17.351538 ], [ -65.767045, -17.351366 ], [ -65.766751, -17.350884 ], [ -65.766676, -17.350666 ], [ -65.766675, -17.350517 ], [ -65.766689, -17.350482 ], [ -65.766688, -17.350403 ], [ -65.766758, -17.35023 ], [ -65.766864, -17.350033 ], [ -65.766982, -17.349883 ], [ -65.767102, -17.349836 ], [ -65.767234, -17.349836 ], [ -65.767354, -17.349858 ], [ -65.768445, -17.35068 ], [ -65.76898, -17.351218 ], [ -65.769223, -17.351424 ], [ -65.769635, -17.351732 ], [ -65.769804, -17.351824 ], [ -65.769973, -17.351892 ], [ -65.770346, -17.351947 ], [ -65.770575, -17.352003 ], [ -65.770865, -17.352105 ], [ -65.771349, -17.352379 ], [ -65.771798, -17.352733 ], [ -65.772015, -17.35287 ], [ -65.772462, -17.353028 ], [ -65.772943, -17.353072 ], [ -65.773496, -17.353092 ], [ -65.77424, -17.353064 ], [ -65.774648, -17.353016 ], [ -65.774887, -17.3529 ], [ -65.775185, -17.352633 ], [ -65.775519, -17.352447 ], [ -65.775902, -17.352364 ], [ -65.776382, -17.352316 ], [ -65.776683, -17.352337 ], [ -65.777057, -17.352484 ], [ -65.777204, -17.352668 ], [ -65.77735, -17.352885 ], [ -65.777351, -17.352978 ], [ -65.777335, -17.353082 ], [ -65.777335, -17.353085 ], [ -65.777302, -17.353304 ], [ -65.777173, -17.353558 ], [ -65.777067, -17.353673 ], [ -65.776674, -17.354021 ], [ -65.77644, -17.354471 ], [ -65.776375, -17.354831 ], [ -65.776369, -17.355239 ], [ -65.776445, -17.355607 ], [ -65.776544, -17.355802 ], [ -65.77669, -17.356008 ], [ -65.77686, -17.356134 ], [ -65.777416, -17.356384 ], [ -65.777837, -17.356473 ], [ -65.77803, -17.356492 ], [ -65.79217, -17.338656 ], [ -65.830632, -17.366093 ], [ -65.863427, -17.378744 ], [ -65.873555, -17.379938 ], [ -65.894226, -17.375241 ], [ -65.904392, -17.374911 ], [ -65.904439, -17.374935 ], [ -65.919461, -17.357585 ], [ -65.935832, -17.347359 ], [ -65.947789, -17.343777 ], [ -65.948488, -17.34363 ], [ -65.955254, -17.337251 ], [ -65.977676, -17.312239 ], [ -65.986587, -17.293593 ], [ -65.988483, -17.260371 ], [ -66.001355, -17.227273 ], [ -66.003072, -17.223246 ], [ -66.001907, -17.22134 ], [ -66.001386, -17.220487 ], [ -65.983471, -17.185886 ], [ -65.987472, -17.181551 ], [ -65.988252, -17.180865 ], [ -66.001615, -17.175609 ], [ -66.006083, -17.17441 ], [ -66.006852, -17.17395 ], [ -66.011924, -17.170283 ], [ -66.028136, -17.155472 ], [ -66.028382, -17.155217 ], [ -66.032354, -17.14887 ], [ -66.032574, -17.148589 ], [ -66.039779, -17.141568 ], [ -66.054111, -17.134934 ], [ -66.05878, -17.125971 ], [ -66.069161, -17.112403 ], [ -66.069256, -17.112429 ], [ -66.076522, -17.104759 ], [ -66.0768, -17.10437 ], [ -66.082344, -17.08965 ], [ -66.084358, -17.085641 ], [ -66.099352, -17.061316 ], [ -66.099233, -17.061109 ], [ -66.099239, -17.060727 ], [ -66.099426, -17.060466 ], [ -66.099604, -17.060313 ], [ -66.099949, -17.060083 ], [ -66.100424, -17.059889 ], [ -66.100698, -17.059855 ], [ -66.100912, -17.059855 ], [ -66.10115, -17.059706 ], [ -66.101495, -17.059442 ], [ -66.102399, -17.058512 ], [ -66.102434, -17.058513 ], [ -66.102553, -17.058444 ], [ -66.10316, -17.05772 ], [ -66.103445, -17.057456 ], [ -66.103731, -17.05725 ], [ -66.10423, -17.056825 ], [ -66.104444, -17.056595 ], [ -66.10467, -17.056308 ], [ -66.104836, -17.055998 ], [ -66.10505, -17.055377 ], [ -66.105228, -17.054641 ], [ -66.105276, -17.05425 ], [ -66.105252, -17.053686 ], [ -66.105097, -17.053214 ], [ -66.104894, -17.052765 ], [ -66.104846, -17.052212 ], [ -66.105048, -17.051729 ], [ -66.10531, -17.051396 ], [ -66.105595, -17.051167 ], [ -66.105869, -17.051006 ], [ -66.106226, -17.050834 ], [ -66.106582, -17.050697 ], [ -66.108593, -17.05008 ], [ -66.109092, -17.049886 ], [ -66.11027, -17.049325 ], [ -66.110472, -17.049199 ], [ -66.110567, -17.049164 ], [ -66.111007, -17.048866 ], [ -66.111423, -17.048533 ], [ -66.11184, -17.048097 ], [ -66.112262, -17.047314 ], [ -66.112945, -17.046235 ], [ -66.113182, -17.045534 ], [ -66.113325, -17.045246 ], [ -66.113693, -17.0442 ], [ -66.114038, -17.043441 ], [ -66.11424, -17.043108 ], [ -66.114418, -17.042867 ], [ -66.114608, -17.042695 ], [ -66.11487, -17.042523 ], [ -66.115334, -17.042282 ], [ -66.115536, -17.042133 ], [ -66.115667, -17.041914 ], [ -66.115678, -17.041638 ], [ -66.115595, -17.040994 ], [ -66.115594, -17.040361 ], [ -66.115903, -17.039637 ], [ -66.115915, -17.039326 ], [ -66.11582, -17.039049 ], [ -66.115713, -17.038877 ], [ -66.115141, -17.038242 ], [ -66.115046, -17.037943 ], [ -66.115046, -17.03769 ], [ -66.115141, -17.037448 ], [ -66.115378, -17.036989 ], [ -66.115545, -17.036724 ], [ -66.115854, -17.036391 ], [ -66.116306, -17.036001 ], [ -66.116555, -17.035668 ], [ -66.116769, -17.035081 ], [ -66.116935, -17.034426 ], [ -66.117054, -17.034115 ], [ -66.117137, -17.033724 ], [ -66.117244, -17.033425 ], [ -66.117434, -17.032701 ], [ -66.117552, -17.032149 ], [ -66.11779, -17.031735 ], [ -66.117992, -17.031586 ], [ -66.118349, -17.031403 ], [ -66.118753, -17.031277 ], [ -66.119443, -17.030979 ], [ -66.119574, -17.03083 ], [ -66.119931, -17.030278 ], [ -66.119978, -17.030163 ], [ -66.12018, -17.029876 ], [ -66.120454, -17.029612 ], [ -66.120632, -17.029348 ], [ -66.120881, -17.028796 ], [ -66.121464, -17.028061 ], [ -66.121654, -17.027704 ], [ -66.121784, -17.027405 ], [ -66.122164, -17.026348 ], [ -66.122426, -17.025888 ], [ -66.122604, -17.025773 ], [ -66.123175, -17.025521 ], [ -66.123484, -17.025246 ], [ -66.123662, -17.024947 ], [ -66.123829, -17.024499 ], [ -66.123947, -17.024004 ], [ -66.123947, -17.023831 ], [ -66.124078, -17.023406 ], [ -66.124161, -17.023256 ], [ -66.124506, -17.0229 ], [ -66.125231, -17.022235 ], [ -66.126098, -17.021097 ], [ -66.127347, -17.019673 ], [ -66.127786, -17.01911 ], [ -66.128226, -17.018651 ], [ -66.128464, -17.018341 ], [ -66.128796, -17.017766 ], [ -66.128998, -17.01749 ], [ -66.129462, -17.017008 ], [ -66.130104, -17.016595 ], [ -66.130734, -17.016274 ], [ -66.131008, -17.016091 ], [ -66.131424, -17.015723 ], [ -66.131757, -17.015344 ], [ -66.132006, -17.014999 ], [ -66.13222, -17.014758 ], [ -66.132506, -17.014563 ], [ -66.133076, -17.014265 ], [ -66.133385, -17.014047 ], [ -66.134824, -17.012566 ], [ -66.135085, -17.012325 ], [ -66.135965, -17.011417 ], [ -66.136297, -17.010912 ], [ -66.136428, -17.010544 ], [ -66.136428, -17.010371 ], [ -66.136558, -17.009577 ], [ -66.136736, -17.00906 ], [ -66.136772, -17.008899 ], [ -66.136926, -17.008543 ], [ -66.137199, -17.00814 ], [ -66.137449, -17.007819 ], [ -66.138103, -17.007199 ], [ -66.138495, -17.006889 ], [ -66.138828, -17.006717 ], [ -66.139827, -17.006546 ], [ -66.140624, -17.006318 ], [ -66.142169, -17.005538 ], [ -66.142645, -17.005344 ], [ -66.142907, -17.005275 ], [ -66.14299, -17.005229 ], [ -66.143228, -17.005161 ], [ -66.143822, -17.004828 ], [ -66.144417, -17.0046 ], [ -66.144904, -17.00437 ], [ -66.145261, -17.004302 ], [ -66.146141, -17.004269 ], [ -66.146308, -17.004166 ], [ -66.146528, -17.003809 ], [ -66.14673, -17.003517 ], [ -66.146788, -17.003317 ], [ -66.146857, -17.003235 ], [ -66.146878, -17.003177 ], [ -66.146912, -17.003118 ], [ -66.146958, -17.003059 ], [ -66.146991, -17.002989 ], [ -66.147009, -17.002959 ], [ -66.14706, -17.002907 ], [ -66.147208, -17.00273 ], [ -66.14723, -17.002683 ], [ -66.147334, -17.002577 ], [ -66.147414, -17.002471 ], [ -66.147442, -17.002441 ], [ -66.147504, -17.002383 ], [ -66.147541, -17.002352 ], [ -66.147599, -17.002316 ], [ -66.147704, -17.002232 ], [ -66.147817, -17.002153 ], [ -66.147863, -17.002135 ], [ -66.147902, -17.002111 ], [ -66.147984, -17.002081 ], [ -66.148043, -17.002037 ], [ -66.148105, -17.00199 ], [ -66.148147, -17.001954 ], [ -66.14824, -17.001893 ], [ -66.148344, -17.001798 ], [ -66.148368, -17.001786 ], [ -66.148402, -17.001739 ], [ -66.148437, -17.001715 ], [ -66.148633, -17.001513 ], [ -66.148771, -17.001394 ], [ -66.148863, -17.001288 ], [ -66.14899, -17.001158 ], [ -66.149037, -17.001133 ], [ -66.149072, -17.001132 ], [ -66.149119, -17.001108 ], [ -66.14945, -17.001005 ], [ -66.149521, -17.001003 ], [ -66.149616, -17.000977 ], [ -66.149702, -17.000962 ], [ -66.149915, -17.000923 ], [ -66.14996, -17.00092 ], [ -66.150127, -17.000915 ], [ -66.150257, -17.000876 ], [ -66.15041, -17.000814 ], [ -66.150679, -17.000667 ], [ -66.15079, -17.000468 ], [ -66.150824, -17.000387 ], [ -66.150869, -17.000305 ], [ -66.150913, -17.000201 ], [ -66.15098, -17.000072 ], [ -66.151014, -17.000025 ], [ -66.151058, -16.999932 ], [ -66.1511, -16.999863 ], [ -66.151288, -16.999684 ], [ -66.151393, -16.999623 ], [ -66.151475, -16.999563 ], [ -66.151556, -16.999514 ], [ -66.151626, -16.999455 ], [ -66.15172, -16.999417 ], [ -66.151848, -16.999321 ], [ -66.15186, -16.999321 ], [ -66.152021, -16.999167 ], [ -66.152404, -16.998844 ], [ -66.152589, -16.998678 ], [ -66.152669, -16.998583 ], [ -66.152773, -16.9985 ], [ -66.1529, -16.998381 ], [ -66.153153, -16.998109 ], [ -66.153496, -16.997696 ], [ -66.153517, -16.997626 ], [ -66.153574, -16.997556 ], [ -66.153675, -16.997369 ], [ -66.153743, -16.997263 ], [ -66.153899, -16.99696 ], [ -66.153968, -16.996889 ], [ -66.154093, -16.996712 ], [ -66.154277, -16.996523 ], [ -66.154403, -16.99637 ], [ -66.154587, -16.996169 ], [ -66.154723, -16.995992 ], [ -66.154885, -16.995826 ], [ -66.155101, -16.995555 ], [ -66.155169, -16.99545 ], [ -66.155261, -16.995343 ], [ -66.155351, -16.995203 ], [ -66.15535, -16.995157 ], [ -66.155383, -16.995098 ], [ -66.15543, -16.995062 ], [ -66.155486, -16.994969 ], [ -66.155623, -16.994792 ], [ -66.155713, -16.994629 ], [ -66.155809, -16.994339 ], [ -66.155807, -16.994281 ], [ -66.15584, -16.9942 ], [ -66.155858, -16.994038 ], [ -66.155903, -16.993957 ], [ -66.156085, -16.993721 ], [ -66.156199, -16.993557 ], [ -66.156372, -16.993402 ], [ -66.156618, -16.993268 ], [ -66.156712, -16.993231 ], [ -66.15689, -16.99319 ], [ -66.156961, -16.993165 ], [ -66.157151, -16.993148 ], [ -66.157195, -16.993043 ], [ -66.157218, -16.993019 ], [ -66.157258, -16.992823 ], [ -66.157315, -16.992729 ], [ -66.157313, -16.992672 ], [ -66.157368, -16.992544 ], [ -66.157367, -16.992521 ], [ -66.157388, -16.99244 ], [ -66.157417, -16.992267 ], [ -66.157429, -16.992266 ], [ -66.157428, -16.99222 ], [ -66.157503, -16.992 ], [ -66.157534, -16.991873 ], [ -66.157631, -16.991582 ], [ -66.157672, -16.991397 ], [ -66.157668, -16.991283 ], [ -66.157624, -16.991066 ], [ -66.157621, -16.990963 ], [ -66.157595, -16.990918 ], [ -66.157568, -16.990815 ], [ -66.157555, -16.990471 ], [ -66.157594, -16.990217 ], [ -66.157654, -16.989917 ], [ -66.15792, -16.989335 ], [ -66.157965, -16.989276 ], [ -66.158134, -16.988983 ], [ -66.158144, -16.988949 ], [ -66.158156, -16.988948 ], [ -66.158282, -16.988783 ], [ -66.158351, -16.988724 ], [ -66.158407, -16.98863 ], [ -66.158762, -16.988205 ], [ -66.158807, -16.988135 ], [ -66.158841, -16.988065 ], [ -66.158932, -16.987947 ], [ -66.158987, -16.987819 ], [ -66.159021, -16.987772 ], [ -66.159054, -16.987702 ], [ -66.159202, -16.987503 ], [ -66.159214, -16.987502 ], [ -66.15926, -16.987443 ], [ -66.159491, -16.987229 ], [ -66.159536, -16.98717 ], [ -66.159687, -16.987051 ], [ -66.159746, -16.987026 ], [ -66.159804, -16.986978 ], [ -66.159921, -16.986928 ], [ -66.160016, -16.986892 ], [ -66.160314, -16.986881 ], [ -66.160422, -16.986901 ], [ -66.160493, -16.986899 ], [ -66.16059, -16.98693 ], [ -66.16065, -16.986928 ], [ -66.160746, -16.986948 ], [ -66.160925, -16.986942 ], [ -66.16096, -16.98693 ], [ -66.16102, -16.986928 ], [ -66.161043, -16.986904 ], [ -66.161101, -16.986879 ], [ -66.161136, -16.986855 ], [ -66.161242, -16.986806 ], [ -66.161269, -16.986788 ], [ -66.161634, -16.986426 ], [ -66.161855, -16.98627 ], [ -66.162017, -16.986127 ], [ -66.16218, -16.986007 ], [ -66.162342, -16.985875 ], [ -66.162424, -16.985827 ], [ -66.162483, -16.985802 ], [ -66.162622, -16.985694 ], [ -66.162657, -16.985681 ], [ -66.162739, -16.985621 ], [ -66.162962, -16.985511 ], [ -66.163078, -16.985427 ], [ -66.163218, -16.985353 ], [ -66.163568, -16.985124 ], [ -66.163661, -16.985052 ], [ -66.163765, -16.984957 ], [ -66.163902, -16.98478 ], [ -66.163958, -16.984687 ], [ -66.164004, -16.984639 ], [ -66.164127, -16.984394 ], [ -66.164171, -16.98429 ], [ -66.164169, -16.984244 ], [ -66.164203, -16.984197 ], [ -66.164281, -16.984045 ], [ -66.164302, -16.983953 ], [ -66.164358, -16.98387 ], [ -66.164357, -16.983836 ], [ -66.164402, -16.983754 ], [ -66.164456, -16.983603 ], [ -66.164479, -16.983579 ], [ -66.164524, -16.983498 ], [ -66.164644, -16.983195 ], [ -66.164679, -16.983171 ], [ -66.164701, -16.983125 ], [ -66.164747, -16.983077 ], [ -66.164872, -16.982901 ], [ -66.16493, -16.982842 ], [ -66.164929, -16.98283 ], [ -66.164988, -16.982805 ], [ -66.165022, -16.982758 ], [ -66.165116, -16.98271 ], [ -66.16529, -16.982578 ], [ -66.165477, -16.982457 ], [ -66.165605, -16.982384 ], [ -66.166001, -16.982119 ], [ -66.166141, -16.982011 ], [ -66.166324, -16.98181 ], [ -66.166324, -16.981787 ], [ -66.166347, -16.981763 ], [ -66.166458, -16.981541 ], [ -66.16651, -16.981333 ], [ -66.166547, -16.981033 ], [ -66.166588, -16.98086 ], [ -66.166612, -16.980538 ], [ -66.166643, -16.980387 ], [ -66.166651, -16.980284 ], [ -66.166713, -16.980029 ], [ -66.166769, -16.979924 ], [ -66.166802, -16.979843 ], [ -66.166858, -16.979738 ], [ -66.166913, -16.97961 ], [ -66.167, -16.979366 ], [ -66.167029, -16.979181 ], [ -66.167041, -16.979181 ], [ -66.167031, -16.978906 ], [ -66.167043, -16.978905 ], [ -66.167076, -16.978847 ], [ -66.16712, -16.978731 ], [ -66.167151, -16.978615 ], [ -66.167218, -16.978475 ], [ -66.16725, -16.978382 ], [ -66.167317, -16.978242 ], [ -66.167348, -16.978126 ], [ -66.167415, -16.977998 ], [ -66.167458, -16.97787 ], [ -66.167505, -16.977823 ], [ -66.167607, -16.977693 ], [ -66.167758, -16.977562 ], [ -66.167862, -16.97749 ], [ -66.168015, -16.977405 ], [ -66.168237, -16.977294 ], [ -66.168307, -16.977234 ], [ -66.168377, -16.977209 ], [ -66.168412, -16.977185 ], [ -66.168471, -16.97716 ], [ -66.168494, -16.977137 ], [ -66.168564, -16.9771 ], [ -66.168784, -16.976898 ], [ -66.168852, -16.976815 ], [ -66.168908, -16.976699 ], [ -66.16894, -16.976583 ], [ -66.168945, -16.97641 ], [ -66.168979, -16.976363 ], [ -66.168976, -16.976283 ], [ -66.168985, -16.976179 ], [ -66.168977, -16.975962 ], [ -66.168997, -16.975858 ], [ -66.169005, -16.975766 ], [ -66.169038, -16.975673 ], [ -66.169163, -16.975496 ], [ -66.169196, -16.975426 ], [ -66.169265, -16.975367 ], [ -66.169288, -16.975332 ], [ -66.169461, -16.975177 ], [ -66.169772, -16.974845 ], [ -66.169783, -16.974822 ], [ -66.170081, -16.974503 ], [ -66.170127, -16.974432 ], [ -66.170196, -16.974361 ], [ -66.170241, -16.974302 ], [ -66.17041, -16.97401 ], [ -66.170474, -16.973824 ], [ -66.170472, -16.973767 ], [ -66.170513, -16.97357 ], [ -66.170517, -16.973341 ], [ -66.170553, -16.973018 ], [ -66.170594, -16.972856 ], [ -66.170641, -16.97282 ], [ -66.170663, -16.972785 ], [ -66.170955, -16.972603 ], [ -66.171002, -16.972567 ], [ -66.17113, -16.972494 ], [ -66.171213, -16.972457 ], [ -66.171365, -16.972372 ], [ -66.171446, -16.972312 ], [ -66.171563, -16.972251 ], [ -66.171668, -16.972179 ], [ -66.171829, -16.972024 ], [ -66.171922, -16.971952 ], [ -66.172014, -16.971846 ], [ -66.172116, -16.971705 ], [ -66.172206, -16.971553 ], [ -66.172261, -16.971413 ], [ -66.172294, -16.971355 ], [ -66.172304, -16.971297 ], [ -66.172369, -16.9711 ], [ -66.172367, -16.971066 ], [ -66.172398, -16.970927 ], [ -66.172389, -16.970686 ], [ -66.172423, -16.970616 ], [ -66.172416, -16.970421 ], [ -66.172439, -16.970397 ], [ -66.172488, -16.970109 ], [ -66.172485, -16.97004 ], [ -66.17253, -16.969947 ], [ -66.172598, -16.969864 ], [ -66.172655, -16.96977 ], [ -66.1727, -16.969712 ], [ -66.173047, -16.969413 ], [ -66.173164, -16.969341 ], [ -66.17328, -16.969245 ], [ -66.173432, -16.969149 ], [ -66.173547, -16.969053 ], [ -66.173676, -16.96898 ], [ -66.173792, -16.968896 ], [ -66.173944, -16.968799 ], [ -66.174014, -16.96874 ], [ -66.174025, -16.968739 ], [ -66.174095, -16.968691 ], [ -66.174292, -16.968524 ], [ -66.174316, -16.968523 ], [ -66.174339, -16.968511 ], [ -66.174385, -16.968464 ], [ -66.174978, -16.968008 ], [ -66.175094, -16.967936 ], [ -66.175211, -16.967852 ], [ -66.175304, -16.967803 ], [ -66.175409, -16.96773 ], [ -66.175795, -16.9675 ], [ -66.175993, -16.967367 ], [ -66.176156, -16.96727 ], [ -66.176471, -16.967065 ], [ -66.176787, -16.966905 ], [ -66.177137, -16.966676 ], [ -66.177149, -16.966676 ], [ -66.177242, -16.966615 ], [ -66.177695, -16.966268 ], [ -66.178041, -16.965935 ], [ -66.178247, -16.965699 ], [ -66.178338, -16.96557 ], [ -66.17844, -16.965406 ], [ -66.178493, -16.965232 ], [ -66.178527, -16.965173 ], [ -66.178548, -16.965115 ], [ -66.178579, -16.964977 ], [ -66.178601, -16.96493 ], [ -66.178633, -16.964814 ], [ -66.178629, -16.964711 ], [ -66.178684, -16.964583 ], [ -66.178703, -16.964456 ], [ -66.178726, -16.964421 ], [ -66.178772, -16.964385 ], [ -66.178817, -16.964303 ], [ -66.178989, -16.964091 ], [ -66.179, -16.96409 ], [ -66.178999, -16.964056 ], [ -66.179068, -16.963985 ], [ -66.179068, -16.963974 ], [ -66.17908, -16.963973 ], [ -66.179103, -16.963949 ], [ -66.179209, -16.963912 ], [ -66.179302, -16.963851 ], [ -66.17942, -16.963801 ], [ -66.179595, -16.963704 ], [ -66.179831, -16.963628 ], [ -66.17996, -16.963566 ], [ -66.18009, -16.963539 ], [ -66.180185, -16.963501 ], [ -66.180812, -16.963355 ], [ -66.181416, -16.963244 ], [ -66.18157, -16.963204 ], [ -66.181724, -16.963176 ], [ -66.182268, -16.963021 ], [ -66.182421, -16.962959 ], [ -66.18286, -16.962887 ], [ -66.18313, -16.962787 ], [ -66.183295, -16.962713 ], [ -66.183447, -16.962627 ], [ -66.183678, -16.962425 ], [ -66.183828, -16.962271 ], [ -66.183874, -16.962235 ], [ -66.183975, -16.962048 ], [ -66.184021, -16.962 ], [ -66.18402, -16.961977 ], [ -66.184032, -16.961977 ], [ -66.184077, -16.961895 ], [ -66.184109, -16.961814 ], [ -66.184166, -16.96172 ], [ -66.184285, -16.961395 ], [ -66.184326, -16.961198 ], [ -66.18438, -16.961059 ], [ -66.184386, -16.960898 ], [ -66.184418, -16.960782 ], [ -66.184462, -16.960677 ], [ -66.184481, -16.96055 ], [ -66.184525, -16.960434 ], [ -66.184569, -16.960352 ], [ -66.184613, -16.960236 ], [ -66.184682, -16.960154 ], [ -66.184844, -16.960022 ], [ -66.184891, -16.959998 ], [ -66.184949, -16.95995 ], [ -66.185065, -16.959877 ], [ -66.185216, -16.959758 ], [ -66.185356, -16.959661 ], [ -66.185529, -16.959506 ], [ -66.185714, -16.959328 ], [ -66.185931, -16.959057 ], [ -66.185975, -16.958964 ], [ -66.186032, -16.958882 ], [ -66.186076, -16.958789 ], [ -66.186184, -16.958487 ], [ -66.186227, -16.958347 ], [ -66.186325, -16.95808 ], [ -66.186363, -16.957815 ], [ -66.186346, -16.957356 ], [ -66.186315, -16.957151 ], [ -66.186302, -16.957128 ], [ -66.186293, -16.956876 ], [ -66.186312, -16.956749 ], [ -66.186305, -16.956565 ], [ -66.186323, -16.956404 ], [ -66.18633, -16.956255 ], [ -66.186349, -16.956116 ], [ -66.18641, -16.95585 ], [ -66.186465, -16.955722 ], [ -66.186487, -16.955653 ], [ -66.186578, -16.955523 ], [ -66.186622, -16.95543 ], [ -66.186701, -16.955313 ], [ -66.1867, -16.95529 ], [ -66.186746, -16.955231 ], [ -66.186781, -16.955207 ], [ -66.186872, -16.955078 ], [ -66.187135, -16.954771 ], [ -66.187261, -16.95464 ], [ -66.187295, -16.95457 ], [ -66.18734, -16.954512 ], [ -66.187385, -16.95443 ], [ -66.18742, -16.954394 ], [ -66.187419, -16.954383 ], [ -66.187533, -16.95423 ], [ -66.187577, -16.954125 ], [ -66.187645, -16.954031 ], [ -66.187723, -16.953891 ], [ -66.187815, -16.953773 ], [ -66.187857, -16.953634 ], [ -66.187938, -16.953562 ], [ -66.187971, -16.953469 ], [ -66.188207, -16.953072 ], [ -66.188264, -16.953001 ], [ -66.188308, -16.952908 ], [ -66.188399, -16.952767 ], [ -66.188397, -16.952721 ], [ -66.188442, -16.952651 ], [ -66.18844, -16.952605 ], [ -66.188509, -16.952534 ], [ -66.188655, -16.952276 ], [ -66.188691, -16.952275 ], [ -66.18869, -16.952264 ], [ -66.188725, -16.952228 ], [ -66.188818, -16.952156 ], [ -66.188875, -16.952097 ], [ -66.188899, -16.952096 ], [ -66.189062, -16.951988 ], [ -66.189133, -16.951963 ], [ -66.189169, -16.951961 ], [ -66.189239, -16.951936 ], [ -66.189323, -16.951933 ], [ -66.189523, -16.95187 ], [ -66.189583, -16.951868 ], [ -66.18969, -16.951841 ], [ -66.189748, -16.951816 ], [ -66.189879, -16.951789 ], [ -66.190114, -16.951701 ], [ -66.190255, -16.951628 ], [ -66.190431, -16.951553 ], [ -66.190524, -16.951493 ], [ -66.190618, -16.951444 ], [ -66.190711, -16.951384 ], [ -66.191023, -16.951087 ], [ -66.191136, -16.950934 ], [ -66.191158, -16.950864 ], [ -66.191257, -16.950643 ], [ -66.191339, -16.950284 ], [ -66.191404, -16.950087 ], [ -66.191413, -16.950006 ], [ -66.191456, -16.949879 ], [ -66.191504, -16.949556 ], [ -66.191526, -16.949498 ], [ -66.191525, -16.949475 ], [ -66.191568, -16.949358 ], [ -66.191599, -16.94922 ], [ -66.191633, -16.949184 ], [ -66.191667, -16.949114 ], [ -66.191691, -16.949113 ], [ -66.19169, -16.949102 ], [ -66.191759, -16.949031 ], [ -66.19177, -16.949007 ], [ -66.191921, -16.948888 ], [ -66.192274, -16.94875 ], [ -66.19244, -16.94871 ], [ -66.192924, -16.948568 ], [ -66.193018, -16.948531 ], [ -66.193089, -16.948517 ], [ -66.193195, -16.948479 ], [ -66.1933, -16.948407 ], [ -66.193323, -16.948383 ], [ -66.193405, -16.948335 ], [ -66.193602, -16.948179 ], [ -66.194063, -16.947728 ], [ -66.194131, -16.947646 ], [ -66.194235, -16.947539 ], [ -66.194316, -16.947467 ], [ -66.194684, -16.9471 ], [ -66.194741, -16.947029 ], [ -66.194845, -16.946922 ], [ -66.194901, -16.946829 ], [ -66.195004, -16.946699 ], [ -66.195162, -16.946453 ], [ -66.19523, -16.946359 ], [ -66.195331, -16.946183 ], [ -66.195397, -16.946032 ], [ -66.195519, -16.945787 ], [ -66.195563, -16.945682 ], [ -66.195665, -16.94553 ], [ -66.1958, -16.945296 ], [ -66.195858, -16.945248 ], [ -66.195948, -16.945096 ], [ -66.19604, -16.945001 ], [ -66.196073, -16.944931 ], [ -66.196119, -16.944872 ], [ -66.196163, -16.94479 ], [ -66.196232, -16.944696 ], [ -66.19631, -16.944544 ], [ -66.19632, -16.944498 ], [ -66.196365, -16.944439 ], [ -66.196375, -16.944382 ], [ -66.196407, -16.944277 ], [ -66.196441, -16.944219 ], [ -66.196461, -16.944126 ], [ -66.196495, -16.944068 ], [ -66.196625, -16.943708 ], [ -66.196646, -16.943615 ], [ -66.196744, -16.943382 ], [ -66.196845, -16.943184 ], [ -66.196914, -16.943124 ], [ -66.197062, -16.942924 ], [ -66.197074, -16.942924 ], [ -66.197409, -16.942626 ], [ -66.197616, -16.942413 ], [ -66.197683, -16.942284 ], [ -66.197682, -16.94225 ], [ -66.197704, -16.942215 ], [ -66.197781, -16.942017 ], [ -66.19778, -16.941994 ], [ -66.197813, -16.941936 ], [ -66.197813, -16.941913 ], [ -66.197888, -16.941692 ], [ -66.197886, -16.941646 ], [ -66.197909, -16.941611 ], [ -66.197908, -16.941577 ], [ -66.197941, -16.941518 ], [ -66.19805, -16.941228 ], [ -66.198096, -16.941169 ], [ -66.19814, -16.941064 ], [ -66.198218, -16.940924 ], [ -66.198273, -16.940796 ], [ -66.198352, -16.940678 ], [ -66.198408, -16.940562 ], [ -66.198475, -16.940445 ], [ -66.198589, -16.940292 ], [ -66.198657, -16.940186 ], [ -66.19877, -16.940034 ], [ -66.198838, -16.939928 ], [ -66.198999, -16.939751 ], [ -66.199289, -16.939535 ], [ -66.199441, -16.939449 ], [ -66.199571, -16.939411 ], [ -66.199653, -16.939374 ], [ -66.199782, -16.939301 ], [ -66.199876, -16.939275 ], [ -66.200029, -16.939212 ], [ -66.200536, -16.939047 ], [ -66.200655, -16.93902 ], [ -66.200784, -16.93897 ], [ -66.200902, -16.938943 ], [ -66.201126, -16.938855 ], [ -66.201197, -16.938842 ], [ -66.201279, -16.938793 ], [ -66.201373, -16.938756 ], [ -66.201478, -16.938683 ], [ -66.201595, -16.938622 ], [ -66.201711, -16.938538 ], [ -66.20221, -16.938143 ], [ -66.202209, -16.938132 ], [ -66.202256, -16.938096 ], [ -66.202623, -16.937705 ], [ -66.202669, -16.937635 ], [ -66.20276, -16.937528 ], [ -66.202839, -16.937399 ], [ -66.202973, -16.937143 ], [ -66.203136, -16.936701 ], [ -66.203148, -16.936701 ], [ -66.203147, -16.936678 ], [ -66.203535, -16.935884 ], [ -66.203581, -16.935814 ], [ -66.203625, -16.935721 ], [ -66.203884, -16.935299 ], [ -66.203964, -16.935205 ], [ -66.203996, -16.9351 ], [ -66.204245, -16.934725 ], [ -66.204348, -16.934595 ], [ -66.204573, -16.934244 ], [ -66.204868, -16.933821 ], [ -66.204949, -16.933738 ], [ -66.205028, -16.933632 ], [ -66.205434, -16.933297 ], [ -66.205562, -16.933213 ], [ -66.205655, -16.933141 ], [ -66.20611, -16.932851 ], [ -66.206551, -16.932526 ], [ -66.206644, -16.932443 ], [ -66.206783, -16.932335 ], [ -66.206967, -16.932157 ], [ -66.207128, -16.931968 ], [ -66.207409, -16.931511 ], [ -66.20752, -16.93129 ], [ -66.207552, -16.931185 ], [ -66.207619, -16.931057 ], [ -66.207739, -16.930732 ], [ -66.207781, -16.930592 ], [ -66.207801, -16.930477 ], [ -66.207823, -16.930419 ], [ -66.20783, -16.930292 ], [ -66.207851, -16.9302 ], [ -66.207849, -16.930165 ], [ -66.208023, -16.929701 ], [ -66.208192, -16.929431 ], [ -66.208329, -16.929243 ], [ -66.20842, -16.929137 ], [ -66.208534, -16.928972 ], [ -66.2086, -16.928844 ], [ -66.20868, -16.928726 ], [ -66.208746, -16.928587 ], [ -66.208822, -16.928377 ], [ -66.208841, -16.928239 ], [ -66.208883, -16.928088 ], [ -66.208881, -16.92802 ], [ -66.208902, -16.92795 ], [ -66.2089, -16.927893 ], [ -66.208991, -16.927442 ], [ -66.209033, -16.927303 ], [ -66.209073, -16.927072 ], [ -66.209116, -16.926967 ], [ -66.209147, -16.926817 ], [ -66.209201, -16.926678 ], [ -66.209243, -16.926515 ], [ -66.209342, -16.926271 ], [ -66.209374, -16.926167 ], [ -66.209474, -16.925968 ], [ -66.209609, -16.925746 ], [ -66.209666, -16.925675 ], [ -66.209908, -16.925449 ], [ -66.210024, -16.925354 ], [ -66.210082, -16.925317 ], [ -66.210153, -16.925292 ], [ -66.210211, -16.925256 ], [ -66.210423, -16.925157 ], [ -66.210587, -16.925094 ], [ -66.210681, -16.925045 ], [ -66.210799, -16.924996 ], [ -66.210857, -16.924959 ], [ -66.210928, -16.924934 ], [ -66.211009, -16.924885 ], [ -66.211563, -16.924351 ], [ -66.211745, -16.924115 ], [ -66.211902, -16.923835 ], [ -66.211901, -16.923823 ], [ -66.211925, -16.923811 ], [ -66.211958, -16.923741 ], [ -66.212038, -16.923647 ], [ -66.212037, -16.923612 ], [ -66.212104, -16.923495 ], [ -66.212195, -16.923366 ], [ -66.212283, -16.92318 ], [ -66.212543, -16.922769 ], [ -66.212669, -16.922627 ], [ -66.212931, -16.922286 ], [ -66.213208, -16.922025 ], [ -66.213301, -16.921964 ], [ -66.21337, -16.921904 ], [ -66.213452, -16.921856 ], [ -66.213476, -16.921855 ], [ -66.213535, -16.92183 ], [ -66.213559, -16.921829 ], [ -66.213629, -16.921804 ], [ -66.2137, -16.92179 ], [ -66.214094, -16.921778 ], [ -66.214226, -16.921808 ], [ -66.214393, -16.921802 ], [ -66.214669, -16.921839 ], [ -66.214847, -16.921834 ], [ -66.214919, -16.92182 ], [ -66.215109, -16.921814 ], [ -66.215263, -16.921774 ], [ -66.215333, -16.921738 ], [ -66.21552, -16.921577 ], [ -66.215669, -16.921451 ], [ -66.215668, -16.921428 ], [ -66.215785, -16.921356 ], [ -66.215795, -16.921321 ], [ -66.215842, -16.921296 ], [ -66.215899, -16.921226 ], [ -66.215981, -16.921177 ], [ -66.216085, -16.921093 ], [ -66.216143, -16.921034 ], [ -66.216282, -16.920938 ], [ -66.216365, -16.920912 ], [ -66.216589, -16.920824 ], [ -66.216754, -16.920773 ], [ -66.216897, -16.920769 ], [ -66.217228, -16.920689 ], [ -66.217323, -16.920674 ], [ -66.217429, -16.920625 ], [ -66.217476, -16.920623 ], [ -66.217485, -16.920614 ], [ -66.217787, -16.920087 ], [ -66.21779, -16.920074 ], [ -66.217835, -16.920003 ], [ -66.217789, -16.919571 ], [ -66.220417, -16.917385 ], [ -66.221744, -16.915263 ], [ -66.22226, -16.91496 ], [ -66.222916, -16.91475 ], [ -66.223508, -16.914394 ], [ -66.224293, -16.913712 ], [ -66.22492, -16.912936 ], [ -66.225811, -16.912382 ], [ -66.226971, -16.910188 ], [ -66.228118, -16.908817 ], [ -66.228097, -16.907618 ], [ -66.228696, -16.90654 ], [ -66.229954, -16.905658 ], [ -66.231866, -16.904695 ], [ -66.232329, -16.903834 ], [ -66.232278, -16.902663 ], [ -66.233257, -16.900378 ], [ -66.234722, -16.898642 ], [ -66.236435, -16.895956 ], [ -66.238127, -16.895073 ], [ -66.240385, -16.894488 ], [ -66.242508, -16.893999 ], [ -66.24382, -16.893823 ], [ -66.246645, -16.891208 ], [ -66.249999, -16.889215 ], [ -66.250512, -16.888542 ], [ -66.2523, -16.888016 ], [ -66.25444, -16.886298 ], [ -66.256399, -16.885548 ], [ -66.257062, -16.884412 ], [ -66.257476, -16.885073 ], [ -66.258312, -16.885343 ], [ -66.25986, -16.885267 ], [ -66.262685, -16.88524 ], [ -66.264136, -16.884903 ], [ -66.265938, -16.883469 ], [ -66.270101, -16.881581 ], [ -66.273222, -16.879336 ], [ -66.289215, -16.857339 ], [ -66.290137, -16.85663 ], [ -66.290978, -16.857049 ], [ -66.291973, -16.858098 ], [ -66.292919, -16.857985 ], [ -66.294363, -16.85725 ], [ -66.295708, -16.856546 ], [ -66.296207, -16.8558 ], [ -66.296287, -16.854765 ], [ -66.296348, -16.852788 ], [ -66.296035, -16.851874 ], [ -66.29566, -16.850739 ], [ -66.296098, -16.849741 ], [ -66.298004, -16.848553 ], [ -66.299238, -16.847934 ], [ -66.300523, -16.847678 ], [ -66.3014, -16.846981 ], [ -66.302225, -16.845921 ], [ -66.302746, -16.845074 ], [ -66.302515, -16.844072 ], [ -66.302416, -16.843072 ], [ -66.302726, -16.842476 ], [ -66.303639, -16.841925 ], [ -66.303833, -16.841309 ], [ -66.303979, -16.840567 ], [ -66.304265, -16.840174 ], [ -66.305131, -16.840001 ], [ -66.306195, -16.839337 ], [ -66.307808, -16.838402 ], [ -66.308429, -16.837424 ], [ -66.308675, -16.835887 ], [ -66.30898, -16.834894 ], [ -66.30953, -16.833956 ], [ -66.310947, -16.833243 ], [ -66.311547, -16.832662 ], [ -66.311652, -16.831772 ], [ -66.311377, -16.830324 ], [ -66.311645, -16.828347 ], [ -66.311008, -16.826571 ], [ -66.310953, -16.824963 ], [ -66.311167, -16.823491 ], [ -66.311246, -16.822089 ], [ -66.311312, -16.820831 ], [ -66.311512, -16.820201 ], [ -66.311974, -16.819489 ], [ -66.311937, -16.818818 ], [ -66.311529, -16.818143 ], [ -66.311244, -16.817022 ], [ -66.311345, -16.816398 ], [ -66.31173, -16.81542 ], [ -66.310948, -16.81331 ], [ -66.311528, -16.812015 ], [ -66.31285, -16.810273 ], [ -66.312473, -16.808275 ], [ -66.311741, -16.805569 ], [ -66.310848, -16.802743 ], [ -66.309421, -16.799774 ], [ -66.309379, -16.79745 ], [ -66.308368, -16.794314 ], [ -66.308558, -16.791558 ], [ -66.306872, -16.788268 ], [ -66.305764, -16.782996 ], [ -66.303385, -16.781142 ], [ -66.302762, -16.780477 ], [ -66.30242, -16.77944 ], [ -66.302049, -16.77893 ], [ -66.300293, -16.777696 ], [ -66.29919, -16.777302 ], [ -66.297614, -16.777281 ], [ -66.297101, -16.776989 ], [ -66.29556, -16.776162 ], [ -66.294824, -16.775986 ], [ -66.293817, -16.776319 ], [ -66.293077, -16.776672 ], [ -66.29188, -16.776623 ], [ -66.290807, -16.776329 ], [ -66.289873, -16.775789 ], [ -66.289405, -16.775074 ], [ -66.288813, -16.774571 ], [ -66.287582, -16.774522 ], [ -66.286768, -16.774049 ], [ -66.285777, -16.772543 ], [ -66.285551, -16.771774 ], [ -66.284969, -16.771186 ], [ -66.28259, -16.771155 ], [ -66.28124, -16.770795 ], [ -66.279213, -16.770087 ], [ -66.278658, -16.769659 ], [ -66.278296, -16.768873 ], [ -66.278224, -16.76809 ], [ -66.277701, -16.766841 ], [ -66.276587, -16.766246 ], [ -66.276039, -16.765377 ], [ -66.275588, -16.76489 ], [ -66.273793, -16.764025 ], [ -66.272653, -16.762886 ], [ -66.271033, -16.761366 ], [ -66.270217, -16.760988 ], [ -66.267842, -16.761013 ], [ -66.266672, -16.760856 ], [ -66.264248, -16.760202 ], [ -66.262959, -16.760157 ], [ -66.261416, -16.760473 ], [ -66.260276, -16.760419 ], [ -66.258978, -16.760107 ], [ -66.257768, -16.760699 ], [ -66.256913, -16.760688 ], [ -66.256219, -16.760836 ], [ -66.255542, -16.76118 ], [ -66.254701, -16.76162 ], [ -66.254388, -16.762146 ], [ -66.253529, -16.762468 ], [ -66.2517, -16.762904 ], [ -66.250522, -16.762888 ], [ -66.249045, -16.7632 ], [ -66.248099, -16.763471 ], [ -66.247528, -16.763725 ], [ -66.246809, -16.764265 ], [ -66.246061, -16.764817 ], [ -66.245257, -16.765246 ], [ -66.244789, -16.765756 ], [ -66.244564, -16.766031 ], [ -66.244308, -16.766275 ], [ -66.242916, -16.766789 ], [ -66.241889, -16.767145 ], [ -66.240639, -16.767797 ], [ -66.240182, -16.767843 ], [ -66.238517, -16.768155 ], [ -66.237359, -16.768756 ], [ -66.236162, -16.769489 ], [ -66.234896, -16.771056 ], [ -66.234231, -16.772051 ], [ -66.233707, -16.772594 ], [ -66.23342, -16.772786 ], [ -66.233167, -16.772764 ], [ -66.231315, -16.772317 ], [ -66.230119, -16.772241 ], [ -66.229264, -16.772001 ], [ -66.228473, -16.77171 ], [ -66.227505, -16.771519 ], [ -66.22658, -16.771595 ], [ -66.224521, -16.771185 ], [ -66.223261, -16.770612 ], [ -66.220782, -16.770616 ], [ -66.217794, -16.770001 ], [ -66.216957, -16.769935 ], [ -66.216178, -16.770109 ], [ -66.215803, -16.770446 ], [ -66.215614, -16.770518 ], [ -66.214782, -16.770662 ], [ -66.214266, -16.770716 ], [ -66.214088, -16.77069 ], [ -66.212638, -16.770242 ], [ -66.211462, -16.770076 ], [ -66.210811, -16.770123 ], [ -66.208998, -16.770857 ], [ -66.207307, -16.771862 ], [ -66.20575, -16.772404 ], [ -66.204159, -16.773558 ], [ -66.203219, -16.773594 ], [ -66.199924, -16.773157 ], [ -66.197027, -16.772631 ], [ -66.195368, -16.772219 ], [ -66.194489, -16.772054 ], [ -66.193874, -16.772211 ], [ -66.193426, -16.772736 ], [ -66.192674, -16.773311 ], [ -66.190966, -16.77387 ], [ -66.188227, -16.774545 ], [ -66.186969, -16.774894 ], [ -66.184723, -16.773914 ], [ -66.183742, -16.773707 ], [ -66.181902, -16.77256 ], [ -66.18082, -16.77175 ], [ -66.179493, -16.770191 ], [ -66.178137, -16.768711 ], [ -66.176963, -16.768004 ], [ -66.175067, -16.76766 ], [ -66.174689, -16.767123 ], [ -66.175012, -16.765773 ], [ -66.174619, -16.764412 ], [ -66.173197, -16.763676 ], [ -66.170885, -16.763511 ], [ -66.167226, -16.763228 ], [ -66.169126, -16.759356 ], [ -66.171023, -16.755415 ], [ -66.171272, -16.753393 ], [ -66.170677, -16.752203 ], [ -66.170554, -16.750939 ], [ -66.170416, -16.749936 ], [ -66.169057, -16.74767 ], [ -66.168896, -16.746545 ], [ -66.169585, -16.744503 ], [ -66.169369, -16.740999 ], [ -66.169861, -16.73743 ], [ -66.170253, -16.736439 ], [ -66.171089, -16.736205 ], [ -66.172736, -16.735916 ], [ -66.173809, -16.735328 ], [ -66.174383, -16.73402 ], [ -66.174303, -16.733171 ], [ -66.174158, -16.732031 ], [ -66.174411, -16.730607 ], [ -66.175122, -16.729457 ], [ -66.175575, -16.728337 ], [ -66.175495, -16.726806 ], [ -66.175038, -16.725722 ], [ -66.174017, -16.724639 ], [ -66.173814, -16.724137 ], [ -66.173825, -16.723822 ], [ -66.173984, -16.723146 ], [ -66.174189, -16.723009 ], [ -66.174085, -16.721326 ], [ -66.173116, -16.719133 ], [ -66.17211, -16.717282 ], [ -66.172006, -16.715599 ], [ -66.17273, -16.714644 ], [ -66.172876, -16.713525 ], [ -66.17181, -16.711849 ], [ -66.17029, -16.709624 ], [ -66.17031, -16.708263 ], [ -66.17152, -16.706619 ], [ -66.172782, -16.705221 ], [ -66.173391, -16.702235 ], [ -66.17449, -16.701379 ], [ -66.174906, -16.700785 ], [ -66.17533, -16.699634 ], [ -66.175299, -16.698827 ], [ -66.174963, -16.69688 ], [ -66.175141, -16.694776 ], [ -66.176633, -16.691501 ], [ -66.176695, -16.689668 ], [ -66.177285, -16.687909 ], [ -66.178177, -16.687072 ], [ -66.178734, -16.684703 ], [ -66.179486, -16.683474 ], [ -66.180164, -16.68309 ], [ -66.180912, -16.682137 ], [ -66.18148, -16.680946 ], [ -66.181589, -16.679641 ], [ -66.181367, -16.678835 ], [ -66.18088, -16.678283 ], [ -66.180098, -16.677669 ], [ -66.179937, -16.676586 ], [ -66.179342, -16.675335 ], [ -66.177627, -16.674156 ], [ -66.177281, -16.673551 ], [ -66.177334, -16.672952 ], [ -66.178059, -16.671998 ], [ -66.177942, -16.670862 ], [ -66.177129, -16.670251 ], [ -66.174989, -16.668663 ], [ -66.173693, -16.668107 ], [ -66.172377, -16.666831 ], [ -66.172151, -16.666438 ], [ -66.172119, -16.66533 ], [ -66.173106, -16.663666 ], [ -66.174789, -16.66321 ], [ -66.176854, -16.66219 ], [ -66.179206, -16.660545 ], [ -66.180375, -16.658629 ], [ -66.179761, -16.656637 ], [ -66.179533, -16.65465 ], [ -66.179869, -16.652175 ], [ -66.179507, -16.6506 ], [ -66.17828, -16.64955 ], [ -66.178007, -16.647728 ], [ -66.179444, -16.644789 ], [ -66.18032, -16.642552 ], [ -66.180287, -16.641356 ], [ -66.179866, -16.639676 ], [ -66.180304, -16.637934 ], [ -66.182308, -16.634735 ], [ -66.184362, -16.633739 ], [ -66.186632, -16.629126 ], [ -66.189846, -16.626966 ], [ -66.190513, -16.620364 ], [ -66.190964, -16.618416 ], [ -66.189356, -16.617301 ], [ -66.188251, -16.615354 ], [ -66.188255, -16.612512 ], [ -66.188753, -16.611302 ], [ -66.188982, -16.610015 ], [ -66.189049, -16.609003 ], [ -66.188541, -16.607807 ], [ -66.188608, -16.605547 ], [ -66.188703, -16.604461 ], [ -66.187304, -16.601784 ], [ -66.186305, -16.601033 ], [ -66.184389, -16.600239 ], [ -66.182814, -16.599095 ], [ -66.180043, -16.598172 ], [ -66.177478, -16.597783 ], [ -66.174972, -16.597542 ], [ -66.172655, -16.597009 ], [ -66.170577, -16.595037 ], [ -66.169153, -16.595051 ], [ -66.168225, -16.594435 ], [ -66.16713, -16.593349 ], [ -66.165938, -16.591792 ], [ -66.165737, -16.590614 ], [ -66.165881, -16.589008 ], [ -66.165729, -16.588463 ], [ -66.164516, -16.587574 ], [ -66.163684, -16.586807 ], [ -66.163219, -16.585638 ], [ -66.162844, -16.585206 ], [ -66.161249, -16.58437 ], [ -66.160137, -16.58325 ], [ -66.159155, -16.577859 ], [ -66.157291, -16.575886 ], [ -66.15637, -16.574095 ], [ -66.15405, -16.571713 ], [ -66.152169, -16.570281 ], [ -66.151308, -16.569635 ], [ -66.15068, -16.568803 ], [ -66.149374, -16.568184 ], [ -66.148399, -16.567413 ], [ -66.147142, -16.566005 ], [ -66.146414, -16.564256 ], [ -66.144939, -16.562118 ], [ -66.142966, -16.560384 ], [ -66.140491, -16.559061 ], [ -66.113714, -16.534419 ], [ -66.02651, -16.608419 ] ] ] ] } }
]
}
