{
"type": "FeatureCollection",
"name": "CUCHUMUELA_(V",
"crs": { "type": "name", "properties": { "name": "urn:ogc:def:crs:OGC:1.3:CRS84" } },
"bbox": [ -65.860783, -17.746418, -65.723777, -17.631924 ],                                                                        
"features": [
{ "type": "Feature", "properties": { "NOMBRE": "Cuchumuela (V. G.Villarroel)", "NIVEL": "Municipios", "PROVINCIA": "Punata", "REGION": "Valles", "DEPARTAMENTO": "Cochabamba" }, "bbox": [ -65.860783, -17.746418, -65.723777, -17.631924 ], "geometry": { "type": "MultiPolygon", "coordinates": [ [ [ [ -65.754018, -17.636676 ], [ -65.744978, -17.645432 ], [ -65.734494, -17.666177 ], [ -65.733898, -17.670174 ], [ -65.729734, -17.703962 ], [ -65.731613, -17.723859 ], [ -65.724732, -17.736788 ], [ -65.723777, -17.738456 ], [ -65.724071, -17.738572 ], [ -65.741104, -17.746418 ], [ -65.755192, -17.730334 ], [ -65.765599, -17.738107 ], [ -65.780507, -17.739393 ], [ -65.782148, -17.739534 ], [ -65.779694, -17.726185 ], [ -65.779531, -17.725298 ], [ -65.7841, -17.714009 ], [ -65.766845, -17.696325 ], [ -65.761031, -17.688719 ], [ -65.772387, -17.681924 ], [ -65.787436, -17.679023 ], [ -65.796973, -17.680794 ], [ -65.807333, -17.678056 ], [ -65.815866, -17.682431 ], [ -65.825098, -17.695203 ], [ -65.839218, -17.708769 ], [ -65.844645, -17.710157 ], [ -65.860783, -17.709325 ], [ -65.860759, -17.709304 ], [ -65.860061, -17.708155 ], [ -65.859852, -17.707852 ], [ -65.859307, -17.707063 ], [ -65.859608, -17.705724 ], [ -65.859309, -17.705054 ], [ -65.858411, -17.704479 ], [ -65.857512, -17.704191 ], [ -65.856813, -17.703904 ], [ -65.856614, -17.703425 ], [ -65.856914, -17.702755 ], [ -65.857114, -17.702181 ], [ -65.857115, -17.701416 ], [ -65.856616, -17.701128 ], [ -65.856616, -17.70065 ], [ -65.856716, -17.700076 ], [ -65.856417, -17.699788 ], [ -65.856417, -17.69931 ], [ -65.856418, -17.698832 ], [ -65.855819, -17.697778 ], [ -65.85582, -17.697109 ], [ -65.85572, -17.696534 ], [ -65.855821, -17.695769 ], [ -65.855821, -17.694908 ], [ -65.855423, -17.69395 ], [ -65.855423, -17.693568 ], [ -65.855224, -17.692132 ], [ -65.854526, -17.69127 ], [ -65.854527, -17.690313 ], [ -65.854428, -17.689548 ], [ -65.85323, -17.688973 ], [ -65.852432, -17.688685 ], [ -65.851733, -17.687919 ], [ -65.850335, -17.688014 ], [ -65.849138, -17.687534 ], [ -65.84834, -17.686768 ], [ -65.84854, -17.685811 ], [ -65.848541, -17.685046 ], [ -65.848142, -17.684663 ], [ -65.848542, -17.683706 ], [ -65.848642, -17.68361 ], [ -65.848642, -17.683515 ], [ -65.847744, -17.682748 ], [ -65.847844, -17.682079 ], [ -65.847745, -17.681217 ], [ -65.847746, -17.680165 ], [ -65.847047, -17.679686 ], [ -65.84535, -17.679876 ], [ -65.844851, -17.67978 ], [ -65.844751, -17.679684 ], [ -65.843753, -17.679875 ], [ -65.843254, -17.679779 ], [ -65.843055, -17.678917 ], [ -65.843055, -17.678821 ], [ -65.843255, -17.678152 ], [ -65.843655, -17.677673 ], [ -65.843755, -17.677099 ], [ -65.843656, -17.676334 ], [ -65.843556, -17.676334 ], [ -65.843456, -17.676333 ], [ -65.843456, -17.676238 ], [ -65.842957, -17.675855 ], [ -65.843058, -17.675089 ], [ -65.842759, -17.67461 ], [ -65.842261, -17.673366 ], [ -65.841364, -17.671738 ], [ -65.841165, -17.670494 ], [ -65.841066, -17.669346 ], [ -65.841067, -17.668389 ], [ -65.840569, -17.667336 ], [ -65.839471, -17.666856 ], [ -65.838173, -17.666855 ], [ -65.837175, -17.667141 ], [ -65.836276, -17.667045 ], [ -65.836277, -17.666949 ], [ -65.836177, -17.666949 ], [ -65.835279, -17.666279 ], [ -65.83502, -17.666065 ], [ -65.83499, -17.666041 ], [ -65.834581, -17.665704 ], [ -65.834382, -17.664842 ], [ -65.834382, -17.664747 ], [ -65.834382, -17.664651 ], [ -65.834383, -17.663694 ], [ -65.834383, -17.662928 ], [ -65.834384, -17.662067 ], [ -65.833785, -17.661875 ], [ -65.832787, -17.662161 ], [ -65.831689, -17.662161 ], [ -65.831489, -17.662065 ], [ -65.831389, -17.662065 ], [ -65.830492, -17.660915 ], [ -65.830294, -17.659384 ], [ -65.829396, -17.659096 ], [ -65.828597, -17.658713 ], [ -65.827699, -17.658329 ], [ -65.826802, -17.657563 ], [ -65.826703, -17.656701 ], [ -65.825904, -17.656414 ], [ -65.824607, -17.656412 ], [ -65.823409, -17.656411 ], [ -65.822511, -17.655836 ], [ -65.822112, -17.65507 ], [ -65.822013, -17.654209 ], [ -65.822014, -17.653156 ], [ -65.821616, -17.65239 ], [ -65.820917, -17.652007 ], [ -65.820818, -17.652007 ], [ -65.820718, -17.651719 ], [ -65.82022, -17.650953 ], [ -65.81982, -17.650953 ], [ -65.819122, -17.650761 ], [ -65.818623, -17.650282 ], [ -65.818424, -17.649612 ], [ -65.818125, -17.649325 ], [ -65.817726, -17.649324 ], [ -65.817534, -17.649354 ], [ -65.817337, -17.65042 ], [ -65.816987, -17.651089 ], [ -65.817249, -17.651759 ], [ -65.817421, -17.653937 ], [ -65.817245, -17.655193 ], [ -65.816633, -17.655611 ], [ -65.816546, -17.655611 ], [ -65.815585, -17.655359 ], [ -65.814799, -17.655274 ], [ -65.814188, -17.655274 ], [ -65.813227, -17.655524 ], [ -65.812615, -17.655524 ], [ -65.812092, -17.655272 ], [ -65.811568, -17.654936 ], [ -65.811044, -17.654768 ], [ -65.810432, -17.654935 ], [ -65.809909, -17.654349 ], [ -65.809385, -17.654264 ], [ -65.809035, -17.654515 ], [ -65.808948, -17.65485 ], [ -65.809209, -17.655604 ], [ -65.809383, -17.656358 ], [ -65.80912, -17.657446 ], [ -65.809032, -17.657949 ], [ -65.808594, -17.658534 ], [ -65.807895, -17.658869 ], [ -65.807982, -17.659455 ], [ -65.807894, -17.660125 ], [ -65.807631, -17.660627 ], [ -65.807543, -17.661297 ], [ -65.807019, -17.661883 ], [ -65.805097, -17.66163 ], [ -65.803786, -17.662466 ], [ -65.802737, -17.662967 ], [ -65.801689, -17.662799 ], [ -65.801166, -17.662463 ], [ -65.800992, -17.661374 ], [ -65.800905, -17.661374 ], [ -65.800032, -17.660955 ], [ -65.799158, -17.660786 ], [ -65.799159, -17.659698 ], [ -65.79916, -17.659614 ], [ -65.799072, -17.659614 ], [ -65.799072, -17.65953 ], [ -65.798985, -17.65953 ], [ -65.7982, -17.658524 ], [ -65.798201, -17.657687 ], [ -65.797852, -17.656765 ], [ -65.797067, -17.656178 ], [ -65.796981, -17.655006 ], [ -65.796545, -17.654335 ], [ -65.795497, -17.653664 ], [ -65.795324, -17.652827 ], [ -65.794538, -17.652324 ], [ -65.794538, -17.65224 ], [ -65.794102, -17.651486 ], [ -65.793666, -17.650899 ], [ -65.793409, -17.650145 ], [ -65.792885, -17.650061 ], [ -65.792361, -17.649641 ], [ -65.79175, -17.649473 ], [ -65.790964, -17.649473 ], [ -65.789828, -17.649806 ], [ -65.789391, -17.650057 ], [ -65.788429, -17.65081 ], [ -65.787206, -17.65106 ], [ -65.786419, -17.651561 ], [ -65.786157, -17.65198 ], [ -65.785283, -17.651895 ], [ -65.784584, -17.652229 ], [ -65.784234, -17.652564 ], [ -65.783884, -17.653066 ], [ -65.78336, -17.653484 ], [ -65.782661, -17.653651 ], [ -65.782049, -17.653734 ], [ -65.781438, -17.653482 ], [ -65.781177, -17.652644 ], [ -65.780216, -17.652643 ], [ -65.779255, -17.652726 ], [ -65.778643, -17.653312 ], [ -65.778556, -17.653311 ], [ -65.778032, -17.653311 ], [ -65.777595, -17.652808 ], [ -65.777596, -17.652724 ], [ -65.777858, -17.652222 ], [ -65.777946, -17.652222 ], [ -65.777859, -17.651552 ], [ -65.777336, -17.651049 ], [ -65.777074, -17.650546 ], [ -65.777424, -17.650128 ], [ -65.777251, -17.648955 ], [ -65.777339, -17.648285 ], [ -65.776728, -17.648033 ], [ -65.776378, -17.648619 ], [ -65.775854, -17.648619 ], [ -65.775766, -17.649121 ], [ -65.775503, -17.649456 ], [ -65.775066, -17.649539 ], [ -65.774891, -17.649874 ], [ -65.774978, -17.65046 ], [ -65.774453, -17.650962 ], [ -65.774278, -17.65138 ], [ -65.773929, -17.65138 ], [ -65.773318, -17.650877 ], [ -65.772619, -17.650876 ], [ -65.772008, -17.650205 ], [ -65.77096, -17.650204 ], [ -65.770261, -17.650203 ], [ -65.770174, -17.650203 ], [ -65.770087, -17.650203 ], [ -65.769651, -17.649533 ], [ -65.769651, -17.649449 ], [ -65.769389, -17.649114 ], [ -65.769303, -17.64836 ], [ -65.768256, -17.647102 ], [ -65.767908, -17.646348 ], [ -65.767996, -17.645595 ], [ -65.768608, -17.645344 ], [ -65.769045, -17.644926 ], [ -65.769046, -17.644423 ], [ -65.768784, -17.643753 ], [ -65.768873, -17.642999 ], [ -65.769135, -17.642497 ], [ -65.769224, -17.641827 ], [ -65.768875, -17.641408 ], [ -65.768089, -17.641407 ], [ -65.767915, -17.640737 ], [ -65.767916, -17.639983 ], [ -65.767829, -17.6399 ], [ -65.76748, -17.639397 ], [ -65.76748, -17.638978 ], [ -65.767394, -17.638392 ], [ -65.767133, -17.63747 ], [ -65.767309, -17.636717 ], [ -65.767921, -17.63588 ], [ -65.767921, -17.635629 ], [ -65.768061, -17.635492 ], [ -65.766314, -17.631924 ], [ -65.754018, -17.636676 ] ] ] ] } }
]
}
