{
"type": "FeatureCollection",
"name": "ENTRE_RIOS",
"crs": { "type": "name", "properties": { "name": "urn:ogc:def:crs:OGC:1.3:CRS84" } },
"bbox": [ -64.905766, -17.635219, -64.188284, -17.001906 ],                                                                        
"features": [
{ "type": "Feature", "properties": { "NOMBRE": "Entre Rios", "NIVEL": "Municipios", "PROVINCIA": "Carrasco", "REGION": "Tropico", "DEPARTAMENTO": "Cochabamba" }, "bbox": [ -64.905766, -17.635219, -64.188284, -17.001906 ], "geometry": { "type": "MultiPolygon", "coordinates": [ [ [ [ -64.588726, -17.600564 ], [ -64.588433, -17.600612 ], [ -64.589366, -17.600054 ], [ -64.590034, -17.599602 ], [ -64.590803, -17.598952 ], [ -64.591213, -17.598552 ], [ -64.591725, -17.597953 ], [ -64.592337, -17.597006 ], [ -64.592946, -17.595713 ], [ -64.593348, -17.59447 ], [ -64.593752, -17.593376 ], [ -64.594365, -17.592529 ], [ -64.594878, -17.592079 ], [ -64.595752, -17.591626 ], [ -64.596576, -17.591322 ], [ -64.597298, -17.591068 ], [ -64.597863, -17.590766 ], [ -64.598325, -17.590316 ], [ -64.598578, -17.589769 ], [ -64.598572, -17.589075 ], [ -64.598362, -17.58868 ], [ -64.598356, -17.587986 ], [ -64.598711, -17.58729 ], [ -64.598862, -17.586743 ], [ -64.599063, -17.586147 ], [ -64.599215, -17.585798 ], [ -64.599002, -17.585106 ], [ -64.598839, -17.584116 ], [ -64.598881, -17.583075 ], [ -64.599076, -17.581735 ], [ -64.599065, -17.580447 ], [ -64.598799, -17.579656 ], [ -64.598632, -17.578269 ], [ -64.598677, -17.577476 ], [ -64.599106, -17.576806 ], [ -64.599129, -17.575985 ], [ -64.599124, -17.575391 ], [ -64.599117, -17.574647 ], [ -64.599266, -17.574002 ], [ -64.599461, -17.572662 ], [ -64.599815, -17.571767 ], [ -64.600067, -17.571021 ], [ -64.600526, -17.570324 ], [ -64.601085, -17.569229 ], [ -64.601488, -17.568135 ], [ -64.60179, -17.567141 ], [ -64.6023, -17.566443 ], [ -64.602552, -17.565648 ], [ -64.602804, -17.564952 ], [ -64.60285, -17.564307 ], [ -64.60274, -17.563515 ], [ -64.602577, -17.562674 ], [ -64.602364, -17.561982 ], [ -64.60241, -17.561238 ], [ -64.602556, -17.560245 ], [ -64.602427, -17.558509 ], [ -64.602535, -17.557916 ], [ -64.602943, -17.557318 ], [ -64.603352, -17.55677 ], [ -64.604069, -17.55602 ], [ -64.604737, -17.555618 ], [ -64.605506, -17.554968 ], [ -64.605861, -17.554172 ], [ -64.606214, -17.553227 ], [ -64.60631, -17.552334 ], [ -64.606302, -17.551492 ], [ -64.606554, -17.550746 ], [ -64.606963, -17.550297 ], [ -64.607529, -17.549995 ], [ -64.608098, -17.55004 ], [ -64.608718, -17.550035 ], [ -64.609182, -17.549981 ], [ -64.609751, -17.550026 ], [ -64.610479, -17.550566 ], [ -64.61095, -17.551206 ], [ -64.611422, -17.552045 ], [ -64.611897, -17.553131 ], [ -64.612211, -17.553625 ], [ -64.613041, -17.553965 ], [ -64.614231, -17.554153 ], [ -64.61599, -17.554337 ], [ -64.618522, -17.554416 ], [ -64.620623, -17.554484 ], [ -64.621929, -17.55409 ], [ -64.622752, -17.553687 ], [ -64.623526, -17.553582 ], [ -64.624297, -17.553129 ], [ -64.624913, -17.552579 ], [ -64.625165, -17.551883 ], [ -64.625573, -17.551285 ], [ -64.625772, -17.55049 ], [ -64.62613, -17.549992 ], [ -64.626488, -17.549592 ], [ -64.628085, -17.549133 ], [ -64.62891, -17.548878 ], [ -64.629987, -17.548076 ], [ -64.631171, -17.547571 ], [ -64.631993, -17.54697 ], [ -64.632714, -17.546765 ], [ -64.633716, -17.547084 ], [ -64.634314, -17.546603 ], [ -64.635085, -17.546151 ], [ -64.636216, -17.545448 ], [ -64.637244, -17.544944 ], [ -64.638169, -17.544341 ], [ -64.638682, -17.54399 ], [ -64.639706, -17.542941 ], [ -64.6399, -17.541502 ], [ -64.639891, -17.54051 ], [ -64.639717, -17.538331 ], [ -64.639919, -17.537883 ], [ -64.640743, -17.537579 ], [ -64.641826, -17.537372 ], [ -64.642391, -17.536971 ], [ -64.64285, -17.536372 ], [ -64.643311, -17.535873 ], [ -64.643877, -17.53567 ], [ -64.644752, -17.535315 ], [ -64.645269, -17.535361 ], [ -64.6462, -17.535403 ], [ -64.646976, -17.535495 ], [ -64.647439, -17.535293 ], [ -64.647796, -17.534795 ], [ -64.648307, -17.534146 ], [ -64.648406, -17.533749 ], [ -64.648142, -17.533057 ], [ -64.64783, -17.532812 ], [ -64.647723, -17.532466 ], [ -64.647875, -17.532117 ], [ -64.647869, -17.531424 ], [ -64.647808, -17.530433 ], [ -64.647637, -17.52865 ], [ -64.647571, -17.527015 ], [ -64.647717, -17.526072 ], [ -64.648022, -17.525524 ], [ -64.648637, -17.524974 ], [ -64.649305, -17.524572 ], [ -64.65013, -17.524367 ], [ -64.650854, -17.524509 ], [ -64.651736, -17.524899 ], [ -64.652809, -17.525358 ], [ -64.653342, -17.52543 ], [ -64.65391, -17.525426 ], [ -64.654269, -17.525125 ], [ -64.654369, -17.524678 ], [ -64.654726, -17.52418 ], [ -64.655291, -17.523878 ], [ -64.655469, -17.523646 ], [ -64.655598, -17.523479 ], [ -64.656313, -17.52258 ], [ -64.656669, -17.521983 ], [ -64.656817, -17.521188 ], [ -64.656755, -17.520049 ], [ -64.656277, -17.518616 ], [ -64.656012, -17.517924 ], [ -64.65554, -17.517085 ], [ -64.655018, -17.516544 ], [ -64.654962, -17.516099 ], [ -64.655061, -17.515602 ], [ -64.655213, -17.515205 ], [ -64.65552, -17.514905 ], [ -64.656087, -17.514801 ], [ -64.656602, -17.514648 ], [ -64.657171, -17.514693 ], [ -64.657843, -17.514736 ], [ -64.658464, -17.51488 ], [ -64.659083, -17.514776 ], [ -64.659442, -17.514525 ], [ -64.65949, -17.514128 ], [ -64.659228, -17.513684 ], [ -64.658914, -17.513241 ], [ -64.658652, -17.512797 ], [ -64.658439, -17.512154 ], [ -64.658123, -17.511463 ], [ -64.657757, -17.51102 ], [ -64.656767, -17.509987 ], [ -64.65624, -17.508852 ], [ -64.656026, -17.50806 ], [ -64.656176, -17.507514 ], [ -64.656432, -17.507215 ], [ -64.656994, -17.506615 ], [ -64.657456, -17.506215 ], [ -64.658481, -17.505413 ], [ -64.659249, -17.504663 ], [ -64.659348, -17.504167 ], [ -64.659288, -17.503226 ], [ -64.659333, -17.502531 ], [ -64.659526, -17.500944 ], [ -64.659515, -17.499804 ], [ -64.659607, -17.498514 ], [ -64.659856, -17.497521 ], [ -64.66026, -17.496477 ], [ -64.660766, -17.495382 ], [ -64.660964, -17.494389 ], [ -64.660853, -17.493597 ], [ -64.660643, -17.493202 ], [ -64.659811, -17.492565 ], [ -64.659035, -17.492423 ], [ -64.658261, -17.492528 ], [ -64.657541, -17.492832 ], [ -64.656819, -17.492986 ], [ -64.655582, -17.493245 ], [ -64.654756, -17.493351 ], [ -64.654136, -17.493257 ], [ -64.653719, -17.492814 ], [ -64.653509, -17.492123 ], [ -64.653841, -17.490867 ], [ -64.654245, -17.489874 ], [ -64.654583, -17.489211 ], [ -64.655468, -17.488214 ], [ -64.656759, -17.48662 ], [ -64.657437, -17.485493 ], [ -64.6575, -17.484898 ], [ -64.657605, -17.48303 ], [ -64.657477, -17.482118 ], [ -64.657563, -17.480642 ], [ -64.657795, -17.478974 ], [ -64.658039, -17.478496 ], [ -64.659025, -17.477869 ], [ -64.66006, -17.477099 ], [ -64.660894, -17.47614 ], [ -64.661138, -17.47571 ], [ -64.661576, -17.474707 ], [ -64.661912, -17.473514 ], [ -64.662247, -17.472226 ], [ -64.662682, -17.470985 ], [ -64.663024, -17.470411 ], [ -64.663368, -17.470075 ], [ -64.66411, -17.469783 ], [ -64.664849, -17.469253 ], [ -64.665486, -17.468391 ], [ -64.666212, -17.466481 ], [ -64.666844, -17.465096 ], [ -64.66723, -17.464652 ], [ -64.668625, -17.464557 ], [ -64.669664, -17.464358 ], [ -64.670603, -17.463969 ], [ -64.671788, -17.463388 ], [ -64.672678, -17.463048 ], [ -64.673817, -17.462895 ], [ -64.675846, -17.462497 ], [ -64.678175, -17.46224 ], [ -64.67877, -17.462282 ], [ -64.679763, -17.462369 ], [ -64.6811, -17.462167 ], [ -64.682038, -17.461684 ], [ -64.682677, -17.461107 ], [ -64.683118, -17.460485 ], [ -64.683459, -17.459815 ], [ -64.683948, -17.45905 ], [ -64.684682, -17.458044 ], [ -64.685369, -17.457229 ], [ -64.686205, -17.45646 ], [ -64.686992, -17.45574 ], [ -64.687759, -17.455175 ], [ -64.688217, -17.454206 ], [ -64.688458, -17.453443 ], [ -64.688553, -17.452918 ], [ -64.688544, -17.451967 ], [ -64.688785, -17.451203 ], [ -64.688975, -17.450345 ], [ -64.689013, -17.449107 ], [ -64.689208, -17.448724 ], [ -64.689549, -17.448008 ], [ -64.689839, -17.447244 ], [ -64.690279, -17.446573 ], [ -64.691013, -17.445473 ], [ -64.691601, -17.444706 ], [ -64.692683, -17.443697 ], [ -64.693819, -17.443259 ], [ -64.695398, -17.442389 ], [ -64.697125, -17.441518 ], [ -64.697908, -17.440369 ], [ -64.699136, -17.439121 ], [ -64.700214, -17.437779 ], [ -64.7009, -17.436916 ], [ -64.702075, -17.43524 ], [ -64.702454, -17.433381 ], [ -64.70249, -17.431905 ], [ -64.702504, -17.430921 ], [ -64.703315, -17.429899 ], [ -64.704197, -17.428844 ], [ -64.704737, -17.428269 ], [ -64.705027, -17.427409 ], [ -64.705317, -17.426598 ], [ -64.706004, -17.425878 ], [ -64.706593, -17.425207 ], [ -64.707133, -17.424678 ], [ -64.707526, -17.424247 ], [ -64.707819, -17.423768 ], [ -64.708454, -17.422716 ], [ -64.709186, -17.42152 ], [ -64.709775, -17.420801 ], [ -64.710757, -17.41984 ], [ -64.7113, -17.41955 ], [ -64.712587, -17.419349 ], [ -64.713578, -17.419292 ], [ -64.715165, -17.419326 ], [ -64.715759, -17.419226 ], [ -64.716649, -17.41898 ], [ -64.717588, -17.418592 ], [ -64.71818, -17.418301 ], [ -64.718821, -17.417915 ], [ -64.71946, -17.417338 ], [ -64.720051, -17.416952 ], [ -64.720642, -17.416566 ], [ -64.721286, -17.416418 ], [ -64.722073, -17.41584 ], [ -64.722466, -17.415456 ], [ -64.722813, -17.415358 ], [ -64.724096, -17.414775 ], [ -64.726263, -17.413186 ], [ -64.727794, -17.412649 ], [ -64.72883, -17.412117 ], [ -64.730461, -17.411484 ], [ -64.731151, -17.411097 ], [ -64.732486, -17.410705 ], [ -64.734362, -17.409879 ], [ -64.73525, -17.409396 ], [ -64.735494, -17.408965 ], [ -64.735802, -17.408496 ], [ -64.736467, -17.407053 ], [ -64.736761, -17.406669 ], [ -64.737154, -17.406285 ], [ -64.737837, -17.405089 ], [ -64.738858, -17.403034 ], [ -64.739295, -17.402031 ], [ -64.739531, -17.400839 ], [ -64.739815, -17.399361 ], [ -64.740149, -17.398025 ], [ -64.740736, -17.397163 ], [ -64.742889, -17.394241 ], [ -64.743381, -17.393809 ], [ -64.744048, -17.393406 ], [ -64.745698, -17.392408 ], [ -64.747565, -17.390726 ], [ -64.748515, -17.38941 ], [ -64.749968, -17.387992 ], [ -64.751392, -17.386504 ], [ -64.754397, -17.384622 ], [ -64.754988, -17.38414 ], [ -64.755772, -17.383229 ], [ -64.757982, -17.381116 ], [ -64.758913, -17.379965 ], [ -64.759353, -17.379343 ], [ -64.760437, -17.378571 ], [ -64.761423, -17.378039 ], [ -64.7632, -17.37731 ], [ -64.76379, -17.376781 ], [ -64.764773, -17.375916 ], [ -64.765313, -17.375387 ], [ -64.766725, -17.374793 ], [ -64.768433, -17.375074 ], [ -64.769228, -17.375257 ], [ -64.769821, -17.375109 ], [ -64.77174, -17.373617 ], [ -64.772632, -17.373609 ], [ -64.775255, -17.373205 ], [ -64.776738, -17.372811 ], [ -64.783944, -17.369701 ], [ -64.784488, -17.369553 ], [ -64.785331, -17.369546 ], [ -64.78652, -17.369535 ], [ -64.787063, -17.36934 ], [ -64.787855, -17.369237 ], [ -64.78855, -17.369326 ], [ -64.789144, -17.369273 ], [ -64.791178, -17.369446 ], [ -64.791673, -17.369394 ], [ -64.791968, -17.369105 ], [ -64.792059, -17.368248 ], [ -64.792435, -17.367336 ], [ -64.792583, -17.366101 ], [ -64.79307, -17.365193 ], [ -64.794431, -17.362515 ], [ -64.795168, -17.361842 ], [ -64.795604, -17.360744 ], [ -64.796138, -17.359597 ], [ -64.796632, -17.35945 ], [ -64.797624, -17.359536 ], [ -64.798324, -17.360148 ], [ -64.799316, -17.360282 ], [ -64.800109, -17.360227 ], [ -64.801099, -17.360171 ], [ -64.801791, -17.359927 ], [ -64.802084, -17.359543 ], [ -64.802277, -17.35897 ], [ -64.802568, -17.358301 ], [ -64.802807, -17.357395 ], [ -64.803248, -17.356915 ], [ -64.803987, -17.35648 ], [ -64.804631, -17.356427 ], [ -64.805421, -17.356134 ], [ -64.806756, -17.355789 ], [ -64.807995, -17.355778 ], [ -64.808539, -17.355677 ], [ -64.809526, -17.35524 ], [ -64.810017, -17.354807 ], [ -64.810161, -17.35433 ], [ -64.810304, -17.35371 ], [ -64.810496, -17.353137 ], [ -64.810838, -17.352563 ], [ -64.811427, -17.352034 ], [ -64.812169, -17.351837 ], [ -64.812936, -17.351791 ], [ -64.813901, -17.351583 ], [ -64.815931, -17.351375 ], [ -64.818558, -17.351494 ], [ -64.820395, -17.351762 ], [ -64.82139, -17.352134 ], [ -64.822779, -17.352312 ], [ -64.823967, -17.352206 ], [ -64.82436, -17.351869 ], [ -64.824553, -17.351296 ], [ -64.824695, -17.350676 ], [ -64.825138, -17.350291 ], [ -64.82573, -17.350048 ], [ -64.826571, -17.349898 ], [ -64.827211, -17.349511 ], [ -64.828046, -17.348694 ], [ -64.828833, -17.348116 ], [ -64.829713, -17.346918 ], [ -64.830345, -17.345627 ], [ -64.830831, -17.344719 ], [ -64.831469, -17.344046 ], [ -64.831778, -17.343011 ], [ -64.833287, -17.342507 ], [ -64.834773, -17.342446 ], [ -64.836112, -17.342528 ], [ -64.838442, -17.34265 ], [ -64.839386, -17.342927 ], [ -64.839982, -17.342969 ], [ -64.840674, -17.342867 ], [ -64.841019, -17.342626 ], [ -64.841013, -17.342007 ], [ -64.841107, -17.341578 ], [ -64.84254, -17.341137 ], [ -64.843579, -17.340984 ], [ -64.845016, -17.340971 ], [ -64.845464, -17.34111 ], [ -64.846307, -17.341245 ], [ -64.846751, -17.34105 ], [ -64.847044, -17.340619 ], [ -64.848176, -17.339847 ], [ -64.848819, -17.339699 ], [ -64.849315, -17.339694 ], [ -64.849763, -17.339928 ], [ -64.850258, -17.339876 ], [ -64.850502, -17.339493 ], [ -64.851054, -17.339244 ], [ -64.851235, -17.338439 ], [ -64.851723, -17.337673 ], [ -64.851865, -17.337005 ], [ -64.852109, -17.336717 ], [ -64.853091, -17.335804 ], [ -64.854612, -17.334267 ], [ -64.855297, -17.333356 ], [ -64.856128, -17.332254 ], [ -64.856321, -17.331776 ], [ -64.856365, -17.331157 ], [ -64.856209, -17.330445 ], [ -64.856155, -17.329969 ], [ -64.856299, -17.32954 ], [ -64.855996, -17.329019 ], [ -64.855394, -17.328263 ], [ -64.855193, -17.327932 ], [ -64.854538, -17.326891 ], [ -64.852487, -17.32459 ], [ -64.851062, -17.322474 ], [ -64.850731, -17.321245 ], [ -64.850564, -17.320678 ], [ -64.850935, -17.320157 ], [ -64.851079, -17.32006 ], [ -64.851791, -17.31958 ], [ -64.852808, -17.31895 ], [ -64.853667, -17.318787 ], [ -64.855121, -17.318774 ], [ -64.857013, -17.319532 ], [ -64.858101, -17.320206 ], [ -64.859234, -17.320908 ], [ -64.860802, -17.321617 ], [ -64.862259, -17.321914 ], [ -64.865058, -17.321836 ], [ -64.867046, -17.321507 ], [ -64.870225, -17.320456 ], [ -64.870588, -17.320336 ], [ -64.874449, -17.318904 ], [ -64.875946, -17.317804 ], [ -64.878734, -17.316744 ], [ -64.879702, -17.316631 ], [ -64.880675, -17.316984 ], [ -64.881666, -17.316823 ], [ -64.882768, -17.316344 ], [ -64.883408, -17.315769 ], [ -64.885808, -17.313523 ], [ -64.887774, -17.311022 ], [ -64.889923, -17.310537 ], [ -64.892502, -17.310047 ], [ -64.892983, -17.309784 ], [ -64.896977, -17.305558 ], [ -64.898535, -17.305233 ], [ -64.900471, -17.305059 ], [ -64.901495, -17.305101 ], [ -64.903269, -17.304877 ], [ -64.904072, -17.304508 ], [ -64.904442, -17.303832 ], [ -64.904606, -17.303098 ], [ -64.904423, -17.301919 ], [ -64.904571, -17.300676 ], [ -64.90478, -17.300002 ], [ -64.905258, -17.299429 ], [ -64.905308, -17.299015 ], [ -64.905347, -17.297566 ], [ -64.90561, -17.296995 ], [ -64.905766, -17.296477 ], [ -64.90549, -17.295755 ], [ -64.904724, -17.294625 ], [ -64.903689, -17.293445 ], [ -64.90194, -17.292117 ], [ -64.893247, -17.296648 ], [ -64.885081, -17.303782 ], [ -64.872315, -17.305392 ], [ -64.861771, -17.302626 ], [ -64.850146, -17.304505 ], [ -64.84336, -17.30033 ], [ -64.828317, -17.294269 ], [ -64.805833, -17.29675 ], [ -64.796704, -17.304901 ], [ -64.790995, -17.305882 ], [ -64.780648, -17.305866 ], [ -64.769131, -17.311453 ], [ -64.7568, -17.320443 ], [ -64.749976, -17.321994 ], [ -64.737763, -17.321739 ], [ -64.722439, -17.317805 ], [ -64.713994, -17.320137 ], [ -64.701642, -17.327245 ], [ -64.682229, -17.344342 ], [ -64.670611, -17.346581 ], [ -64.665726, -17.349532 ], [ -64.659711, -17.351317 ], [ -64.641783, -17.345591 ], [ -64.624314, -17.331005 ], [ -64.619169, -17.318224 ], [ -64.617009, -17.31682 ], [ -64.615099, -17.314768 ], [ -64.613508, -17.312098 ], [ -64.612322, -17.310247 ], [ -64.61205, -17.3082 ], [ -64.612053, -17.305928 ], [ -64.620292, -17.29613 ], [ -64.621913, -17.295358 ], [ -64.625279, -17.293108 ], [ -64.627184, -17.291502 ], [ -64.626958, -17.289278 ], [ -64.626965, -17.288345 ], [ -64.627036, -17.287746 ], [ -64.627145, -17.287074 ], [ -64.627286, -17.285818 ], [ -64.627218, -17.284872 ], [ -64.627777, -17.28392 ], [ -64.628458, -17.283404 ], [ -64.628725, -17.283081 ], [ -64.628865, -17.282615 ], [ -64.628864, -17.281903 ], [ -64.628785, -17.281387 ], [ -64.628209, -17.280767 ], [ -64.625312, -17.279652 ], [ -64.624017, -17.276871 ], [ -64.623255, -17.273588 ], [ -64.622212, -17.27159 ], [ -64.622091, -17.270615 ], [ -64.62222, -17.26924 ], [ -64.622251, -17.267388 ], [ -64.622662, -17.265984 ], [ -64.623715, -17.263798 ], [ -64.625474, -17.26175 ], [ -64.626798, -17.260456 ], [ -64.628066, -17.256976 ], [ -64.628164, -17.254255 ], [ -64.630187, -17.250118 ], [ -64.631767, -17.247991 ], [ -64.632071, -17.247248 ], [ -64.633406, -17.246107 ], [ -64.633682, -17.2454 ], [ -64.634386, -17.245304 ], [ -64.635231, -17.244104 ], [ -64.63483, -17.243264 ], [ -64.63477, -17.242188 ], [ -64.635239, -17.240743 ], [ -64.636262, -17.23834 ], [ -64.636354, -17.237781 ], [ -64.636587, -17.2371 ], [ -64.637027, -17.236536 ], [ -64.637582, -17.235992 ], [ -64.638049, -17.235632 ], [ -64.638634, -17.235393 ], [ -64.639208, -17.235252 ], [ -64.639832, -17.23496 ], [ -64.640259, -17.234813 ], [ -64.640676, -17.234734 ], [ -64.641073, -17.234596 ], [ -64.641559, -17.234375 ], [ -64.641974, -17.23412 ], [ -64.642241, -17.233889 ], [ -64.642711, -17.233381 ], [ -64.643097, -17.232853 ], [ -64.643293, -17.232474 ], [ -64.643518, -17.231975 ], [ -64.643703, -17.231591 ], [ -64.643901, -17.231329 ], [ -64.644334, -17.231326 ], [ -64.644906, -17.231381 ], [ -64.645453, -17.231307 ], [ -64.645881, -17.231089 ], [ -64.646113, -17.230682 ], [ -64.646477, -17.230172 ], [ -64.646663, -17.22976 ], [ -64.646873, -17.229289 ], [ -64.647063, -17.228848 ], [ -64.647108, -17.228398 ], [ -64.647154, -17.227919 ], [ -64.64713, -17.227489 ], [ -64.646978, -17.227165 ], [ -64.646815, -17.226736 ], [ -64.64664, -17.226336 ], [ -64.646519, -17.226022 ], [ -64.64627, -17.225744 ], [ -64.646222, -17.225343 ], [ -64.646293, -17.224998 ], [ -64.646485, -17.224696 ], [ -64.646926, -17.224599 ], [ -64.647394, -17.224595 ], [ -64.64773, -17.224549 ], [ -64.648108, -17.224281 ], [ -64.648349, -17.223937 ], [ -64.648353, -17.223277 ], [ -64.64802, -17.222855 ], [ -64.647488, -17.222586 ], [ -64.647299, -17.2223 ], [ -64.647231, -17.221895 ], [ -64.647249, -17.221648 ], [ -64.64747, -17.221345 ], [ -64.647957, -17.221085 ], [ -64.64875, -17.220976 ], [ -64.650016, -17.221032 ], [ -64.650646, -17.22074 ], [ -64.651417, -17.219972 ], [ -64.651969, -17.218754 ], [ -64.651483, -17.21783 ], [ -64.650273, -17.21718 ], [ -64.649437, -17.216929 ], [ -64.648963, -17.216267 ], [ -64.649285, -17.215255 ], [ -64.649947, -17.214578 ], [ -64.650617, -17.214694 ], [ -64.651725, -17.214933 ], [ -64.652974, -17.215269 ], [ -64.653877, -17.215662 ], [ -64.655103, -17.215749 ], [ -64.655737, -17.214878 ], [ -64.655923, -17.213841 ], [ -64.656499, -17.213108 ], [ -64.657123, -17.212886 ], [ -64.657727, -17.21241 ], [ -64.657976, -17.211594 ], [ -64.657736, -17.210626 ], [ -64.658226, -17.209615 ], [ -64.659236, -17.209217 ], [ -64.660339, -17.209299 ], [ -64.661386, -17.208877 ], [ -64.662842, -17.207977 ], [ -64.663738, -17.205666 ], [ -64.664421, -17.204041 ], [ -64.664509, -17.202533 ], [ -64.663675, -17.20055 ], [ -64.663166, -17.199329 ], [ -64.662882, -17.198263 ], [ -64.663087, -17.197477 ], [ -64.663827, -17.196436 ], [ -64.665206, -17.195343 ], [ -64.665541, -17.194509 ], [ -64.665555, -17.193379 ], [ -64.665659, -17.192416 ], [ -64.665523, -17.191353 ], [ -64.665219, -17.190482 ], [ -64.664562, -17.18964 ], [ -64.664004, -17.189154 ], [ -64.663877, -17.188091 ], [ -64.663986, -17.187139 ], [ -64.663964, -17.186211 ], [ -64.66368, -17.18578 ], [ -64.663541, -17.185555 ], [ -64.663045, -17.18496 ], [ -64.662677, -17.184142 ], [ -64.662479, -17.183684 ], [ -64.662236, -17.182708 ], [ -64.662117, -17.182114 ], [ -64.662034, -17.181694 ], [ -64.662014, -17.181101 ], [ -64.662092, -17.180412 ], [ -64.662167, -17.179914 ], [ -64.662251, -17.179244 ], [ -64.662296, -17.178727 ], [ -64.662459, -17.178028 ], [ -64.662619, -17.177022 ], [ -64.662576, -17.176615 ], [ -64.662423, -17.176221 ], [ -64.662172, -17.175945 ], [ -64.661879, -17.175517 ], [ -64.661994, -17.174991 ], [ -64.662227, -17.174422 ], [ -64.662512, -17.173973 ], [ -64.662907, -17.173673 ], [ -64.663502, -17.173419 ], [ -64.664145, -17.172955 ], [ -64.664956, -17.172556 ], [ -64.665778, -17.1721 ], [ -64.666302, -17.171742 ], [ -64.667402, -17.171235 ], [ -64.667838, -17.170993 ], [ -64.668397, -17.170612 ], [ -64.668679, -17.170517 ], [ -64.668886, -17.170267 ], [ -64.66904, -17.169859 ], [ -64.668781, -17.169353 ], [ -64.668347, -17.168872 ], [ -64.667956, -17.168649 ], [ -64.667665, -17.168393 ], [ -64.667454, -17.168155 ], [ -64.667499, -17.167881 ], [ -64.667764, -17.167742 ], [ -64.668057, -17.167682 ], [ -64.668465, -17.167717 ], [ -64.668974, -17.167875 ], [ -64.669423, -17.167996 ], [ -64.669911, -17.168154 ], [ -64.67044, -17.168284 ], [ -64.671057, -17.168307 ], [ -64.671779, -17.168207 ], [ -64.671996, -17.168171 ], [ -64.672312, -17.168075 ], [ -64.672561, -17.167947 ], [ -64.672701, -17.167795 ], [ -64.672848, -17.167511 ], [ -64.672935, -17.167222 ], [ -64.672935, -17.16671 ], [ -64.672645, -17.166199 ], [ -64.672236, -17.165746 ], [ -64.671844, -17.16545 ], [ -64.671266, -17.164931 ], [ -64.670674, -17.164485 ], [ -64.670488, -17.164172 ], [ -64.670571, -17.163765 ], [ -64.670928, -17.16338 ], [ -64.671449, -17.163253 ], [ -64.671895, -17.163363 ], [ -64.672098, -17.163436 ], [ -64.672296, -17.163484 ], [ -64.672577, -17.163572 ], [ -64.672824, -17.163677 ], [ -64.673082, -17.163797 ], [ -64.673396, -17.163852 ], [ -64.673803, -17.163899 ], [ -64.674495, -17.164094 ], [ -64.674757, -17.164217 ], [ -64.675105, -17.164322 ], [ -64.675679, -17.164285 ], [ -64.675846, -17.164201 ], [ -64.676046, -17.163988 ], [ -64.676168, -17.163712 ], [ -64.676207, -17.16357 ], [ -64.676207, -17.163255 ], [ -64.676194, -17.163068 ], [ -64.676163, -17.162874 ], [ -64.676106, -17.162527 ], [ -64.67612, -17.162229 ], [ -64.676104, -17.161854 ], [ -64.676126, -17.161586 ], [ -64.676194, -17.16138 ], [ -64.676307, -17.161173 ], [ -64.676507, -17.160921 ], [ -64.676651, -17.160778 ], [ -64.676794, -17.160653 ], [ -64.676957, -17.160498 ], [ -64.677115, -17.160377 ], [ -64.677357, -17.160244 ], [ -64.677882, -17.160183 ], [ -64.678432, -17.159981 ], [ -64.678664, -17.159572 ], [ -64.67871, -17.159118 ], [ -64.678603, -17.158798 ], [ -64.678289, -17.158679 ], [ -64.677972, -17.158682 ], [ -64.677507, -17.158739 ], [ -64.67709, -17.158779 ], [ -64.676581, -17.158854 ], [ -64.676122, -17.158912 ], [ -64.675631, -17.159 ], [ -64.675177, -17.158986 ], [ -64.674736, -17.15872 ], [ -64.67463, -17.158543 ], [ -64.674517, -17.1583 ], [ -64.674489, -17.157944 ], [ -64.674521, -17.157683 ], [ -64.674689, -17.157436 ], [ -64.674961, -17.15731 ], [ -64.675318, -17.157335 ], [ -64.675803, -17.157383 ], [ -64.676172, -17.157438 ], [ -64.67666, -17.15752 ], [ -64.677198, -17.157554 ], [ -64.677854, -17.157567 ], [ -64.678371, -17.157563 ], [ -64.678865, -17.157621 ], [ -64.679202, -17.157599 ], [ -64.6797, -17.1576 ], [ -64.680261, -17.157562 ], [ -64.680769, -17.157538 ], [ -64.681116, -17.157492 ], [ -64.681468, -17.157298 ], [ -64.681792, -17.157073 ], [ -64.681986, -17.156878 ], [ -64.682129, -17.156695 ], [ -64.682316, -17.15648 ], [ -64.682478, -17.156247 ], [ -64.682635, -17.156002 ], [ -64.682825, -17.155736 ], [ -64.682958, -17.155449 ], [ -64.683011, -17.15521 ], [ -64.683013, -17.154961 ], [ -64.682967, -17.154721 ], [ -64.682897, -17.154497 ], [ -64.682798, -17.154255 ], [ -64.682667, -17.154051 ], [ -64.682521, -17.15388 ], [ -64.682351, -17.153747 ], [ -64.682071, -17.15364 ], [ -64.681802, -17.153594 ], [ -64.681583, -17.153587 ], [ -64.681315, -17.153613 ], [ -64.681017, -17.153625 ], [ -64.680684, -17.153647 ], [ -64.68031, -17.153611 ], [ -64.680056, -17.153566 ], [ -64.679826, -17.153439 ], [ -64.679735, -17.153267 ], [ -64.679629, -17.153058 ], [ -64.679523, -17.152839 ], [ -64.679466, -17.152643 ], [ -64.679479, -17.15237 ], [ -64.679551, -17.152159 ], [ -64.679624, -17.151915 ], [ -64.679671, -17.15168 ], [ -64.679728, -17.151383 ], [ -64.679786, -17.151144 ], [ -64.679875, -17.150593 ], [ -64.679889, -17.150406 ], [ -64.679974, -17.149942 ], [ -64.680006, -17.149674 ], [ -64.680059, -17.149387 ], [ -64.680131, -17.149156 ], [ -64.680243, -17.148926 ], [ -64.680421, -17.148752 ], [ -64.680653, -17.148583 ], [ -64.680916, -17.148514 ], [ -64.681135, -17.148493 ], [ -64.681418, -17.148491 ], [ -64.681732, -17.148531 ], [ -64.681987, -17.148701 ], [ -64.682173, -17.148881 ], [ -64.682279, -17.149134 ], [ -64.682331, -17.149286 ], [ -64.682403, -17.149568 ], [ -64.682395, -17.149848 ], [ -64.682388, -17.15019 ], [ -64.682392, -17.150606 ], [ -64.682376, -17.151031 ], [ -64.682449, -17.151432 ], [ -64.682591, -17.15168 ], [ -64.682796, -17.151817 ], [ -64.683184, -17.151823 ], [ -64.683397, -17.151745 ], [ -64.683679, -17.151599 ], [ -64.683912, -17.151463 ], [ -64.684198, -17.151246 ], [ -64.68438, -17.15101 ], [ -64.684468, -17.150827 ], [ -64.684526, -17.150621 ], [ -64.684558, -17.150368 ], [ -64.684567, -17.150157 ], [ -64.68453, -17.149961 ], [ -64.684418, -17.149723 ], [ -64.684292, -17.149485 ], [ -64.684222, -17.149273 ], [ -64.684204, -17.149118 ], [ -64.684182, -17.148893 ], [ -64.684175, -17.148621 ], [ -64.684267, -17.148367 ], [ -64.684454, -17.148183 ], [ -64.684647, -17.148043 ], [ -64.684905, -17.147945 ], [ -64.685148, -17.147924 ], [ -64.685427, -17.147955 ], [ -64.685652, -17.148049 ], [ -64.685862, -17.148229 ], [ -64.685991, -17.148472 ], [ -64.68611, -17.148638 ], [ -64.686166, -17.1488 ], [ -64.686213, -17.149115 ], [ -64.686152, -17.149465 ], [ -64.68605, -17.149805 ], [ -64.685954, -17.150189 ], [ -64.685827, -17.150434 ], [ -64.685636, -17.150712 ], [ -64.685519, -17.150972 ], [ -64.6853, -17.151514 ], [ -64.685243, -17.151825 ], [ -64.685246, -17.152117 ], [ -64.685274, -17.152442 ], [ -64.685406, -17.152775 ], [ -64.685562, -17.15298 ], [ -64.685862, -17.153168 ], [ -64.686151, -17.153276 ], [ -64.686336, -17.153285 ], [ -64.686872, -17.153222 ], [ -64.687228, -17.15299 ], [ -64.687463, -17.152615 ], [ -64.687511, -17.152327 ], [ -64.687546, -17.151849 ], [ -64.687532, -17.1514 ], [ -64.687489, -17.150989 ], [ -64.687445, -17.150626 ], [ -64.687421, -17.150349 ], [ -64.687425, -17.149983 ], [ -64.687399, -17.149653 ], [ -64.687367, -17.149381 ], [ -64.687327, -17.149058 ], [ -64.687302, -17.148764 ], [ -64.687284, -17.148449 ], [ -64.687248, -17.148145 ], [ -64.687316, -17.147839 ], [ -64.687418, -17.147587 ], [ -64.687542, -17.147374 ], [ -64.687654, -17.147241 ], [ -64.687869, -17.147088 ], [ -64.688121, -17.146936 ], [ -64.688366, -17.146833 ], [ -64.688679, -17.146737 ], [ -64.688969, -17.146649 ], [ -64.689274, -17.146596 ], [ -64.689549, -17.146479 ], [ -64.689839, -17.146369 ], [ -64.690076, -17.146224 ], [ -64.690433, -17.146099 ], [ -64.690776, -17.146024 ], [ -64.691089, -17.146 ], [ -64.691425, -17.146076 ], [ -64.691748, -17.146246 ], [ -64.691913, -17.146434 ], [ -64.69211, -17.14673 ], [ -64.692158, -17.147031 ], [ -64.692129, -17.147203 ], [ -64.691983, -17.147535 ], [ -64.691748, -17.147874 ], [ -64.691512, -17.148191 ], [ -64.691342, -17.148401 ], [ -64.691077, -17.14874 ], [ -64.690871, -17.149129 ], [ -64.690785, -17.14951 ], [ -64.690826, -17.149875 ], [ -64.690948, -17.15024 ], [ -64.691144, -17.150432 ], [ -64.691471, -17.150576 ], [ -64.691996, -17.150619 ], [ -64.692257, -17.150538 ], [ -64.692523, -17.15032 ], [ -64.692752, -17.150046 ], [ -64.693011, -17.149771 ], [ -64.693299, -17.149467 ], [ -64.693571, -17.149071 ], [ -64.693747, -17.148739 ], [ -64.693987, -17.148006 ], [ -64.694065, -17.147582 ], [ -64.694187, -17.147086 ], [ -64.694406, -17.146684 ], [ -64.694756, -17.146479 ], [ -64.695106, -17.146425 ], [ -64.695517, -17.146443 ], [ -64.695802, -17.146628 ], [ -64.696119, -17.147012 ], [ -64.696316, -17.147319 ], [ -64.696468, -17.147719 ], [ -64.696569, -17.148063 ], [ -64.696603, -17.148579 ], [ -64.696607, -17.149002 ], [ -64.696678, -17.14941 ], [ -64.696942, -17.149716 ], [ -64.697191, -17.150059 ], [ -64.69758, -17.150206 ], [ -64.697942, -17.150088 ], [ -64.698152, -17.149957 ], [ -64.698314, -17.149648 ], [ -64.698408, -17.149317 ], [ -64.698315, -17.148952 ], [ -64.697976, -17.148603 ], [ -64.697705, -17.148376 ], [ -64.697405, -17.148113 ], [ -64.6972, -17.147821 ], [ -64.697002, -17.147328 ], [ -64.696955, -17.14712 ], [ -64.696907, -17.146733 ], [ -64.696904, -17.146396 ], [ -64.696961, -17.146044 ], [ -64.697076, -17.145627 ], [ -64.697193, -17.145316 ], [ -64.697265, -17.144999 ], [ -64.697358, -17.144699 ], [ -64.697508, -17.144399 ], [ -64.697661, -17.144147 ], [ -64.697839, -17.143894 ], [ -64.698103, -17.143509 ], [ -64.698378, -17.143035 ], [ -64.698445, -17.142897 ], [ -64.69856, -17.142543 ], [ -64.698614, -17.142238 ], [ -64.698649, -17.141977 ], [ -64.698724, -17.141388 ], [ -64.698721, -17.141054 ], [ -64.698662, -17.140773 ], [ -64.698548, -17.140529 ], [ -64.698421, -17.140225 ], [ -64.698244, -17.139922 ], [ -64.698068, -17.13969 ], [ -64.697874, -17.139483 ], [ -64.697657, -17.139374 ], [ -64.697461, -17.139277 ], [ -64.697299, -17.139165 ], [ -64.696987, -17.139036 ], [ -64.696781, -17.138936 ], [ -64.696469, -17.138819 ], [ -64.696107, -17.138679 ], [ -64.695708, -17.138569 ], [ -64.695291, -17.138464 ], [ -64.69496, -17.138306 ], [ -64.694821, -17.138134 ], [ -64.694635, -17.137874 ], [ -64.694494, -17.137711 ], [ -64.694351, -17.137477 ], [ -64.694255, -17.137326 ], [ -64.694171, -17.137051 ], [ -64.694182, -17.13686 ], [ -64.694217, -17.136632 ], [ -64.694315, -17.13647 ], [ -64.694425, -17.136266 ], [ -64.69456, -17.136068 ], [ -64.69498, -17.1357 ], [ -64.695152, -17.135531 ], [ -64.695288, -17.135398 ], [ -64.695485, -17.135247 ], [ -64.695663, -17.135013 ], [ -64.695804, -17.134754 ], [ -64.695883, -17.134521 ], [ -64.695949, -17.134233 ], [ -64.695959, -17.133964 ], [ -64.695932, -17.133623 ], [ -64.695897, -17.133379 ], [ -64.695821, -17.13317 ], [ -64.695656, -17.132777 ], [ -64.695317, -17.132475 ], [ -64.694961, -17.132293 ], [ -64.69473, -17.132127 ], [ -64.694325, -17.131999 ], [ -64.693901, -17.131895 ], [ -64.693546, -17.131791 ], [ -64.693315, -17.131691 ], [ -64.693012, -17.131527 ], [ -64.692826, -17.131365 ], [ -64.692689, -17.131183 ], [ -64.69261, -17.130983 ], [ -64.692565, -17.130613 ], [ -64.692552, -17.130362 ], [ -64.692549, -17.130151 ], [ -64.692599, -17.129775 ], [ -64.692654, -17.129473 ], [ -64.692771, -17.129281 ], [ -64.692985, -17.128974 ], [ -64.693126, -17.128746 ], [ -64.693398, -17.128582 ], [ -64.693596, -17.128485 ], [ -64.693882, -17.128435 ], [ -64.694224, -17.128444 ], [ -64.694492, -17.128507 ], [ -64.694766, -17.128595 ], [ -64.695003, -17.128682 ], [ -64.695259, -17.128824 ], [ -64.695522, -17.128989 ], [ -64.69584, -17.129154 ], [ -64.696078, -17.129271 ], [ -64.696307, -17.129418 ], [ -64.696471, -17.129471 ], [ -64.696696, -17.129607 ], [ -64.696922, -17.129814 ], [ -64.697129, -17.130021 ], [ -64.69733, -17.130259 ], [ -64.697543, -17.13049 ], [ -64.697913, -17.130804 ], [ -64.698101, -17.13097 ], [ -64.698314, -17.131147 ], [ -64.698719, -17.131311 ], [ -64.698962, -17.131363 ], [ -64.699199, -17.131361 ], [ -64.699385, -17.131311 ], [ -64.699575, -17.131225 ], [ -64.699706, -17.131129 ], [ -64.699811, -17.130997 ], [ -64.699896, -17.130793 ], [ -64.699969, -17.130643 ], [ -64.699999, -17.130469 ], [ -64.699972, -17.130237 ], [ -64.69992, -17.130004 ], [ -64.699875, -17.129831 ], [ -64.699773, -17.129545 ], [ -64.699645, -17.129229 ], [ -64.699537, -17.128961 ], [ -64.699342, -17.128664 ], [ -64.699178, -17.128468 ], [ -64.698937, -17.128314 ], [ -64.698617, -17.128125 ], [ -64.698237, -17.127937 ], [ -64.69776, -17.127685 ], [ -64.69743, -17.127487 ], [ -64.697086, -17.127346 ], [ -64.696758, -17.127282 ], [ -64.69651, -17.127236 ], [ -64.696197, -17.127196 ], [ -64.695779, -17.127178 ], [ -64.695428, -17.127145 ], [ -64.695025, -17.12712 ], [ -64.694607, -17.12708 ], [ -64.694331, -17.127031 ], [ -64.694083, -17.126877 ], [ -64.693761, -17.126729 ], [ -64.693409, -17.12661 ], [ -64.693057, -17.126441 ], [ -64.69272, -17.126286 ], [ -64.692465, -17.126116 ], [ -64.69224, -17.12601 ], [ -64.691977, -17.125761 ], [ -64.691728, -17.125505 ], [ -64.6916, -17.125305 ], [ -64.691508, -17.125033 ], [ -64.691484, -17.124647 ], [ -64.691449, -17.124384 ], [ -64.691539, -17.124032 ], [ -64.691689, -17.123819 ], [ -64.691979, -17.123523 ], [ -64.692261, -17.123428 ], [ -64.692552, -17.123432 ], [ -64.692911, -17.123465 ], [ -64.69315, -17.123528 ], [ -64.693367, -17.123598 ], [ -64.693711, -17.123753 ], [ -64.693922, -17.123952 ], [ -64.694096, -17.124208 ], [ -64.694285, -17.124479 ], [ -64.694414, -17.124744 ], [ -64.694513, -17.12498 ], [ -64.694643, -17.125273 ], [ -64.694802, -17.125522 ], [ -64.695268, -17.125927 ], [ -64.695635, -17.126096 ], [ -64.696016, -17.126229 ], [ -64.696646, -17.126361 ], [ -64.697024, -17.1263 ], [ -64.6973, -17.126297 ], [ -64.697598, -17.126245 ], [ -64.69785, -17.126099 ], [ -64.698036, -17.125969 ], [ -64.698206, -17.125816 ], [ -64.698323, -17.125607 ], [ -64.698469, -17.125219 ], [ -64.698518, -17.124874 ], [ -64.698523, -17.124616 ], [ -64.698525, -17.124267 ], [ -64.698585, -17.124042 ], [ -64.698665, -17.123833 ], [ -64.698835, -17.123631 ], [ -64.69905, -17.123486 ], [ -64.699467, -17.123396 ], [ -64.699817, -17.123386 ], [ -64.700146, -17.123433 ], [ -64.700505, -17.123545 ], [ -64.700864, -17.123671 ], [ -64.701252, -17.123704 ], [ -64.701573, -17.123672 ], [ -64.701908, -17.123583 ], [ -64.702145, -17.123402 ], [ -64.702336, -17.123135 ], [ -64.702446, -17.122869 ], [ -64.702361, -17.122583 ], [ -64.702186, -17.12224 ], [ -64.70196, -17.121976 ], [ -64.70126, -17.121526 ], [ -64.700821, -17.121434 ], [ -64.700354, -17.121409 ], [ -64.699886, -17.121327 ], [ -64.699473, -17.121006 ], [ -64.699322, -17.120696 ], [ -64.699171, -17.120348 ], [ -64.699195, -17.119707 ], [ -64.699409, -17.119275 ], [ -64.699715, -17.119023 ], [ -64.699923, -17.118878 ], [ -64.700289, -17.118684 ], [ -64.700566, -17.1185 ], [ -64.701001, -17.118238 ], [ -64.701307, -17.118006 ], [ -64.70151, -17.117664 ], [ -64.701529, -17.11722 ], [ -64.701456, -17.116838 ], [ -64.701204, -17.116419 ], [ -64.700733, -17.116117 ], [ -64.700296, -17.116121 ], [ -64.699955, -17.116168 ], [ -64.699442, -17.116291 ], [ -64.699005, -17.116611 ], [ -64.698625, -17.116973 ], [ -64.698274, -17.117376 ], [ -64.697737, -17.11757 ], [ -64.697278, -17.117592 ], [ -64.69696, -17.117458 ], [ -64.696713, -17.117124 ], [ -64.696533, -17.116831 ], [ -64.696489, -17.116421 ], [ -64.696565, -17.11598 ], [ -64.69688, -17.115604 ], [ -64.697145, -17.115268 ], [ -64.697342, -17.115055 ], [ -64.697619, -17.114871 ], [ -64.697846, -17.114611 ], [ -64.698052, -17.114304 ], [ -64.69816, -17.113987 ], [ -64.698372, -17.113488 ], [ -64.698537, -17.113028 ], [ -64.698723, -17.112624 ], [ -64.698907, -17.112126 ], [ -64.699092, -17.111703 ], [ -64.699287, -17.111319 ], [ -64.69958, -17.111002 ], [ -64.699802, -17.110716 ], [ -64.700019, -17.110474 ], [ -64.700249, -17.110257 ], [ -64.700599, -17.110024 ], [ -64.701, -17.109849 ], [ -64.701311, -17.109645 ], [ -64.701727, -17.109441 ], [ -64.702217, -17.109179 ], [ -64.702601, -17.108745 ], [ -64.702797, -17.108319 ], [ -64.702828, -17.107524 ], [ -64.702599, -17.106952 ], [ -64.702298, -17.106581 ], [ -64.701818, -17.10627 ], [ -64.701278, -17.105959 ], [ -64.700635, -17.105778 ], [ -64.699597, -17.105626 ], [ -64.699175, -17.105806 ], [ -64.698529, -17.106182 ], [ -64.697834, -17.106543 ], [ -64.697268, -17.106794 ], [ -64.696597, -17.106633 ], [ -64.696276, -17.106205 ], [ -64.696086, -17.105873 ], [ -64.696126, -17.1054 ], [ -64.696451, -17.10501 ], [ -64.696925, -17.104633 ], [ -64.697475, -17.104384 ], [ -64.698323, -17.104219 ], [ -64.698994, -17.104128 ], [ -64.699668, -17.104134 ], [ -64.700067, -17.104047 ], [ -64.700692, -17.103855 ], [ -64.701554, -17.103561 ], [ -64.702208, -17.103226 ], [ -64.702607, -17.102849 ], [ -64.702723, -17.102229 ], [ -64.702747, -17.101705 ], [ -64.702069, -17.101082 ], [ -64.701273, -17.100914 ], [ -64.700611, -17.100849 ], [ -64.699987, -17.100969 ], [ -64.699158, -17.101171 ], [ -64.698706, -17.101472 ], [ -64.697923, -17.101977 ], [ -64.697312, -17.102338 ], [ -64.696594, -17.102684 ], [ -64.696028, -17.102747 ], [ -64.695237, -17.102753 ], [ -64.694341, -17.10266 ], [ -64.693505, -17.102538 ], [ -64.692457, -17.10274 ], [ -64.691796, -17.103272 ], [ -64.691267, -17.103711 ], [ -64.690817, -17.103838 ], [ -64.690379, -17.103943 ], [ -64.689721, -17.103754 ], [ -64.689319, -17.103418 ], [ -64.689123, -17.103047 ], [ -64.689014, -17.102217 ], [ -64.689112, -17.101729 ], [ -64.689298, -17.101442 ], [ -64.689642, -17.100978 ], [ -64.690072, -17.100688 ], [ -64.690414, -17.100498 ], [ -64.691023, -17.100292 ], [ -64.691499, -17.100116 ], [ -64.69193, -17.099926 ], [ -64.69236, -17.09965 ], [ -64.692715, -17.099317 ], [ -64.69276, -17.098752 ], [ -64.692556, -17.098228 ], [ -64.692388, -17.097842 ], [ -64.691997, -17.097487 ], [ -64.691308, -17.097148 ], [ -64.690621, -17.097039 ], [ -64.689875, -17.09706 ], [ -64.689249, -17.097108 ], [ -64.688415, -17.09699 ], [ -64.687404, -17.096746 ], [ -64.686994, -17.096436 ], [ -64.686756, -17.095906 ], [ -64.686749, -17.095323 ], [ -64.687048, -17.09453 ], [ -64.687476, -17.093982 ], [ -64.687911, -17.093507 ], [ -64.688139, -17.093029 ], [ -64.688313, -17.092497 ], [ -64.688443, -17.092037 ], [ -64.688452, -17.091434 ], [ -64.688507, -17.090874 ], [ -64.688516, -17.090243 ], [ -64.688637, -17.089615 ], [ -64.688923, -17.089035 ], [ -64.689368, -17.08873 ], [ -64.689814, -17.088554 ], [ -64.690454, -17.088434 ], [ -64.691019, -17.088257 ], [ -64.691553, -17.087951 ], [ -64.691851, -17.087573 ], [ -64.692262, -17.087171 ], [ -64.692646, -17.08668 ], [ -64.69297, -17.086232 ], [ -64.693294, -17.085756 ], [ -64.693491, -17.085056 ], [ -64.693642, -17.084649 ], [ -64.69359, -17.083946 ], [ -64.69342, -17.083202 ], [ -64.693117, -17.082717 ], [ -64.692606, -17.082305 ], [ -64.692066, -17.081922 ], [ -64.691658, -17.081366 ], [ -64.691442, -17.080579 ], [ -64.691183, -17.079921 ], [ -64.690894, -17.079393 ], [ -64.690562, -17.078951 ], [ -64.689991, -17.078468 ], [ -64.689541, -17.078142 ], [ -64.689223, -17.077657 ], [ -64.689189, -17.077141 ], [ -64.689332, -17.076436 ], [ -64.68961, -17.075903 ], [ -64.690003, -17.075453 ], [ -64.690425, -17.075294 ], [ -64.690858, -17.075305 ], [ -64.69126, -17.075287 ], [ -64.691782, -17.07524 ], [ -64.692302, -17.075035 ], [ -64.692864, -17.074542 ], [ -64.693517, -17.074121 ], [ -64.694074, -17.073693 ], [ -64.694634, -17.073143 ], [ -64.695159, -17.072629 ], [ -64.695823, -17.071878 ], [ -64.696294, -17.071157 ], [ -64.696495, -17.070352 ], [ -64.696413, -17.069492 ], [ -64.6962, -17.068977 ], [ -64.695752, -17.068414 ], [ -64.694848, -17.067885 ], [ -64.694141, -17.067273 ], [ -64.693926, -17.066572 ], [ -64.694068, -17.065782 ], [ -64.694553, -17.065331 ], [ -64.695405, -17.065225 ], [ -64.695886, -17.065637 ], [ -64.69628, -17.066308 ], [ -64.696748, -17.066936 ], [ -64.697156, -17.067535 ], [ -64.697669, -17.068176 ], [ -64.698343, -17.068529 ], [ -64.698847, -17.068584 ], [ -64.699669, -17.068403 ], [ -64.700098, -17.067955 ], [ -64.700421, -17.067407 ], [ -64.700864, -17.066973 ], [ -64.701441, -17.06661 ], [ -64.702258, -17.066086 ], [ -64.702942, -17.065793 ], [ -64.703655, -17.065515 ], [ -64.704436, -17.065347 ], [ -64.705084, -17.065273 ], [ -64.70595, -17.065338 ], [ -64.706803, -17.065689 ], [ -64.707641, -17.06594 ], [ -64.708039, -17.065895 ], [ -64.708125, -17.065119 ], [ -64.707821, -17.064447 ], [ -64.707205, -17.063965 ], [ -64.706845, -17.063666 ], [ -64.706406, -17.062981 ], [ -64.706041, -17.062181 ], [ -64.705799, -17.06126 ], [ -64.705443, -17.060393 ], [ -64.705094, -17.059626 ], [ -64.704496, -17.059304 ], [ -64.703638, -17.059218 ], [ -64.703048, -17.059409 ], [ -64.702275, -17.05976 ], [ -64.701713, -17.060195 ], [ -64.700981, -17.060388 ], [ -64.700378, -17.060176 ], [ -64.700023, -17.059664 ], [ -64.699971, -17.058947 ], [ -64.70022, -17.058371 ], [ -64.70062, -17.057897 ], [ -64.700732, -17.057334 ], [ -64.700772, -17.05676 ], [ -64.700869, -17.055956 ], [ -64.701117, -17.055337 ], [ -64.701568, -17.054718 ], [ -64.702107, -17.054324 ], [ -64.702852, -17.054218 ], [ -64.703508, -17.054255 ], [ -64.704165, -17.054379 ], [ -64.704956, -17.054358 ], [ -64.705473, -17.053866 ], [ -64.705783, -17.053282 ], [ -64.705625, -17.052488 ], [ -64.705427, -17.051635 ], [ -64.704891, -17.051292 ], [ -64.70342, -17.051064 ], [ -64.702278, -17.051115 ], [ -64.70116, -17.051609 ], [ -64.700392, -17.05208 ], [ -64.699745, -17.052271 ], [ -64.698916, -17.052194 ], [ -64.69817, -17.0518 ], [ -64.697562, -17.051379 ], [ -64.69724, -17.050435 ], [ -64.697035, -17.049231 ], [ -64.697304, -17.048482 ], [ -64.697649, -17.047892 ], [ -64.698301, -17.047342 ], [ -64.699073, -17.046977 ], [ -64.6995, -17.046371 ], [ -64.699825, -17.045804 ], [ -64.70001, -17.045104 ], [ -64.699869, -17.043929 ], [ -64.699132, -17.042946 ], [ -64.698238, -17.042174 ], [ -64.6975, -17.04184 ], [ -64.696881, -17.041466 ], [ -64.696289, -17.041198 ], [ -64.695428, -17.041312 ], [ -64.694519, -17.041449 ], [ -64.693927, -17.041913 ], [ -64.693694, -17.042474 ], [ -64.693819, -17.043205 ], [ -64.694079, -17.043819 ], [ -64.694159, -17.044507 ], [ -64.693929, -17.045104 ], [ -64.693361, -17.045186 ], [ -64.692733, -17.045174 ], [ -64.692252, -17.04499 ], [ -64.691778, -17.044286 ], [ -64.692001, -17.04332 ], [ -64.692234, -17.042716 ], [ -64.692542, -17.042082 ], [ -64.692955, -17.041591 ], [ -64.693324, -17.041143 ], [ -64.693953, -17.040522 ], [ -64.694164, -17.040032 ], [ -64.69462, -17.039368 ], [ -64.69517, -17.039191 ], [ -64.695813, -17.039372 ], [ -64.696502, -17.039711 ], [ -64.697101, -17.039538 ], [ -64.697467, -17.039215 ], [ -64.697669, -17.038482 ], [ -64.697902, -17.037834 ], [ -64.697895, -17.037131 ], [ -64.697637, -17.036632 ], [ -64.697339, -17.03575 ], [ -64.697071, -17.035044 ], [ -64.696945, -17.034227 ], [ -64.696968, -17.033496 ], [ -64.696976, -17.032706 ], [ -64.696776, -17.032077 ], [ -64.696503, -17.031563 ], [ -64.695253, -17.030472 ], [ -64.694703, -17.030344 ], [ -64.69406, -17.030177 ], [ -64.693462, -17.030039 ], [ -64.692635, -17.029596 ], [ -64.692164, -17.029369 ], [ -64.691791, -17.028757 ], [ -64.691736, -17.02827 ], [ -64.692054, -17.027655 ], [ -64.692783, -17.027405 ], [ -64.693364, -17.0274 ], [ -64.694021, -17.027538 ], [ -64.694724, -17.027719 ], [ -64.695456, -17.027899 ], [ -64.696039, -17.028023 ], [ -64.696781, -17.028029 ], [ -64.697261, -17.027927 ], [ -64.697735, -17.027679 ], [ -64.698, -17.02729 ], [ -64.698011, -17.026845 ], [ -64.697753, -17.026316 ], [ -64.697221, -17.025811 ], [ -64.696882, -17.025592 ], [ -64.69627, -17.025554 ], [ -64.695585, -17.02566 ], [ -64.694825, -17.025738 ], [ -64.693694, -17.026006 ], [ -64.69251, -17.026212 ], [ -64.691928, -17.026064 ], [ -64.69136, -17.025896 ], [ -64.690925, -17.025613 ], [ -64.690519, -17.025287 ], [ -64.690157, -17.024802 ], [ -64.689648, -17.024505 ], [ -64.689085, -17.024478 ], [ -64.688501, -17.024629 ], [ -64.688163, -17.025177 ], [ -64.688018, -17.02568 ], [ -64.688128, -17.026296 ], [ -64.688356, -17.026811 ], [ -64.688228, -17.027443 ], [ -64.688007, -17.027885 ], [ -64.687279, -17.028025 ], [ -64.686665, -17.027829 ], [ -64.686257, -17.027215 ], [ -64.686135, -17.026563 ], [ -64.686172, -17.025997 ], [ -64.686405, -17.025378 ], [ -64.686668, -17.024773 ], [ -64.686917, -17.024255 ], [ -64.68688, -17.023719 ], [ -64.686802, -17.023137 ], [ -64.686513, -17.022479 ], [ -64.686122, -17.022038 ], [ -64.685655, -17.021597 ], [ -64.684966, -17.02123 ], [ -64.684506, -17.020884 ], [ -64.684704, -17.019364 ], [ -64.683319, -17.019322 ], [ -64.682097, -17.018906 ], [ -64.681367, -17.018596 ], [ -64.680489, -17.018202 ], [ -64.67975, -17.017845 ], [ -64.67899, -17.017373 ], [ -64.678224, -17.016972 ], [ -64.677497, -17.016284 ], [ -64.676642, -17.015144 ], [ -64.675764, -17.014266 ], [ -64.674939, -17.013651 ], [ -64.67389, -17.01311 ], [ -64.672744, -17.012785 ], [ -64.671825, -17.012792 ], [ -64.670933, -17.013111 ], [ -64.67002, -17.013811 ], [ -64.669171, -17.01444 ], [ -64.668331, -17.015021 ], [ -64.667292, -17.015531 ], [ -64.666375, -17.015874 ], [ -64.665183, -17.015859 ], [ -64.664088, -17.015701 ], [ -64.663313, -17.015181 ], [ -64.662858, -17.014372 ], [ -64.662652, -17.013537 ], [ -64.662643, -17.012461 ], [ -64.662832, -17.011432 ], [ -64.663471, -17.010542 ], [ -64.664307, -17.009626 ], [ -64.665144, -17.008687 ], [ -64.665634, -17.007846 ], [ -64.665946, -17.006672 ], [ -64.665861, -17.005477 ], [ -64.665502, -17.004237 ], [ -64.664998, -17.003381 ], [ -64.664321, -17.002693 ], [ -64.663471, -17.002126 ], [ -64.662326, -17.00192 ], [ -64.661059, -17.001906 ], [ -64.659918, -17.002203 ], [ -64.65873, -17.002738 ], [ -64.657643, -17.003464 ], [ -64.656663, -17.0044 ], [ -64.655628, -17.005484 ], [ -64.654594, -17.006545 ], [ -64.65383, -17.00722 ], [ -64.652965, -17.007754 ], [ -64.651974, -17.00812 ], [ -64.650709, -17.00837 ], [ -64.649568, -17.008594 ], [ -64.648425, -17.008627 ], [ -64.647257, -17.008637 ], [ -64.646112, -17.008431 ], [ -64.644966, -17.008129 ], [ -64.643845, -17.007756 ], [ -64.642698, -17.007311 ], [ -64.641396, -17.006723 ], [ -64.640099, -17.006184 ], [ -64.638801, -17.005573 ], [ -64.63743, -17.005034 ], [ -64.635986, -17.004759 ], [ -64.634668, -17.00465 ], [ -64.633275, -17.00447 ], [ -64.632131, -17.004311 ], [ -64.631063, -17.004368 ], [ -64.62981, -17.004617 ], [ -64.628697, -17.005194 ], [ -64.627865, -17.005918 ], [ -64.627128, -17.00691 ], [ -64.626733, -17.007989 ], [ -64.626742, -17.009065 ], [ -64.62697, -17.010288 ], [ -64.627571, -17.011509 ], [ -64.628357, -17.012608 ], [ -64.629328, -17.013557 ], [ -64.630265, -17.014147 ], [ -64.631356, -17.014497 ], [ -64.632381, -17.014578 ], [ -64.633345, -17.0146 ], [ -64.634277, -17.014623 ], [ -64.635366, -17.014901 ], [ -64.636489, -17.015358 ], [ -64.637689, -17.016209 ], [ -64.638609, -17.01715 ], [ -64.639274, -17.018139 ], [ -64.639982, -17.019549 ], [ -64.640429, -17.020712 ], [ -64.640717, -17.0218 ], [ -64.640767, -17.023005 ], [ -64.640898, -17.02427 ], [ -64.640987, -17.025417 ], [ -64.641058, -17.026717 ], [ -64.641168, -17.027883 ], [ -64.641317, -17.02901 ], [ -64.641526, -17.030252 ], [ -64.641578, -17.031609 ], [ -64.641472, -17.03314 ], [ -64.641337, -17.034116 ], [ -64.640924, -17.035239 ], [ -64.64032, -17.036105 ], [ -64.639671, -17.036913 ], [ -64.638664, -17.037725 ], [ -64.637759, -17.038263 ], [ -64.636703, -17.038573 ], [ -64.635572, -17.038854 ], [ -64.634529, -17.038977 ], [ -64.633441, -17.039072 ], [ -64.632307, -17.038967 ], [ -64.631097, -17.038661 ], [ -64.630073, -17.038317 ], [ -64.629371, -17.038024 ], [ -64.628493, -17.037591 ], [ -64.627413, -17.036911 ], [ -64.626472, -17.036192 ], [ -64.625591, -17.035377 ], [ -64.624807, -17.034465 ], [ -64.624221, -17.033387 ], [ -64.624154, -17.032546 ], [ -64.624365, -17.031569 ], [ -64.624696, -17.030744 ], [ -64.625305, -17.029916 ], [ -64.626114, -17.029279 ], [ -64.626844, -17.028546 ], [ -64.627493, -17.027737 ], [ -64.628023, -17.026987 ], [ -64.628374, -17.026143 ], [ -64.628644, -17.025165 ], [ -64.628835, -17.024265 ], [ -64.628766, -17.023194 ], [ -64.628519, -17.022259 ], [ -64.628193, -17.021343 ], [ -64.627667, -17.020238 ], [ -64.626962, -17.019211 ], [ -64.626178, -17.018242 ], [ -64.625296, -17.017369 ], [ -64.624254, -17.016478 ], [ -64.622951, -17.015704 ], [ -64.621873, -17.015139 ], [ -64.620916, -17.014841 ], [ -64.619821, -17.014658 ], [ -64.618729, -17.014743 ], [ -64.617876, -17.015018 ], [ -64.616987, -17.015675 ], [ -64.616437, -17.016426 ], [ -64.615907, -17.017195 ], [ -64.615797, -17.018305 ], [ -64.615807, -17.019453 ], [ -64.616156, -17.020712 ], [ -64.616603, -17.021837 ], [ -64.617327, -17.022822 ], [ -64.618249, -17.023676 ], [ -64.619073, -17.024798 ], [ -64.619741, -17.026093 ], [ -64.620348, -17.027351 ], [ -64.620657, -17.02863 ], [ -64.620629, -17.029954 ], [ -64.620501, -17.031274 ], [ -64.620152, -17.03231 ], [ -64.619307, -17.033484 ], [ -64.618203, -17.034525 ], [ -64.617413, -17.035163 ], [ -64.616224, -17.035574 ], [ -64.615111, -17.035659 ], [ -64.614055, -17.035419 ], [ -64.613077, -17.034987 ], [ -64.612272, -17.034392 ], [ -64.611781, -17.033666 ], [ -64.611463, -17.032748 ], [ -64.611155, -17.031639 ], [ -64.610949, -17.030792 ], [ -64.610759, -17.030126 ], [ -64.610545, -17.029525 ], [ -64.610194, -17.028653 ], [ -64.60971, -17.027868 ], [ -64.609108, -17.027198 ], [ -64.608149, -17.026661 ], [ -64.607161, -17.02621 ], [ -64.60625, -17.025944 ], [ -64.60522, -17.025838 ], [ -64.604057, -17.025919 ], [ -64.603104, -17.02607 ], [ -64.602033, -17.026336 ], [ -64.60058, -17.026782 ], [ -64.59961, -17.027249 ], [ -64.59878, -17.027772 ], [ -64.597931, -17.028467 ], [ -64.596843, -17.029221 ], [ -64.595755, -17.029861 ], [ -64.594706, -17.030424 ], [ -64.593638, -17.031006 ], [ -64.592491, -17.031742 ], [ -64.59168, -17.032322 ], [ -64.590811, -17.032922 ], [ -64.59004, -17.033502 ], [ -64.588954, -17.034314 ], [ -64.588203, -17.034893 ], [ -64.587575, -17.035613 ], [ -64.587048, -17.036727 ], [ -64.586779, -17.037915 ], [ -64.586928, -17.039004 ], [ -64.587476, -17.0403 ], [ -64.588381, -17.041555 ], [ -64.58914, -17.042028 ], [ -64.590058, -17.042327 ], [ -64.591232, -17.04247 ], [ -64.592541, -17.042078 ], [ -64.593554, -17.041496 ], [ -64.594384, -17.040935 ], [ -64.595234, -17.040354 ], [ -64.595886, -17.039756 ], [ -64.596457, -17.039178 ], [ -64.597147, -17.038407 ], [ -64.597898, -17.037923 ], [ -64.59889, -17.037647 ], [ -64.600159, -17.037293 ], [ -64.60133, -17.036978 ], [ -64.602337, -17.036587 ], [ -64.603168, -17.036179 ], [ -64.604059, -17.035713 ], [ -64.605069, -17.035265 ], [ -64.606141, -17.035065 ], [ -64.607433, -17.034998 ], [ -64.608588, -17.035199 ], [ -64.609704, -17.035554 ], [ -64.610764, -17.03631 ], [ -64.611489, -17.03728 ], [ -64.611837, -17.038463 ], [ -64.611847, -17.039687 ], [ -64.611558, -17.04078 ], [ -64.611111, -17.041686 ], [ -64.610582, -17.042594 ], [ -64.609992, -17.04333 ], [ -64.609074, -17.044055 ], [ -64.608064, -17.044536 ], [ -64.607364, -17.044642 ], [ -64.606335, -17.044736 ], [ -64.60526, -17.044587 ], [ -64.604141, -17.04451 ], [ -64.603049, -17.044691 ], [ -64.601958, -17.04501 ], [ -64.600844, -17.045449 ], [ -64.599656, -17.046056 ], [ -64.598358, -17.046838 ], [ -64.597494, -17.047532 ], [ -64.596848, -17.048344 ], [ -64.596235, -17.049275 ], [ -64.595499, -17.050447 ], [ -64.594767, -17.051481 ], [ -64.594116, -17.05228 ], [ -64.593223, -17.053214 ], [ -64.592515, -17.053937 ], [ -64.591338, -17.054394 ], [ -64.590469, -17.054461 ], [ -64.589193, -17.054321 ], [ -64.58807, -17.053977 ], [ -64.587104, -17.053352 ], [ -64.586319, -17.052431 ], [ -64.585626, -17.051301 ], [ -64.585366, -17.049958 ], [ -64.585319, -17.048105 ], [ -64.585222, -17.046372 ], [ -64.584804, -17.044701 ], [ -64.583952, -17.043154 ], [ -64.582822, -17.041818 ], [ -64.581508, -17.040632 ], [ -64.580163, -17.039597 ], [ -64.579037, -17.038709 ], [ -64.578469, -17.037667 ], [ -64.577993, -17.036446 ], [ -64.577676, -17.035701 ], [ -64.576921, -17.034571 ], [ -64.575763, -17.033624 ], [ -64.574483, -17.032767 ], [ -64.572988, -17.03242 ], [ -64.571621, -17.032341 ], [ -64.569883, -17.032563 ], [ -64.568303, -17.033113 ], [ -64.566787, -17.033902 ], [ -64.565645, -17.034778 ], [ -64.564872, -17.035202 ], [ -64.564068, -17.035657 ], [ -64.563484, -17.036378 ], [ -64.563306, -17.037456 ], [ -64.563349, -17.0388 ], [ -64.563702, -17.040232 ], [ -64.564458, -17.041422 ], [ -64.565523, -17.04249 ], [ -64.566526, -17.043558 ], [ -64.567903, -17.044713 ], [ -64.568965, -17.045452 ], [ -64.569966, -17.046251 ], [ -64.570844, -17.047141 ], [ -64.572283, -17.048415 ], [ -64.573364, -17.0491 ], [ -64.574769, -17.049866 ], [ -64.57642, -17.050451 ], [ -64.577761, -17.051068 ], [ -64.579072, -17.051775 ], [ -64.579886, -17.052516 ], [ -64.580643, -17.053825 ], [ -64.58084, -17.055079 ], [ -64.58057, -17.056247 ], [ -64.580083, -17.057416 ], [ -64.579593, -17.058316 ], [ -64.578979, -17.05914 ], [ -64.577803, -17.059717 ], [ -64.576345, -17.060057 ], [ -64.575134, -17.060096 ], [ -64.574168, -17.059745 ], [ -64.573075, -17.059096 ], [ -64.572107, -17.058566 ], [ -64.570892, -17.058097 ], [ -64.569585, -17.057898 ], [ -64.568188, -17.057998 ], [ -64.566947, -17.058307 ], [ -64.565772, -17.058914 ], [ -64.564691, -17.059699 ], [ -64.56383, -17.060811 ], [ -64.563125, -17.062012 ], [ -64.562451, -17.063123 ], [ -64.561931, -17.064114 ], [ -64.561314, -17.064686 ], [ -64.560073, -17.065634 ], [ -64.559055, -17.066449 ], [ -64.557696, -17.067476 ], [ -64.55643, -17.068472 ], [ -64.555165, -17.069557 ], [ -64.553714, -17.069951 ], [ -64.551998, -17.069856 ], [ -64.550652, -17.069436 ], [ -64.54964, -17.068798 ], [ -64.54907, -17.067497 ], [ -64.548912, -17.066423 ], [ -64.549012, -17.064987 ], [ -64.549523, -17.063621 ], [ -64.550071, -17.062289 ], [ -64.550359, -17.060996 ], [ -64.550349, -17.059741 ], [ -64.550115, -17.058487 ], [ -64.549433, -17.057273 ], [ -64.548419, -17.056313 ], [ -64.54707, -17.055462 ], [ -64.54524, -17.055153 ], [ -64.543635, -17.05495 ], [ -64.542444, -17.055175 ], [ -64.54077, -17.055653 ], [ -64.538948, -17.056241 ], [ -64.5372, -17.056756 ], [ -64.535524, -17.057056 ], [ -64.532939, -17.057363 ], [ -64.530703, -17.057487 ], [ -64.529097, -17.05714 ], [ -64.527157, -17.056976 ], [ -64.524768, -17.056707 ], [ -64.522716, -17.056507 ], [ -64.521299, -17.056482 ], [ -64.519958, -17.056671 ], [ -64.51862, -17.057147 ], [ -64.51747, -17.057909 ], [ -64.516434, -17.058885 ], [ -64.515772, -17.060074 ], [ -64.515597, -17.061474 ], [ -64.515906, -17.062727 ], [ -64.516435, -17.063584 ], [ -64.51711, -17.064116 ], [ -64.518083, -17.064504 ], [ -64.519233, -17.064725 ], [ -64.520499, -17.064572 ], [ -64.521728, -17.064311 ], [ -64.523253, -17.06387 ], [ -64.524779, -17.063571 ], [ -64.526122, -17.063669 ], [ -64.527693, -17.064231 ], [ -64.52908, -17.065081 ], [ -64.53002, -17.066078 ], [ -64.530552, -17.067329 ], [ -64.531235, -17.068831 ], [ -64.532179, -17.070258 ], [ -64.533569, -17.071467 ], [ -64.535405, -17.072565 ], [ -64.537158, -17.072944 ], [ -64.538688, -17.073076 ], [ -64.539994, -17.073174 ], [ -64.541152, -17.073524 ], [ -64.542499, -17.074016 ], [ -64.543624, -17.074796 ], [ -64.544751, -17.075864 ], [ -64.545693, -17.07704 ], [ -64.546525, -17.078432 ], [ -64.547172, -17.080041 ], [ -64.547632, -17.081544 ], [ -64.547868, -17.083056 ], [ -64.548477, -17.084486 ], [ -64.54912, -17.085557 ], [ -64.549578, -17.08688 ], [ -64.549475, -17.087957 ], [ -64.548997, -17.088785 ], [ -64.548218, -17.089329 ], [ -64.547101, -17.089517 ], [ -64.545796, -17.089455 ], [ -64.544228, -17.089288 ], [ -64.542659, -17.089013 ], [ -64.541203, -17.088737 ], [ -64.539897, -17.088711 ], [ -64.538104, -17.089033 ], [ -64.53664, -17.089402 ], [ -64.535351, -17.089819 ], [ -64.53389, -17.090523 ], [ -64.532431, -17.091514 ], [ -64.531021, -17.092362 ], [ -64.529239, -17.093332 ], [ -64.527678, -17.093989 ], [ -64.526314, -17.094358 ], [ -64.524976, -17.094942 ], [ -64.523838, -17.09562 ], [ -64.523024, -17.096439 ], [ -64.521815, -17.097548 ], [ -64.520579, -17.09849 ], [ -64.519736, -17.098807 ], [ -64.518966, -17.09886 ], [ -64.518002, -17.09879 ], [ -64.517253, -17.098377 ], [ -64.516157, -17.097399 ], [ -64.515185, -17.09633 ], [ -64.513994, -17.095084 ], [ -64.512709, -17.093749 ], [ -64.511831, -17.092769 ], [ -64.510735, -17.091731 ], [ -64.509486, -17.090933 ], [ -64.507988, -17.090197 ], [ -64.506616, -17.08967 ], [ -64.505433, -17.089409 ], [ -64.504253, -17.089448 ], [ -64.503104, -17.089576 ], [ -64.501864, -17.090004 ], [ -64.500595, -17.090641 ], [ -64.499669, -17.091395 ], [ -64.49912, -17.092684 ], [ -64.498882, -17.094091 ], [ -64.498834, -17.095765 ], [ -64.498845, -17.097139 ], [ -64.498997, -17.098469 ], [ -64.49899, -17.099484 ], [ -64.498774, -17.100479 ], [ -64.498543, -17.10136 ], [ -64.498072, -17.102205 ], [ -64.497482, -17.103032 ], [ -64.496851, -17.103726 ], [ -64.496336, -17.10394 ], [ -64.495522, -17.104214 ], [ -64.494731, -17.104747 ], [ -64.49386, -17.105308 ], [ -64.49285, -17.105832 ], [ -64.491681, -17.106434 ], [ -64.490016, -17.107173 ], [ -64.489207, -17.107925 ], [ -64.488199, -17.108774 ], [ -64.487328, -17.109316 ], [ -64.486543, -17.109828 ], [ -64.485553, -17.110462 ], [ -64.484471, -17.111218 ], [ -64.483761, -17.111761 ], [ -64.482926, -17.112335 ], [ -64.481783, -17.11315 ], [ -64.480732, -17.113875 ], [ -64.479651, -17.11481 ], [ -64.478665, -17.115833 ], [ -64.477986, -17.116495 ], [ -64.47734, -17.117397 ], [ -64.476881, -17.118267 ], [ -64.476623, -17.119421 ], [ -64.47665, -17.12045 ], [ -64.476811, -17.121196 ], [ -64.47719, -17.121941 ], [ -64.477879, -17.122623 ], [ -64.478784, -17.123095 ], [ -64.47997, -17.123654 ], [ -64.481185, -17.124064 ], [ -64.482306, -17.124354 ], [ -64.483553, -17.124763 ], [ -64.484799, -17.125143 ], [ -64.485984, -17.125642 ], [ -64.487171, -17.126351 ], [ -64.488015, -17.126972 ], [ -64.488925, -17.127982 ], [ -64.489369, -17.129054 ], [ -64.489565, -17.130338 ], [ -64.489388, -17.131445 ], [ -64.489024, -17.132584 ], [ -64.488535, -17.133633 ], [ -64.487921, -17.134684 ], [ -64.48718, -17.135317 ], [ -64.485879, -17.135805 ], [ -64.484266, -17.136295 ], [ -64.48281, -17.136873 ], [ -64.481697, -17.137659 ], [ -64.48083, -17.138084 ], [ -64.4799, -17.138389 ], [ -64.47903, -17.138425 ], [ -64.477879, -17.138314 ], [ -64.476788, -17.138023 ], [ -64.47545, -17.137764 ], [ -64.474351, -17.137284 ], [ -64.47357, -17.136677 ], [ -64.472809, -17.135956 ], [ -64.471968, -17.135273 ], [ -64.471266, -17.134571 ], [ -64.470625, -17.134002 ], [ -64.469786, -17.133606 ], [ -64.468927, -17.133172 ], [ -64.46791, -17.132855 ], [ -64.466596, -17.132673 ], [ -64.465103, -17.132569 ], [ -64.46403, -17.132691 ], [ -64.463256, -17.132907 ], [ -64.462223, -17.133221 ], [ -64.461233, -17.133706 ], [ -64.460498, -17.134381 ], [ -64.45981, -17.135496 ], [ -64.459164, -17.136782 ], [ -64.458735, -17.13799 ], [ -64.45813, -17.139391 ], [ -64.457759, -17.140312 ], [ -64.457147, -17.140966 ], [ -64.455739, -17.141493 ], [ -64.454528, -17.141903 ], [ -64.453356, -17.142065 ], [ -64.452321, -17.142034 ], [ -64.450865, -17.141566 ], [ -64.449509, -17.141098 ], [ -64.448089, -17.140228 ], [ -64.447269, -17.139622 ], [ -64.446366, -17.13871 ], [ -64.44562, -17.137376 ], [ -64.445054, -17.136156 ], [ -64.444367, -17.134841 ], [ -64.443742, -17.133794 ], [ -64.442738, -17.132519 ], [ -64.441576, -17.131571 ], [ -64.440497, -17.130871 ], [ -64.439259, -17.130287 ], [ -64.437963, -17.129914 ], [ -64.436609, -17.129789 ], [ -64.435297, -17.129875 ], [ -64.434166, -17.130304 ], [ -64.433017, -17.130924 ], [ -64.431751, -17.131832 ], [ -64.431378, -17.132485 ], [ -64.430911, -17.133847 ], [ -64.430466, -17.135514 ], [ -64.430282, -17.137428 ], [ -64.430554, -17.139186 ], [ -64.431204, -17.140953 ], [ -64.431809, -17.142077 ], [ -64.432754, -17.143314 ], [ -64.433659, -17.144531 ], [ -64.434403, -17.145674 ], [ -64.435065, -17.147046 ], [ -64.435448, -17.148454 ], [ -64.435682, -17.149768 ], [ -64.435767, -17.151082 ], [ -64.435726, -17.152206 ], [ -64.435611, -17.153379 ], [ -64.435496, -17.154599 ], [ -64.435182, -17.155797 ], [ -64.434598, -17.156865 ], [ -64.432675, -17.158578 ], [ -64.431865, -17.159021 ], [ -64.431204, -17.159377 ], [ -64.430467, -17.15964 ], [ -64.429885, -17.1598 ], [ -64.429244, -17.159822 ], [ -64.428869, -17.15977 ], [ -64.428247, -17.159655 ], [ -64.427468, -17.159481 ], [ -64.42675, -17.159068 ], [ -64.426186, -17.158504 ], [ -64.425714, -17.15773 ], [ -64.425303, -17.156837 ], [ -64.425046, -17.155822 ], [ -64.424851, -17.154718 ], [ -64.424655, -17.153404 ], [ -64.424675, -17.151999 ], [ -64.42476, -17.150863 ], [ -64.425028, -17.149367 ], [ -64.425326, -17.147721 ], [ -64.425435, -17.146252 ], [ -64.425381, -17.145133 ], [ -64.425238, -17.143929 ], [ -64.424917, -17.142999 ], [ -64.424644, -17.142384 ], [ -64.424191, -17.141713 ], [ -64.423514, -17.140957 ], [ -64.42281, -17.14056 ], [ -64.422196, -17.140335 ], [ -64.421285, -17.140227 ], [ -64.420552, -17.140304 ], [ -64.419926, -17.14048 ], [ -64.419287, -17.140815 ], [ -64.418561, -17.141437 ], [ -64.41797, -17.142302 ], [ -64.417365, -17.143066 ], [ -64.41679, -17.144046 ], [ -64.416187, -17.145272 ], [ -64.41566, -17.14651 ], [ -64.415428, -17.147387 ], [ -64.415166, -17.14835 ], [ -64.414829, -17.149084 ], [ -64.414459, -17.149545 ], [ -64.413911, -17.150137 ], [ -64.413244, -17.150716 ], [ -64.41259, -17.151079 ], [ -64.411995, -17.15127 ], [ -64.411235, -17.151347 ], [ -64.410279, -17.151325 ], [ -64.409637, -17.151128 ], [ -64.409087, -17.15075 ], [ -64.408287, -17.150181 ], [ -64.407561, -17.149469 ], [ -64.406958, -17.148636 ], [ -64.406005, -17.147615 ], [ -64.405276, -17.146664 ], [ -64.404747, -17.145735 ], [ -64.404416, -17.144661 ], [ -64.404301, -17.143709 ], [ -64.404345, -17.143004 ], [ -64.40419, -17.142228 ], [ -64.403848, -17.141333 ], [ -64.403369, -17.14056 ], [ -64.402656, -17.139943 ], [ -64.402156, -17.139576 ], [ -64.401596, -17.139263 ], [ -64.400857, -17.138828 ], [ -64.40006, -17.138623 ], [ -64.398886, -17.138612 ], [ -64.397893, -17.138849 ], [ -64.396981, -17.139238 ], [ -64.396108, -17.139645 ], [ -64.395197, -17.140187 ], [ -64.394308, -17.140997 ], [ -64.393399, -17.141864 ], [ -64.392886, -17.142422 ], [ -64.391996, -17.143193 ], [ -64.391524, -17.143885 ], [ -64.391093, -17.144807 ], [ -64.390802, -17.145727 ], [ -64.390548, -17.146455 ], [ -64.390555, -17.147335 ], [ -64.390859, -17.148079 ], [ -64.391501, -17.148763 ], [ -64.392281, -17.14937 ], [ -64.393099, -17.149613 ], [ -64.394053, -17.149473 ], [ -64.395007, -17.14937 ], [ -64.395982, -17.149325 ], [ -64.396976, -17.14928 ], [ -64.398129, -17.1491 ], [ -64.399521, -17.149052 ], [ -64.400736, -17.149235 ], [ -64.401709, -17.149424 ], [ -64.402866, -17.149913 ], [ -64.403924, -17.150288 ], [ -64.40494, -17.150587 ], [ -64.405997, -17.150867 ], [ -64.406916, -17.1513 ], [ -64.407956, -17.152077 ], [ -64.408678, -17.152818 ], [ -64.409302, -17.153789 ], [ -64.409827, -17.154838 ], [ -64.410154, -17.155907 ], [ -64.410341, -17.157034 ], [ -64.410331, -17.158247 ], [ -64.410217, -17.159032 ], [ -64.409906, -17.159991 ], [ -64.409355, -17.160855 ], [ -64.408823, -17.161528 ], [ -64.408111, -17.16205 ], [ -64.40712, -17.162573 ], [ -64.406049, -17.163078 ], [ -64.405175, -17.163275 ], [ -64.404618, -17.163241 ], [ -64.404159, -17.163072 ], [ -64.403599, -17.162751 ], [ -64.403118, -17.162257 ], [ -64.402298, -17.16165 ], [ -64.401377, -17.16093 ], [ -64.400536, -17.160151 ], [ -64.399772, -17.159219 ], [ -64.39907, -17.158421 ], [ -64.398366, -17.15745 ], [ -64.397941, -17.156439 ], [ -64.397358, -17.155602 ], [ -64.396656, -17.15488 ], [ -64.395815, -17.154159 ], [ -64.394836, -17.153706 ], [ -64.393859, -17.153426 ], [ -64.392824, -17.153357 ], [ -64.39181, -17.153459 ], [ -64.390838, -17.153753 ], [ -64.390005, -17.154141 ], [ -64.389232, -17.154625 ], [ -64.388323, -17.155396 ], [ -64.387534, -17.15632 ], [ -64.386946, -17.157529 ], [ -64.386557, -17.158775 ], [ -64.386328, -17.160058 ], [ -64.386178, -17.16128 ], [ -64.386123, -17.161949 ], [ -64.386268, -17.162694 ], [ -64.386433, -17.163535 ], [ -64.38654, -17.164491 ], [ -64.386823, -17.165063 ], [ -64.387245, -17.165614 ], [ -64.387805, -17.165993 ], [ -64.388702, -17.166236 ], [ -64.38952, -17.166536 ], [ -64.390297, -17.166626 ], [ -64.390853, -17.166489 ], [ -64.391429, -17.16637 ], [ -64.392205, -17.166422 ], [ -64.393161, -17.166492 ], [ -64.394196, -17.166561 ], [ -64.395253, -17.166879 ], [ -64.396171, -17.167217 ], [ -64.39721, -17.167784 ], [ -64.39813, -17.168351 ], [ -64.398892, -17.169207 ], [ -64.399556, -17.170216 ], [ -64.399963, -17.171342 ], [ -64.40003, -17.172374 ], [ -64.399906, -17.173341 ], [ -64.399659, -17.174261 ], [ -64.39919, -17.17534 ], [ -64.3986, -17.176291 ], [ -64.398022, -17.176783 ], [ -64.397531, -17.177016 ], [ -64.396735, -17.177045 ], [ -64.39579, -17.177076 ], [ -64.394928, -17.176937 ], [ -64.39362, -17.176302 ], [ -64.392471, -17.17564 ], [ -64.391158, -17.174956 ], [ -64.389636, -17.174345 ], [ -64.388042, -17.174069 ], [ -64.38655, -17.174175 ], [ -64.385333, -17.174422 ], [ -64.384566, -17.174906 ], [ -64.38385, -17.175628 ], [ -64.383148, -17.176589 ], [ -64.382408, -17.177491 ], [ -64.381521, -17.178537 ], [ -64.381044, -17.179616 ], [ -64.380458, -17.181091 ], [ -64.3797, -17.182312 ], [ -64.378973, -17.183464 ], [ -64.378682, -17.184518 ], [ -64.378352, -17.185687 ], [ -64.377844, -17.186953 ], [ -64.377177, -17.188182 ], [ -64.376209, -17.189184 ], [ -64.375574, -17.189417 ], [ -64.3747, -17.189634 ], [ -64.374123, -17.189695 ], [ -64.373306, -17.189548 ], [ -64.372639, -17.189308 ], [ -64.371708, -17.188583 ], [ -64.370776, -17.187671 ], [ -64.369739, -17.186688 ], [ -64.368763, -17.185834 ], [ -64.367906, -17.185036 ], [ -64.367097, -17.184569 ], [ -64.365643, -17.184191 ], [ -64.364537, -17.183969 ], [ -64.363417, -17.183847 ], [ -64.362312, -17.183855 ], [ -64.361299, -17.18402 ], [ -64.3603, -17.18417 ], [ -64.350763, -17.196778 ], [ -64.350059, -17.196988 ], [ -64.348524, -17.197318 ], [ -64.347026, -17.197249 ], [ -64.345477, -17.196891 ], [ -64.343962, -17.196284 ], [ -64.343304, -17.196073 ], [ -64.342646, -17.195891 ], [ -64.342136, -17.195579 ], [ -64.341582, -17.195367 ], [ -64.340911, -17.195371 ], [ -64.34027, -17.195519 ], [ -64.339734, -17.195752 ], [ -64.339199, -17.196043 ], [ -64.338605, -17.19652 ], [ -64.33819, -17.196896 ], [ -64.337835, -17.197343 ], [ -64.337346, -17.197777 ], [ -64.3369, -17.198009 ], [ -64.336363, -17.198156 ], [ -64.335828, -17.198504 ], [ -64.335156, -17.199173 ], [ -64.334942, -17.199729 ], [ -64.334745, -17.200094 ], [ -64.334468, -17.200326 ], [ -64.334011, -17.200443 ], [ -64.333593, -17.200427 ], [ -64.333056, -17.200488 ], [ -64.33256, -17.200663 ], [ -64.332284, -17.200971 ], [ -64.332267, -17.201373 ], [ -64.332529, -17.201945 ], [ -64.332791, -17.202364 ], [ -64.333173, -17.202936 ], [ -64.333416, -17.203451 ], [ -64.333679, -17.204099 ], [ -64.333962, -17.204671 ], [ -64.334244, -17.205167 ], [ -64.334724, -17.205527 ], [ -64.335345, -17.206039 ], [ -64.335857, -17.206448 ], [ -64.33614, -17.206985 ], [ -64.336176, -17.207582 ], [ -64.336066, -17.208238 ], [ -64.335791, -17.208957 ], [ -64.335174, -17.209619 ], [ -64.334555, -17.210131 ], [ -64.334063, -17.210941 ], [ -64.333542, -17.211961 ], [ -64.333176, -17.21295 ], [ -64.332937, -17.214296 ], [ -64.333008, -17.215539 ], [ -64.333175, -17.217092 ], [ -64.33362, -17.218554 ], [ -64.334565, -17.220162 ], [ -64.335382, -17.221382 ], [ -64.336044, -17.222603 ], [ -64.336707, -17.224003 ], [ -64.337186, -17.22565 ], [ -64.337104, -17.227175 ], [ -64.336927, -17.22864 ], [ -64.336658, -17.230047 ], [ -64.336048, -17.231785 ], [ -64.335339, -17.232656 ], [ -64.333914, -17.233443 ], [ -64.332519, -17.23411 ], [ -64.331154, -17.234537 ], [ -64.329538, -17.234847 ], [ -64.328265, -17.235064 ], [ -64.32696, -17.235342 ], [ -64.325811, -17.235589 ], [ -64.324819, -17.235984 ], [ -64.323332, -17.236771 ], [ -64.321909, -17.237886 ], [ -64.321262, -17.238727 ], [ -64.320927, -17.239865 ], [ -64.321153, -17.240999 ], [ -64.321722, -17.242281 ], [ -64.322382, -17.243143 ], [ -64.323068, -17.243467 ], [ -64.324109, -17.243744 ], [ -64.325158, -17.244311 ], [ -64.326356, -17.244769 ], [ -64.327886, -17.244795 ], [ -64.329041, -17.244429 ], [ -64.330269, -17.243883 ], [ -64.331833, -17.243334 ], [ -64.333474, -17.24318 ], [ -64.334556, -17.243173 ], [ -64.335679, -17.24356 ], [ -64.336615, -17.244056 ], [ -64.337704, -17.244909 ], [ -64.338684, -17.246194 ], [ -64.339182, -17.247984 ], [ -64.339568, -17.249811 ], [ -64.339734, -17.252033 ], [ -64.339938, -17.254543 ], [ -64.339989, -17.256371 ], [ -64.34013, -17.258709 ], [ -64.340265, -17.260119 ], [ -64.340376, -17.261672 ], [ -64.340334, -17.26282 ], [ -64.340166, -17.263611 ], [ -64.339722, -17.264211 ], [ -64.339203, -17.264645 ], [ -64.338284, -17.264914 ], [ -64.337413, -17.264944 ], [ -64.336315, -17.264545 ], [ -64.335092, -17.264003 ], [ -64.334042, -17.263412 ], [ -64.332618, -17.262633 ], [ -64.331594, -17.262113 ], [ -64.330722, -17.261928 ], [ -64.329776, -17.261982 ], [ -64.328334, -17.262183 ], [ -64.32652, -17.262434 ], [ -64.32493, -17.262946 ], [ -64.323838, -17.263288 ], [ -64.322647, -17.263727 ], [ -64.321552, -17.263806 ], [ -64.320407, -17.263765 ], [ -64.319287, -17.263773 ], [ -64.317969, -17.263949 ], [ -64.316503, -17.264245 ], [ -64.315362, -17.264707 ], [ -64.314594, -17.265262 ], [ -64.313903, -17.266056 ], [ -64.313227, -17.266993 ], [ -64.312581, -17.268014 ], [ -64.312184, -17.269122 ], [ -64.312162, -17.270377 ], [ -64.312047, -17.271693 ], [ -64.311869, -17.27292 ], [ -64.311658, -17.273938 ], [ -64.311104, -17.274688 ], [ -64.310549, -17.27538 ], [ -64.3099, -17.275982 ], [ -64.309187, -17.276375 ], [ -64.308317, -17.27653 ], [ -64.307449, -17.276954 ], [ -64.306022, -17.277561 ], [ -64.304469, -17.2779 ], [ -64.303474, -17.277996 ], [ -64.302663, -17.277762 ], [ -64.301945, -17.277289 ], [ -64.301322, -17.276312 ], [ -64.301096, -17.275238 ], [ -64.301058, -17.274162 ], [ -64.301362, -17.273233 ], [ -64.301915, -17.272124 ], [ -64.3025, -17.271343 ], [ -64.303492, -17.270828 ], [ -64.304671, -17.270372 ], [ -64.305817, -17.269678 ], [ -64.307056, -17.268892 ], [ -64.30805, -17.267974 ], [ -64.309133, -17.2671 ], [ -64.310586, -17.265746 ], [ -64.311449, -17.264724 ], [ -64.312003, -17.263794 ], [ -64.31215, -17.262567 ], [ -64.31201, -17.261289 ], [ -64.311579, -17.26024 ], [ -64.3109, -17.25924 ], [ -64.310173, -17.258455 ], [ -64.309298, -17.257911 ], [ -64.308325, -17.257511 ], [ -64.307303, -17.257255 ], [ -64.306457, -17.257236 ], [ -64.305636, -17.257385 ], [ -64.304619, -17.257774 ], [ -64.303901, -17.258281 ], [ -64.302835, -17.25891 ], [ -64.302018, -17.259537 ], [ -64.301054, -17.26038 ], [ -64.300138, -17.261175 ], [ -64.298751, -17.262068 ], [ -64.297311, -17.262604 ], [ -64.295674, -17.263332 ], [ -64.294482, -17.263698 ], [ -64.293586, -17.26368 ], [ -64.291969, -17.263738 ], [ -64.290726, -17.263913 ], [ -64.288769, -17.264164 ], [ -64.286894, -17.263914 ], [ -64.285939, -17.264006 ], [ -64.285034, -17.264215 ], [ -64.28382, -17.264735 ], [ -64.283065, -17.265543 ], [ -64.282586, -17.266423 ], [ -64.28227, -17.267429 ], [ -64.282176, -17.268474 ], [ -64.282836, -17.270607 ], [ -64.283649, -17.272242 ], [ -64.284537, -17.274024 ], [ -64.284842, -17.274824 ], [ -64.28491, -17.27575 ], [ -64.284742, -17.277635 ], [ -64.284691, -17.279637 ], [ -64.284418, -17.281004 ], [ -64.283337, -17.282742 ], [ -64.282361, -17.283635 ], [ -64.28127, -17.284353 ], [ -64.280002, -17.284712 ], [ -64.27959, -17.284829 ], [ -64.277629, -17.284611 ], [ -64.276491, -17.284028 ], [ -64.2725, -17.284918 ], [ -64.26766, -17.285297 ], [ -64.26191, -17.285159 ], [ -64.259964, -17.285172 ], [ -64.258405, -17.285105 ], [ -64.256702, -17.284757 ], [ -64.254975, -17.283724 ], [ -64.253653, -17.282254 ], [ -64.252736, -17.28052 ], [ -64.25175, -17.275528 ], [ -64.250815, -17.273452 ], [ -64.249001, -17.271291 ], [ -64.24801, -17.270272 ], [ -64.247327, -17.26995 ], [ -64.246407, -17.270019 ], [ -64.242968, -17.271529 ], [ -64.241211, -17.272013 ], [ -64.239025, -17.271418 ], [ -64.237608, -17.270006 ], [ -64.236904, -17.267136 ], [ -64.235803, -17.264488 ], [ -64.234603, -17.263351 ], [ -64.23286, -17.263122 ], [ -64.231511, -17.263483 ], [ -64.230255, -17.264117 ], [ -64.229094, -17.265727 ], [ -64.228398, -17.267032 ], [ -64.228788, -17.268695 ], [ -64.229266, -17.269638 ], [ -64.229771, -17.271226 ], [ -64.229555, -17.272749 ], [ -64.228888, -17.274623 ], [ -64.228125, -17.275541 ], [ -64.226951, -17.27594 ], [ -64.225771, -17.275512 ], [ -64.22445, -17.274302 ], [ -64.223084, -17.27305 ], [ -64.221268, -17.272148 ], [ -64.219772, -17.271852 ], [ -64.218143, -17.271819 ], [ -64.217195, -17.272216 ], [ -64.216158, -17.272874 ], [ -64.215619, -17.273443 ], [ -64.215248, -17.273984 ], [ -64.215174, -17.274707 ], [ -64.215637, -17.276269 ], [ -64.217053, -17.278174 ], [ -64.21793, -17.280822 ], [ -64.218028, -17.281908 ], [ -64.217854, -17.282953 ], [ -64.217271, -17.283826 ], [ -64.216415, -17.284397 ], [ -64.21542, -17.284533 ], [ -64.213968, -17.28402 ], [ -64.21215, -17.282857 ], [ -64.210697, -17.282213 ], [ -64.208884, -17.281833 ], [ -64.207164, -17.2818 ], [ -64.205672, -17.282026 ], [ -64.202013, -17.283266 ], [ -64.198492, -17.284765 ], [ -64.196508, -17.285908 ], [ -64.19539, -17.287027 ], [ -64.195299, -17.287915 ], [ -64.195711, -17.288696 ], [ -64.196963, -17.289525 ], [ -64.199344, -17.290457 ], [ -64.201117, -17.291577 ], [ -64.20212, -17.292702 ], [ -64.202671, -17.293872 ], [ -64.202724, -17.295046 ], [ -64.202461, -17.296396 ], [ -64.201653, -17.297488 ], [ -64.200754, -17.29845 ], [ -64.199041, -17.299547 ], [ -64.198412, -17.300334 ], [ -64.197697, -17.301817 ], [ -64.19666, -17.302475 ], [ -64.195443, -17.303222 ], [ -64.194908, -17.304442 ], [ -64.195233, -17.305745 ], [ -64.195691, -17.306525 ], [ -64.197053, -17.307169 ], [ -64.198324, -17.307727 ], [ -64.199685, -17.308197 ], [ -64.200824, -17.309277 ], [ -64.202141, -17.309878 ], [ -64.203455, -17.310044 ], [ -64.204631, -17.309863 ], [ -64.205306, -17.309294 ], [ -64.205977, -17.308029 ], [ -64.206209, -17.306485 ], [ -64.206452, -17.304504 ], [ -64.207304, -17.303281 ], [ -64.208205, -17.302623 ], [ -64.209336, -17.302443 ], [ -64.210107, -17.302786 ], [ -64.210975, -17.303955 ], [ -64.211307, -17.304771 ], [ -64.210403, -17.30808 ], [ -64.208517, -17.310323 ], [ -64.20459, -17.312781 ], [ -64.202078, -17.315339 ], [ -64.200036, -17.31619 ], [ -64.196659, -17.316616 ], [ -64.194709, -17.31724 ], [ -64.192866, -17.318673 ], [ -64.192612, -17.319946 ], [ -64.192887, -17.321837 ], [ -64.193609, -17.323452 ], [ -64.194032, -17.32445 ], [ -64.194164, -17.327539 ], [ -64.193807, -17.329172 ], [ -64.193232, -17.330253 ], [ -64.191137, -17.331342 ], [ -64.189817, -17.3331 ], [ -64.189548, -17.334852 ], [ -64.188284, -17.337679 ], [ -64.188366, -17.338819 ], [ -64.188673, -17.339755 ], [ -64.189208, -17.340467 ], [ -64.190762, -17.34127 ], [ -64.192878, -17.341798 ], [ -64.194924, -17.342327 ], [ -64.19669, -17.343128 ], [ -64.199231, -17.344127 ], [ -64.200996, -17.344726 ], [ -64.201956, -17.346657 ], [ -64.202875, -17.348057 ], [ -64.203518, -17.349107 ], [ -64.204576, -17.350177 ], [ -64.206692, -17.352251 ], [ -64.207548, -17.354467 ], [ -64.209007, -17.355359 ], [ -64.210518, -17.355643 ], [ -64.211666, -17.357351 ], [ -64.212006, -17.359479 ], [ -64.211975, -17.36102 ], [ -64.212521, -17.362795 ], [ -64.213679, -17.363657 ], [ -64.215208, -17.364596 ], [ -64.215982, -17.365327 ], [ -64.216708, -17.36657 ], [ -64.217093, -17.367816 ], [ -64.217206, -17.369424 ], [ -64.217204, -17.3695 ], [ -64.217151, -17.371492 ], [ -64.217561, -17.37201 ], [ -64.219083, -17.371882 ], [ -64.21995, -17.37243 ], [ -64.220575, -17.373493 ], [ -64.221037, -17.374953 ], [ -64.221827, -17.376252 ], [ -64.222699, -17.377313 ], [ -64.223858, -17.378412 ], [ -64.225672, -17.378955 ], [ -64.226622, -17.379423 ], [ -64.227245, -17.380249 ], [ -64.228168, -17.38297 ], [ -64.228549, -17.384587 ], [ -64.228074, -17.387277 ], [ -64.228455, -17.389013 ], [ -64.228966, -17.389623 ], [ -64.229018, -17.389624 ], [ -64.230204, -17.390231 ], [ -64.230255, -17.390231 ], [ -64.231641, -17.391586 ], [ -64.232402, -17.393283 ], [ -64.23506, -17.394724 ], [ -64.236906, -17.395977 ], [ -64.238383, -17.396887 ], [ -64.238639, -17.397072 ], [ -64.240685, -17.398548 ], [ -64.243089, -17.400043 ], [ -64.246585, -17.401269 ], [ -64.248983, -17.401943 ], [ -64.251855, -17.402447 ], [ -64.253386, -17.403214 ], [ -64.25398, -17.403569 ], [ -64.25442, -17.404134 ], [ -64.254332, -17.404912 ], [ -64.253871, -17.405812 ], [ -64.253067, -17.406684 ], [ -64.252049, -17.408005 ], [ -64.251123, -17.409236 ], [ -64.250507, -17.410167 ], [ -64.250227, -17.410692 ], [ -64.249774, -17.411082 ], [ -64.24957, -17.411312 ], [ -64.249598, -17.411679 ], [ -64.249696, -17.412162 ], [ -64.249976, -17.412638 ], [ -64.250647, -17.41285 ], [ -64.251319, -17.412774 ], [ -64.252116, -17.412769 ], [ -64.252739, -17.412813 ], [ -64.253314, -17.413096 ], [ -64.253642, -17.413716 ], [ -64.253896, -17.41436 ], [ -64.254075, -17.415124 ], [ -64.254129, -17.415769 ], [ -64.254308, -17.416414 ], [ -64.25466, -17.416842 ], [ -64.255234, -17.417077 ], [ -64.255981, -17.417073 ], [ -64.256504, -17.416974 ], [ -64.257182, -17.416898 ], [ -64.25765, -17.417014 ], [ -64.257964, -17.417371 ], [ -64.258216, -17.417818 ], [ -64.258283, -17.418565 ], [ -64.258225, -17.419222 ], [ -64.257732, -17.419943 ], [ -64.257051, -17.420515 ], [ -64.2564, -17.420938 ], [ -64.255469, -17.421392 ], [ -64.255224, -17.421902 ], [ -64.255136, -17.422799 ], [ -64.254616, -17.424087 ], [ -64.253905, -17.425459 ], [ -64.255253, -17.426273 ], [ -64.256343, -17.426326 ], [ -64.257336, -17.425872 ], [ -64.258359, -17.425178 ], [ -64.259226, -17.424425 ], [ -64.259938, -17.423883 ], [ -64.260746, -17.423608 ], [ -64.262052, -17.423421 ], [ -64.263359, -17.423353 ], [ -64.264855, -17.423433 ], [ -64.267232, -17.423723 ], [ -64.269253, -17.424284 ], [ -64.271307, -17.424199 ], [ -64.273399, -17.424042 ], [ -64.275156, -17.424174 ], [ -64.277062, -17.424377 ], [ -64.279605, -17.424684 ], [ -64.281142, -17.425427 ], [ -64.282691, -17.427777 ], [ -64.284597, -17.429678 ], [ -64.287344, -17.430712 ], [ -64.289742, -17.431701 ], [ -64.291895, -17.433169 ], [ -64.293551, -17.43488 ], [ -64.295102, -17.435826 ], [ -64.296752, -17.436676 ], [ -64.298948, -17.437188 ], [ -64.300892, -17.437319 ], [ -64.302486, -17.437309 ], [ -64.304377, -17.436961 ], [ -64.306863, -17.436276 ], [ -64.309144, -17.434778 ], [ -64.311967, -17.432416 ], [ -64.315513, -17.429571 ], [ -64.317541, -17.427454 ], [ -64.318774, -17.42582 ], [ -64.320359, -17.424566 ], [ -64.321997, -17.423742 ], [ -64.323886, -17.423204 ], [ -64.326573, -17.42266 ], [ -64.329607, -17.422113 ], [ -64.331648, -17.421908 ], [ -64.333745, -17.422564 ], [ -64.3352, -17.423989 ], [ -64.336407, -17.425511 ], [ -64.337264, -17.426892 ], [ -64.338566, -17.42784 ], [ -64.340263, -17.428259 ], [ -64.341905, -17.428009 ], [ -64.344091, -17.427181 ], [ -64.345779, -17.426404 ], [ -64.347519, -17.425962 ], [ -64.349213, -17.425951 ], [ -64.350412, -17.426421 ], [ -64.351314, -17.42718 ], [ -64.352464, -17.42765 ], [ -64.353069, -17.42865 ], [ -64.353279, -17.430131 ], [ -64.353442, -17.431948 ], [ -64.353623, -17.432915 ], [ -64.35363, -17.433811 ], [ -64.354012, -17.434956 ], [ -64.354468, -17.436065 ], [ -64.355, -17.437245 ], [ -64.355529, -17.437995 ], [ -64.355915, -17.438487 ], [ -64.356316, -17.438795 ], [ -64.356739, -17.438816 ], [ -64.357087, -17.438646 ], [ -64.357383, -17.438238 ], [ -64.357551, -17.437448 ], [ -64.357571, -17.436754 ], [ -64.35779, -17.436059 ], [ -64.357909, -17.435317 ], [ -64.35803, -17.434862 ], [ -64.358226, -17.434335 ], [ -64.358548, -17.434165 ], [ -64.358922, -17.434163 ], [ -64.359198, -17.434496 ], [ -64.359401, -17.434996 ], [ -64.359456, -17.435618 ], [ -64.359587, -17.436549 ], [ -64.359543, -17.437243 ], [ -64.359647, -17.437864 ], [ -64.359923, -17.438197 ], [ -64.360423, -17.438456 ], [ -64.361123, -17.438738 ], [ -64.361798, -17.439045 ], [ -64.362324, -17.439424 ], [ -64.362651, -17.439947 ], [ -64.36283, -17.440496 ], [ -64.362934, -17.441117 ], [ -64.362888, -17.441643 ], [ -64.362642, -17.442076 ], [ -64.362095, -17.442223 ], [ -64.361571, -17.442059 ], [ -64.361048, -17.442063 ], [ -64.360649, -17.44197 ], [ -64.360298, -17.441733 ], [ -64.359775, -17.441665 ], [ -64.359152, -17.441669 ], [ -64.35858, -17.441864 ], [ -64.358134, -17.442082 ], [ -64.357887, -17.442419 ], [ -64.357666, -17.442851 ], [ -64.357546, -17.443402 ], [ -64.357604, -17.443961 ], [ -64.357708, -17.444515 ], [ -64.357851, -17.444992 ], [ -64.358013, -17.445316 ], [ -64.358354, -17.445543 ], [ -64.358931, -17.445539 ], [ -64.359608, -17.445362 ], [ -64.360244, -17.445167 ], [ -64.36092, -17.444914 ], [ -64.361317, -17.4447 ], [ -64.361633, -17.444392 ], [ -64.362031, -17.444294 ], [ -64.36249, -17.444348 ], [ -64.36283, -17.444518 ], [ -64.36313, -17.444745 ], [ -64.36345, -17.444858 ], [ -64.363967, -17.444701 ], [ -64.364583, -17.444468 ], [ -64.365079, -17.444101 ], [ -64.365456, -17.443907 ], [ -64.365973, -17.443769 ], [ -64.366512, -17.443842 ], [ -64.366992, -17.444126 ], [ -64.367433, -17.444486 ], [ -64.367794, -17.444771 ], [ -64.368293, -17.444901 ], [ -64.368931, -17.444993 ], [ -64.369651, -17.445236 ], [ -64.37035, -17.445499 ], [ -64.371051, -17.445953 ], [ -64.371633, -17.446428 ], [ -64.371996, -17.447018 ], [ -64.3722, -17.447686 ], [ -64.372244, -17.448298 ], [ -64.37223, -17.449063 ], [ -64.372157, -17.449886 ], [ -64.372304, -17.450937 ], [ -64.372681, -17.45183 ], [ -64.372925, -17.45244 ], [ -64.373208, -17.452993 ], [ -64.373669, -17.453258 ], [ -64.374426, -17.453329 ], [ -64.375145, -17.453458 ], [ -64.375922, -17.45351 ], [ -64.376522, -17.453678 ], [ -64.377082, -17.454018 ], [ -64.377604, -17.454512 ], [ -64.377907, -17.455065 ], [ -64.378032, -17.455733 ], [ -64.378729, -17.45599 ], [ -64.379552, -17.456104 ], [ -64.380551, -17.456432 ], [ -64.38135, -17.45669 ], [ -64.381974, -17.456948 ], [ -64.382648, -17.457015 ], [ -64.383445, -17.45701 ], [ -64.38479, -17.457072 ], [ -64.385563, -17.457115 ], [ -64.386557, -17.456773 ], [ -64.387427, -17.456504 ], [ -64.387899, -17.456333 ], [ -64.388745, -17.456255 ], [ -64.389492, -17.456202 ], [ -64.390364, -17.456196 ], [ -64.391185, -17.456047 ], [ -64.39183, -17.455708 ], [ -64.392449, -17.455154 ], [ -64.392994, -17.454767 ], [ -64.393688, -17.454284 ], [ -64.394306, -17.453682 ], [ -64.395049, -17.453175 ], [ -64.395511, -17.452785 ], [ -64.39592, -17.452423 ], [ -64.396101, -17.452025 ], [ -64.396384, -17.451605 ], [ -64.396693, -17.451232 ], [ -64.397064, -17.450907 ], [ -64.397349, -17.450678 ], [ -64.39777, -17.450412 ], [ -64.398168, -17.450253 ], [ -64.398665, -17.450118 ], [ -64.399126, -17.450115 ], [ -64.3995, -17.45022 ], [ -64.399864, -17.450516 ], [ -64.400177, -17.450789 ], [ -64.400417, -17.451158 ], [ -64.400507, -17.451564 ], [ -64.400448, -17.451959 ], [ -64.400376, -17.452366 ], [ -64.400266, -17.452701 ], [ -64.400244, -17.453048 ], [ -64.400383, -17.45331 ], [ -64.400697, -17.453607 ], [ -64.401034, -17.45376 ], [ -64.401372, -17.453913 ], [ -64.401746, -17.454042 ], [ -64.402133, -17.454075 ], [ -64.402593, -17.453928 ], [ -64.403107, -17.453757 ], [ -64.403517, -17.453623 ], [ -64.403952, -17.453536 ], [ -64.404376, -17.453593 ], [ -64.404924, -17.453565 ], [ -64.40551, -17.453585 ], [ -64.405958, -17.453594 ], [ -64.406383, -17.453758 ], [ -64.406571, -17.45396 ], [ -64.406723, -17.454222 ], [ -64.406738, -17.45458 ], [ -64.406553, -17.454869 ], [ -64.406193, -17.455063 ], [ -64.405735, -17.45542 ], [ -64.405438, -17.455661 ], [ -64.404992, -17.455927 ], [ -64.404509, -17.456337 ], [ -64.404164, -17.456841 ], [ -64.403832, -17.45737 ], [ -64.403649, -17.457849 ], [ -64.403403, -17.458293 ], [ -64.403169, -17.458618 ], [ -64.402762, -17.459137 ], [ -64.402417, -17.459606 ], [ -64.402009, -17.460003 ], [ -64.401575, -17.460245 ], [ -64.401166, -17.460595 ], [ -64.400858, -17.460992 ], [ -64.400551, -17.461532 ], [ -64.400244, -17.46212 ], [ -64.399899, -17.4626 ], [ -64.39969, -17.462972 ], [ -64.399471, -17.463352 ], [ -64.399334, -17.463668 ], [ -64.399217, -17.464013 ], [ -64.399199, -17.46432 ], [ -64.399332, -17.464682 ], [ -64.399564, -17.465054 ], [ -64.399835, -17.465348 ], [ -64.400107, -17.465767 ], [ -64.40052, -17.466271 ], [ -64.400831, -17.466575 ], [ -64.401142, -17.46686 ], [ -64.401423, -17.467164 ], [ -64.401704, -17.467334 ], [ -64.402064, -17.467494 ], [ -64.402482, -17.467491 ], [ -64.403069, -17.467315 ], [ -64.403476, -17.467178 ], [ -64.403824, -17.467003 ], [ -64.404281, -17.466866 ], [ -64.40464, -17.466835 ], [ -64.405008, -17.466842 ], [ -64.405318, -17.466907 ], [ -64.405538, -17.467087 ], [ -64.40576, -17.467353 ], [ -64.405851, -17.46762 ], [ -64.405854, -17.467917 ], [ -64.405776, -17.468128 ], [ -64.405638, -17.468358 ], [ -64.40561, -17.468607 ], [ -64.405702, -17.468891 ], [ -64.405823, -17.46912 ], [ -64.405995, -17.469406 ], [ -64.406226, -17.469653 ], [ -64.406477, -17.469928 ], [ -64.406618, -17.470128 ], [ -64.40665, -17.470424 ], [ -64.406593, -17.470817 ], [ -64.406427, -17.471235 ], [ -64.40632, -17.471599 ], [ -64.406243, -17.471906 ], [ -64.406246, -17.472241 ], [ -64.406409, -17.472699 ], [ -64.406551, -17.473023 ], [ -64.406563, -17.473319 ], [ -64.406545, -17.473644 ], [ -64.406318, -17.473923 ], [ -64.405972, -17.474194 ], [ -64.405684, -17.474435 ], [ -64.405427, -17.474704 ], [ -64.4052, -17.474964 ], [ -64.404963, -17.475224 ], [ -64.404786, -17.475493 ], [ -64.404649, -17.475819 ], [ -64.404543, -17.47627 ], [ -64.404476, -17.476748 ], [ -64.40435, -17.477189 ], [ -64.404204, -17.477661 ], [ -64.403978, -17.477987 ], [ -64.403751, -17.478362 ], [ -64.403645, -17.478736 ], [ -64.403589, -17.479281 ], [ -64.403622, -17.479689 ], [ -64.403555, -17.480052 ], [ -64.403428, -17.480321 ], [ -64.4033, -17.480552 ], [ -64.403242, -17.48081 ], [ -64.403175, -17.481145 ], [ -64.403217, -17.481499 ], [ -64.403311, -17.482015 ], [ -64.403224, -17.482341 ], [ -64.403067, -17.482657 ], [ -64.402869, -17.482898 ], [ -64.402622, -17.483167 ], [ -64.402375, -17.483475 ], [ -64.402187, -17.483654 ], [ -64.40206, -17.483933 ], [ -64.401972, -17.484201 ], [ -64.401964, -17.484478 ], [ -64.402007, -17.484803 ], [ -64.40204, -17.485214 ], [ -64.402073, -17.485664 ], [ -64.402057, -17.486132 ], [ -64.40193, -17.486506 ], [ -64.401753, -17.486861 ], [ -64.401407, -17.487166 ], [ -64.40116, -17.487493 ], [ -64.401013, -17.48781 ], [ -64.401006, -17.488192 ], [ -64.40112, -17.488717 ], [ -64.401233, -17.489176 ], [ -64.401237, -17.489644 ], [ -64.40121, -17.490094 ], [ -64.401124, -17.490498 ], [ -64.401097, -17.490881 ], [ -64.40113, -17.49133 ], [ -64.401173, -17.49176 ], [ -64.401166, -17.492133 ], [ -64.401059, -17.492478 ], [ -64.400922, -17.492872 ], [ -64.400736, -17.493188 ], [ -64.400569, -17.493517 ], [ -64.400452, -17.493843 ], [ -64.400463, -17.494101 ], [ -64.400585, -17.49433 ], [ -64.400816, -17.494567 ], [ -64.401126, -17.494747 ], [ -64.401466, -17.494897 ], [ -64.401686, -17.494982 ], [ -64.401966, -17.495142 ], [ -64.402217, -17.495294 ], [ -64.402378, -17.495474 ], [ -64.402569, -17.495693 ], [ -64.40273, -17.495902 ], [ -64.402873, -17.496056 ], [ -64.403001, -17.496221 ], [ -64.403129, -17.496342 ], [ -64.403294, -17.496405 ], [ -64.403474, -17.49644 ], [ -64.403698, -17.496416 ], [ -64.403914, -17.496365 ], [ -64.404078, -17.496285 ], [ -64.404272, -17.49619 ], [ -64.404398, -17.496096 ], [ -64.404584, -17.496001 ], [ -64.404864, -17.495842 ], [ -64.405147, -17.495703 ], [ -64.4054, -17.495558 ], [ -64.405587, -17.495492 ], [ -64.405855, -17.495447 ], [ -64.406087, -17.495438 ], [ -64.406326, -17.495465 ], [ -64.406626, -17.495557 ], [ -64.406926, -17.495676 ], [ -64.407174, -17.49584 ], [ -64.407362, -17.495982 ], [ -64.407513, -17.496174 ], [ -64.407619, -17.496403 ], [ -64.407644, -17.496632 ], [ -64.407555, -17.496841 ], [ -64.407407, -17.497 ], [ -64.407319, -17.49716 ], [ -64.407245, -17.497328 ], [ -64.407228, -17.497459 ], [ -64.40726, -17.497597 ], [ -64.407354, -17.497709 ], [ -64.407479, -17.497768 ], [ -64.407616, -17.497767 ], [ -64.407784, -17.497712 ], [ -64.407908, -17.497622 ], [ -64.408044, -17.497507 ], [ -64.408124, -17.497369 ], [ -64.408192, -17.497249 ], [ -64.408328, -17.497171 ], [ -64.408458, -17.497122 ], [ -64.408651, -17.497103 ], [ -64.408864, -17.497155 ], [ -64.409027, -17.497315 ], [ -64.409134, -17.497524 ], [ -64.409198, -17.497738 ], [ -64.409231, -17.497911 ], [ -64.409282, -17.498096 ], [ -64.409321, -17.498281 ], [ -64.409322, -17.498479 ], [ -64.409305, -17.498712 ], [ -64.409276, -17.499005 ], [ -64.409216, -17.49926 ], [ -64.409168, -17.499517 ], [ -64.409114, -17.499769 ], [ -64.409091, -17.500008 ], [ -64.409111, -17.500205 ], [ -64.409182, -17.500432 ], [ -64.409301, -17.500628 ], [ -64.409433, -17.500783 ], [ -64.409566, -17.500985 ], [ -64.409654, -17.50117 ], [ -64.409744, -17.501436 ], [ -64.409827, -17.501668 ], [ -64.409897, -17.501865 ], [ -64.409886, -17.502086 ], [ -64.409844, -17.502338 ], [ -64.409765, -17.502571 ], [ -64.409748, -17.502769 ], [ -64.409768, -17.502966 ], [ -64.4099, -17.503096 ], [ -64.410128, -17.503182 ], [ -64.410359, -17.503216 ], [ -64.410627, -17.503256 ], [ -64.410852, -17.503314 ], [ -64.411065, -17.50339 ], [ -64.411246, -17.503557 ], [ -64.411373, -17.503801 ], [ -64.411481, -17.504039 ], [ -64.411513, -17.50423 ], [ -64.41154, -17.504511 ], [ -64.411511, -17.504714 ], [ -64.4114, -17.504871 ], [ -64.411258, -17.505021 ], [ -64.410998, -17.505248 ], [ -64.410807, -17.505572 ], [ -64.41056, -17.505854 ], [ -64.41035, -17.506107 ], [ -64.410209, -17.506365 ], [ -64.41013, -17.506605 ], [ -64.410047, -17.506872 ], [ -64.410012, -17.507081 ], [ -64.410026, -17.507314 ], [ -64.410108, -17.507511 ], [ -64.410247, -17.507695 ], [ -64.410435, -17.507867 ], [ -64.410598, -17.50795 ], [ -64.410791, -17.50802 ], [ -64.410991, -17.508037 ], [ -64.411116, -17.508084 ], [ -64.411248, -17.50828 ], [ -64.4113, -17.508525 ], [ -64.411314, -17.50877 ], [ -64.411204, -17.509082 ], [ -64.4111, -17.509292 ], [ -64.410939, -17.509449 ], [ -64.41076, -17.509636 ], [ -64.410463, -17.509895 ], [ -64.410203, -17.510094 ], [ -64.41003, -17.510292 ], [ -64.409933, -17.510574 ], [ -64.40978, -17.51094 ], [ -64.409726, -17.511202 ], [ -64.409727, -17.511399 ], [ -64.409754, -17.511596 ], [ -64.409867, -17.511811 ], [ -64.409999, -17.511965 ], [ -64.410188, -17.512125 ], [ -64.410332, -17.512256 ], [ -64.41047, -17.512404 ], [ -64.410552, -17.512541 ], [ -64.410616, -17.512726 ], [ -64.410642, -17.512923 ], [ -64.410619, -17.513114 ], [ -64.410514, -17.513288 ], [ -64.410391, -17.513486 ], [ -64.41025, -17.513758 ], [ -64.410115, -17.513974 ], [ -64.41001, -17.514142 ], [ -64.409912, -17.514358 ], [ -64.409833, -17.514574 ], [ -64.409722, -17.514813 ], [ -64.409668, -17.514999 ], [ -64.409638, -17.515209 ], [ -64.409621, -17.515424 ], [ -64.409641, -17.515633 ], [ -64.409674, -17.515806 ], [ -64.409726, -17.516076 ], [ -64.409796, -17.516243 ], [ -64.409896, -17.516374 ], [ -64.410028, -17.516456 ], [ -64.410184, -17.516557 ], [ -64.410353, -17.516645 ], [ -64.410584, -17.516703 ], [ -64.410728, -17.516702 ], [ -64.410902, -17.516695 ], [ -64.411045, -17.516694 ], [ -64.411226, -17.516753 ], [ -64.411333, -17.516847 ], [ -64.411403, -17.517032 ], [ -64.411467, -17.517247 ], [ -64.411506, -17.517438 ], [ -64.411552, -17.517737 ], [ -64.411553, -17.517952 ], [ -64.411561, -17.518191 ], [ -64.411601, -17.518464 ], [ -64.411633, -17.518649 ], [ -64.41171, -17.518834 ], [ -64.411804, -17.518971 ], [ -64.41193, -17.519078 ], [ -64.412098, -17.51913 ], [ -64.41226, -17.519171 ], [ -64.412516, -17.519223 ], [ -64.412766, -17.519239 ], [ -64.412934, -17.519238 ], [ -64.413096, -17.51929 ], [ -64.413246, -17.519289 ], [ -64.413451, -17.519294 ], [ -64.413644, -17.519263 ], [ -64.413827, -17.519261 ], [ -64.413965, -17.519308 ], [ -64.414159, -17.519408 ], [ -64.41434, -17.519527 ], [ -64.414534, -17.519633 ], [ -64.414709, -17.519715 ], [ -64.414903, -17.519756 ], [ -64.415078, -17.519832 ], [ -64.415241, -17.519969 ], [ -64.415335, -17.520087 ], [ -64.415424, -17.52026 ], [ -64.415469, -17.520415 ], [ -64.415508, -17.520606 ], [ -64.415559, -17.520755 ], [ -64.40569, -17.540231 ], [ -64.421273, -17.569579 ], [ -64.425618, -17.60714 ], [ -64.415646, -17.633328 ], [ -64.465987, -17.635219 ], [ -64.477298, -17.623839 ], [ -64.483922, -17.619908 ], [ -64.495177, -17.609246 ], [ -64.4975, -17.606992 ], [ -64.499989, -17.605996 ], [ -64.503358, -17.606008 ], [ -64.505305, -17.606602 ], [ -64.507374, -17.607612 ], [ -64.509795, -17.607936 ], [ -64.512084, -17.606803 ], [ -64.51266, -17.606941 ], [ -64.513716, -17.607492 ], [ -64.514868, -17.607836 ], [ -64.51542, -17.608135 ], [ -64.515756, -17.608618 ], [ -64.515513, -17.609146 ], [ -64.515636, -17.609722 ], [ -64.515924, -17.610274 ], [ -64.516068, -17.611377 ], [ -64.516284, -17.613608 ], [ -64.516572, -17.614114 ], [ -64.518204, -17.614849 ], [ -64.519836, -17.615048 ], [ -64.521803, -17.615007 ], [ -64.522955, -17.615282 ], [ -64.523498, -17.615093 ], [ -64.524749, -17.613941 ], [ -64.525738, -17.613096 ], [ -64.528022, -17.612894 ], [ -64.529937, -17.612954 ], [ -64.530561, -17.613046 ], [ -64.531274, -17.613021 ], [ -64.531674, -17.612841 ], [ -64.532659, -17.611987 ], [ -64.533152, -17.611802 ], [ -64.533636, -17.611884 ], [ -64.534304, -17.611709 ], [ -64.534711, -17.610582 ], [ -64.535056, -17.610065 ], [ -64.53527, -17.609873 ], [ -64.535455, -17.609707 ], [ -64.535503, -17.609553 ], [ -64.53579, -17.608626 ], [ -64.536932, -17.608211 ], [ -64.537577, -17.607181 ], [ -64.537997, -17.606854 ], [ -64.538573, -17.606807 ], [ -64.539156, -17.606946 ], [ -64.539626, -17.606223 ], [ -64.540291, -17.605154 ], [ -64.540678, -17.60401 ], [ -64.541283, -17.603654 ], [ -64.541995, -17.603658 ], [ -64.542435, -17.603745 ], [ -64.543128, -17.603721 ], [ -64.54397, -17.603031 ], [ -64.544589, -17.60291 ], [ -64.545767, -17.60275 ], [ -64.546105, -17.602316 ], [ -64.546105, -17.601764 ], [ -64.546681, -17.601764 ], [ -64.547356, -17.602053 ], [ -64.547809, -17.602108 ], [ -64.547904, -17.601556 ], [ -64.547448, -17.600498 ], [ -64.548, -17.600268 ], [ -64.548528, -17.600589 ], [ -64.548864, -17.601095 ], [ -64.549842, -17.600971 ], [ -64.550903, -17.600219 ], [ -64.551425, -17.600356 ], [ -64.552516, -17.600367 ], [ -64.553594, -17.599487 ], [ -64.554379, -17.598467 ], [ -64.554773, -17.598374 ], [ -64.555202, -17.598461 ], [ -64.556085, -17.598835 ], [ -64.556634, -17.598954 ], [ -64.557812, -17.598948 ], [ -64.560354, -17.599218 ], [ -64.561987, -17.599612 ], [ -64.562603, -17.59941 ], [ -64.562856, -17.599111 ], [ -64.563546, -17.598966 ], [ -64.564698, -17.599126 ], [ -64.566151, -17.59816 ], [ -64.566617, -17.598044 ], [ -64.567241, -17.598112 ], [ -64.568205, -17.598543 ], [ -64.56832, -17.598594 ], [ -64.568896, -17.598662 ], [ -64.569496, -17.5988 ], [ -64.570038, -17.599159 ], [ -64.570888, -17.599994 ], [ -64.571513, -17.600983 ], [ -64.571537, -17.601581 ], [ -64.571609, -17.602779 ], [ -64.571754, -17.603351 ], [ -64.571754, -17.603903 ], [ -64.571648, -17.604666 ], [ -64.571641, -17.605618 ], [ -64.571755, -17.606571 ], [ -64.571941, -17.606855 ], [ -64.572336, -17.607456 ], [ -64.573148, -17.60841 ], [ -64.573437, -17.608618 ], [ -64.573628, -17.608731 ], [ -64.574204, -17.608685 ], [ -64.576238, -17.609093 ], [ -64.577541, -17.609098 ], [ -64.578331, -17.608933 ], [ -64.578874, -17.608656 ], [ -64.579357, -17.607948 ], [ -64.579977, -17.606841 ], [ -64.580346, -17.606633 ], [ -64.580513, -17.606539 ], [ -64.581055, -17.606599 ], [ -64.58335, -17.606008 ], [ -64.584446, -17.604351 ], [ -64.584998, -17.604074 ], [ -64.585644, -17.603933 ], [ -64.586005, -17.603544 ], [ -64.586628, -17.601842 ], [ -64.58682, -17.601266 ], [ -64.587203, -17.600829 ], [ -64.588726, -17.600564 ] ] ] ] } }
]
}
