{
"type": "FeatureCollection",
"name": "INDEPENDENCIA",
"crs": { "type": "name", "properties": { "name": "urn:ogc:def:crs:OGC:1.3:CRS84" } },
"bbox": [ -67.005947, -17.448457, -66.565527, -16.829722 ],                                                                        
"features": [
{ "type": "Feature", "properties": { "NOMBRE": "Independencia", "NIVEL": "Municipios", "PROVINCIA": "Ayopaya", "REGION": "Andina", "DEPARTAMENTO": "Cochabamba" }, "bbox": [ -67.005947, -17.448457, -66.565527, -16.829722 ], "geometry": { "type": "MultiPolygon", "coordinates": [ [ [ [ -66.717699, -17.039643 ], [ -66.718073, -17.048999 ], [ -66.718753, -17.054444 ], [ -66.716632, -17.060216 ], [ -66.708341, -17.080414 ], [ -66.697297, -17.089838 ], [ -66.694205, -17.090663 ], [ -66.690905, -17.100377 ], [ -66.688283, -17.103406 ], [ -66.68793, -17.1078 ], [ -66.685894, -17.111696 ], [ -66.683065, -17.115297 ], [ -66.680499, -17.121769 ], [ -66.677605, -17.127054 ], [ -66.67632, -17.130038 ], [ -66.676963, -17.134347 ], [ -66.679318, -17.13686 ], [ -66.679886, -17.139161 ], [ -66.678436, -17.143829 ], [ -66.675842, -17.146925 ], [ -66.677297, -17.150826 ], [ -66.676897, -17.154509 ], [ -66.674577, -17.16261 ], [ -66.675128, -17.167267 ], [ -66.6765, -17.169374 ], [ -66.679943, -17.170474 ], [ -66.68213, -17.17222 ], [ -66.684326, -17.172986 ], [ -66.685699, -17.173064 ], [ -66.688212, -17.172519 ], [ -66.690952, -17.172952 ], [ -66.692115, -17.175375 ], [ -66.695993, -17.175438 ], [ -66.699952, -17.177013 ], [ -66.701406, -17.180089 ], [ -66.705559, -17.182321 ], [ -66.709676, -17.188791 ], [ -66.714626, -17.19064 ], [ -66.717714, -17.192318 ], [ -66.72107, -17.197435 ], [ -66.724669, -17.20145 ], [ -66.727866, -17.202453 ], [ -66.731971, -17.209595 ], [ -66.731236, -17.213652 ], [ -66.729147, -17.219245 ], [ -66.728733, -17.222438 ], [ -66.729144, -17.225383 ], [ -66.727918, -17.231134 ], [ -66.72815, -17.233474 ], [ -66.729377, -17.235754 ], [ -66.698456, -17.242123 ], [ -66.677317, -17.245719 ], [ -66.675683, -17.242079 ], [ -66.673991, -17.247062 ], [ -66.64978, -17.280058 ], [ -66.58506, -17.338913 ], [ -66.576947, -17.355859 ], [ -66.565527, -17.36739 ], [ -66.571357, -17.376828 ], [ -66.576693, -17.376613 ], [ -66.614325, -17.422671 ], [ -66.659561, -17.414048 ], [ -66.681345, -17.405713 ], [ -66.712861, -17.409003 ], [ -66.719081, -17.425605 ], [ -66.715322, -17.440322 ], [ -66.733149, -17.448457 ], [ -66.745931, -17.444474 ], [ -66.775513, -17.441112 ], [ -66.78335, -17.431949 ], [ -66.794575, -17.430574 ], [ -66.808097, -17.415665 ], [ -66.814471, -17.422501 ], [ -66.825629, -17.425857 ], [ -66.83392, -17.418675 ], [ -66.843073, -17.412487 ], [ -66.846086, -17.400297 ], [ -66.854565, -17.39214 ], [ -66.863858, -17.388313 ], [ -66.862239, -17.387586 ], [ -66.860576, -17.387269 ], [ -66.859641, -17.386949 ], [ -66.858655, -17.386852 ], [ -66.8578, -17.385808 ], [ -66.856583, -17.384962 ], [ -66.854584, -17.384424 ], [ -66.852278, -17.3846 ], [ -66.850541, -17.384782 ], [ -66.848198, -17.385533 ], [ -66.846257, -17.385398 ], [ -66.847973, -17.38434 ], [ -66.8497, -17.383471 ], [ -66.8502, -17.380242 ], [ -66.85049, -17.378026 ], [ -66.850317, -17.375932 ], [ -66.850348, -17.373269 ], [ -66.849239, -17.372116 ], [ -66.84846, -17.370966 ], [ -66.847877, -17.369945 ], [ -66.847163, -17.368923 ], [ -66.846782, -17.367587 ], [ -66.84642, -17.366885 ], [ -66.845887, -17.365104 ], [ -66.845707, -17.363581 ], [ -66.845863, -17.36149 ], [ -66.846486, -17.359428 ], [ -66.845954, -17.353692 ], [ -66.847099, -17.351802 ], [ -66.848374, -17.35004 ], [ -66.849119, -17.348463 ], [ -66.850701, -17.34867 ], [ -66.852087, -17.348685 ], [ -66.853671, -17.348765 ], [ -66.856379, -17.348667 ], [ -66.857847, -17.347352 ], [ -66.85853, -17.345393 ], [ -66.858999, -17.34313 ], [ -66.859242, -17.340962 ], [ -66.855639, -17.338514 ], [ -66.852286, -17.337273 ], [ -66.850039, -17.337503 ], [ -66.84874, -17.338123 ], [ -66.847143, -17.336711 ], [ -66.84631, -17.334546 ], [ -66.846127, -17.333276 ], [ -66.846207, -17.332072 ], [ -66.845306, -17.330033 ], [ -66.844144, -17.327801 ], [ -66.843968, -17.325897 ], [ -66.843656, -17.324372 ], [ -66.843938, -17.322853 ], [ -66.844047, -17.320981 ], [ -66.843119, -17.31942 ], [ -66.842617, -17.317259 ], [ -66.843758, -17.315622 ], [ -66.84502, -17.314938 ], [ -66.847202, -17.314645 ], [ -66.849588, -17.313783 ], [ -66.851386, -17.31247 ], [ -66.853704, -17.311798 ], [ -66.855252, -17.31176 ], [ -66.859008, -17.309889 ], [ -66.864582, -17.307348 ], [ -66.866722, -17.303501 ], [ -66.869595, -17.301948 ], [ -66.873356, -17.302052 ], [ -66.877423, -17.298544 ], [ -66.880643, -17.294076 ], [ -66.88265, -17.291751 ], [ -66.885955, -17.289649 ], [ -66.888237, -17.288005 ], [ -66.888576, -17.281414 ], [ -66.888566, -17.276531 ], [ -66.888078, -17.273038 ], [ -66.886529, -17.270092 ], [ -66.885909, -17.267435 ], [ -66.877724, -17.231938 ], [ -66.888688, -17.201012 ], [ -66.886086, -17.17783 ], [ -66.885227, -17.171334 ], [ -66.88462, -17.165383 ], [ -66.890399, -17.139596 ], [ -66.910845, -17.114312 ], [ -66.935145, -17.100006 ], [ -66.954971, -17.07014 ], [ -66.975911, -17.050479 ], [ -66.985862, -17.028212 ], [ -67.002839, -16.983845 ], [ -67.005947, -16.954038 ], [ -66.991966, -16.933018 ], [ -66.973304, -16.924829 ], [ -66.976823, -16.907424 ], [ -66.960746, -16.882521 ], [ -66.958836, -16.880181 ], [ -66.928978, -16.844466 ], [ -66.906661, -16.839429 ], [ -66.883234, -16.838916 ], [ -66.834755, -16.84168 ], [ -66.831641, -16.837231 ], [ -66.829465, -16.836686 ], [ -66.827494, -16.835446 ], [ -66.826645, -16.834415 ], [ -66.82474, -16.833239 ], [ -66.821703, -16.83287 ], [ -66.821124, -16.831272 ], [ -66.819532, -16.830229 ], [ -66.815851, -16.829722 ], [ -66.815277, -16.831836 ], [ -66.815342, -16.833873 ], [ -66.816284, -16.836099 ], [ -66.816626, -16.837929 ], [ -66.816395, -16.840531 ], [ -66.816701, -16.841933 ], [ -66.818952, -16.846116 ], [ -66.820768, -16.8502 ], [ -66.821768, -16.854173 ], [ -66.822085, -16.85693 ], [ -66.820452, -16.859532 ], [ -66.819246, -16.8614 ], [ -66.817068, -16.862921 ], [ -66.813531, -16.867383 ], [ -66.810961, -16.872661 ], [ -66.80933, -16.87905 ], [ -66.809098, -16.883612 ], [ -66.808655, -16.890771 ], [ -66.808018, -16.894 ], [ -66.806857, -16.895836 ], [ -66.805822, -16.897802 ], [ -66.804053, -16.901514 ], [ -66.803771, -16.903574 ], [ -66.801101, -16.907925 ], [ -66.800207, -16.909773 ], [ -66.799608, -16.911238 ], [ -66.798895, -16.913157 ], [ -66.797812, -16.916017 ], [ -66.796561, -16.917551 ], [ -66.79556, -16.919322 ], [ -66.794792, -16.920134 ], [ -66.793124, -16.921987 ], [ -66.7913, -16.922745 ], [ -66.789746, -16.926782 ], [ -66.788159, -16.929302 ], [ -66.786404, -16.930956 ], [ -66.784904, -16.932593 ], [ -66.784414, -16.933629 ], [ -66.78436, -16.93467 ], [ -66.784046, -16.938451 ], [ -66.783238, -16.939496 ], [ -66.779784, -16.941759 ], [ -66.778508, -16.942827 ], [ -66.774989, -16.9459 ], [ -66.774268, -16.946575 ], [ -66.772948, -16.949824 ], [ -66.771222, -16.952539 ], [ -66.770881, -16.954255 ], [ -66.771903, -16.958264 ], [ -66.771931, -16.960382 ], [ -66.771334, -16.961499 ], [ -66.769316, -16.964406 ], [ -66.76615, -16.96936 ], [ -66.761534, -16.973213 ], [ -66.759425, -16.975788 ], [ -66.757259, -16.978136 ], [ -66.754832, -16.980445 ], [ -66.753606, -16.982571 ], [ -66.753171, -16.984809 ], [ -66.753545, -16.98643 ], [ -66.752086, -16.988958 ], [ -66.74967, -16.990926 ], [ -66.747337, -16.991932 ], [ -66.744179, -16.993169 ], [ -66.741887, -16.993728 ], [ -66.737945, -16.994888 ], [ -66.736074, -16.996002 ], [ -66.735189, -16.996859 ], [ -66.734467, -16.99883 ], [ -66.735139, -17.001004 ], [ -66.735005, -17.002534 ], [ -66.732162, -17.006724 ], [ -66.730495, -17.010256 ], [ -66.727327, -17.012731 ], [ -66.724863, -17.017764 ], [ -66.724336, -17.018973 ], [ -66.722657, -17.022004 ], [ -66.722391, -17.027375 ], [ -66.721131, -17.029441 ], [ -66.71854, -17.031096 ], [ -66.717015, -17.033852 ], [ -66.716838, -17.034448 ], [ -66.716682, -17.035879 ], [ -66.717444, -17.038138 ], [ -66.717699, -17.039643 ] ] ] ] } }
]
}
