{
"type": "FeatureCollection",
"name": "MOROCHATA",
"crs": { "type": "name", "properties": { "name": "urn:ogc:def:crs:OGC:1.3:CRS84" } },
"bbox": [ -66.731971, -17.400187, -66.393974, -17.039441 ],                                                                        
"features": [
{ "type": "Feature", "properties": { "NOMBRE": "Morochata", "NIVEL": "Municipios", "PROVINCIA": "Ayopaya", "REGION": "Andina", "DEPARTAMENTO": "Cochabamba" }, "bbox": [ -66.731971, -17.400187, -66.393974, -17.039441 ], "geometry": { "type": "MultiPolygon", "coordinates": [ [ [ [ -66.433857, -17.095434 ], [ -66.434877, -17.098362 ], [ -66.437724, -17.106534 ], [ -66.438097, -17.107242 ], [ -66.438256, -17.107389 ], [ -66.438551, -17.107763 ], [ -66.438836, -17.108817 ], [ -66.438921, -17.109414 ], [ -66.438924, -17.109563 ], [ -66.438992, -17.109953 ], [ -66.439044, -17.110148 ], [ -66.439045, -17.110217 ], [ -66.439082, -17.110274 ], [ -66.439088, -17.110527 ], [ -66.439134, -17.111021 ], [ -66.439161, -17.111159 ], [ -66.439177, -17.111906 ], [ -66.439146, -17.11216 ], [ -66.439147, -17.112758 ], [ -66.439098, -17.113265 ], [ -66.4391, -17.113369 ], [ -66.439088, -17.113369 ], [ -66.439089, -17.113427 ], [ -66.439022, -17.113635 ], [ -66.439034, -17.114198 ], [ -66.438953, -17.114361 ], [ -66.438884, -17.114454 ], [ -66.438719, -17.114595 ], [ -66.438684, -17.114641 ], [ -66.438567, -17.114735 ], [ -66.438473, -17.11484 ], [ -66.438416, -17.114968 ], [ -66.438395, -17.115072 ], [ -66.4384, -17.115313 ], [ -66.438308, -17.115522 ], [ -66.438309, -17.115557 ], [ -66.438251, -17.115615 ], [ -66.438228, -17.115661 ], [ -66.438192, -17.115674 ], [ -66.438075, -17.115791 ], [ -66.437865, -17.116024 ], [ -66.437778, -17.11644 ], [ -66.43778, -17.116555 ], [ -66.437891, -17.116714 ], [ -66.437915, -17.116714 ], [ -66.438024, -17.116781 ], [ -66.438169, -17.116836 ], [ -66.438279, -17.116972 ], [ -66.438282, -17.117099 ], [ -66.438248, -17.117168 ], [ -66.438166, -17.11725 ], [ -66.438142, -17.117251 ], [ -66.438084, -17.117344 ], [ -66.438051, -17.117494 ], [ -66.43815, -17.117665 ], [ -66.438321, -17.117823 ], [ -66.438359, -17.117891 ], [ -66.43842, -17.117948 ], [ -66.438471, -17.11812 ], [ -66.438475, -17.118304 ], [ -66.438552, -17.118567 ], [ -66.438685, -17.118611 ], [ -66.438792, -17.118609 ], [ -66.438817, -17.118632 ], [ -66.438865, -17.118631 ], [ -66.438865, -17.118654 ], [ -66.438889, -17.118653 ], [ -66.438987, -17.118755 ], [ -66.439035, -17.118778 ], [ -66.439038, -17.118904 ], [ -66.439016, -17.119031 ], [ -66.438993, -17.119054 ], [ -66.438999, -17.119353 ], [ -66.439063, -17.119525 ], [ -66.43916, -17.119615 ], [ -66.439223, -17.119729 ], [ -66.439224, -17.11981 ], [ -66.439263, -17.119947 ], [ -66.439267, -17.120108 ], [ -66.43929, -17.120108 ], [ -66.439389, -17.120233 ], [ -66.439437, -17.120267 ], [ -66.439461, -17.120266 ], [ -66.439461, -17.120278 ], [ -66.439704, -17.120423 ], [ -66.439803, -17.120583 ], [ -66.439841, -17.120709 ], [ -66.439848, -17.121008 ], [ -66.43986, -17.121019 ], [ -66.439863, -17.12118 ], [ -66.439876, -17.121214 ], [ -66.439886, -17.121686 ], [ -66.43969, -17.122057 ], [ -66.43968, -17.122138 ], [ -66.439657, -17.122184 ], [ -66.439658, -17.122219 ], [ -66.439829, -17.122412 ], [ -66.43989, -17.122457 ], [ -66.439964, -17.122547 ], [ -66.440188, -17.122981 ], [ -66.440471, -17.123356 ], [ -66.440509, -17.123424 ], [ -66.440549, -17.123473 ], [ -66.440619, -17.12356 ], [ -66.44068, -17.123605 ], [ -66.440705, -17.123663 ], [ -66.440791, -17.123776 ], [ -66.440935, -17.123874 ], [ -66.440986, -17.123934 ], [ -66.441011, -17.123991 ], [ -66.441, -17.124037 ], [ -66.440871, -17.124143 ], [ -66.440689, -17.124285 ], [ -66.440625, -17.1244 ], [ -66.44058, -17.124511 ], [ -66.44058, -17.124551 ], [ -66.440607, -17.124677 ], [ -66.440656, -17.124722 ], [ -66.440764, -17.124766 ], [ -66.440886, -17.124856 ], [ -66.440815, -17.124915 ], [ -66.440804, -17.12495 ], [ -66.440675, -17.125055 ], [ -66.440523, -17.12523 ], [ -66.440389, -17.125324 ], [ -66.440309, -17.125384 ], [ -66.440194, -17.125489 ], [ -66.440135, -17.125547 ], [ -66.440019, -17.125722 ], [ -66.439926, -17.125827 ], [ -66.439833, -17.125929 ], [ -66.439786, -17.126025 ], [ -66.439578, -17.12633 ], [ -66.439474, -17.126637 ], [ -66.439463, -17.12678 ], [ -66.439528, -17.127023 ], [ -66.439587, -17.127121 ], [ -66.439727, -17.12718 ], [ -66.439867, -17.127221 ], [ -66.440167, -17.127244 ], [ -66.440506, -17.127267 ], [ -66.441905, -17.127255 ], [ -66.44235, -17.127351 ], [ -66.442663, -17.127461 ], [ -66.443161, -17.127798 ], [ -66.443441, -17.128058 ], [ -66.4436, -17.12824 ], [ -66.443881, -17.128511 ], [ -66.444004, -17.128659 ], [ -66.444126, -17.128772 ], [ -66.444311, -17.129022 ], [ -66.444545, -17.129235 ], [ -66.444603, -17.129293 ], [ -66.445294, -17.129719 ], [ -66.445475, -17.129796 ], [ -66.445621, -17.129886 ], [ -66.445803, -17.130032 ], [ -66.445999, -17.130225 ], [ -66.446097, -17.130349 ], [ -66.446219, -17.130451 ], [ -66.446219, -17.130474 ], [ -66.446305, -17.130565 ], [ -66.446736, -17.13058 ], [ -66.446808, -17.130602 ], [ -66.446869, -17.13067 ], [ -66.446933, -17.130876 ], [ -66.447019, -17.13099 ], [ -66.44707, -17.131104 ], [ -66.447361, -17.131283 ], [ -66.44747, -17.131385 ], [ -66.447546, -17.131579 ], [ -66.44755, -17.131763 ], [ -66.447577, -17.13189 ], [ -66.447676, -17.13206 ], [ -66.447835, -17.132219 ], [ -66.448078, -17.132399 ], [ -66.448319, -17.13251 ], [ -66.448489, -17.132611 ], [ -66.448672, -17.132769 ], [ -66.448721, -17.13286 ], [ -66.449041, -17.13328 ], [ -66.449254, -17.133737 ], [ -66.449365, -17.133896 ], [ -66.449502, -17.134159 ], [ -66.449576, -17.134249 ], [ -66.449673, -17.134282 ], [ -66.449866, -17.134383 ], [ -66.449938, -17.134393 ], [ -66.450047, -17.134449 ], [ -66.450143, -17.13447 ], [ -66.450252, -17.134526 ], [ -66.450336, -17.134547 ], [ -66.450409, -17.134615 ], [ -66.450433, -17.134615 ], [ -66.450579, -17.134727 ], [ -66.450579, -17.13475 ], [ -66.450787, -17.134942 ], [ -66.451045, -17.13526 ], [ -66.451118, -17.135317 ], [ -66.451167, -17.135385 ], [ -66.451252, -17.135429 ], [ -66.451605, -17.135723 ], [ -66.451774, -17.135812 ], [ -66.451822, -17.135811 ], [ -66.451895, -17.135856 ], [ -66.451979, -17.135878 ], [ -66.4521, -17.135956 ], [ -66.452257, -17.136011 ], [ -66.452354, -17.136067 ], [ -66.452391, -17.136124 ], [ -66.452396, -17.136354 ], [ -66.452469, -17.136433 ], [ -66.452915, -17.136587 ], [ -66.453267, -17.136845 ], [ -66.45339, -17.136993 ], [ -66.453501, -17.137175 ], [ -66.453747, -17.137459 ], [ -66.454112, -17.137775 ], [ -66.454199, -17.137923 ], [ -66.454322, -17.138082 ], [ -66.454529, -17.138274 ], [ -66.454894, -17.138533 ], [ -66.455137, -17.138747 ], [ -66.455672, -17.139152 ], [ -66.45588, -17.139368 ], [ -66.456102, -17.139697 ], [ -66.456178, -17.139857 ], [ -66.456339, -17.140119 ], [ -66.456501, -17.14045 ], [ -66.45654, -17.140588 ], [ -66.456552, -17.140587 ], [ -66.456582, -17.140863 ], [ -66.45662, -17.140989 ], [ -66.456662, -17.141264 ], [ -66.456589, -17.141634 ], [ -66.456463, -17.14196 ], [ -66.456335, -17.142425 ], [ -66.456011, -17.143052 ], [ -66.455734, -17.143727 ], [ -66.45566, -17.143842 ], [ -66.455607, -17.144122 ], [ -66.455589, -17.144251 ], [ -66.455565, -17.144251 ], [ -66.455428, -17.144564 ], [ -66.455384, -17.144726 ], [ -66.455361, -17.144761 ], [ -66.455381, -17.145163 ], [ -66.455371, -17.145232 ], [ -66.455312, -17.145279 ], [ -66.455193, -17.145316 ], [ -66.455104, -17.145383 ], [ -66.45504, -17.145456 ], [ -66.455019, -17.145584 ], [ -66.455022, -17.14571 ], [ -66.45498, -17.145964 ], [ -66.454946, -17.146068 ], [ -66.454864, -17.14615 ], [ -66.454771, -17.146278 ], [ -66.454724, -17.146313 ], [ -66.454704, -17.146509 ], [ -66.454533, -17.14688 ], [ -66.454383, -17.147136 ], [ -66.454326, -17.147263 ], [ -66.454364, -17.147366 ], [ -66.454437, -17.147457 ], [ -66.454512, -17.147594 ], [ -66.454528, -17.147778 ], [ -66.454375, -17.147895 ], [ -66.454351, -17.147896 ], [ -66.454294, -17.148035 ], [ -66.454295, -17.148069 ], [ -66.454178, -17.148221 ], [ -66.454076, -17.148487 ], [ -66.454021, -17.148707 ], [ -66.453975, -17.148788 ], [ -66.453753, -17.14901 ], [ -66.453625, -17.149185 ], [ -66.453589, -17.149197 ], [ -66.45351, -17.149394 ], [ -66.453514, -17.14959 ], [ -66.453412, -17.149879 ], [ -66.453241, -17.15025 ], [ -66.453199, -17.15055 ], [ -66.453202, -17.150676 ], [ -66.453229, -17.150837 ], [ -66.453356, -17.151157 ], [ -66.453408, -17.151363 ], [ -66.453415, -17.15172 ], [ -66.453529, -17.151994 ], [ -66.453578, -17.152074 ], [ -66.453705, -17.152405 ], [ -66.45372, -17.152555 ], [ -66.453732, -17.152554 ], [ -66.453962, -17.153229 ], [ -66.454017, -17.153562 ], [ -66.454066, -17.154171 ], [ -66.454103, -17.154263 ], [ -66.454105, -17.154355 ], [ -66.454184, -17.154675 ], [ -66.454187, -17.154802 ], [ -66.454341, -17.155329 ], [ -66.454343, -17.155398 ], [ -66.454381, -17.155524 ], [ -66.454402, -17.155937 ], [ -66.454428, -17.156029 ], [ -66.454435, -17.156374 ], [ -66.454461, -17.156454 ], [ -66.454463, -17.156546 ], [ -66.454475, -17.156546 ], [ -66.454526, -17.156683 ], [ -66.454698, -17.156899 ], [ -66.454784, -17.157036 ], [ -66.454894, -17.15716 ], [ -66.454925, -17.157346 ], [ -66.454822, -17.157538 ], [ -66.454843, -17.157802 ], [ -66.454904, -17.157947 ], [ -66.455033, -17.158155 ], [ -66.455215, -17.158269 ], [ -66.4554, -17.158413 ], [ -66.455413, -17.158437 ], [ -66.45565, -17.158671 ], [ -66.455935, -17.158906 ], [ -66.45613, -17.159027 ], [ -66.456131, -17.159073 ], [ -66.456304, -17.159311 ], [ -66.45634, -17.159334 ], [ -66.456879, -17.159946 ], [ -66.457249, -17.160458 ], [ -66.457578, -17.160751 ], [ -66.458129, -17.16134 ], [ -66.45835, -17.161613 ], [ -66.458448, -17.161692 ], [ -66.458472, -17.161737 ], [ -66.458679, -17.161906 ], [ -66.458778, -17.162043 ], [ -66.458839, -17.162088 ], [ -66.458839, -17.162111 ], [ -66.459036, -17.162361 ], [ -66.459195, -17.162531 ], [ -66.459598, -17.162904 ], [ -66.459856, -17.163221 ], [ -66.459868, -17.163256 ], [ -66.460077, -17.163494 ], [ -66.46026, -17.163675 ], [ -66.46047, -17.16397 ], [ -66.460693, -17.164346 ], [ -66.46089, -17.164608 ], [ -66.461063, -17.164881 ], [ -66.461136, -17.164926 ], [ -66.461222, -17.165051 ], [ -66.461449, -17.165314 ], [ -66.461612, -17.165475 ], [ -66.461794, -17.165637 ], [ -66.461957, -17.165816 ], [ -66.462083, -17.16603 ], [ -66.462151, -17.166473 ], [ -66.462008, -17.16712 ], [ -66.461945, -17.167298 ], [ -66.461907, -17.167433 ], [ -66.461885, -17.167525 ], [ -66.461867, -17.167819 ], [ -66.46152, -17.169848 ], [ -66.461435, -17.170547 ], [ -66.461423, -17.170547 ], [ -66.458936, -17.181552 ], [ -66.445868, -17.191598 ], [ -66.435384, -17.19477 ], [ -66.43493, -17.194937 ], [ -66.427987, -17.212944 ], [ -66.416059, -17.21773 ], [ -66.400007, -17.213291 ], [ -66.397876, -17.222497 ], [ -66.397983, -17.235394 ], [ -66.393974, -17.247705 ], [ -66.417478, -17.250601 ], [ -66.418162, -17.250687 ], [ -66.433309, -17.261402 ], [ -66.45382, -17.265402 ], [ -66.453766, -17.27422 ], [ -66.466683, -17.291909 ], [ -66.484423, -17.296106 ], [ -66.493166, -17.317934 ], [ -66.498944, -17.324722 ], [ -66.493034, -17.337131 ], [ -66.490231, -17.341523 ], [ -66.502101, -17.365643 ], [ -66.517434, -17.400187 ], [ -66.546881, -17.383189 ], [ -66.565527, -17.36739 ], [ -66.576947, -17.355859 ], [ -66.58506, -17.338913 ], [ -66.64978, -17.280058 ], [ -66.673991, -17.247063 ], [ -66.675683, -17.242079 ], [ -66.677317, -17.245719 ], [ -66.698456, -17.242123 ], [ -66.729377, -17.235754 ], [ -66.72815, -17.233474 ], [ -66.727918, -17.231134 ], [ -66.729144, -17.225383 ], [ -66.728733, -17.222438 ], [ -66.729147, -17.219245 ], [ -66.731236, -17.213652 ], [ -66.731971, -17.209595 ], [ -66.727866, -17.202453 ], [ -66.724669, -17.20145 ], [ -66.72107, -17.197435 ], [ -66.717714, -17.192318 ], [ -66.714626, -17.19064 ], [ -66.709676, -17.188791 ], [ -66.705559, -17.182321 ], [ -66.701406, -17.180089 ], [ -66.699952, -17.177013 ], [ -66.695993, -17.175438 ], [ -66.692115, -17.175375 ], [ -66.690952, -17.172952 ], [ -66.688212, -17.172519 ], [ -66.685699, -17.173064 ], [ -66.684326, -17.172986 ], [ -66.68213, -17.17222 ], [ -66.679943, -17.170474 ], [ -66.6765, -17.169374 ], [ -66.675128, -17.167267 ], [ -66.674577, -17.16261 ], [ -66.676897, -17.154509 ], [ -66.677297, -17.150826 ], [ -66.675842, -17.146925 ], [ -66.678436, -17.143829 ], [ -66.679886, -17.139161 ], [ -66.679318, -17.13686 ], [ -66.676963, -17.134347 ], [ -66.67632, -17.130038 ], [ -66.677605, -17.127054 ], [ -66.677958, -17.126233 ], [ -66.680499, -17.121769 ], [ -66.683065, -17.115297 ], [ -66.685894, -17.111696 ], [ -66.68793, -17.1078 ], [ -66.688283, -17.103406 ], [ -66.690905, -17.100377 ], [ -66.694205, -17.090663 ], [ -66.697297, -17.089838 ], [ -66.708341, -17.080414 ], [ -66.716632, -17.060216 ], [ -66.718753, -17.054444 ], [ -66.718073, -17.048999 ], [ -66.717699, -17.039643 ], [ -66.715932, -17.039565 ], [ -66.714703, -17.040125 ], [ -66.712895, -17.041727 ], [ -66.711995, -17.042205 ], [ -66.710065, -17.041594 ], [ -66.709032, -17.041637 ], [ -66.706624, -17.041347 ], [ -66.702667, -17.041346 ], [ -66.696829, -17.042637 ], [ -66.693372, -17.042686 ], [ -66.690853, -17.041823 ], [ -66.688939, -17.041593 ], [ -66.68685, -17.041583 ], [ -66.685303, -17.040492 ], [ -66.682753, -17.039621 ], [ -66.681495, -17.039441 ], [ -66.680957, -17.040308 ], [ -66.680419, -17.040719 ], [ -66.677929, -17.040889 ], [ -66.675006, -17.041499 ], [ -66.662129, -17.047738 ], [ -66.644961, -17.050963 ], [ -66.608653, -17.082226 ], [ -66.576537, -17.072496 ], [ -66.517434, -17.091282 ], [ -66.494273, -17.125003 ], [ -66.433857, -17.095434 ] ] ] ] } }
]
}
