{
"type": "FeatureCollection",
"name": "OMEREQUE",
"crs": { "type": "name", "properties": { "name": "urn:ogc:def:crs:OGC:1.3:CRS84" } },
"bbox": [ -65.072597, -18.285385, -64.679409, -17.872019 ],                                                                        
"features": [
{ "type": "Feature", "properties": { "NOMBRE": "Omereque", "NIVEL": "Municipios", "PROVINCIA": "Campero", "REGION": "Cono Sur", "DEPARTAMENTO": "Cochabamba" }, "bbox": [ -65.072597, -18.285385, -64.679409, -17.872019 ], "geometry": { "type": "MultiPolygon", "coordinates": [ [ [ [ -64.766294, -17.985988 ], [ -64.766126, -17.986103 ], [ -64.765974, -17.986307 ], [ -64.765889, -17.986499 ], [ -64.765835, -17.986735 ], [ -64.765772, -17.986941 ], [ -64.765743, -17.987258 ], [ -64.765827, -17.987589 ], [ -64.765949, -17.987927 ], [ -64.766131, -17.98825 ], [ -64.766275, -17.988674 ], [ -64.76648, -17.989162 ], [ -64.76661, -17.98953 ], [ -64.766747, -17.990012 ], [ -64.766764, -17.99053 ], [ -64.766683, -17.990991 ], [ -64.766542, -17.991495 ], [ -64.766364, -17.992014 ], [ -64.766305, -17.992482 ], [ -64.766255, -17.993003 ], [ -64.766144, -17.993457 ], [ -64.76601, -17.993933 ], [ -64.765945, -17.994401 ], [ -64.765947, -17.994969 ], [ -64.765768, -17.995416 ], [ -64.765414, -17.996071 ], [ -64.765281, -17.996604 ], [ -64.76502, -17.997231 ], [ -64.764812, -17.997879 ], [ -64.764732, -17.998603 ], [ -64.764713, -17.999345 ], [ -64.764497, -18.000072 ], [ -64.764237, -18.000692 ], [ -64.764118, -18.00111 ], [ -64.763871, -18.00142 ], [ -64.763632, -18.001731 ], [ -64.763445, -18.002026 ], [ -64.763176, -18.002473 ], [ -64.762831, -18.002849 ], [ -64.762458, -18.00324 ], [ -64.761858, -18.003602 ], [ -64.761266, -18.004036 ], [ -64.760823, -18.004355 ], [ -64.760591, -18.004672 ], [ -64.760465, -18.005097 ], [ -64.760445, -18.005644 ], [ -64.760387, -18.006226 ], [ -64.760306, -18.006636 ], [ -64.760067, -18.00704 ], [ -64.759677, -18.007524 ], [ -64.759258, -18.007914 ], [ -64.758763, -18.008347 ], [ -64.758328, -18.008752 ], [ -64.758044, -18.009111 ], [ -64.75776, -18.00971 ], [ -64.757522, -18.010373 ], [ -64.757239, -18.010913 ], [ -64.756902, -18.011346 ], [ -64.756565, -18.011635 ], [ -64.756235, -18.012068 ], [ -64.756076, -18.012482 ], [ -64.75595, -18.012878 ], [ -64.755672, -18.013138 ], [ -64.75538, -18.013348 ], [ -64.754983, -18.013673 ], [ -64.754532, -18.013884 ], [ -64.754089, -18.014101 ], [ -64.753549, -18.014391 ], [ -64.753249, -18.014788 ], [ -64.752898, -18.01535 ], [ -64.752356, -18.016034 ], [ -64.75196, -18.016583 ], [ -64.751728, -18.016879 ], [ -64.751458, -18.017189 ], [ -64.751173, -18.017442 ], [ -64.750888, -18.01763 ], [ -64.750588, -18.017833 ], [ -64.750342, -18.018054 ], [ -64.750118, -18.018328 ], [ -64.749909, -18.018768 ], [ -64.74973, -18.019222 ], [ -64.749627, -18.019726 ], [ -64.749502, -18.02041 ], [ -64.749421, -18.021064 ], [ -64.749318, -18.021553 ], [ -64.749117, -18.022087 ], [ -64.748886, -18.022548 ], [ -64.748719, -18.022926 ], [ -64.748435, -18.023402 ], [ -64.748203, -18.023806 ], [ -64.747911, -18.024181 ], [ -64.747672, -18.024628 ], [ -64.747546, -18.025129 ], [ -64.747323, -18.025806 ], [ -64.747123, -18.026498 ], [ -64.746802, -18.027331 ], [ -64.746572, -18.028095 ], [ -64.746417, -18.0287 ], [ -64.746268, -18.029254 ], [ -64.746075, -18.029759 ], [ -64.745835, -18.030062 ], [ -64.74546, -18.030341 ], [ -64.745213, -18.030586 ], [ -64.745063, -18.030803 ], [ -64.744846, -18.03107 ], [ -64.744644, -18.031229 ], [ -64.744396, -18.031359 ], [ -64.744209, -18.031526 ], [ -64.74403, -18.031936 ], [ -64.743839, -18.032352 ], [ -64.743683, -18.032856 ], [ -64.743504, -18.033245 ], [ -64.743264, -18.033476 ], [ -64.743054, -18.033585 ], [ -64.742746, -18.033751 ], [ -64.742438, -18.033846 ], [ -64.742167, -18.033941 ], [ -64.741882, -18.034107 ], [ -64.741657, -18.034266 ], [ -64.741507, -18.034401 ], [ -64.74135, -18.034711 ], [ -64.741126, -18.034999 ], [ -64.740999, -18.035324 ], [ -64.740827, -18.035677 ], [ -64.740671, -18.036052 ], [ -64.74053, -18.036469 ], [ -64.740343, -18.036794 ], [ -64.740073, -18.036939 ], [ -64.739678, -18.037152 ], [ -64.739359, -18.037399 ], [ -64.739041, -18.037796 ], [ -64.738772, -18.038055 ], [ -64.738554, -18.038266 ], [ -64.738329, -18.038564 ], [ -64.738205, -18.03875 ], [ -64.738099, -18.038895 ], [ -64.738011, -18.039045 ], [ -64.737912, -18.039261 ], [ -64.737794, -18.039436 ], [ -64.737643, -18.039532 ], [ -64.737462, -18.039611 ], [ -64.737312, -18.039683 ], [ -64.737174, -18.039762 ], [ -64.737062, -18.039864 ], [ -64.736974, -18.039996 ], [ -64.736843, -18.040128 ], [ -64.736674, -18.040177 ], [ -64.736499, -18.04016 ], [ -64.73631, -18.040082 ], [ -64.736072, -18.039987 ], [ -64.735864, -18.039868 ], [ -64.735726, -18.039677 ], [ -64.735631, -18.039425 ], [ -64.735533, -18.039216 ], [ -64.735439, -18.039036 ], [ -64.735294, -18.038845 ], [ -64.735199, -18.038677 ], [ -64.735111, -18.038551 ], [ -64.734985, -18.038468 ], [ -64.734759, -18.038421 ], [ -64.734515, -18.038434 ], [ -64.734339, -18.038452 ], [ -64.734208, -18.038489 ], [ -64.734026, -18.038519 ], [ -64.733889, -18.038586 ], [ -64.733776, -18.038694 ], [ -64.733658, -18.038808 ], [ -64.733514, -18.038983 ], [ -64.733352, -18.039145 ], [ -64.73317, -18.039296 ], [ -64.732977, -18.039422 ], [ -64.732814, -18.039531 ], [ -64.732632, -18.039591 ], [ -64.732153, -18.039681 ], [ -64.731807, -18.039754 ], [ -64.731439, -18.039825 ], [ -64.730847, -18.039923 ], [ -64.730225, -18.039982 ], [ -64.729514, -18.040052 ], [ -64.728993, -18.040236 ], [ -64.728361, -18.040363 ], [ -64.727991, -18.040499 ], [ -64.72754, -18.040673 ], [ -64.727079, -18.040713 ], [ -64.726608, -18.040801 ], [ -64.726307, -18.040975 ], [ -64.725875, -18.041252 ], [ -64.72553, -18.041474 ], [ -64.72528, -18.041643 ], [ -64.72498, -18.041927 ], [ -64.72456, -18.042217 ], [ -64.724106, -18.042413 ], [ -64.723856, -18.042577 ], [ -64.723556, -18.042683 ], [ -64.723315, -18.042742 ], [ -64.723135, -18.042742 ], [ -64.722839, -18.042758 ], [ -64.722528, -18.042836 ], [ -64.722188, -18.042995 ], [ -64.721908, -18.043193 ], [ -64.721683, -18.043376 ], [ -64.72149, -18.043535 ], [ -64.72139, -18.043641 ], [ -64.721214, -18.043728 ], [ -64.720969, -18.043743 ], [ -64.720723, -18.043763 ], [ -64.720437, -18.04374 ], [ -64.720221, -18.043712 ], [ -64.72004, -18.043593 ], [ -64.719849, -18.043473 ], [ -64.719583, -18.043302 ], [ -64.719457, -18.04322 ], [ -64.719306, -18.043101 ], [ -64.71915, -18.042953 ], [ -64.718984, -18.0428 ], [ -64.718798, -18.042633 ], [ -64.718607, -18.042475 ], [ -64.718413, -18.04229 ], [ -64.718262, -18.042152 ], [ -64.718116, -18.042047 ], [ -64.71799, -18.041946 ], [ -64.717875, -18.041894 ], [ -64.717704, -18.041909 ], [ -64.717584, -18.041909 ], [ -64.717473, -18.04191 ], [ -64.717348, -18.041977 ], [ -64.717203, -18.042103 ], [ -64.717064, -18.042285 ], [ -64.716964, -18.042458 ], [ -64.716885, -18.042669 ], [ -64.716805, -18.04288 ], [ -64.716675, -18.043097 ], [ -64.716541, -18.043346 ], [ -64.716466, -18.043515 ], [ -64.716407, -18.043726 ], [ -64.716383, -18.043956 ], [ -64.716354, -18.044191 ], [ -64.716369, -18.044398 ], [ -64.7164, -18.044609 ], [ -64.716501, -18.044757 ], [ -64.716698, -18.04496 ], [ -64.7169, -18.045127 ], [ -64.717096, -18.045241 ], [ -64.717327, -18.045341 ], [ -64.717497, -18.045398 ], [ -64.717603, -18.045528 ], [ -64.717654, -18.045753 ], [ -64.717635, -18.045998 ], [ -64.717591, -18.046305 ], [ -64.717522, -18.046511 ], [ -64.717437, -18.046704 ], [ -64.717378, -18.046896 ], [ -64.717258, -18.047165 ], [ -64.717159, -18.047316 ], [ -64.717029, -18.047474 ], [ -64.716919, -18.04759 ], [ -64.716774, -18.047706 ], [ -64.716654, -18.047797 ], [ -64.716494, -18.04787 ], [ -64.716333, -18.047923 ], [ -64.716183, -18.047991 ], [ -64.716058, -18.048092 ], [ -64.715998, -18.048217 ], [ -64.715929, -18.048342 ], [ -64.715844, -18.048486 ], [ -64.715784, -18.048649 ], [ -64.715755, -18.048832 ], [ -64.715735, -18.04899 ], [ -64.715676, -18.049158 ], [ -64.715616, -18.049312 ], [ -64.715537, -18.04949 ], [ -64.715492, -18.049652 ], [ -64.715463, -18.049834 ], [ -64.715438, -18.049983 ], [ -64.715429, -18.050122 ], [ -64.715439, -18.050261 ], [ -64.715515, -18.050357 ], [ -64.7156, -18.050419 ], [ -64.715736, -18.050472 ], [ -64.715877, -18.050615 ], [ -64.716008, -18.050749 ], [ -64.716159, -18.050881 ], [ -64.716375, -18.051048 ], [ -64.716516, -18.051139 ], [ -64.716652, -18.051263 ], [ -64.716767, -18.051378 ], [ -64.716828, -18.051488 ], [ -64.716819, -18.051641 ], [ -64.716759, -18.051819 ], [ -64.71671, -18.052016 ], [ -64.71665, -18.052208 ], [ -64.71655, -18.052352 ], [ -64.716441, -18.052573 ], [ -64.716377, -18.052804 ], [ -64.716352, -18.053025 ], [ -64.716283, -18.053355 ], [ -64.716184, -18.053681 ], [ -64.716116, -18.054113 ], [ -64.716057, -18.054553 ], [ -64.716018, -18.054856 ], [ -64.715959, -18.055105 ], [ -64.715915, -18.055403 ], [ -64.715901, -18.055729 ], [ -64.715902, -18.056116 ], [ -64.715898, -18.056389 ], [ -64.715844, -18.056716 ], [ -64.715846, -18.057104 ], [ -64.715872, -18.057354 ], [ -64.715958, -18.057569 ], [ -64.716094, -18.057751 ], [ -64.71626, -18.057885 ], [ -64.71646, -18.057939 ], [ -64.716678, -18.05796 ], [ -64.716881, -18.05801 ], [ -64.7171, -18.058153 ], [ -64.717342, -18.058397 ], [ -64.717606, -18.058655 ], [ -64.717976, -18.05897 ], [ -64.718353, -18.059276 ], [ -64.718655, -18.059601 ], [ -64.718948, -18.059974 ], [ -64.71923, -18.060491 ], [ -64.719543, -18.06096 ], [ -64.719715, -18.061286 ], [ -64.719676, -18.061603 ], [ -64.719436, -18.061863 ], [ -64.719106, -18.06219 ], [ -64.718516, -18.062662 ], [ -64.718115, -18.062836 ], [ -64.717836, -18.063018 ], [ -64.717555, -18.063283 ], [ -64.717286, -18.063566 ], [ -64.716962, -18.063918 ], [ -64.716536, -18.064263 ], [ -64.716305, -18.06439 ], [ -64.716036, -18.06457 ], [ -64.715786, -18.064763 ], [ -64.715511, -18.064968 ], [ -64.715249, -18.065263 ], [ -64.715086, -18.065425 ], [ -64.71493, -18.065654 ], [ -64.714637, -18.066068 ], [ -64.714469, -18.066351 ], [ -64.714375, -18.066672 ], [ -64.714372, -18.067245 ], [ -64.714405, -18.067824 ], [ -64.714426, -18.068429 ], [ -64.714535, -18.068999 ], [ -64.714751, -18.069703 ], [ -64.715161, -18.070451 ], [ -64.71539, -18.071236 ], [ -64.715645, -18.072182 ], [ -64.715658, -18.072423 ], [ -64.71564, -18.072759 ], [ -64.715566, -18.073083 ], [ -64.715454, -18.073371 ], [ -64.715261, -18.073629 ], [ -64.714973, -18.07384 ], [ -64.714585, -18.073943 ], [ -64.714253, -18.073993 ], [ -64.714008, -18.073963 ], [ -64.71387, -18.073832 ], [ -64.713837, -18.073595 ], [ -64.713875, -18.073144 ], [ -64.713845, -18.072769 ], [ -64.713677, -18.072576 ], [ -64.713563, -18.072324 ], [ -64.713406, -18.072127 ], [ -64.713167, -18.072062 ], [ -64.712917, -18.072117 ], [ -64.712472, -18.07222 ], [ -64.712087, -18.072334 ], [ -64.71169, -18.072678 ], [ -64.711478, -18.072967 ], [ -64.71132, -18.073355 ], [ -64.711208, -18.073739 ], [ -64.711116, -18.074189 ], [ -64.711093, -18.074741 ], [ -64.711121, -18.075446 ], [ -64.711198, -18.076027 ], [ -64.711222, -18.076674 ], [ -64.711186, -18.07786 ], [ -64.710986, -18.079419 ], [ -64.710874, -18.079977 ], [ -64.710738, -18.080386 ], [ -64.71057, -18.080807 ], [ -64.710308, -18.081221 ], [ -64.710096, -18.08157 ], [ -64.709772, -18.082021 ], [ -64.709422, -18.082418 ], [ -64.70906, -18.082731 ], [ -64.708685, -18.083067 ], [ -64.708241, -18.08353 ], [ -64.707916, -18.083831 ], [ -64.707503, -18.08409 ], [ -64.70674, -18.084566 ], [ -64.706434, -18.084759 ], [ -64.705958, -18.08497 ], [ -64.70514, -18.085222 ], [ -64.704639, -18.085355 ], [ -64.704157, -18.085549 ], [ -64.703763, -18.085694 ], [ -64.703387, -18.085875 ], [ -64.702991, -18.086087 ], [ -64.702712, -18.086297 ], [ -64.702469, -18.086457 ], [ -64.702086, -18.08676 ], [ -64.70185, -18.087104 ], [ -64.70149, -18.087501 ], [ -64.700889, -18.087884 ], [ -64.700289, -18.088339 ], [ -64.699854, -18.088621 ], [ -64.699464, -18.089033 ], [ -64.699154, -18.089408 ], [ -64.698726, -18.089813 ], [ -64.69842, -18.090267 ], [ -64.698203, -18.090865 ], [ -64.698166, -18.091337 ], [ -64.698208, -18.09173 ], [ -64.698149, -18.092114 ], [ -64.697959, -18.092393 ], [ -64.697779, -18.092619 ], [ -64.697509, -18.092836 ], [ -64.697064, -18.093068 ], [ -64.696614, -18.09327 ], [ -64.695858, -18.093458 ], [ -64.69521, -18.093596 ], [ -64.694859, -18.093681 ], [ -64.694496, -18.093772 ], [ -64.694176, -18.093881 ], [ -64.693945, -18.094038 ], [ -64.693688, -18.094218 ], [ -64.69352, -18.094429 ], [ -64.693446, -18.094759 ], [ -64.693378, -18.095125 ], [ -64.693336, -18.095611 ], [ -64.693281, -18.09596 ], [ -64.693172, -18.096363 ], [ -64.692983, -18.096791 ], [ -64.692584, -18.097545 ], [ -64.692306, -18.098213 ], [ -64.691873, -18.098758 ], [ -64.691051, -18.099016 ], [ -64.690352, -18.099139 ], [ -64.689992, -18.099245 ], [ -64.689601, -18.099376 ], [ -64.689135, -18.099478 ], [ -64.688643, -18.0996 ], [ -64.688187, -18.099659 ], [ -64.687701, -18.099709 ], [ -64.687326, -18.099729 ], [ -64.68703, -18.09974 ], [ -64.686653, -18.099722 ], [ -64.686232, -18.099733 ], [ -64.685785, -18.099676 ], [ -64.685585, -18.099663 ], [ -64.685359, -18.099639 ], [ -64.685077, -18.09954 ], [ -64.684267, -18.099362 ], [ -64.683863, -18.099294 ], [ -64.68358, -18.099223 ], [ -64.683329, -18.099158 ], [ -64.683053, -18.099087 ], [ -64.682827, -18.099022 ], [ -64.682594, -18.099022 ], [ -64.682362, -18.099083 ], [ -64.682193, -18.099198 ], [ -64.682056, -18.09933 ], [ -64.681968, -18.099534 ], [ -64.6819, -18.09972 ], [ -64.681738, -18.099937 ], [ -64.681494, -18.100127 ], [ -64.681207, -18.10041 ], [ -64.681001, -18.10068 ], [ -64.680776, -18.100909 ], [ -64.680573, -18.10114 ], [ -64.680351, -18.10139 ], [ -64.680144, -18.101535 ], [ -64.679944, -18.101565 ], [ -64.6798, -18.101536 ], [ -64.679649, -18.101458 ], [ -64.679409, -18.102938 ], [ -64.67952, -18.103284 ], [ -64.679626, -18.103792 ], [ -64.679649, -18.103976 ], [ -64.67979, -18.104484 ], [ -64.67986, -18.104899 ], [ -64.679919, -18.105049 ], [ -64.679955, -18.105223 ], [ -64.680073, -18.105477 ], [ -64.680073, -18.105511 ], [ -64.680097, -18.105546 ], [ -64.680133, -18.105546 ], [ -64.680336, -18.105651 ], [ -64.680623, -18.105756 ], [ -64.680731, -18.105814 ], [ -64.680923, -18.105885 ], [ -64.681198, -18.106036 ], [ -64.681377, -18.106198 ], [ -64.681531, -18.106464 ], [ -64.681531, -18.106499 ], [ -64.681523, -18.106513 ], [ -64.681532, -18.106528 ], [ -64.681532, -18.106562 ], [ -64.681471, -18.106666 ], [ -64.681387, -18.106746 ], [ -64.681206, -18.106975 ], [ -64.681146, -18.10701 ], [ -64.681025, -18.10717 ], [ -64.680996, -18.107351 ], [ -64.68113, -18.107568 ], [ -64.68125, -18.107615 ], [ -64.681598, -18.107651 ], [ -64.681969, -18.107723 ], [ -64.682364, -18.10784 ], [ -64.68295, -18.108062 ], [ -64.682974, -18.108085 ], [ -64.683034, -18.108086 ], [ -64.683261, -18.108191 ], [ -64.683321, -18.108237 ], [ -64.683501, -18.108307 ], [ -64.683728, -18.108447 ], [ -64.683955, -18.108644 ], [ -64.684086, -18.108794 ], [ -64.684312, -18.10913 ], [ -64.684442, -18.109476 ], [ -64.684728, -18.109858 ], [ -64.685039, -18.110102 ], [ -64.685111, -18.110113 ], [ -64.685194, -18.110172 ], [ -64.685266, -18.110195 ], [ -64.685517, -18.110346 ], [ -64.685876, -18.110486 ], [ -64.686236, -18.110534 ], [ -64.687111, -18.110551 ], [ -64.687986, -18.110544 ], [ -64.688358, -18.110592 ], [ -64.688357, -18.110604 ], [ -64.688477, -18.110662 ], [ -64.68874, -18.110871 ], [ -64.68905, -18.111195 ], [ -64.689349, -18.111393 ], [ -64.689684, -18.111567 ], [ -64.689971, -18.111661 ], [ -64.691264, -18.111979 ], [ -64.691312, -18.11198 ], [ -64.691384, -18.112015 ], [ -64.691576, -18.112062 ], [ -64.692281, -18.112457 ], [ -64.692389, -18.112504 ], [ -64.692389, -18.112516 ], [ -64.692497, -18.112574 ], [ -64.69258, -18.112643 ], [ -64.69264, -18.112724 ], [ -64.692639, -18.112787 ], [ -64.69264, -18.112788 ], [ -64.692639, -18.113168 ], [ -64.692455, -18.113939 ], [ -64.692455, -18.114064 ], [ -64.692501, -18.114279 ], [ -64.692548, -18.114383 ], [ -64.693144, -18.115147 ], [ -64.693203, -18.115251 ], [ -64.693311, -18.115355 ], [ -64.693657, -18.115783 ], [ -64.694001, -18.116384 ], [ -64.694311, -18.116835 ], [ -64.694514, -18.117055 ], [ -64.694514, -18.117102 ], [ -64.694538, -18.117102 ], [ -64.694537, -18.117165 ], [ -64.694538, -18.117165 ], [ -64.694537, -18.117384 ], [ -64.694512, -18.117557 ], [ -64.694294, -18.118143 ], [ -64.694258, -18.118201 ], [ -64.694258, -18.118224 ], [ -64.69386, -18.118683 ], [ -64.693643, -18.118843 ], [ -64.693487, -18.119015 ], [ -64.693317, -18.119336 ], [ -64.693184, -18.119647 ], [ -64.693074, -18.120015 ], [ -64.692917, -18.120383 ], [ -64.692735, -18.12075 ], [ -64.69259, -18.120969 ], [ -64.692325, -18.121232 ], [ -64.691832, -18.121483 ], [ -64.691592, -18.121666 ], [ -64.691568, -18.121666 ], [ -64.691435, -18.121826 ], [ -64.691206, -18.122182 ], [ -64.691145, -18.122343 ], [ -64.691048, -18.122481 ], [ -64.690976, -18.122688 ], [ -64.690975, -18.122723 ], [ -64.690939, -18.122815 ], [ -64.690938, -18.123055 ], [ -64.691043, -18.123547 ], [ -64.691042, -18.123606 ], [ -64.691043, -18.12361 ], [ -64.691042, -18.123956 ], [ -64.690908, -18.124232 ], [ -64.6908, -18.124404 ], [ -64.690715, -18.124507 ], [ -64.690691, -18.124519 ], [ -64.69056, -18.12446 ], [ -64.6905, -18.12446 ], [ -64.690488, -18.124448 ], [ -64.690404, -18.124448 ], [ -64.690176, -18.124527 ], [ -64.689911, -18.124699 ], [ -64.689803, -18.124825 ], [ -64.689742, -18.124928 ], [ -64.689681, -18.125089 ], [ -64.689671, -18.125294 ], [ -64.68982, -18.125994 ], [ -64.689867, -18.126156 ], [ -64.689902, -18.126375 ], [ -64.689902, -18.126433 ], [ -64.689903, -18.126438 ], [ -64.689902, -18.126646 ], [ -64.689877, -18.126772 ], [ -64.689817, -18.12683 ], [ -64.689781, -18.126945 ], [ -64.689773, -18.127017 ], [ -64.68997, -18.12732 ], [ -64.690017, -18.127424 ], [ -64.690076, -18.127655 ], [ -64.690099, -18.127908 ], [ -64.690094, -18.127913 ], [ -64.6901, -18.127972 ], [ -64.690088, -18.127983 ], [ -64.690087, -18.128117 ], [ -64.690312, -18.128463 ], [ -64.690348, -18.128474 ], [ -64.690372, -18.128521 ], [ -64.690372, -18.128555 ], [ -64.690408, -18.128578 ], [ -64.690491, -18.12874 ], [ -64.690502, -18.128878 ], [ -64.690499, -18.128892 ], [ -64.690503, -18.128942 ], [ -64.690491, -18.128988 ], [ -64.690466, -18.129011 ], [ -64.690442, -18.129011 ], [ -64.690322, -18.129148 ], [ -64.690129, -18.129286 ], [ -64.689864, -18.129618 ], [ -64.689791, -18.129791 ], [ -64.68973, -18.130044 ], [ -64.689669, -18.130401 ], [ -64.689645, -18.130412 ], [ -64.689631, -18.130815 ], [ -64.689606, -18.130942 ], [ -64.689545, -18.131126 ], [ -64.689485, -18.131172 ], [ -64.689353, -18.131194 ], [ -64.688933, -18.131342 ], [ -64.688657, -18.13134 ], [ -64.688453, -18.131374 ], [ -64.688285, -18.131419 ], [ -64.687972, -18.131578 ], [ -64.687708, -18.131761 ], [ -64.687551, -18.131933 ], [ -64.687445, -18.132112 ], [ -64.687453, -18.132238 ], [ -64.687548, -18.132492 ], [ -64.687583, -18.132642 ], [ -64.687678, -18.13285 ], [ -64.687678, -18.132896 ], [ -64.68782, -18.133254 ], [ -64.687891, -18.133508 ], [ -64.687913, -18.133842 ], [ -64.687913, -18.133893 ], [ -64.687914, -18.133905 ], [ -64.687912, -18.134194 ], [ -64.6879, -18.134263 ], [ -64.687876, -18.134262 ], [ -64.687731, -18.134388 ], [ -64.687274, -18.134674 ], [ -64.687045, -18.135007 ], [ -64.686984, -18.135168 ], [ -64.686863, -18.135627 ], [ -64.686871, -18.136233 ], [ -64.686906, -18.136291 ], [ -64.686988, -18.136821 ], [ -64.686998, -18.137213 ], [ -64.686997, -18.137216 ], [ -64.686998, -18.137276 ], [ -64.686938, -18.137495 ], [ -64.686816, -18.137771 ], [ -64.68672, -18.137909 ], [ -64.686612, -18.137943 ], [ -64.686467, -18.138023 ], [ -64.686383, -18.138034 ], [ -64.686263, -18.138091 ], [ -64.685712, -18.138076 ], [ -64.685353, -18.137947 ], [ -64.685293, -18.137947 ], [ -64.685137, -18.1379 ], [ -64.684801, -18.137887 ], [ -64.684657, -18.137943 ], [ -64.684597, -18.137989 ], [ -64.684488, -18.138127 ], [ -64.684343, -18.13838 ], [ -64.684234, -18.138655 ], [ -64.684087, -18.139231 ], [ -64.68405, -18.139473 ], [ -64.683989, -18.139703 ], [ -64.683976, -18.139945 ], [ -64.68394, -18.140014 ], [ -64.683939, -18.14029 ], [ -64.683841, -18.140727 ], [ -64.683684, -18.140945 ], [ -64.683455, -18.141175 ], [ -64.683407, -18.141243 ], [ -64.683371, -18.141243 ], [ -64.683154, -18.14138 ], [ -64.682962, -18.14146 ], [ -64.682602, -18.141481 ], [ -64.682182, -18.141479 ], [ -64.681643, -18.141418 ], [ -64.681297, -18.141449 ], [ -64.681071, -18.141451 ], [ -64.680747, -18.141423 ], [ -64.680319, -18.141307 ], [ -64.680586, -18.141515 ], [ -64.699512, -18.155164 ], [ -64.700685, -18.15602 ], [ -64.710451, -18.162511 ], [ -64.710434, -18.162476 ], [ -64.710469, -18.162487 ], [ -64.710434, -18.162412 ], [ -64.742868, -18.172873 ], [ -64.762783, -18.197384 ], [ -64.805926, -18.208457 ], [ -64.807952, -18.208982 ], [ -64.815262, -18.23036 ], [ -64.825191, -18.247471 ], [ -64.825123, -18.247417 ], [ -64.825127, -18.247423 ], [ -64.830871, -18.254377 ], [ -64.83095, -18.254684 ], [ -64.83097, -18.254775 ], [ -64.830964, -18.25481 ], [ -64.83097, -18.254838 ], [ -64.830953, -18.254947 ], [ -64.8309, -18.255088 ], [ -64.830876, -18.255226 ], [ -64.83084, -18.25533 ], [ -64.830805, -18.255387 ], [ -64.830805, -18.25541 ], [ -64.830745, -18.255445 ], [ -64.830721, -18.25548 ], [ -64.830625, -18.255537 ], [ -64.830337, -18.255652 ], [ -64.830073, -18.255871 ], [ -64.829965, -18.256033 ], [ -64.829965, -18.256056 ], [ -64.829941, -18.256056 ], [ -64.829941, -18.256183 ], [ -64.829917, -18.256298 ], [ -64.829917, -18.256524 ], [ -64.830049, -18.256799 ], [ -64.830109, -18.256857 ], [ -64.830229, -18.257076 ], [ -64.830314, -18.257387 ], [ -64.830422, -18.257964 ], [ -64.830507, -18.258655 ], [ -64.830555, -18.25884 ], [ -64.830555, -18.258901 ], [ -64.830556, -18.258903 ], [ -64.830556, -18.259373 ], [ -64.83058, -18.259485 ], [ -64.830593, -18.260269 ], [ -64.830629, -18.260511 ], [ -64.830629, -18.260571 ], [ -64.83063, -18.260575 ], [ -64.83063, -18.261405 ], [ -64.830523, -18.261912 ], [ -64.830487, -18.261981 ], [ -64.830463, -18.261981 ], [ -64.830379, -18.262258 ], [ -64.830259, -18.262408 ], [ -64.829972, -18.262823 ], [ -64.829732, -18.263422 ], [ -64.829528, -18.263849 ], [ -64.829121, -18.264898 ], [ -64.829097, -18.265001 ], [ -64.828954, -18.265313 ], [ -64.828786, -18.265797 ], [ -64.828786, -18.265854 ], [ -64.828655, -18.266431 ], [ -64.828655, -18.267163 ], [ -64.828727, -18.267232 ], [ -64.828763, -18.267312 ], [ -64.829135, -18.26767 ], [ -64.829604, -18.26805 ], [ -64.830313, -18.268546 ], [ -64.830577, -18.268754 ], [ -64.830961, -18.269123 ], [ -64.830985, -18.269192 ], [ -64.83107, -18.269296 ], [ -64.831238, -18.269699 ], [ -64.831286, -18.269907 ], [ -64.831286, -18.269965 ], [ -64.831395, -18.270207 ], [ -64.831743, -18.270852 ], [ -64.8319, -18.271083 ], [ -64.832056, -18.271383 ], [ -64.832164, -18.27166 ], [ -64.832164, -18.271722 ], [ -64.832165, -18.271723 ], [ -64.832165, -18.271743 ], [ -64.832201, -18.271936 ], [ -64.832201, -18.271997 ], [ -64.832201, -18.272 ], [ -64.832202, -18.272657 ], [ -64.832154, -18.272991 ], [ -64.832154, -18.273153 ], [ -64.832131, -18.273337 ], [ -64.832131, -18.273498 ], [ -64.832107, -18.273648 ], [ -64.832107, -18.27389 ], [ -64.832071, -18.274156 ], [ -64.832071, -18.274305 ], [ -64.832048, -18.274444 ], [ -64.832048, -18.27451 ], [ -64.832107, -18.274853 ], [ -64.832107, -18.274913 ], [ -64.832108, -18.274916 ], [ -64.832108, -18.275145 ], [ -64.832192, -18.275717 ], [ -64.832241, -18.275925 ], [ -64.832241, -18.275986 ], [ -64.832241, -18.275989 ], [ -64.832241, -18.276053 ], [ -64.832289, -18.27619 ], [ -64.832325, -18.276432 ], [ -64.832421, -18.276813 ], [ -64.832855, -18.277747 ], [ -64.832951, -18.277885 ], [ -64.833011, -18.278035 ], [ -64.833107, -18.27815 ], [ -64.833215, -18.278335 ], [ -64.833408, -18.278611 ], [ -64.834177, -18.279522 ], [ -64.834261, -18.279591 ], [ -64.834706, -18.280076 ], [ -64.834946, -18.280306 ], [ -64.835234, -18.280618 ], [ -64.835403, -18.280768 ], [ -64.836256, -18.281667 ], [ -64.836388, -18.281771 ], [ -64.836448, -18.28184 ], [ -64.836472, -18.28184 ], [ -64.836761, -18.282174 ], [ -64.836761, -18.282197 ], [ -64.837903, -18.283639 ], [ -64.838491, -18.284284 ], [ -64.838681, -18.284606 ], [ -64.838905, -18.284876 ], [ -64.839034, -18.285086 ], [ -64.839258, -18.285385 ], [ -64.850837, -18.265449 ], [ -64.86367, -18.257394 ], [ -64.863682, -18.257406 ], [ -64.863742, -18.257348 ], [ -64.863994, -18.25721 ], [ -64.864246, -18.257049 ], [ -64.864642, -18.256948 ], [ -64.864852, -18.256881 ], [ -64.864956, -18.25687 ], [ -64.86505, -18.256874 ], [ -64.86519, -18.256887 ], [ -64.865433, -18.256865 ], [ -64.86565, -18.256918 ], [ -64.865933, -18.257005 ], [ -64.86617, -18.257137 ], [ -64.866265, -18.257226 ], [ -64.866408, -18.257404 ], [ -64.8666, -18.257683 ], [ -64.866792, -18.258121 ], [ -64.8669, -18.258317 ], [ -64.866997, -18.258421 ], [ -64.867177, -18.258571 ], [ -64.867741, -18.258698 ], [ -64.868053, -18.258721 ], [ -64.868521, -18.258721 ], [ -64.869158, -18.258871 ], [ -64.869422, -18.258894 ], [ -64.869482, -18.258859 ], [ -64.86953, -18.258859 ], [ -64.869698, -18.258744 ], [ -64.869854, -18.258663 ], [ -64.870069, -18.258525 ], [ -64.870561, -18.258041 ], [ -64.870813, -18.257741 ], [ -64.8711, -18.257361 ], [ -64.871304, -18.257153 ], [ -64.871568, -18.257003 ], [ -64.87194, -18.256865 ], [ -64.872276, -18.256796 ], [ -64.872528, -18.256796 ], [ -64.8729, -18.256715 ], [ -64.872984, -18.256658 ], [ -64.873068, -18.256635 ], [ -64.873152, -18.256577 ], [ -64.87368, -18.256347 ], [ -64.874351, -18.255978 ], [ -64.874495, -18.25592 ], [ -64.875218, -18.255429 ], [ -64.884693, -18.243548 ], [ -64.885067, -18.243092 ], [ -64.892484, -18.238395 ], [ -64.901328, -18.213692 ], [ -64.918476, -18.201842 ], [ -64.923738, -18.180008 ], [ -64.923824, -18.176794 ], [ -64.923971, -18.175443 ], [ -64.931805, -18.170365 ], [ -64.947312, -18.160098 ], [ -64.947938, -18.159608 ], [ -64.959981, -18.141138 ], [ -64.963011, -18.121388 ], [ -64.963071, -18.121115 ], [ -64.967943, -18.099183 ], [ -64.964645, -18.069546 ], [ -64.964636, -18.068761 ], [ -64.964568, -18.068339 ], [ -64.977623, -18.063456 ], [ -64.986974, -18.058954 ], [ -64.996711, -18.049591 ], [ -65.000987, -18.045341 ], [ -65.001279, -18.045056 ], [ -65.003403, -18.042363 ], [ -65.012646, -18.032445 ], [ -65.012621, -18.032436 ], [ -65.010466, -18.03078 ], [ -65.009627, -18.030175 ], [ -65.009681, -18.030032 ], [ -65.009754, -18.029871 ], [ -65.00982, -18.029787 ], [ -65.009894, -18.029715 ], [ -65.010302, -18.029496 ], [ -65.010582, -18.029313 ], [ -65.010894, -18.029197 ], [ -65.011241, -18.029025 ], [ -65.011648, -18.028898 ], [ -65.011888, -18.028852 ], [ -65.012679, -18.028632 ], [ -65.012811, -18.028563 ], [ -65.013243, -18.028402 ], [ -65.013267, -18.028367 ], [ -65.01359, -18.028206 ], [ -65.01377, -18.028091 ], [ -65.013817, -18.028079 ], [ -65.013853, -18.02801 ], [ -65.013877, -18.02801 ], [ -65.013925, -18.027953 ], [ -65.014057, -18.027849 ], [ -65.014296, -18.027699 ], [ -65.014428, -18.027573 ], [ -65.014523, -18.027504 ], [ -65.014775, -18.027377 ], [ -65.014811, -18.027377 ], [ -65.014811, -18.027365 ], [ -65.014883, -18.027331 ], [ -65.014883, -18.027319 ], [ -65.015242, -18.027238 ], [ -65.015566, -18.027238 ], [ -65.015723, -18.027273 ], [ -65.016095, -18.027411 ], [ -65.016299, -18.027514 ], [ -65.016588, -18.027686 ], [ -65.016889, -18.027905 ], [ -65.017226, -18.028192 ], [ -65.017503, -18.028514 ], [ -65.017828, -18.028997 ], [ -65.017937, -18.029124 ], [ -65.018057, -18.029227 ], [ -65.018671, -18.029618 ], [ -65.019044, -18.02994 ], [ -65.019274, -18.030665 ], [ -65.01942, -18.031022 ], [ -65.019648, -18.031298 ], [ -65.019793, -18.031413 ], [ -65.020262, -18.031723 ], [ -65.020911, -18.032045 ], [ -65.021548, -18.032252 ], [ -65.022424, -18.032424 ], [ -65.022593, -18.032493 ], [ -65.023013, -18.032561 ], [ -65.023121, -18.032607 ], [ -65.023313, -18.032607 ], [ -65.024034, -18.032814 ], [ -65.024226, -18.032837 ], [ -65.024682, -18.03294 ], [ -65.025367, -18.033135 ], [ -65.025367, -18.033147 ], [ -65.025391, -18.033147 ], [ -65.025391, -18.03317 ], [ -65.025403, -18.03317 ], [ -65.025765, -18.033848 ], [ -65.025862, -18.034067 ], [ -65.025947, -18.03432 ], [ -65.026116, -18.034665 ], [ -65.026249, -18.034849 ], [ -65.026381, -18.034999 ], [ -65.026538, -18.035102 ], [ -65.026598, -18.035102 ], [ -65.026766, -18.035148 ], [ -65.027126, -18.035205 ], [ -65.027366, -18.035205 ], [ -65.027762, -18.03517 ], [ -65.028146, -18.035089 ], [ -65.028637, -18.034916 ], [ -65.029116, -18.034698 ], [ -65.029512, -18.034536 ], [ -65.029655, -18.034501 ], [ -65.029751, -18.034444 ], [ -65.030231, -18.034328 ], [ -65.030387, -18.034328 ], [ -65.030507, -18.034351 ], [ -65.030676, -18.034535 ], [ -65.030808, -18.034742 ], [ -65.030809, -18.034961 ], [ -65.030762, -18.035214 ], [ -65.030679, -18.03541 ], [ -65.030428, -18.035732 ], [ -65.030141, -18.036043 ], [ -65.029914, -18.036239 ], [ -65.02898, -18.036757 ], [ -65.028704, -18.036942 ], [ -65.028357, -18.037218 ], [ -65.028286, -18.03731 ], [ -65.028202, -18.037517 ], [ -65.028167, -18.037713 ], [ -65.028169, -18.038346 ], [ -65.028219, -18.038703 ], [ -65.028219, -18.038795 ], [ -65.028255, -18.03891 ], [ -65.028451, -18.03983 ], [ -65.028511, -18.040014 ], [ -65.028681, -18.040348 ], [ -65.028861, -18.040612 ], [ -65.029367, -18.041176 ], [ -65.029632, -18.041406 ], [ -65.029921, -18.041624 ], [ -65.030462, -18.0419 ], [ -65.030654, -18.041946 ], [ -65.030846, -18.041946 ], [ -65.031086, -18.041923 ], [ -65.031794, -18.041922 ], [ -65.031986, -18.041899 ], [ -65.032166, -18.041899 ], [ -65.032298, -18.041864 ], [ -65.032442, -18.041853 ], [ -65.033113, -18.041691 ], [ -65.033365, -18.041599 ], [ -65.033557, -18.041495 ], [ -65.034012, -18.041196 ], [ -65.034095, -18.041104 ], [ -65.034179, -18.040977 ], [ -65.034344, -18.040252 ], [ -65.034544, -18.039158 ], [ -65.03477, -18.038433 ], [ -65.035043, -18.037777 ], [ -65.035234, -18.037409 ], [ -65.035567, -18.036603 ], [ -65.035745, -18.036016 ], [ -65.035804, -18.035889 ], [ -65.035875, -18.035544 ], [ -65.035982, -18.035256 ], [ -65.036005, -18.03513 ], [ -65.036089, -18.034992 ], [ -65.03616, -18.034819 ], [ -65.036566, -18.034278 ], [ -65.036937, -18.033921 ], [ -65.037284, -18.033667 ], [ -65.037452, -18.033587 ], [ -65.037655, -18.03346 ], [ -65.039225, -18.032826 ], [ -65.039668, -18.032607 ], [ -65.039872, -18.032526 ], [ -65.039944, -18.03248 ], [ -65.040255, -18.032365 ], [ -65.040819, -18.032249 ], [ -65.040963, -18.032249 ], [ -65.041131, -18.032215 ], [ -65.041371, -18.032214 ], [ -65.041551, -18.032191 ], [ -65.041671, -18.032191 ], [ -65.04185, -18.032168 ], [ -65.042066, -18.03211 ], [ -65.042618, -18.03211 ], [ -65.04281, -18.032133 ], [ -65.043122, -18.032144 ], [ -65.043483, -18.032236 ], [ -65.043747, -18.03227 ], [ -65.04478, -18.032568 ], [ -65.045248, -18.032729 ], [ -65.045849, -18.032913 ], [ -65.045849, -18.032947 ], [ -65.046859, -18.033476 ], [ -65.04764, -18.033866 ], [ -65.048013, -18.033958 ], [ -65.048385, -18.033958 ], [ -65.048972, -18.033819 ], [ -65.049308, -18.033681 ], [ -65.050398, -18.033174 ], [ -65.051045, -18.032909 ], [ -65.051895, -18.032505 ], [ -65.052314, -18.032355 ], [ -65.052482, -18.032332 ], [ -65.052578, -18.032286 ], [ -65.05277, -18.03224 ], [ -65.05295, -18.032217 ], [ -65.053538, -18.032216 ], [ -65.054162, -18.032365 ], [ -65.054511, -18.032468 ], [ -65.054511, -18.03248 ], [ -65.054859, -18.03248 ], [ -65.055171, -18.032514 ], [ -65.055579, -18.032537 ], [ -65.056419, -18.032536 ], [ -65.056563, -18.032513 ], [ -65.056898, -18.03242 ], [ -65.05709, -18.03234 ], [ -65.057641, -18.032006 ], [ -65.057964, -18.031902 ], [ -65.058156, -18.031902 ], [ -65.058516, -18.031821 ], [ -65.058756, -18.031728 ], [ -65.058995, -18.031602 ], [ -65.059175, -18.03144 ], [ -65.059246, -18.031337 ], [ -65.059282, -18.031314 ], [ -65.059449, -18.030945 ], [ -65.059472, -18.030773 ], [ -65.059471, -18.030485 ], [ -65.059434, -18.030163 ], [ -65.059361, -18.029829 ], [ -65.059251, -18.029438 ], [ -65.059214, -18.029231 ], [ -65.059093, -18.028782 ], [ -65.05909, -18.028126 ], [ -65.059136, -18.027562 ], [ -65.059183, -18.027309 ], [ -65.059278, -18.027079 ], [ -65.059433, -18.02686 ], [ -65.059935, -18.026273 ], [ -65.060079, -18.026135 ], [ -65.060449, -18.025835 ], [ -65.061539, -18.025155 ], [ -65.06179, -18.025029 ], [ -65.061958, -18.024902 ], [ -65.062149, -18.024798 ], [ -65.062305, -18.024683 ], [ -65.062508, -18.024476 ], [ -65.062699, -18.024153 ], [ -65.062865, -18.023785 ], [ -65.062865, -18.023739 ], [ -65.063056, -18.023474 ], [ -65.06314, -18.023313 ], [ -65.063391, -18.023129 ], [ -65.063415, -18.023128 ], [ -65.06351, -18.023036 ], [ -65.063822, -18.022863 ], [ -65.064445, -18.022736 ], [ -65.064553, -18.022736 ], [ -65.064942, -18.0226 ], [ -65.065447, -18.022373 ], [ -65.065652, -18.021792 ], [ -65.065687, -18.021651 ], [ -65.065701, -18.021598 ], [ -65.065793, -18.021436 ], [ -65.065898, -18.021284 ], [ -65.066045, -18.021106 ], [ -65.066093, -18.020953 ], [ -65.066123, -18.02082 ], [ -65.06615, -18.020704 ], [ -65.066231, -18.020518 ], [ -65.066325, -18.0203 ], [ -65.066359, -18.020193 ], [ -65.066402, -18.020051 ], [ -65.06648, -18.019878 ], [ -65.066598, -18.019733 ], [ -65.06666, -18.0197 ], [ -65.066797, -18.019626 ], [ -65.06687, -18.019532 ], [ -65.066925, -18.019462 ], [ -65.066949, -18.01941 ], [ -65.067023, -18.019249 ], [ -65.067071, -18.019145 ], [ -65.067194, -18.01902 ], [ -65.067387, -18.018826 ], [ -65.06756, -18.018707 ], [ -65.067685, -18.018622 ], [ -65.067873, -18.018467 ], [ -65.06801, -18.018353 ], [ -65.068014, -18.01835 ], [ -65.06813, -18.018254 ], [ -65.068198, -18.018091 ], [ -65.068197, -18.017957 ], [ -65.068165, -18.017795 ], [ -65.068102, -18.017576 ], [ -65.06802, -18.01739 ], [ -65.067938, -18.017204 ], [ -65.067957, -18.017109 ], [ -65.068016, -18.017003 ], [ -65.068185, -18.016944 ], [ -65.068354, -18.016923 ], [ -65.068534, -18.016921 ], [ -65.068735, -18.016957 ], [ -65.068883, -18.017086 ], [ -65.068987, -18.017203 ], [ -65.069038, -18.017246 ], [ -65.069184, -18.017363 ], [ -65.069209, -18.017382 ], [ -65.069319, -18.0174 ], [ -65.069466, -18.017321 ], [ -65.069611, -18.017226 ], [ -65.069736, -18.017128 ], [ -65.069873, -18.017035 ], [ -65.069994, -18.016953 ], [ -65.070048, -18.016888 ], [ -65.070129, -18.016793 ], [ -65.070243, -18.01669 ], [ -65.070369, -18.016605 ], [ -65.070415, -18.016501 ], [ -65.070467, -18.016384 ], [ -65.070485, -18.016221 ], [ -65.070483, -18.016087 ], [ -65.070491, -18.015946 ], [ -65.070589, -18.015713 ], [ -65.070735, -18.015387 ], [ -65.070835, -18.015211 ], [ -65.070911, -18.015079 ], [ -65.070909, -18.014897 ], [ -65.07098, -18.014806 ], [ -65.071037, -18.014733 ], [ -65.071125, -18.014579 ], [ -65.071159, -18.014547 ], [ -65.071273, -18.014412 ], [ -65.071331, -18.014328 ], [ -65.071434, -18.014142 ], [ -65.071478, -18.01404 ], [ -65.071556, -18.013848 ], [ -65.071645, -18.013723 ], [ -65.071663, -18.01356 ], [ -65.071662, -18.013471 ], [ -65.071666, -18.013186 ], [ -65.071668, -18.013139 ], [ -65.071765, -18.012938 ], [ -65.071799, -18.012809 ], [ -65.071851, -18.012612 ], [ -65.071879, -18.012401 ], [ -65.072028, -18.012285 ], [ -65.072236, -18.012139 ], [ -65.072293, -18.012091 ], [ -65.072374, -18.012023 ], [ -65.072432, -18.011908 ], [ -65.072482, -18.011811 ], [ -65.072569, -18.011571 ], [ -65.072597, -18.011428 ], [ -65.072577, -18.011222 ], [ -65.072512, -18.011027 ], [ -65.07253, -18.010855 ], [ -65.072068, -18.00948 ], [ -65.065311, -18.00654 ], [ -65.061374, -17.998698 ], [ -65.052457, -17.99563 ], [ -65.042922, -17.991978 ], [ -65.03136, -17.988293 ], [ -65.030348, -17.987739 ], [ -65.030901, -17.986905 ], [ -65.03131, -17.986002 ], [ -65.03174, -17.985137 ], [ -65.03217, -17.984329 ], [ -65.032621, -17.983579 ], [ -65.03287, -17.98262 ], [ -65.033258, -17.981641 ], [ -65.033561, -17.981032 ], [ -65.033707, -17.980737 ], [ -65.034037, -17.979854 ], [ -65.034442, -17.978531 ], [ -65.034946, -17.977225 ], [ -65.03551, -17.97588 ], [ -65.035957, -17.974805 ], [ -65.036807, -17.974012 ], [ -65.037859, -17.97337 ], [ -65.039051, -17.972784 ], [ -65.040065, -17.972295 ], [ -65.041179, -17.971863 ], [ -65.042572, -17.971427 ], [ -65.043085, -17.971248 ], [ -65.043441, -17.970938 ], [ -65.04366, -17.97046 ], [ -65.04405, -17.969652 ], [ -65.044518, -17.968577 ], [ -65.045043, -17.967309 ], [ -65.045525, -17.96587 ], [ -65.0459, -17.964504 ], [ -65.044744, -17.964115 ], [ -65.044281, -17.963863 ], [ -65.043968, -17.963866 ], [ -65.043781, -17.963775 ], [ -65.043635, -17.963703 ], [ -65.043403, -17.963726 ], [ -65.043252, -17.963741 ], [ -65.042785, -17.96361 ], [ -65.042676, -17.96358 ], [ -65.042608, -17.963509 ], [ -65.042538, -17.963436 ], [ -65.042443, -17.963336 ], [ -65.042376, -17.963267 ], [ -65.042203, -17.963157 ], [ -65.042063, -17.963068 ], [ -65.041938, -17.962988 ], [ -65.041792, -17.962947 ], [ -65.041714, -17.962925 ], [ -65.041536, -17.962875 ], [ -65.041395, -17.962738 ], [ -65.041323, -17.962669 ], [ -65.041159, -17.96251 ], [ -65.041043, -17.962397 ], [ -65.04083, -17.962245 ], [ -65.040744, -17.962184 ], [ -65.040623, -17.962185 ], [ -65.040483, -17.962187 ], [ -65.040245, -17.962171 ], [ -65.038393, -17.960906 ], [ -65.029636, -17.95529 ], [ -65.02951, -17.955209 ], [ -65.030248, -17.952049 ], [ -65.029892, -17.951983 ], [ -65.029726, -17.951952 ], [ -65.029528, -17.951915 ], [ -65.02938, -17.951888 ], [ -65.029223, -17.951859 ], [ -65.029125, -17.951828 ], [ -65.029037, -17.951801 ], [ -65.028922, -17.951766 ], [ -65.028729, -17.951697 ], [ -65.028583, -17.951631 ], [ -65.028459, -17.951565 ], [ -65.02838, -17.951523 ], [ -65.028239, -17.951429 ], [ -65.0282, -17.951392 ], [ -65.028118, -17.951316 ], [ -65.027977, -17.951241 ], [ -65.027717, -17.951148 ], [ -65.027625, -17.951138 ], [ -65.027468, -17.951122 ], [ -65.027377, -17.951113 ], [ -65.027286, -17.951124 ], [ -65.027184, -17.951137 ], [ -65.027037, -17.951155 ], [ -65.026879, -17.951194 ], [ -65.026798, -17.951215 ], [ -65.026658, -17.951197 ], [ -65.026518, -17.951141 ], [ -65.026412, -17.951064 ], [ -65.026337, -17.951009 ], [ -65.026274, -17.950977 ], [ -65.026115, -17.950897 ], [ -65.026002, -17.950898 ], [ -65.025861, -17.950919 ], [ -65.025796, -17.950957 ], [ -65.025706, -17.950969 ], [ -65.025637, -17.950978 ], [ -65.025496, -17.950922 ], [ -65.025399, -17.950818 ], [ -65.025312, -17.950713 ], [ -65.025213, -17.950581 ], [ -65.025157, -17.950551 ], [ -65.025072, -17.950504 ], [ -65.024972, -17.95045 ], [ -65.024793, -17.950297 ], [ -65.024729, -17.950242 ], [ -65.024628, -17.95021 ], [ -65.024475, -17.950164 ], [ -65.024369, -17.950131 ], [ -65.024304, -17.950125 ], [ -65.024134, -17.95011 ], [ -65.023989, -17.950097 ], [ -65.018588, -17.945719 ], [ -65.018409, -17.945574 ], [ -65.018234, -17.945416 ], [ -65.01839, -17.945092 ], [ -65.018721, -17.943776 ], [ -65.019457, -17.940852 ], [ -65.020132, -17.938168 ], [ -65.020327, -17.937697 ], [ -65.020089, -17.936531 ], [ -65.020361, -17.93584 ], [ -65.020451, -17.935036 ], [ -65.020768, -17.934746 ], [ -65.020713, -17.933446 ], [ -65.02075, -17.933299 ], [ -65.020847, -17.932909 ], [ -65.021342, -17.932522 ], [ -65.021553, -17.931812 ], [ -65.021554, -17.931811 ], [ -65.021703, -17.932027 ], [ -65.022093, -17.931632 ], [ -65.022076, -17.931561 ], [ -65.021975, -17.931135 ], [ -65.021972, -17.931121 ], [ -65.022001, -17.930952 ], [ -65.022105, -17.93034 ], [ -65.022359, -17.928851 ], [ -65.023814, -17.929644 ], [ -65.025037, -17.930309 ], [ -65.026137, -17.930908 ], [ -65.026566, -17.931142 ], [ -65.027238, -17.931508 ], [ -65.028339, -17.932107 ], [ -65.028969, -17.93245 ], [ -65.029533, -17.932269 ], [ -65.030078, -17.932094 ], [ -65.031796, -17.931087 ], [ -65.032936, -17.930419 ], [ -65.039742, -17.929894 ], [ -65.039931, -17.929894 ], [ -65.041859, -17.93006 ], [ -65.042686, -17.930132 ], [ -65.040791, -17.929147 ], [ -65.039851, -17.928658 ], [ -65.039109, -17.928713 ], [ -65.03899, -17.928631 ], [ -65.038619, -17.928303 ], [ -65.03823, -17.927896 ], [ -65.037838, -17.92725 ], [ -65.037442, -17.926827 ], [ -65.03696, -17.92679 ], [ -65.036513, -17.9269 ], [ -65.036037, -17.926858 ], [ -65.035511, -17.926726 ], [ -65.034683, -17.926394 ], [ -65.033771, -17.925917 ], [ -65.033088, -17.926118 ], [ -65.032469, -17.925981 ], [ -65.032262, -17.925403 ], [ -65.031791, -17.925109 ], [ -65.031347, -17.92494 ], [ -65.0309, -17.924895 ], [ -65.030123, -17.924769 ], [ -65.029371, -17.925657 ], [ -65.028884, -17.925667 ], [ -65.02433, -17.922893 ], [ -65.024503, -17.920504 ], [ -65.024517, -17.920315 ], [ -65.024453, -17.920401 ], [ -65.024402, -17.920494 ], [ -65.024341, -17.920592 ], [ -65.024253, -17.920623 ], [ -65.02417, -17.920629 ], [ -65.024108, -17.92063 ], [ -65.024008, -17.92057 ], [ -65.024006, -17.920568 ], [ -65.024005, -17.920568 ], [ -65.02388, -17.920507 ], [ -65.023879, -17.920506 ], [ -65.023877, -17.920505 ], [ -65.023874, -17.920504 ], [ -65.023871, -17.920503 ], [ -65.023868, -17.920503 ], [ -65.023865, -17.920502 ], [ -65.023861, -17.920502 ], [ -65.023858, -17.920502 ], [ -65.023761, -17.920503 ], [ -65.023758, -17.920503 ], [ -65.023755, -17.920503 ], [ -65.023752, -17.920504 ], [ -65.023749, -17.920504 ], [ -65.023748, -17.920505 ], [ -65.023659, -17.92053 ], [ -65.02354, -17.920555 ], [ -65.0234, -17.920569 ], [ -65.023398, -17.920569 ], [ -65.023395, -17.92057 ], [ -65.023392, -17.92057 ], [ -65.02339, -17.920571 ], [ -65.023244, -17.920615 ], [ -65.023215, -17.92062 ], [ -65.023102, -17.92064 ], [ -65.02303, -17.920641 ], [ -65.022935, -17.920608 ], [ -65.022917, -17.9206 ], [ -65.022826, -17.92056 ], [ -65.022824, -17.92056 ], [ -65.022821, -17.920559 ], [ -65.022818, -17.920558 ], [ -65.022815, -17.920557 ], [ -65.022812, -17.920557 ], [ -65.022809, -17.920556 ], [ -65.022806, -17.920556 ], [ -65.022803, -17.920556 ], [ -65.022802, -17.920556 ], [ -65.022724, -17.920563 ], [ -65.022722, -17.920564 ], [ -65.022719, -17.920564 ], [ -65.022718, -17.920565 ], [ -65.022575, -17.920597 ], [ -65.022573, -17.920598 ], [ -65.02257, -17.920598 ], [ -65.022567, -17.9206 ], [ -65.022565, -17.920601 ], [ -65.022562, -17.920602 ], [ -65.022559, -17.920604 ], [ -65.022557, -17.920606 ], [ -65.022554, -17.920607 ], [ -65.022552, -17.920609 ], [ -65.02255, -17.920612 ], [ -65.022548, -17.920614 ], [ -65.022547, -17.920615 ], [ -65.02249, -17.920693 ], [ -65.022487, -17.920696 ], [ -65.02243, -17.920763 ], [ -65.022307, -17.920893 ], [ -65.022306, -17.920894 ], [ -65.022304, -17.920897 ], [ -65.022303, -17.920899 ], [ -65.022301, -17.920901 ], [ -65.0223, -17.920904 ], [ -65.022298, -17.920907 ], [ -65.022297, -17.92091 ], [ -65.022296, -17.920912 ], [ -65.022296, -17.920914 ], [ -65.022266, -17.921041 ], [ -65.02222, -17.921152 ], [ -65.022218, -17.921156 ], [ -65.022132, -17.921241 ], [ -65.02203, -17.921328 ], [ -65.02203, -17.921328 ], [ -65.022027, -17.921331 ], [ -65.022025, -17.921333 ], [ -65.022023, -17.921335 ], [ -65.022022, -17.921337 ], [ -65.02202, -17.92134 ], [ -65.022019, -17.921343 ], [ -65.022017, -17.921345 ], [ -65.022016, -17.921348 ], [ -65.022016, -17.921348 ], [ -65.021989, -17.921429 ], [ -65.021898, -17.921496 ], [ -65.021897, -17.921496 ], [ -65.021895, -17.921498 ], [ -65.021893, -17.9215 ], [ -65.021891, -17.921502 ], [ -65.021889, -17.921504 ], [ -65.021812, -17.921598 ], [ -65.021812, -17.921599 ], [ -65.02181, -17.921601 ], [ -65.021809, -17.921603 ], [ -65.021807, -17.921606 ], [ -65.021806, -17.921609 ], [ -65.021805, -17.921612 ], [ -65.021804, -17.921614 ], [ -65.021804, -17.921616 ], [ -65.0218, -17.921631 ], [ -65.021773, -17.921747 ], [ -65.021772, -17.921748 ], [ -65.021771, -17.921757 ], [ -65.021773, -17.921885 ], [ -65.02177, -17.921892 ], [ -65.021746, -17.921952 ], [ -65.021725, -17.921959 ], [ -65.021662, -17.921981 ], [ -65.021499, -17.921995 ], [ -65.021497, -17.921995 ], [ -65.021494, -17.921996 ], [ -65.021491, -17.921996 ], [ -65.021488, -17.921997 ], [ -65.021485, -17.921998 ], [ -65.021482, -17.922 ], [ -65.021482, -17.922 ], [ -65.021477, -17.922002 ], [ -65.021332, -17.922074 ], [ -65.021195, -17.922105 ], [ -65.021193, -17.922105 ], [ -65.02119, -17.922106 ], [ -65.021181, -17.92211 ], [ -65.021179, -17.922112 ], [ -65.021176, -17.922113 ], [ -65.021175, -17.922115 ], [ -65.021091, -17.922184 ], [ -65.021084, -17.922191 ], [ -65.021082, -17.922193 ], [ -65.021081, -17.922196 ], [ -65.021079, -17.922199 ], [ -65.021078, -17.922201 ], [ -65.021078, -17.922202 ], [ -65.021029, -17.922321 ], [ -65.020976, -17.922392 ], [ -65.020972, -17.922396 ], [ -65.020971, -17.922399 ], [ -65.02097, -17.922402 ], [ -65.020967, -17.92241 ], [ -65.020966, -17.922416 ], [ -65.020966, -17.922419 ], [ -65.020968, -17.922521 ], [ -65.020751, -17.922483 ], [ -65.020751, -17.922483 ], [ -65.020749, -17.922482 ], [ -65.020718, -17.922478 ], [ -65.020626, -17.922463 ], [ -65.02056, -17.922453 ], [ -65.020559, -17.922453 ], [ -65.020556, -17.922453 ], [ -65.020552, -17.922453 ], [ -65.020422, -17.922454 ], [ -65.020419, -17.922454 ], [ -65.020416, -17.922454 ], [ -65.020415, -17.922455 ], [ -65.020366, -17.922463 ], [ -65.020273, -17.922487 ], [ -65.020248, -17.922495 ], [ -65.020075, -17.922533 ], [ -65.020073, -17.922534 ], [ -65.02007, -17.922535 ], [ -65.020067, -17.922536 ], [ -65.020066, -17.922536 ], [ -65.019924, -17.9226 ], [ -65.019798, -17.922653 ], [ -65.019639, -17.922655 ], [ -65.019542, -17.922627 ], [ -65.019313, -17.922561 ], [ -65.019311, -17.92256 ], [ -65.01931, -17.92256 ], [ -65.019062, -17.922507 ], [ -65.019061, -17.922506 ], [ -65.019058, -17.922506 ], [ -65.019055, -17.922506 ], [ -65.019051, -17.922506 ], [ -65.019048, -17.922506 ], [ -65.019047, -17.922506 ], [ -65.018904, -17.92252 ], [ -65.018902, -17.92252 ], [ -65.018899, -17.922521 ], [ -65.018896, -17.922521 ], [ -65.018894, -17.922522 ], [ -65.018893, -17.922522 ], [ -65.018748, -17.922572 ], [ -65.018684, -17.922642 ], [ -65.018666, -17.92267 ], [ -65.018571, -17.92269 ], [ -65.018487, -17.922678 ], [ -65.018483, -17.922679 ], [ -65.018443, -17.922674 ], [ -65.018442, -17.922674 ], [ -65.018439, -17.922674 ], [ -65.018436, -17.922674 ], [ -65.018273, -17.922675 ], [ -65.01827, -17.922676 ], [ -65.018267, -17.922676 ], [ -65.018264, -17.922676 ], [ -65.018261, -17.922677 ], [ -65.018258, -17.922678 ], [ -65.018255, -17.922679 ], [ -65.018255, -17.922679 ], [ -65.018049, -17.922768 ], [ -65.017885, -17.922831 ], [ -65.0177, -17.922869 ], [ -65.017698, -17.92287 ], [ -65.017695, -17.922871 ], [ -65.017692, -17.922872 ], [ -65.017689, -17.922873 ], [ -65.017687, -17.922874 ], [ -65.017684, -17.922876 ], [ -65.017681, -17.922878 ], [ -65.017679, -17.92288 ], [ -65.017678, -17.922881 ], [ -65.017557, -17.922993 ], [ -65.0174, -17.923122 ], [ -65.01728, -17.923186 ], [ -65.017111, -17.92323 ], [ -65.01711, -17.92323 ], [ -65.017107, -17.923231 ], [ -65.017105, -17.923232 ], [ -65.016962, -17.92329 ], [ -65.016962, -17.92329 ], [ -65.016959, -17.923291 ], [ -65.016957, -17.923293 ], [ -65.016954, -17.923294 ], [ -65.016953, -17.923295 ], [ -65.016785, -17.923415 ], [ -65.016784, -17.923416 ], [ -65.016782, -17.923418 ], [ -65.016779, -17.92342 ], [ -65.016777, -17.923422 ], [ -65.016775, -17.923424 ], [ -65.016774, -17.923427 ], [ -65.016773, -17.923428 ], [ -65.016735, -17.923489 ], [ -65.016604, -17.923496 ], [ -65.016603, -17.923496 ], [ -65.016599, -17.923496 ], [ -65.016596, -17.923496 ], [ -65.016593, -17.923497 ], [ -65.01659, -17.923498 ], [ -65.016588, -17.923499 ], [ -65.016587, -17.923499 ], [ -65.016419, -17.923569 ], [ -65.016417, -17.923571 ], [ -65.016414, -17.923572 ], [ -65.016413, -17.923573 ], [ -65.016233, -17.923679 ], [ -65.016028, -17.923787 ], [ -65.016026, -17.923788 ], [ -65.016024, -17.923789 ], [ -65.016021, -17.923791 ], [ -65.016019, -17.923793 ], [ -65.016017, -17.923795 ], [ -65.016015, -17.923797 ], [ -65.016013, -17.923799 ], [ -65.015919, -17.923915 ], [ -65.015838, -17.923988 ], [ -65.015837, -17.92399 ], [ -65.015721, -17.924103 ], [ -65.015719, -17.924105 ], [ -65.015717, -17.924107 ], [ -65.015715, -17.92411 ], [ -65.015714, -17.924112 ], [ -65.015714, -17.924112 ], [ -65.015663, -17.9242 ], [ -65.015661, -17.924203 ], [ -65.01566, -17.924205 ], [ -65.015659, -17.924208 ], [ -65.015658, -17.924211 ], [ -65.015657, -17.924214 ], [ -65.015657, -17.924214 ], [ -65.015644, -17.924289 ], [ -65.015461, -17.924357 ], [ -65.01546, -17.924357 ], [ -65.015457, -17.924358 ], [ -65.015454, -17.92436 ], [ -65.015452, -17.924361 ], [ -65.015449, -17.924363 ], [ -65.015447, -17.924365 ], [ -65.015445, -17.924367 ], [ -65.015442, -17.924369 ], [ -65.015441, -17.924372 ], [ -65.015439, -17.924373 ], [ -65.015363, -17.92448 ], [ -65.01525, -17.924487 ], [ -65.015249, -17.924487 ], [ -65.015246, -17.924487 ], [ -65.015243, -17.924487 ], [ -65.01524, -17.924488 ], [ -65.015237, -17.924489 ], [ -65.015234, -17.92449 ], [ -65.015231, -17.924491 ], [ -65.015228, -17.924493 ], [ -65.015226, -17.924494 ], [ -65.015223, -17.924496 ], [ -65.015223, -17.924496 ], [ -65.015141, -17.924558 ], [ -65.015056, -17.924613 ], [ -65.014888, -17.924621 ], [ -65.014886, -17.924621 ], [ -65.014883, -17.924621 ], [ -65.01488, -17.924622 ], [ -65.014878, -17.924622 ], [ -65.014696, -17.924668 ], [ -65.014696, -17.924668 ], [ -65.014693, -17.924669 ], [ -65.01469, -17.92467 ], [ -65.014687, -17.924671 ], [ -65.014687, -17.924671 ], [ -65.014514, -17.924756 ], [ -65.014405, -17.924763 ], [ -65.01438, -17.92476 ], [ -65.014302, -17.924589 ], [ -65.013304, -17.924448 ], [ -65.013227, -17.92445 ], [ -65.012618, -17.924417 ], [ -65.012583, -17.924428 ], [ -65.012378, -17.924298 ], [ -65.012293, -17.924215 ], [ -65.012191, -17.924158 ], [ -65.012112, -17.924146 ], [ -65.011463, -17.92406 ], [ -65.011816, -17.923826 ], [ -65.011885, -17.923551 ], [ -65.011932, -17.922949 ], [ -65.011194, -17.921993 ], [ -65.011336, -17.921285 ], [ -65.011686, -17.92078 ], [ -65.012489, -17.920214 ], [ -65.012286, -17.919878 ], [ -65.012108, -17.918821 ], [ -65.01224, -17.918144 ], [ -65.011997, -17.917512 ], [ -65.011989, -17.917105 ], [ -65.012204, -17.916602 ], [ -65.011975, -17.915939 ], [ -65.012514, -17.915368 ], [ -65.012647, -17.915067 ], [ -65.012202, -17.915171 ], [ -65.011793, -17.914804 ], [ -65.011464, -17.914485 ], [ -65.012045, -17.913641 ], [ -65.012315, -17.912935 ], [ -65.013017, -17.912282 ], [ -65.010747, -17.911477 ], [ -65.010665, -17.911492 ], [ -65.009202, -17.912535 ], [ -65.00867, -17.912321 ], [ -65.007947, -17.912545 ], [ -65.007817, -17.912565 ], [ -65.007693, -17.91258 ], [ -65.007635, -17.912493 ], [ -65.007527, -17.912396 ], [ -65.007407, -17.912334 ], [ -65.007212, -17.912274 ], [ -65.007045, -17.912197 ], [ -65.006927, -17.912099 ], [ -65.006807, -17.912021 ], [ -65.006508, -17.912002 ], [ -65.00647, -17.911825 ], [ -65.006451, -17.911703 ], [ -65.006034, -17.91177 ], [ -65.005958, -17.911807 ], [ -65.005804, -17.911811 ], [ -65.005282, -17.911976 ], [ -65.005099, -17.91199 ], [ -65.004993, -17.912007 ], [ -65.004909, -17.912023 ], [ -65.004688, -17.912082 ], [ -65.004509, -17.912109 ], [ -65.004125, -17.911879 ], [ -65.004036, -17.911829 ], [ -65.003995, -17.911667 ], [ -65.003999, -17.911509 ], [ -65.00396, -17.911152 ], [ -65.003896, -17.910888 ], [ -65.004176, -17.909206 ], [ -65.004205, -17.90847 ], [ -65.004316, -17.90738 ], [ -65.004303, -17.907228 ], [ -65.004014, -17.906642 ], [ -65.004043, -17.906187 ], [ -65.00481, -17.904484 ], [ -65.004317, -17.904095 ], [ -65.004018, -17.903976 ], [ -65.003656, -17.903572 ], [ -65.003174, -17.903032 ], [ -65.002944, -17.902547 ], [ -65.002105, -17.902035 ], [ -65.001561, -17.901691 ], [ -65.000809, -17.901246 ], [ -64.999004, -17.900286 ], [ -64.99781, -17.899867 ], [ -64.997609, -17.899718 ], [ -64.997548, -17.899666 ], [ -64.997481, -17.899577 ], [ -64.997408, -17.899528 ], [ -64.997359, -17.899485 ], [ -64.997353, -17.899471 ], [ -64.997321, -17.89941 ], [ -64.997279, -17.899256 ], [ -64.997041, -17.899271 ], [ -64.996943, -17.899331 ], [ -64.996733, -17.898547 ], [ -64.996687, -17.898484 ], [ -64.996681, -17.898474 ], [ -64.996633, -17.898392 ], [ -64.996603, -17.89832 ], [ -64.996601, -17.898316 ], [ -64.996601, -17.898315 ], [ -64.9966, -17.898296 ], [ -64.996595, -17.898239 ], [ -64.996536, -17.89822 ], [ -64.996484, -17.898177 ], [ -64.996426, -17.898158 ], [ -64.996382, -17.898124 ], [ -64.996316, -17.898092 ], [ -64.996248, -17.898045 ], [ -64.996235, -17.897991 ], [ -64.99618, -17.897947 ], [ -64.996167, -17.897936 ], [ -64.996078, -17.897898 ], [ -64.996022, -17.897809 ], [ -64.996022, -17.897808 ], [ -64.995882, -17.897752 ], [ -64.995852, -17.897741 ], [ -64.995807, -17.897691 ], [ -64.995796, -17.897649 ], [ -64.995788, -17.897619 ], [ -64.99577, -17.897567 ], [ -64.995709, -17.897544 ], [ -64.995668, -17.897528 ], [ -64.995411, -17.897337 ], [ -64.995309, -17.897258 ], [ -64.995235, -17.897216 ], [ -64.995141, -17.897178 ], [ -64.995099, -17.897146 ], [ -64.995114, -17.897081 ], [ -64.995137, -17.897011 ], [ -64.995089, -17.896969 ], [ -64.995029, -17.89694 ], [ -64.995013, -17.89686 ], [ -64.994991, -17.896771 ], [ -64.994959, -17.896682 ], [ -64.994802, -17.896601 ], [ -64.994739, -17.896542 ], [ -64.994739, -17.89654 ], [ -64.99474, -17.896455 ], [ -64.994768, -17.896409 ], [ -64.994781, -17.896387 ], [ -64.994809, -17.896287 ], [ -64.994772, -17.896202 ], [ -64.994652, -17.896131 ], [ -64.99457, -17.896078 ], [ -64.994561, -17.895931 ], [ -64.994642, -17.895791 ], [ -64.994536, -17.895347 ], [ -64.994537, -17.895321 ], [ -64.994431, -17.895122 ], [ -64.994421, -17.895121 ], [ -64.994346, -17.895086 ], [ -64.994346, -17.895086 ], [ -64.994345, -17.895085 ], [ -64.994282, -17.895058 ], [ -64.994238, -17.895017 ], [ -64.994235, -17.895015 ], [ -64.994233, -17.895013 ], [ -64.994227, -17.89501 ], [ -64.994225, -17.895009 ], [ -64.994222, -17.895008 ], [ -64.994145, -17.894983 ], [ -64.994081, -17.894954 ], [ -64.994081, -17.894953 ], [ -64.99408, -17.894953 ], [ -64.994005, -17.89492 ], [ -64.993954, -17.894882 ], [ -64.993934, -17.894832 ], [ -64.993933, -17.89483 ], [ -64.993933, -17.894829 ], [ -64.993883, -17.894724 ], [ -64.993878, -17.894647 ], [ -64.993878, -17.894644 ], [ -64.993868, -17.894572 ], [ -64.993861, -17.894522 ], [ -64.993858, -17.894494 ], [ -64.993857, -17.894387 ], [ -64.993873, -17.894271 ], [ -64.993895, -17.894168 ], [ -64.993896, -17.894168 ], [ -64.993896, -17.894165 ], [ -64.993896, -17.894159 ], [ -64.993896, -17.894156 ], [ -64.993896, -17.894154 ], [ -64.993886, -17.894069 ], [ -64.99388, -17.894007 ], [ -64.99388, -17.894004 ], [ -64.99388, -17.894002 ], [ -64.993878, -17.893996 ], [ -64.993877, -17.893993 ], [ -64.993876, -17.89399 ], [ -64.993874, -17.893988 ], [ -64.993821, -17.893901 ], [ -64.993797, -17.893774 ], [ -64.993797, -17.893773 ], [ -64.993796, -17.89377 ], [ -64.993794, -17.893764 ], [ -64.993793, -17.893762 ], [ -64.993793, -17.893761 ], [ -64.99376, -17.893699 ], [ -64.993759, -17.893661 ], [ -64.993759, -17.893658 ], [ -64.993758, -17.893652 ], [ -64.993757, -17.893649 ], [ -64.993757, -17.893646 ], [ -64.993755, -17.893643 ], [ -64.993754, -17.893641 ], [ -64.993753, -17.893638 ], [ -64.993751, -17.893635 ], [ -64.993751, -17.893635 ], [ -64.993689, -17.89355 ], [ -64.993687, -17.893548 ], [ -64.993685, -17.893546 ], [ -64.993683, -17.893544 ], [ -64.993643, -17.893506 ], [ -64.993615, -17.89347 ], [ -64.993607, -17.893397 ], [ -64.99361, -17.893391 ], [ -64.993618, -17.893377 ], [ -64.993636, -17.893343 ], [ -64.993665, -17.893302 ], [ -64.993699, -17.893266 ], [ -64.993737, -17.893232 ], [ -64.993791, -17.893192 ], [ -64.993794, -17.89319 ], [ -64.993795, -17.89319 ], [ -64.993834, -17.893155 ], [ -64.993836, -17.893153 ], [ -64.993838, -17.893152 ], [ -64.993871, -17.89312 ], [ -64.993873, -17.893117 ], [ -64.993875, -17.893115 ], [ -64.993877, -17.893113 ], [ -64.993878, -17.893111 ], [ -64.993915, -17.893052 ], [ -64.993915, -17.893051 ], [ -64.993917, -17.893049 ], [ -64.993918, -17.893046 ], [ -64.993939, -17.892997 ], [ -64.993973, -17.892951 ], [ -64.993974, -17.89295 ], [ -64.993975, -17.892947 ], [ -64.993977, -17.892945 ], [ -64.993978, -17.892942 ], [ -64.993979, -17.892939 ], [ -64.99398, -17.892936 ], [ -64.993981, -17.892933 ], [ -64.993981, -17.89293 ], [ -64.993981, -17.892928 ], [ -64.993981, -17.892925 ], [ -64.99398, -17.89285 ], [ -64.994007, -17.892802 ], [ -64.994008, -17.8928 ], [ -64.994009, -17.892798 ], [ -64.99401, -17.892795 ], [ -64.994011, -17.892792 ], [ -64.994011, -17.892792 ], [ -64.994029, -17.892725 ], [ -64.994055, -17.892643 ], [ -64.99409, -17.892569 ], [ -64.994091, -17.892567 ], [ -64.994092, -17.892564 ], [ -64.994093, -17.892562 ], [ -64.994094, -17.892559 ], [ -64.994094, -17.892556 ], [ -64.994095, -17.892553 ], [ -64.994095, -17.89255 ], [ -64.994094, -17.89249 ], [ -64.994094, -17.892483 ], [ -64.994106, -17.892455 ], [ -64.99414, -17.892409 ], [ -64.994142, -17.892408 ], [ -64.994142, -17.892408 ], [ -64.994177, -17.892356 ], [ -64.994207, -17.892322 ], [ -64.994209, -17.89232 ], [ -64.994256, -17.892261 ], [ -64.994256, -17.892261 ], [ -64.994257, -17.892258 ], [ -64.994259, -17.892256 ], [ -64.99426, -17.892253 ], [ -64.994261, -17.892251 ], [ -64.99428, -17.892211 ], [ -64.99428, -17.89221 ], [ -64.994281, -17.892207 ], [ -64.994283, -17.892201 ], [ -64.994283, -17.8922 ], [ -64.994288, -17.89217 ], [ -64.994292, -17.892146 ], [ -64.994305, -17.892079 ], [ -64.994305, -17.892079 ], [ -64.994305, -17.892077 ], [ -64.994313, -17.892015 ], [ -64.994319, -17.891999 ], [ -64.994334, -17.891963 ], [ -64.994347, -17.891953 ], [ -64.994366, -17.891939 ], [ -64.994368, -17.891937 ], [ -64.99437, -17.891935 ], [ -64.994371, -17.891934 ], [ -64.994417, -17.891886 ], [ -64.994418, -17.891885 ], [ -64.99442, -17.891883 ], [ -64.994421, -17.89188 ], [ -64.994423, -17.891878 ], [ -64.994424, -17.891875 ], [ -64.994426, -17.891873 ], [ -64.994427, -17.89187 ], [ -64.994428, -17.891867 ], [ -64.994428, -17.891864 ], [ -64.994434, -17.891835 ], [ -64.994437, -17.891822 ], [ -64.99444, -17.891818 ], [ -64.994458, -17.891798 ], [ -64.994541, -17.891774 ], [ -64.994542, -17.891773 ], [ -64.994545, -17.891772 ], [ -64.994548, -17.891771 ], [ -64.994554, -17.891767 ], [ -64.994627, -17.891718 ], [ -64.994629, -17.891717 ], [ -64.994631, -17.891715 ], [ -64.994633, -17.891713 ], [ -64.994635, -17.891711 ], [ -64.994637, -17.891708 ], [ -64.994638, -17.891707 ], [ -64.994681, -17.891649 ], [ -64.994752, -17.891575 ], [ -64.994817, -17.89153 ], [ -64.99488, -17.891505 ], [ -64.994903, -17.891495 ], [ -64.995, -17.891479 ], [ -64.995003, -17.891478 ], [ -64.995006, -17.891477 ], [ -64.995009, -17.891476 ], [ -64.995012, -17.891475 ], [ -64.995015, -17.891473 ], [ -64.995016, -17.891473 ], [ -64.995062, -17.891444 ], [ -64.995067, -17.891441 ], [ -64.995069, -17.891439 ], [ -64.995071, -17.891437 ], [ -64.995073, -17.891434 ], [ -64.995075, -17.891432 ], [ -64.995076, -17.891431 ], [ -64.995114, -17.891371 ], [ -64.995115, -17.89137 ], [ -64.995117, -17.891367 ], [ -64.995118, -17.891364 ], [ -64.995119, -17.891362 ], [ -64.99512, -17.891359 ], [ -64.995121, -17.891356 ], [ -64.995121, -17.891353 ], [ -64.995121, -17.891352 ], [ -64.995126, -17.891309 ], [ -64.995151, -17.891244 ], [ -64.995151, -17.891243 ], [ -64.995153, -17.891237 ], [ -64.995153, -17.891234 ], [ -64.995154, -17.891231 ], [ -64.995154, -17.891228 ], [ -64.995151, -17.891013 ], [ -64.995151, -17.890964 ], [ -64.995153, -17.890954 ], [ -64.995158, -17.890929 ], [ -64.995175, -17.890907 ], [ -64.995179, -17.890903 ], [ -64.995231, -17.890879 ], [ -64.995262, -17.890879 ], [ -64.995262, -17.890879 ], [ -64.995288, -17.890879 ], [ -64.995292, -17.890878 ], [ -64.995295, -17.890878 ], [ -64.995298, -17.890878 ], [ -64.995301, -17.890877 ], [ -64.995304, -17.890876 ], [ -64.995306, -17.890875 ], [ -64.995362, -17.890853 ], [ -64.995363, -17.890853 ], [ -64.995365, -17.890852 ], [ -64.995368, -17.89085 ], [ -64.995371, -17.890848 ], [ -64.995373, -17.890847 ], [ -64.995375, -17.890845 ], [ -64.995378, -17.890843 ], [ -64.995439, -17.890793 ], [ -64.995613, -17.890695 ], [ -64.995892, -17.890522 ], [ -64.995643, -17.890438 ], [ -64.995544, -17.890405 ], [ -64.994817, -17.890412 ], [ -64.994814, -17.890414 ], [ -64.994812, -17.890414 ], [ -64.99452, -17.890369 ], [ -64.994059, -17.890297 ], [ -64.993797, -17.89023 ], [ -64.993365, -17.889613 ], [ -64.991418, -17.889245 ], [ -64.989746, -17.890221 ], [ -64.988394, -17.891366 ], [ -64.988025, -17.889931 ], [ -64.988074, -17.889352 ], [ -64.98809, -17.889166 ], [ -64.988155, -17.888398 ], [ -64.986823, -17.887972 ], [ -64.986606, -17.887897 ], [ -64.986155, -17.887742 ], [ -64.985993, -17.887365 ], [ -64.986137, -17.886195 ], [ -64.985701, -17.885635 ], [ -64.985405, -17.885156 ], [ -64.985045, -17.884572 ], [ -64.985011, -17.884227 ], [ -64.984829, -17.883628 ], [ -64.98506, -17.883017 ], [ -64.98515, -17.882755 ], [ -64.985449, -17.882111 ], [ -64.986552, -17.881813 ], [ -64.987497, -17.881505 ], [ -64.988496, -17.880281 ], [ -64.989531, -17.878375 ], [ -64.989594, -17.877947 ], [ -64.990339, -17.87729 ], [ -64.990631, -17.877165 ], [ -64.991613, -17.877279 ], [ -64.992016, -17.877141 ], [ -64.99321, -17.876046 ], [ -64.993364, -17.875677 ], [ -64.994419, -17.874716 ], [ -64.995117, -17.874096 ], [ -64.995668, -17.873799 ], [ -64.996112, -17.873516 ], [ -64.997678, -17.872021 ], [ -64.997677, -17.872019 ], [ -64.97586, -17.873433 ], [ -64.932317, -17.8951 ], [ -64.919783, -17.92296 ], [ -64.901855, -17.945361 ], [ -64.894702, -17.969463 ], [ -64.886204, -17.982646 ], [ -64.85813, -17.983829 ], [ -64.821979, -17.980098 ], [ -64.806943, -17.987015 ], [ -64.766294, -17.985988 ] ] ] ] } }
]
}
