{
"type": "FeatureCollection",
"name": "PASORAPA",
"crs": { "type": "name", "properties": { "name": "urn:ogc:def:crs:OGC:1.3:CRS84" } },
"bbox": [ -64.850862, -18.676262, -64.279702, -18.093433 ],                                                                        
"features": [
{ "type": "Feature", "properties": { "NOMBRE": "Pasorapa", "NIVEL": "Municipios", "PROVINCIA": "Campero", "REGION": "Cono Sur", "DEPARTAMENTO": "Cochabamba" }, "bbox": [ -64.850862, -18.676262, -64.279702, -18.093433 ], "geometry": { "type": "MultiPolygon", "coordinates": [ [ [ [ -64.816122, -18.489137 ], [ -64.81525, -18.48453 ], [ -64.815274, -18.484404 ], [ -64.815468, -18.483793 ], [ -64.815516, -18.483586 ], [ -64.815552, -18.48354 ], [ -64.815553, -18.483263 ], [ -64.815565, -18.483252 ], [ -64.815566, -18.483044 ], [ -64.81559, -18.482964 ], [ -64.815592, -18.481764 ], [ -64.815569, -18.481597 ], [ -64.815545, -18.481597 ], [ -64.815545, -18.481533 ], [ -64.815545, -18.481533 ], [ -64.815545, -18.481398 ], [ -64.815474, -18.481158 ], [ -64.815476, -18.481104 ], [ -64.815473, -18.481095 ], [ -64.815499, -18.480426 ], [ -64.815609, -18.479769 ], [ -64.815609, -18.479608 ], [ -64.815755, -18.478593 ], [ -64.815756, -18.478397 ], [ -64.815891, -18.477141 ], [ -64.815892, -18.476507 ], [ -64.815917, -18.476299 ], [ -64.815918, -18.475868 ], [ -64.815895, -18.475578 ], [ -64.815871, -18.475509 ], [ -64.815871, -18.475451 ], [ -64.815835, -18.475347 ], [ -64.815812, -18.475197 ], [ -64.815752, -18.475047 ], [ -64.815704, -18.474816 ], [ -64.815704, -18.474756 ], [ -64.815703, -18.474753 ], [ -64.815704, -18.474394 ], [ -64.815681, -18.474182 ], [ -64.815682, -18.474125 ], [ -64.815681, -18.474118 ], [ -64.815682, -18.473426 ], [ -64.815694, -18.473426 ], [ -64.815695, -18.473057 ], [ -64.815719, -18.472988 ], [ -64.815721, -18.472342 ], [ -64.815819, -18.471409 ], [ -64.815868, -18.471144 ], [ -64.815868, -18.470994 ], [ -64.815977, -18.47051 ], [ -64.816063, -18.469703 ], [ -64.816063, -18.46952 ], [ -64.816029, -18.469351 ], [ -64.815969, -18.469189 ], [ -64.815405, -18.468299 ], [ -64.815285, -18.468033 ], [ -64.815166, -18.467836 ], [ -64.815166, -18.46779 ], [ -64.815034, -18.467513 ], [ -64.814998, -18.467385 ], [ -64.81483, -18.467131 ], [ -64.814518, -18.466806 ], [ -64.814266, -18.466517 ], [ -64.814086, -18.466389 ], [ -64.814074, -18.466331 ], [ -64.813918, -18.466158 ], [ -64.813798, -18.465996 ], [ -64.813787, -18.465707 ], [ -64.813739, -18.465442 ], [ -64.813715, -18.46543 ], [ -64.813667, -18.465142 ], [ -64.813668, -18.465083 ], [ -64.813667, -18.465078 ], [ -64.813668, -18.464651 ], [ -64.813728, -18.464363 ], [ -64.813813, -18.464064 ], [ -64.814007, -18.46373 ], [ -64.814151, -18.463523 ], [ -64.814525, -18.463075 ], [ -64.814983, -18.462662 ], [ -64.815454, -18.46218 ], [ -64.815598, -18.462066 ], [ -64.815695, -18.462008 ], [ -64.816032, -18.461756 ], [ -64.816213, -18.461677 ], [ -64.816321, -18.461573 ], [ -64.816369, -18.461504 ], [ -64.816598, -18.461332 ], [ -64.816827, -18.461114 ], [ -64.816864, -18.461045 ], [ -64.8169, -18.461011 ], [ -64.8169, -18.460988 ], [ -64.817153, -18.460701 ], [ -64.817225, -18.460574 ], [ -64.817322, -18.460448 ], [ -64.817527, -18.460241 ], [ -64.817659, -18.460161 ], [ -64.817888, -18.460082 ], [ -64.817985, -18.460024 ], [ -64.818454, -18.4599 ], [ -64.818743, -18.459844 ], [ -64.818791, -18.459809 ], [ -64.819056, -18.459499 ], [ -64.819153, -18.459338 ], [ -64.819225, -18.459165 ], [ -64.819226, -18.459096 ], [ -64.81925, -18.459004 ], [ -64.819251, -18.458614 ], [ -64.819216, -18.458456 ], [ -64.819193, -18.457822 ], [ -64.819157, -18.45758 ], [ -64.819158, -18.457521 ], [ -64.819157, -18.457516 ], [ -64.819157, -18.457388 ], [ -64.819087, -18.456795 ], [ -64.819087, -18.456738 ], [ -64.819086, -18.456731 ], [ -64.819087, -18.456581 ], [ -64.819064, -18.456403 ], [ -64.819064, -18.45635 ], [ -64.819063, -18.456339 ], [ -64.819077, -18.455347 ], [ -64.819101, -18.455209 ], [ -64.819102, -18.455071 ], [ -64.819199, -18.454598 ], [ -64.819199, -18.454448 ], [ -64.819345, -18.45393 ], [ -64.819369, -18.453896 ], [ -64.819371, -18.45287 ], [ -64.819336, -18.452656 ], [ -64.819336, -18.452597 ], [ -64.819336, -18.452592 ], [ -64.819337, -18.451808 ], [ -64.819386, -18.45137 ], [ -64.819435, -18.451105 ], [ -64.819665, -18.450483 ], [ -64.819774, -18.450265 ], [ -64.820112, -18.44969 ], [ -64.820474, -18.448965 ], [ -64.820739, -18.448666 ], [ -64.820968, -18.448448 ], [ -64.82127, -18.448231 ], [ -64.821727, -18.447841 ], [ -64.821872, -18.447691 ], [ -64.822306, -18.447151 ], [ -64.822631, -18.447038 ], [ -64.822824, -18.447027 ], [ -64.823089, -18.446948 ], [ -64.823161, -18.446902 ], [ -64.823221, -18.446821 ], [ -64.823282, -18.446695 ], [ -64.823427, -18.446269 ], [ -64.823475, -18.446073 ], [ -64.823477, -18.445519 ], [ -64.823501, -18.445393 ], [ -64.823538, -18.444909 ], [ -64.823574, -18.444782 ], [ -64.823659, -18.444632 ], [ -64.823876, -18.444345 ], [ -64.824177, -18.444012 ], [ -64.82437, -18.443875 ], [ -64.824683, -18.443703 ], [ -64.825057, -18.443543 ], [ -64.825165, -18.443475 ], [ -64.825406, -18.443361 ], [ -64.825574, -18.443315 ], [ -64.825586, -18.443292 ], [ -64.825707, -18.443247 ], [ -64.825875, -18.443144 ], [ -64.825875, -18.443121 ], [ -64.825972, -18.443052 ], [ -64.826358, -18.442673 ], [ -64.826394, -18.442593 ], [ -64.826394, -18.442523 ], [ -64.826417, -18.442436 ], [ -64.826396, -18.44178 ], [ -64.826349, -18.441468 ], [ -64.826349, -18.44141 ], [ -64.826348, -18.441405 ], [ -64.826348, -18.441347 ], [ -64.826325, -18.44118 ], [ -64.826326, -18.441122 ], [ -64.826325, -18.441116 ], [ -64.826325, -18.441025 ], [ -64.826278, -18.440741 ], [ -64.826278, -18.440682 ], [ -64.826278, -18.440678 ], [ -64.826279, -18.44017 ], [ -64.826303, -18.440101 ], [ -64.826459, -18.439986 ], [ -64.826664, -18.439907 ], [ -64.826989, -18.439908 ], [ -64.827157, -18.439886 ], [ -64.827314, -18.43991 ], [ -64.827807, -18.439901 ], [ -64.828011, -18.439844 ], [ -64.828084, -18.439798 ], [ -64.828493, -18.439443 ], [ -64.828711, -18.43904 ], [ -64.828795, -18.438925 ], [ -64.82888, -18.438764 ], [ -64.828988, -18.438626 ], [ -64.82906, -18.438627 ], [ -64.829109, -18.438546 ], [ -64.829145, -18.438546 ], [ -64.829494, -18.438317 ], [ -64.829542, -18.438248 ], [ -64.829628, -18.437776 ], [ -64.829628, -18.437568 ], [ -64.829652, -18.437522 ], [ -64.829689, -18.437211 ], [ -64.829774, -18.436808 ], [ -64.829931, -18.436497 ], [ -64.829931, -18.436463 ], [ -64.829967, -18.43644 ], [ -64.830004, -18.436232 ], [ -64.830064, -18.43606 ], [ -64.830318, -18.435611 ], [ -64.830487, -18.43537 ], [ -64.830499, -18.435312 ], [ -64.830523, -18.435301 ], [ -64.830607, -18.435151 ], [ -64.830728, -18.434771 ], [ -64.830838, -18.434276 ], [ -64.830935, -18.43363 ], [ -64.830935, -18.43348 ], [ -64.830972, -18.433342 ], [ -64.831056, -18.433158 ], [ -64.831153, -18.433055 ], [ -64.831286, -18.432848 ], [ -64.831418, -18.432722 ], [ -64.831599, -18.432515 ], [ -64.831732, -18.43225 ], [ -64.831732, -18.432206 ], [ -64.831709, -18.432095 ], [ -64.831709, -18.432035 ], [ -64.831708, -18.432031 ], [ -64.831708, -18.432012 ], [ -64.831673, -18.431921 ], [ -64.831673, -18.43186 ], [ -64.831673, -18.431858 ], [ -64.831673, -18.431828 ], [ -64.831625, -18.431737 ], [ -64.831578, -18.431563 ], [ -64.831494, -18.431367 ], [ -64.831422, -18.43124 ], [ -64.831267, -18.430778 ], [ -64.831207, -18.430535 ], [ -64.831051, -18.430119 ], [ -64.830824, -18.429784 ], [ -64.830439, -18.429436 ], [ -64.830151, -18.429227 ], [ -64.830043, -18.429169 ], [ -64.829659, -18.428855 ], [ -64.829251, -18.428427 ], [ -64.829251, -18.428392 ], [ -64.829191, -18.428323 ], [ -64.829059, -18.427953 ], [ -64.829059, -18.427892 ], [ -64.829059, -18.427889 ], [ -64.829059, -18.427509 ], [ -64.829084, -18.427382 ], [ -64.829277, -18.427049 ], [ -64.829313, -18.427014 ], [ -64.829325, -18.426968 ], [ -64.829422, -18.426888 ], [ -64.829736, -18.426243 ], [ -64.829806, -18.425997 ], [ -64.829786, -18.425581 ], [ -64.82975, -18.425431 ], [ -64.829678, -18.42528 ], [ -64.829666, -18.425165 ], [ -64.829591, -18.425045 ], [ -64.829511, -18.42491 ], [ -64.829439, -18.424703 ], [ -64.829403, -18.424506 ], [ -64.829391, -18.424506 ], [ -64.829379, -18.424356 ], [ -64.829308, -18.424056 ], [ -64.829308, -18.423998 ], [ -64.829272, -18.423941 ], [ -64.829261, -18.423664 ], [ -64.829177, -18.423444 ], [ -64.829177, -18.423383 ], [ -64.829176, -18.423381 ], [ -64.829176, -18.423372 ], [ -64.829058, -18.42289 ], [ -64.828998, -18.422705 ], [ -64.828999, -18.422648 ], [ -64.828997, -18.422642 ], [ -64.829024, -18.421546 ], [ -64.82906, -18.421419 ], [ -64.829085, -18.421085 ], [ -64.829133, -18.420912 ], [ -64.829145, -18.420912 ], [ -64.829158, -18.420716 ], [ -64.829218, -18.420532 ], [ -64.829218, -18.420451 ], [ -64.829294, -18.420257 ], [ -64.82937, -18.420084 ], [ -64.829458, -18.419873 ], [ -64.829666, -18.419439 ], [ -64.829859, -18.419105 ], [ -64.830112, -18.41876 ], [ -64.830486, -18.418358 ], [ -64.830618, -18.418151 ], [ -64.830787, -18.417841 ], [ -64.830805, -18.417716 ], [ -64.830765, -18.417628 ], [ -64.830681, -18.417523 ], [ -64.830597, -18.417465 ], [ -64.830309, -18.417153 ], [ -64.830021, -18.416771 ], [ -64.829853, -18.416505 ], [ -64.829625, -18.416088 ], [ -64.829565, -18.41588 ], [ -64.829566, -18.41582 ], [ -64.829565, -18.415817 ], [ -64.829566, -18.415367 ], [ -64.829639, -18.415067 ], [ -64.829735, -18.414883 ], [ -64.83023, -18.414263 ], [ -64.830374, -18.41401 ], [ -64.830483, -18.413676 ], [ -64.830556, -18.413307 ], [ -64.830593, -18.413031 ], [ -64.830811, -18.412259 ], [ -64.831102, -18.411338 ], [ -64.831126, -18.411165 ], [ -64.831199, -18.410854 ], [ -64.831477, -18.410255 ], [ -64.832249, -18.409071 ], [ -64.832261, -18.409071 ], [ -64.832261, -18.409048 ], [ -64.832309, -18.408968 ], [ -64.832394, -18.408761 ], [ -64.832406, -18.40868 ], [ -64.832454, -18.408553 ], [ -64.832515, -18.408311 ], [ -64.832563, -18.408185 ], [ -64.832722, -18.40724 ], [ -64.832722, -18.406886 ], [ -64.832687, -18.406807 ], [ -64.832543, -18.406611 ], [ -64.832375, -18.40646 ], [ -64.832195, -18.406332 ], [ -64.832171, -18.406332 ], [ -64.832027, -18.406251 ], [ -64.831775, -18.406076 ], [ -64.831594, -18.405983 ], [ -64.831138, -18.405589 ], [ -64.830958, -18.405461 ], [ -64.830718, -18.405206 ], [ -64.83067, -18.405125 ], [ -64.830586, -18.405033 ], [ -64.830514, -18.404905 ], [ -64.830431, -18.404605 ], [ -64.830431, -18.404544 ], [ -64.83043, -18.404542 ], [ -64.83043, -18.40451 ], [ -64.830395, -18.404363 ], [ -64.830395, -18.404303 ], [ -64.830395, -18.404299 ], [ -64.830395, -18.404149 ], [ -64.830432, -18.40385 ], [ -64.830468, -18.403711 ], [ -64.830469, -18.403311 ], [ -64.830446, -18.403221 ], [ -64.83035, -18.403025 ], [ -64.830266, -18.402782 ], [ -64.830122, -18.402505 ], [ -64.830111, -18.402424 ], [ -64.829919, -18.402008 ], [ -64.829775, -18.401753 ], [ -64.829608, -18.401176 ], [ -64.829561, -18.400876 ], [ -64.829561, -18.400817 ], [ -64.82956, -18.400812 ], [ -64.82956, -18.400558 ], [ -64.829682, -18.400109 ], [ -64.829863, -18.399649 ], [ -64.829881, -18.399604 ], [ -64.829911, -18.39958 ], [ -64.829964, -18.399541 ], [ -64.830079, -18.39946 ], [ -64.830273, -18.399259 ], [ -64.830405, -18.399098 ], [ -64.830463, -18.399036 ], [ -64.830538, -18.39896 ], [ -64.830719, -18.398776 ], [ -64.830827, -18.398627 ], [ -64.830936, -18.398374 ], [ -64.83096, -18.398262 ], [ -64.83095, -18.397803 ], [ -64.830902, -18.397642 ], [ -64.830902, -18.397581 ], [ -64.830902, -18.397578 ], [ -64.830902, -18.397405 ], [ -64.830926, -18.397186 ], [ -64.830928, -18.396438 ], [ -64.830857, -18.396073 ], [ -64.830858, -18.396013 ], [ -64.830857, -18.396009 ], [ -64.830857, -18.395767 ], [ -64.830954, -18.395606 ], [ -64.831038, -18.395549 ], [ -64.831351, -18.39547 ], [ -64.8317, -18.395414 ], [ -64.831904, -18.395415 ], [ -64.832049, -18.395369 ], [ -64.832217, -18.395278 ], [ -64.832277, -18.395209 ], [ -64.832302, -18.395151 ], [ -64.832302, -18.395047 ], [ -64.832326, -18.394932 ], [ -64.832447, -18.394656 ], [ -64.832568, -18.394484 ], [ -64.832592, -18.394484 ], [ -64.832604, -18.394461 ], [ -64.832628, -18.394461 ], [ -64.832712, -18.39438 ], [ -64.832736, -18.394381 ], [ -64.833013, -18.394151 ], [ -64.833074, -18.394059 ], [ -64.833158, -18.393967 ], [ -64.833217, -18.39381 ], [ -64.833196, -18.393247 ], [ -64.833149, -18.393085 ], [ -64.83315, -18.39303 ], [ -64.833148, -18.393022 ], [ -64.833161, -18.392607 ], [ -64.833209, -18.392526 ], [ -64.833221, -18.392399 ], [ -64.83327, -18.39225 ], [ -64.83327, -18.39203 ], [ -64.833416, -18.391454 ], [ -64.833416, -18.391077 ], [ -64.833334, -18.39078 ], [ -64.833154, -18.390421 ], [ -64.833082, -18.39034 ], [ -64.833082, -18.390277 ], [ -64.833081, -18.390276 ], [ -64.833082, -18.389815 ], [ -64.833119, -18.389504 ], [ -64.833119, -18.389392 ], [ -64.833096, -18.389325 ], [ -64.833084, -18.389198 ], [ -64.833088, -18.389184 ], [ -64.833084, -18.389135 ], [ -64.833108, -18.389043 ], [ -64.833241, -18.388916 ], [ -64.833313, -18.388813 ], [ -64.833349, -18.388802 ], [ -64.833385, -18.388756 ], [ -64.833385, -18.388733 ], [ -64.833482, -18.388618 ], [ -64.833482, -18.388597 ], [ -64.833435, -18.388404 ], [ -64.833267, -18.388011 ], [ -64.833267, -18.387977 ], [ -64.833159, -18.387826 ], [ -64.833063, -18.387722 ], [ -64.832968, -18.387502 ], [ -64.832632, -18.387028 ], [ -64.832332, -18.386681 ], [ -64.832068, -18.386483 ], [ -64.832008, -18.386483 ], [ -64.831852, -18.386424 ], [ -64.831611, -18.3864 ], [ -64.831371, -18.386399 ], [ -64.831106, -18.386375 ], [ -64.83059, -18.386084 ], [ -64.830542, -18.386026 ], [ -64.83047, -18.385991 ], [ -64.83041, -18.385922 ], [ -64.830374, -18.385921 ], [ -64.830338, -18.385852 ], [ -64.830206, -18.385678 ], [ -64.830026, -18.385297 ], [ -64.82987, -18.385123 ], [ -64.829678, -18.384961 ], [ -64.829438, -18.384798 ], [ -64.82933, -18.384751 ], [ -64.82927, -18.384705 ], [ -64.829017, -18.3846 ], [ -64.828682, -18.384091 ], [ -64.828454, -18.383709 ], [ -64.828407, -18.383467 ], [ -64.828409, -18.383417 ], [ -64.828406, -18.383403 ], [ -64.828419, -18.38308 ], [ -64.828552, -18.382654 ], [ -64.82866, -18.382482 ], [ -64.828817, -18.382183 ], [ -64.829565, -18.381241 ], [ -64.829842, -18.380815 ], [ -64.829879, -18.380677 ], [ -64.829915, -18.380631 ], [ -64.83, -18.380343 ], [ -64.830121, -18.379721 ], [ -64.830134, -18.379536 ], [ -64.830194, -18.379318 ], [ -64.830243, -18.378972 ], [ -64.830291, -18.378811 ], [ -64.830448, -18.378523 ], [ -64.830678, -18.378005 ], [ -64.830787, -18.377671 ], [ -64.830835, -18.377406 ], [ -64.830872, -18.377303 ], [ -64.830872, -18.377086 ], [ -64.83079, -18.376708 ], [ -64.83079, -18.376649 ], [ -64.830789, -18.376645 ], [ -64.830789, -18.376618 ], [ -64.830772, -18.3764 ], [ -64.827562, -18.368775 ], [ -64.809103, -18.360596 ], [ -64.80913, -18.360545 ], [ -64.809102, -18.360532 ], [ -64.814791, -18.349663 ], [ -64.817216, -18.347746 ], [ -64.82979, -18.337024 ], [ -64.83074, -18.336199 ], [ -64.83124, -18.335787 ], [ -64.831355, -18.335656 ], [ -64.831451, -18.335544 ], [ -64.831623, -18.33532 ], [ -64.831776, -18.335115 ], [ -64.83191, -18.334947 ], [ -64.832062, -18.334705 ], [ -64.832287, -18.334384 ], [ -64.832347, -18.33428 ], [ -64.832479, -18.334107 ], [ -64.832563, -18.333969 ], [ -64.832635, -18.333888 ], [ -64.832803, -18.333646 ], [ -64.832887, -18.333565 ], [ -64.833187, -18.333058 ], [ -64.83357, -18.332493 ], [ -64.83363, -18.33247 ], [ -64.83363, -18.332447 ], [ -64.833786, -18.332228 ], [ -64.83393, -18.331986 ], [ -64.834014, -18.331906 ], [ -64.834074, -18.331802 ], [ -64.834206, -18.331629 ], [ -64.834434, -18.331283 ], [ -64.834482, -18.331168 ], [ -64.83453, -18.331122 ], [ -64.834758, -18.330799 ], [ -64.834758, -18.330776 ], [ -64.834925, -18.330626 ], [ -64.834925, -18.330603 ], [ -64.835129, -18.330419 ], [ -64.835345, -18.330177 ], [ -64.835645, -18.329877 ], [ -64.835945, -18.329508 ], [ -64.836125, -18.329324 ], [ -64.836293, -18.329209 ], [ -64.836293, -18.329174 ], [ -64.836389, -18.329093 ], [ -64.836425, -18.329036 ], [ -64.836449, -18.329024 ], [ -64.836461, -18.328967 ], [ -64.836509, -18.328943 ], [ -64.836617, -18.328771 ], [ -64.836677, -18.328713 ], [ -64.836833, -18.328482 ], [ -64.83718, -18.327895 ], [ -64.837396, -18.327606 ], [ -64.837444, -18.32748 ], [ -64.837528, -18.327387 ], [ -64.837696, -18.327053 ], [ -64.838007, -18.326627 ], [ -64.838283, -18.326316 ], [ -64.838379, -18.326166 ], [ -64.838631, -18.325831 ], [ -64.838967, -18.325486 ], [ -64.838979, -18.325451 ], [ -64.839075, -18.325336 ], [ -64.839135, -18.325197 ], [ -64.839578, -18.324483 ], [ -64.840022, -18.32401 ], [ -64.840274, -18.323526 ], [ -64.840333, -18.32333 ], [ -64.840441, -18.32318 ], [ -64.840609, -18.323008 ], [ -64.841029, -18.32242 ], [ -64.841365, -18.322005 ], [ -64.841484, -18.321797 ], [ -64.841844, -18.32106 ], [ -64.84188, -18.32106 ], [ -64.841904, -18.321025 ], [ -64.841976, -18.321025 ], [ -64.842096, -18.320864 ], [ -64.842456, -18.32046 ], [ -64.842576, -18.320264 ], [ -64.842923, -18.31978 ], [ -64.843235, -18.319388 ], [ -64.843487, -18.319123 ], [ -64.843871, -18.318789 ], [ -64.843871, -18.318766 ], [ -64.843883, -18.318766 ], [ -64.845621, -18.316299 ], [ -64.845645, -18.316299 ], [ -64.850862, -18.303002 ], [ -64.839259, -18.285449 ], [ -64.839035, -18.285149 ], [ -64.838906, -18.284939 ], [ -64.838682, -18.28467 ], [ -64.838492, -18.284348 ], [ -64.837903, -18.283702 ], [ -64.836761, -18.282261 ], [ -64.836761, -18.282238 ], [ -64.836473, -18.281904 ], [ -64.836449, -18.281904 ], [ -64.836389, -18.281834 ], [ -64.836257, -18.281731 ], [ -64.835403, -18.280831 ], [ -64.835235, -18.280681 ], [ -64.834947, -18.28037 ], [ -64.834706, -18.280139 ], [ -64.834262, -18.279655 ], [ -64.834178, -18.279586 ], [ -64.833408, -18.278675 ], [ -64.833216, -18.278398 ], [ -64.833108, -18.278214 ], [ -64.833012, -18.278098 ], [ -64.832951, -18.277949 ], [ -64.832855, -18.27781 ], [ -64.832422, -18.276876 ], [ -64.832326, -18.276496 ], [ -64.832289, -18.276254 ], [ -64.832241, -18.276115 ], [ -64.832241, -18.276053 ], [ -64.832241, -18.276052 ], [ -64.832241, -18.275986 ], [ -64.832193, -18.275781 ], [ -64.832108, -18.275205 ], [ -64.832108, -18.275145 ], [ -64.832108, -18.275141 ], [ -64.832107, -18.274913 ], [ -64.832048, -18.274571 ], [ -64.832048, -18.27451 ], [ -64.832047, -18.274507 ], [ -64.832047, -18.27438 ], [ -64.832071, -18.274242 ], [ -64.832071, -18.274092 ], [ -64.832106, -18.273827 ], [ -64.832106, -18.273585 ], [ -64.83213, -18.273435 ], [ -64.83213, -18.273273 ], [ -64.832154, -18.273089 ], [ -64.832154, -18.272928 ], [ -64.832201, -18.272593 ], [ -64.832201, -18.271997 ], [ -64.832165, -18.271804 ], [ -64.832165, -18.271743 ], [ -64.832164, -18.27174 ], [ -64.832164, -18.271722 ], [ -64.832057, -18.271446 ], [ -64.8319, -18.271147 ], [ -64.831744, -18.270916 ], [ -64.831395, -18.27027 ], [ -64.831287, -18.270028 ], [ -64.831287, -18.269971 ], [ -64.831239, -18.269763 ], [ -64.83107, -18.26936 ], [ -64.830986, -18.269256 ], [ -64.830962, -18.269187 ], [ -64.830578, -18.268818 ], [ -64.830313, -18.26861 ], [ -64.829605, -18.268114 ], [ -64.829136, -18.267734 ], [ -64.828764, -18.267376 ], [ -64.828727, -18.267295 ], [ -64.828655, -18.267226 ], [ -64.828655, -18.267163 ], [ -64.828655, -18.267162 ], [ -64.828654, -18.266367 ], [ -64.828785, -18.265791 ], [ -64.828785, -18.265733 ], [ -64.828953, -18.265249 ], [ -64.829097, -18.264938 ], [ -64.829121, -18.264834 ], [ -64.829528, -18.263785 ], [ -64.829731, -18.263359 ], [ -64.829971, -18.262759 ], [ -64.830259, -18.262344 ], [ -64.830378, -18.262194 ], [ -64.830462, -18.261918 ], [ -64.830486, -18.261918 ], [ -64.830522, -18.261849 ], [ -64.83063, -18.261341 ], [ -64.830629, -18.260571 ], [ -64.830593, -18.260333 ], [ -64.83058, -18.259549 ], [ -64.830556, -18.259434 ], [ -64.830556, -18.259373 ], [ -64.830556, -18.25937 ], [ -64.830555, -18.258901 ], [ -64.830508, -18.258719 ], [ -64.830423, -18.258027 ], [ -64.830314, -18.257451 ], [ -64.83023, -18.25714 ], [ -64.83011, -18.25692 ], [ -64.83005, -18.256863 ], [ -64.829917, -18.256586 ], [ -64.829917, -18.256524 ], [ -64.829917, -18.256522 ], [ -64.829916, -18.256234 ], [ -64.82994, -18.256119 ], [ -64.82994, -18.255992 ], [ -64.829964, -18.255992 ], [ -64.829964, -18.255969 ], [ -64.830072, -18.255808 ], [ -64.830336, -18.255589 ], [ -64.830624, -18.255474 ], [ -64.83072, -18.255416 ], [ -64.830744, -18.255381 ], [ -64.830804, -18.255347 ], [ -64.830804, -18.255324 ], [ -64.83084, -18.255266 ], [ -64.830876, -18.255162 ], [ -64.8309, -18.255024 ], [ -64.830952, -18.254884 ], [ -64.830964, -18.25481 ], [ -64.83095, -18.254748 ], [ -64.830871, -18.254441 ], [ -64.82512, -18.247477 ], [ -64.825192, -18.247535 ], [ -64.825127, -18.247423 ], [ -64.825119, -18.247414 ], [ -64.825123, -18.247417 ], [ -64.815263, -18.230423 ], [ -64.807953, -18.209045 ], [ -64.805926, -18.208521 ], [ -64.762784, -18.197448 ], [ -64.742868, -18.172936 ], [ -64.710469, -18.162487 ], [ -64.710493, -18.162539 ], [ -64.710451, -18.162511 ], [ -64.710494, -18.162603 ], [ -64.700686, -18.156084 ], [ -64.699512, -18.155228 ], [ -64.680587, -18.141579 ], [ -64.680196, -18.141273 ], [ -64.680319, -18.141307 ], [ -64.680195, -18.141209 ], [ -64.680746, -18.141359 ], [ -64.68107, -18.141387 ], [ -64.681297, -18.141385 ], [ -64.681642, -18.141354 ], [ -64.682182, -18.141415 ], [ -64.682601, -18.141417 ], [ -64.682961, -18.141396 ], [ -64.683153, -18.141317 ], [ -64.68337, -18.14118 ], [ -64.683406, -18.14118 ], [ -64.683454, -18.141111 ], [ -64.683683, -18.140882 ], [ -64.68384, -18.140664 ], [ -64.683938, -18.140226 ], [ -64.683939, -18.13995 ], [ -64.683976, -18.139881 ], [ -64.683989, -18.139639 ], [ -64.68405, -18.139409 ], [ -64.684087, -18.139167 ], [ -64.684233, -18.138592 ], [ -64.684343, -18.138316 ], [ -64.684488, -18.138063 ], [ -64.684596, -18.137926 ], [ -64.684657, -18.13788 ], [ -64.684801, -18.137823 ], [ -64.685136, -18.137836 ], [ -64.685292, -18.137883 ], [ -64.685352, -18.137884 ], [ -64.685711, -18.138012 ], [ -64.686263, -18.138027 ], [ -64.686383, -18.13797 ], [ -64.686467, -18.137959 ], [ -64.686611, -18.137879 ], [ -64.686719, -18.137845 ], [ -64.686816, -18.137707 ], [ -64.686937, -18.137431 ], [ -64.686997, -18.137216 ], [ -64.686988, -18.136885 ], [ -64.686907, -18.136354 ], [ -64.686871, -18.136296 ], [ -64.686862, -18.135628 ], [ -64.686863, -18.135627 ], [ -64.686862, -18.135564 ], [ -64.686984, -18.135104 ], [ -64.687044, -18.134943 ], [ -64.687274, -18.13461 ], [ -64.687731, -18.134325 ], [ -64.687875, -18.134199 ], [ -64.687899, -18.134199 ], [ -64.687912, -18.13413 ], [ -64.687913, -18.133893 ], [ -64.687891, -18.133571 ], [ -64.68782, -18.133317 ], [ -64.687678, -18.132959 ], [ -64.687678, -18.132913 ], [ -64.687583, -18.132705 ], [ -64.687548, -18.132555 ], [ -64.687453, -18.132301 ], [ -64.687442, -18.132117 ], [ -64.687445, -18.132112 ], [ -64.687442, -18.132053 ], [ -64.68755, -18.13187 ], [ -64.687707, -18.131698 ], [ -64.687972, -18.131515 ], [ -64.688284, -18.131355 ], [ -64.688452, -18.13131 ], [ -64.688656, -18.131276 ], [ -64.688932, -18.131278 ], [ -64.689353, -18.13113 ], [ -64.689485, -18.131108 ], [ -64.689545, -18.131062 ], [ -64.689606, -18.130878 ], [ -64.68963, -18.130752 ], [ -64.689644, -18.130349 ], [ -64.689668, -18.130337 ], [ -64.68973, -18.12998 ], [ -64.689791, -18.129727 ], [ -64.689863, -18.129555 ], [ -64.690129, -18.129222 ], [ -64.690321, -18.129085 ], [ -64.690442, -18.128947 ], [ -64.690466, -18.128947 ], [ -64.69049, -18.128924 ], [ -64.690499, -18.128892 ], [ -64.690491, -18.128804 ], [ -64.690408, -18.128642 ], [ -64.690372, -18.128619 ], [ -64.690373, -18.128584 ], [ -64.690349, -18.128538 ], [ -64.690313, -18.128526 ], [ -64.690087, -18.128179 ], [ -64.690087, -18.128117 ], [ -64.690086, -18.128116 ], [ -64.690087, -18.12792 ], [ -64.690094, -18.127913 ], [ -64.690077, -18.127718 ], [ -64.690018, -18.127488 ], [ -64.68997, -18.127384 ], [ -64.689768, -18.127071 ], [ -64.689773, -18.127017 ], [ -64.689767, -18.127008 ], [ -64.68978, -18.126881 ], [ -64.689817, -18.126766 ], [ -64.689877, -18.126709 ], [ -64.689901, -18.126582 ], [ -64.689902, -18.126433 ], [ -64.689868, -18.126219 ], [ -64.689821, -18.126058 ], [ -64.689668, -18.125343 ], [ -64.689671, -18.125294 ], [ -64.689668, -18.125279 ], [ -64.689681, -18.125025 ], [ -64.689742, -18.124864 ], [ -64.689802, -18.124761 ], [ -64.68991, -18.124635 ], [ -64.690175, -18.124464 ], [ -64.690403, -18.124384 ], [ -64.690487, -18.124385 ], [ -64.690499, -18.124396 ], [ -64.690559, -18.124397 ], [ -64.690691, -18.124455 ], [ -64.690715, -18.124443 ], [ -64.690799, -18.12434 ], [ -64.690908, -18.124168 ], [ -64.691041, -18.123892 ], [ -64.691042, -18.123606 ], [ -64.690938, -18.123114 ], [ -64.690938, -18.123055 ], [ -64.690937, -18.123051 ], [ -64.690938, -18.122751 ], [ -64.690975, -18.122659 ], [ -64.690975, -18.122624 ], [ -64.691048, -18.122417 ], [ -64.691144, -18.12228 ], [ -64.691205, -18.122119 ], [ -64.691435, -18.121763 ], [ -64.691567, -18.121602 ], [ -64.691591, -18.121602 ], [ -64.691832, -18.121419 ], [ -64.692325, -18.121168 ], [ -64.69259, -18.120905 ], [ -64.692735, -18.120687 ], [ -64.692916, -18.120319 ], [ -64.693074, -18.119951 ], [ -64.693183, -18.119583 ], [ -64.693317, -18.119273 ], [ -64.693486, -18.118951 ], [ -64.693643, -18.118779 ], [ -64.693859, -18.118619 ], [ -64.694257, -18.11816 ], [ -64.694257, -18.118137 ], [ -64.694293, -18.11808 ], [ -64.694512, -18.117493 ], [ -64.694537, -18.117321 ], [ -64.694537, -18.117165 ], [ -64.694514, -18.117165 ], [ -64.694515, -18.117119 ], [ -64.694312, -18.116899 ], [ -64.694002, -18.116448 ], [ -64.693657, -18.115847 ], [ -64.693311, -18.115419 ], [ -64.693204, -18.115314 ], [ -64.693145, -18.11521 ], [ -64.692549, -18.114447 ], [ -64.692501, -18.114343 ], [ -64.692454, -18.114124 ], [ -64.692455, -18.114064 ], [ -64.692454, -18.11406 ], [ -64.692455, -18.113876 ], [ -64.692638, -18.113105 ], [ -64.692639, -18.112787 ], [ -64.692581, -18.112707 ], [ -64.692497, -18.112637 ], [ -64.69239, -18.112579 ], [ -64.69239, -18.112568 ], [ -64.692282, -18.112521 ], [ -64.691576, -18.112125 ], [ -64.691385, -18.112078 ], [ -64.691313, -18.112043 ], [ -64.691265, -18.112043 ], [ -64.689972, -18.111725 ], [ -64.689684, -18.111631 ], [ -64.689349, -18.111456 ], [ -64.689051, -18.111259 ], [ -64.68874, -18.110935 ], [ -64.688478, -18.110726 ], [ -64.688358, -18.110667 ], [ -64.688358, -18.110656 ], [ -64.687987, -18.110608 ], [ -64.687111, -18.110614 ], [ -64.686236, -18.110598 ], [ -64.685877, -18.11055 ], [ -64.685518, -18.11041 ], [ -64.685267, -18.110259 ], [ -64.685195, -18.110235 ], [ -64.685111, -18.110177 ], [ -64.685039, -18.110165 ], [ -64.684729, -18.109922 ], [ -64.684443, -18.10954 ], [ -64.684313, -18.109193 ], [ -64.684086, -18.108858 ], [ -64.683955, -18.108707 ], [ -64.683728, -18.10851 ], [ -64.683501, -18.108371 ], [ -64.683322, -18.108301 ], [ -64.683262, -18.108254 ], [ -64.683035, -18.108149 ], [ -64.682975, -18.108149 ], [ -64.682951, -18.108126 ], [ -64.682365, -18.107904 ], [ -64.681969, -18.107786 ], [ -64.681598, -18.107715 ], [ -64.681251, -18.107678 ], [ -64.681131, -18.107632 ], [ -64.680988, -18.1074 ], [ -64.680996, -18.107351 ], [ -64.680988, -18.107337 ], [ -64.681025, -18.107107 ], [ -64.681145, -18.106946 ], [ -64.681205, -18.106912 ], [ -64.681386, -18.106682 ], [ -64.681471, -18.106602 ], [ -64.681523, -18.106513 ], [ -64.681377, -18.106262 ], [ -64.681198, -18.1061 ], [ -64.680923, -18.105948 ], [ -64.680732, -18.105878 ], [ -64.680624, -18.10582 ], [ -64.680337, -18.105715 ], [ -64.680133, -18.10561 ], [ -64.680097, -18.10561 ], [ -64.680074, -18.105575 ], [ -64.680074, -18.10554 ], [ -64.679955, -18.105286 ], [ -64.67992, -18.105113 ], [ -64.679861, -18.104963 ], [ -64.679791, -18.104548 ], [ -64.679649, -18.10404 ], [ -64.679626, -18.103856 ], [ -64.679521, -18.103348 ], [ -64.679403, -18.102979 ], [ -64.679409, -18.102938 ], [ -64.679402, -18.102915 ], [ -64.679649, -18.101458 ], [ -64.676707, -18.10103 ], [ -64.673994, -18.100543 ], [ -64.671805, -18.100064 ], [ -64.669879, -18.100249 ], [ -64.668717, -18.101275 ], [ -64.667712, -18.102782 ], [ -64.666472, -18.103863 ], [ -64.664091, -18.104091 ], [ -64.660962, -18.103792 ], [ -64.658435, -18.101713 ], [ -64.65614, -18.101304 ], [ -64.652825, -18.101321 ], [ -64.651715, -18.101326 ], [ -64.650385, -18.101367 ], [ -64.648805, -18.101233 ], [ -64.647236, -18.102253 ], [ -64.645942, -18.102885 ], [ -64.644747, -18.102632 ], [ -64.644879, -18.102308 ], [ -64.644873, -18.101698 ], [ -64.64465, -18.101431 ], [ -64.644655, -18.100943 ], [ -64.64347, -18.100035 ], [ -64.640055, -18.09891 ], [ -64.63922, -18.098947 ], [ -64.637889, -18.099653 ], [ -64.637025, -18.09892 ], [ -64.635692, -18.097593 ], [ -64.635263, -18.097215 ], [ -64.634518, -18.095923 ], [ -64.633153, -18.09558 ], [ -64.628758, -18.095617 ], [ -64.626628, -18.096197 ], [ -64.62482, -18.094821 ], [ -64.623579, -18.094506 ], [ -64.620348, -18.096457 ], [ -64.619387, -18.096317 ], [ -64.618632, -18.095851 ], [ -64.618426, -18.095278 ], [ -64.618108, -18.094623 ], [ -64.617974, -18.094511 ], [ -64.617913, -18.094228 ], [ -64.617472, -18.093433 ], [ -64.61648, -18.093509 ], [ -64.615533, -18.094037 ], [ -64.614368, -18.094592 ], [ -64.613474, -18.095216 ], [ -64.612746, -18.095997 ], [ -64.612005, -18.096979 ], [ -64.611369, -18.097974 ], [ -64.610988, -18.09901 ], [ -64.610801, -18.099815 ], [ -64.61078, -18.100219 ], [ -64.610737, -18.101049 ], [ -64.611019, -18.102004 ], [ -64.610753, -18.102784 ], [ -64.609974, -18.103247 ], [ -64.609106, -18.103329 ], [ -64.607015, -18.104087 ], [ -64.605854, -18.105665 ], [ -64.604449, -18.10781 ], [ -64.603595, -18.109177 ], [ -64.60184, -18.110227 ], [ -64.599622, -18.109913 ], [ -64.597599, -18.108638 ], [ -64.595931, -18.107139 ], [ -64.593608, -18.106981 ], [ -64.591854, -18.10809 ], [ -64.591093, -18.109458 ], [ -64.589181, -18.110332 ], [ -64.587296, -18.110731 ], [ -64.587296, -18.110812 ], [ -64.584997, -18.113023 ], [ -64.583695, -18.114501 ], [ -64.581252, -18.115303 ], [ -64.580313, -18.115822 ], [ -64.579354, -18.116048 ], [ -64.578925, -18.116431 ], [ -64.578043, -18.116696 ], [ -64.577056, -18.117092 ], [ -64.576268, -18.116945 ], [ -64.57597, -18.117101 ], [ -64.575244, -18.117422 ], [ -64.574619, -18.117914 ], [ -64.57404, -18.118816 ], [ -64.57397, -18.120746 ], [ -64.573464, -18.121403 ], [ -64.573757, -18.122211 ], [ -64.573897, -18.122806 ], [ -64.573603, -18.12346 ], [ -64.572407, -18.123986 ], [ -64.570714, -18.124172 ], [ -64.568583, -18.12406 ], [ -64.567725, -18.12378 ], [ -64.566686, -18.123587 ], [ -64.56637, -18.124373 ], [ -64.565517, -18.125292 ], [ -64.565413, -18.125487 ], [ -64.564559, -18.126106 ], [ -64.563622, -18.126516 ], [ -64.562866, -18.126904 ], [ -64.561155, -18.128027 ], [ -64.55938, -18.128381 ], [ -64.558786, -18.129132 ], [ -64.558323, -18.129279 ], [ -64.558049, -18.129583 ], [ -64.557553, -18.129836 ], [ -64.556873, -18.131769 ], [ -64.556053, -18.13337 ], [ -64.554969, -18.13472 ], [ -64.553079, -18.135955 ], [ -64.551164, -18.136009 ], [ -64.548541, -18.136487 ], [ -64.54639, -18.13697 ], [ -64.544731, -18.137865 ], [ -64.543296, -18.139218 ], [ -64.541944, -18.140194 ], [ -64.541642, -18.141706 ], [ -64.541693, -18.14184 ], [ -64.541138, -18.142711 ], [ -64.540782, -18.143135 ], [ -64.540569, -18.14392 ], [ -64.540473, -18.144361 ], [ -64.540083, -18.145238 ], [ -64.539411, -18.1462 ], [ -64.538922, -18.147504 ], [ -64.53891, -18.148442 ], [ -64.539057, -18.149244 ], [ -64.539585, -18.150043 ], [ -64.53979, -18.150946 ], [ -64.539327, -18.151969 ], [ -64.538223, -18.152469 ], [ -64.537071, -18.153397 ], [ -64.536315, -18.1539 ], [ -64.535816, -18.154019 ], [ -64.535049, -18.154412 ], [ -64.533938, -18.154378 ], [ -64.532878, -18.154406 ], [ -64.53156, -18.154588 ], [ -64.530682, -18.154863 ], [ -64.529386, -18.15539 ], [ -64.528731, -18.156045 ], [ -64.528236, -18.156565 ], [ -64.528301, -18.157196 ], [ -64.528493, -18.157592 ], [ -64.529863, -18.158325 ], [ -64.529914, -18.159206 ], [ -64.528558, -18.159636 ], [ -64.526759, -18.15965 ], [ -64.525095, -18.159957 ], [ -64.523782, -18.160345 ], [ -64.523114, -18.160792 ], [ -64.52296, -18.161673 ], [ -64.523274, -18.162551 ], [ -64.524621, -18.162988 ], [ -64.526001, -18.163284 ], [ -64.526799, -18.164284 ], [ -64.526682, -18.165963 ], [ -64.525296, -18.167945 ], [ -64.520807, -18.171504 ], [ -64.520643, -18.172974 ], [ -64.522242, -18.175079 ], [ -64.522736, -18.176375 ], [ -64.522712, -18.17665 ], [ -64.522694, -18.176852 ], [ -64.522454, -18.177306 ], [ -64.52234, -18.178072 ], [ -64.522686, -18.178503 ], [ -64.522953, -18.179247 ], [ -64.523381, -18.180162 ], [ -64.523139, -18.180858 ], [ -64.522561, -18.181451 ], [ -64.521559, -18.182256 ], [ -64.519723, -18.183152 ], [ -64.517008, -18.18376 ], [ -64.515785, -18.184357 ], [ -64.514829, -18.185455 ], [ -64.513164, -18.185762 ], [ -64.511981, -18.186023 ], [ -64.510591, -18.187628 ], [ -64.509674, -18.18818 ], [ -64.509245, -18.188707 ], [ -64.508642, -18.189632 ], [ -64.508647, -18.190448 ], [ -64.508649, -18.190755 ], [ -64.508806, -18.191146 ], [ -64.508832, -18.191758 ], [ -64.508898, -18.19188 ], [ -64.510764, -18.193669 ], [ -64.511627, -18.195213 ], [ -64.512608, -18.195872 ], [ -64.513652, -18.196693 ], [ -64.514501, -18.197857 ], [ -64.5146, -18.198596 ], [ -64.514263, -18.198983 ], [ -64.512962, -18.199023 ], [ -64.511968, -18.198617 ], [ -64.510946, -18.198566 ], [ -64.509718, -18.199789 ], [ -64.508689, -18.202608 ], [ -64.508171, -18.2035 ], [ -64.507251, -18.204632 ], [ -64.506075, -18.2047 ], [ -64.504902, -18.205124 ], [ -64.504502, -18.205393 ], [ -64.503818, -18.206349 ], [ -64.503434, -18.206776 ], [ -64.503121, -18.206825 ], [ -64.50171, -18.208463 ], [ -64.500696, -18.209768 ], [ -64.498642, -18.211336 ], [ -64.497104, -18.212689 ], [ -64.496894, -18.214102 ], [ -64.497863, -18.215223 ], [ -64.499566, -18.215774 ], [ -64.501538, -18.218084 ], [ -64.502335, -18.220127 ], [ -64.502362, -18.223223 ], [ -64.501538, -18.224919 ], [ -64.50103, -18.225021 ], [ -64.500113, -18.225325 ], [ -64.499423, -18.225474 ], [ -64.498764, -18.225594 ], [ -64.498242, -18.225971 ], [ -64.49793, -18.22636 ], [ -64.497873, -18.226734 ], [ -64.497671, -18.227155 ], [ -64.497685, -18.227271 ], [ -64.497916, -18.227795 ], [ -64.497917, -18.227932 ], [ -64.499089, -18.228972 ], [ -64.500359, -18.230726 ], [ -64.499644, -18.233412 ], [ -64.498258, -18.235469 ], [ -64.496776, -18.235636 ], [ -64.494662, -18.234366 ], [ -64.493738, -18.2336 ], [ -64.49293, -18.234029 ], [ -64.492865, -18.235159 ], [ -64.495019, -18.236624 ], [ -64.495174, -18.237469 ], [ -64.493944, -18.238321 ], [ -64.492229, -18.23848 ], [ -64.491144, -18.240214 ], [ -64.490666, -18.245618 ], [ -64.491052, -18.247661 ], [ -64.489462, -18.251695 ], [ -64.489774, -18.253669 ], [ -64.489718, -18.255786 ], [ -64.488177, -18.256821 ], [ -64.486997, -18.257112 ], [ -64.486566, -18.258456 ], [ -64.486356, -18.259869 ], [ -64.484741, -18.26101 ], [ -64.483404, -18.260103 ], [ -64.482593, -18.26018 ], [ -64.482566, -18.260892 ], [ -64.482471, -18.260903 ], [ -64.48219, -18.261421 ], [ -64.482898, -18.262415 ], [ -64.483406, -18.263272 ], [ -64.483746, -18.263592 ], [ -64.484768, -18.264185 ], [ -64.485519, -18.265661 ], [ -64.485733, -18.267761 ], [ -64.48599, -18.268091 ], [ -64.486252, -18.26907 ], [ -64.486807, -18.26939 ], [ -64.489169, -18.269301 ], [ -64.48939, -18.270776 ], [ -64.489531, -18.271709 ], [ -64.489498, -18.272004 ], [ -64.488904, -18.272902 ], [ -64.487821, -18.272711 ], [ -64.48505, -18.271238 ], [ -64.483697, -18.271427 ], [ -64.482402, -18.272529 ], [ -64.482509, -18.276409 ], [ -64.481346, -18.278676 ], [ -64.481354, -18.279568 ], [ -64.481355, -18.279727 ], [ -64.481418, -18.279986 ], [ -64.482557, -18.282053 ], [ -64.484269, -18.283662 ], [ -64.484144, -18.284416 ], [ -64.484284, -18.285145 ], [ -64.484288, -18.285647 ], [ -64.484039, -18.286367 ], [ -64.483819, -18.286956 ], [ -64.483718, -18.287431 ], [ -64.483757, -18.287681 ], [ -64.485134, -18.289794 ], [ -64.486035, -18.291551 ], [ -64.486415, -18.292818 ], [ -64.485174, -18.294521 ], [ -64.484367, -18.295162 ], [ -64.479046, -18.29478 ], [ -64.477528, -18.294632 ], [ -64.475582, -18.295126 ], [ -64.473841, -18.295473 ], [ -64.473149, -18.296237 ], [ -64.473385, -18.297999 ], [ -64.473774, -18.300324 ], [ -64.473584, -18.300668 ], [ -64.473635, -18.30082 ], [ -64.47334, -18.301468 ], [ -64.472835, -18.302175 ], [ -64.472359, -18.302738 ], [ -64.472002, -18.303071 ], [ -64.471526, -18.303677 ], [ -64.470796, -18.304314 ], [ -64.470213, -18.304605 ], [ -64.469616, -18.30504 ], [ -64.468926, -18.30516 ], [ -64.468188, -18.304951 ], [ -64.466642, -18.304991 ], [ -64.465756, -18.304998 ], [ -64.464917, -18.305277 ], [ -64.464396, -18.305783 ], [ -64.46442, -18.306197 ], [ -64.464745, -18.306956 ], [ -64.466757, -18.309127 ], [ -64.470246, -18.311076 ], [ -64.471577, -18.311278 ], [ -64.471879, -18.311981 ], [ -64.471686, -18.312465 ], [ -64.471768, -18.312669 ], [ -64.47162, -18.313029 ], [ -64.471116, -18.313807 ], [ -64.46987, -18.315553 ], [ -64.468981, -18.316994 ], [ -64.468116, -18.317732 ], [ -64.466994, -18.318315 ], [ -64.466386, -18.319223 ], [ -64.465952, -18.320092 ], [ -64.465822, -18.320812 ], [ -64.464802, -18.322513 ], [ -64.463484, -18.323934 ], [ -64.462906, -18.323994 ], [ -64.461561, -18.324167 ], [ -64.461812, -18.323647 ], [ -64.462109, -18.323201 ], [ -64.46227, -18.322712 ], [ -64.462882, -18.322291 ], [ -64.463013, -18.321817 ], [ -64.462853, -18.321325 ], [ -64.462423, -18.320904 ], [ -64.462715, -18.320412 ], [ -64.461968, -18.31943 ], [ -64.460636, -18.319158 ], [ -64.459428, -18.321163 ], [ -64.459416, -18.323401 ], [ -64.458981, -18.324392 ], [ -64.457725, -18.324331 ], [ -64.456378, -18.322508 ], [ -64.453794, -18.322712 ], [ -64.452549, -18.323806 ], [ -64.452244, -18.326501 ], [ -64.452194, -18.326658 ], [ -64.452161, -18.327256 ], [ -64.45175, -18.327486 ], [ -64.451374, -18.327501 ], [ -64.45101, -18.327372 ], [ -64.450695, -18.327088 ], [ -64.449086, -18.326227 ], [ -64.447253, -18.325596 ], [ -64.446303, -18.325698 ], [ -64.445638, -18.325988 ], [ -64.445482, -18.326602 ], [ -64.445563, -18.326995 ], [ -64.445831, -18.32765 ], [ -64.444719, -18.327934 ], [ -64.443394, -18.328123 ], [ -64.442284, -18.328646 ], [ -64.441335, -18.328856 ], [ -64.440011, -18.329201 ], [ -64.437811, -18.331728 ], [ -64.436668, -18.333285 ], [ -64.435599, -18.334886 ], [ -64.434465, -18.33668 ], [ -64.434941, -18.338686 ], [ -64.435764, -18.339949 ], [ -64.437329, -18.34156 ], [ -64.437118, -18.342762 ], [ -64.437064, -18.342974 ], [ -64.437111, -18.343593 ], [ -64.440406, -18.347252 ], [ -64.441168, -18.350069 ], [ -64.441483, -18.352129 ], [ -64.441649, -18.352705 ], [ -64.442452, -18.354278 ], [ -64.444502, -18.355603 ], [ -64.445136, -18.356248 ], [ -64.444804, -18.357005 ], [ -64.443239, -18.357782 ], [ -64.441893, -18.357331 ], [ -64.440796, -18.358609 ], [ -64.440469, -18.3601 ], [ -64.440619, -18.360539 ], [ -64.440724, -18.364173 ], [ -64.440819, -18.364977 ], [ -64.441008, -18.365176 ], [ -64.441601, -18.365378 ], [ -64.443071, -18.365647 ], [ -64.445962, -18.366754 ], [ -64.447768, -18.370621 ], [ -64.448974, -18.373505 ], [ -64.447603, -18.374965 ], [ -64.446298, -18.373039 ], [ -64.444596, -18.372019 ], [ -64.443169, -18.370309 ], [ -64.441471, -18.368764 ], [ -64.439989, -18.369782 ], [ -64.439029, -18.369933 ], [ -64.43787, -18.370697 ], [ -64.437615, -18.370962 ], [ -64.437165, -18.371582 ], [ -64.43696, -18.372315 ], [ -64.436376, -18.372506 ], [ -64.435641, -18.372612 ], [ -64.435115, -18.372645 ], [ -64.434529, -18.372678 ], [ -64.43375, -18.372913 ], [ -64.432387, -18.373382 ], [ -64.431749, -18.373888 ], [ -64.430808, -18.375124 ], [ -64.429869, -18.377671 ], [ -64.430123, -18.38162 ], [ -64.431257, -18.384646 ], [ -64.431303, -18.386113 ], [ -64.431054, -18.386647 ], [ -64.430614, -18.388013 ], [ -64.429805, -18.391835 ], [ -64.430538, -18.395071 ], [ -64.431207, -18.396056 ], [ -64.431489, -18.396251 ], [ -64.432506, -18.396582 ], [ -64.43276, -18.396664 ], [ -64.434837, -18.397566 ], [ -64.435432, -18.398126 ], [ -64.435464, -18.398419 ], [ -64.435394, -18.399051 ], [ -64.435339, -18.399683 ], [ -64.435296, -18.399759 ], [ -64.434121, -18.400394 ], [ -64.433695, -18.402514 ], [ -64.433115, -18.403823 ], [ -64.431715, -18.404398 ], [ -64.430096, -18.405257 ], [ -64.42871, -18.407455 ], [ -64.427691, -18.409368 ], [ -64.427926, -18.410918 ], [ -64.428338, -18.411895 ], [ -64.4289, -18.415137 ], [ -64.429106, -18.415835 ], [ -64.428929, -18.416142 ], [ -64.428772, -18.416564 ], [ -64.428737, -18.417215 ], [ -64.427964, -18.418228 ], [ -64.426623, -18.419644 ], [ -64.425718, -18.420408 ], [ -64.423795, -18.420897 ], [ -64.421963, -18.422887 ], [ -64.420878, -18.425788 ], [ -64.419812, -18.427921 ], [ -64.419847, -18.429076 ], [ -64.419779, -18.429462 ], [ -64.419877, -18.429958 ], [ -64.419215, -18.430316 ], [ -64.417589, -18.430399 ], [ -64.417004, -18.431179 ], [ -64.417611, -18.433009 ], [ -64.4171, -18.433789 ], [ -64.415998, -18.434644 ], [ -64.415415, -18.435707 ], [ -64.414465, -18.437054 ], [ -64.412753, -18.437358 ], [ -64.412491, -18.437437 ], [ -64.412103, -18.437727 ], [ -64.412055, -18.437915 ], [ -64.411455, -18.439546 ], [ -64.41147, -18.441498 ], [ -64.411356, -18.442096 ], [ -64.410698, -18.442937 ], [ -64.410571, -18.443002 ], [ -64.40912, -18.443409 ], [ -64.407573, -18.444055 ], [ -64.406618, -18.444838 ], [ -64.405963, -18.446113 ], [ -64.405902, -18.447596 ], [ -64.403631, -18.449276 ], [ -64.402672, -18.450442 ], [ -64.401343, -18.450698 ], [ -64.399266, -18.449867 ], [ -64.396977, -18.450237 ], [ -64.393797, -18.450119 ], [ -64.391137, -18.45028 ], [ -64.389445, -18.45135 ], [ -64.387532, -18.452493 ], [ -64.385392, -18.452932 ], [ -64.382954, -18.453232 ], [ -64.381849, -18.453664 ], [ -64.381123, -18.455433 ], [ -64.381578, -18.456841 ], [ -64.380027, -18.457064 ], [ -64.379504, -18.457617 ], [ -64.379048, -18.457895 ], [ -64.378706, -18.458299 ], [ -64.378273, -18.458761 ], [ -64.377555, -18.459182 ], [ -64.376236, -18.459589 ], [ -64.37487, -18.459289 ], [ -64.373617, -18.459862 ], [ -64.372741, -18.46128 ], [ -64.371066, -18.463203 ], [ -64.370042, -18.463296 ], [ -64.367571, -18.463928 ], [ -64.365738, -18.463941 ], [ -64.364414, -18.464727 ], [ -64.363288, -18.466365 ], [ -64.363144, -18.466829 ], [ -64.36348, -18.468191 ], [ -64.362716, -18.469472 ], [ -64.362595, -18.469557 ], [ -64.361496, -18.469828 ], [ -64.360114, -18.469051 ], [ -64.358825, -18.468768 ], [ -64.358451, -18.468759 ], [ -64.357202, -18.469082 ], [ -64.355221, -18.471072 ], [ -64.354235, -18.471551 ], [ -64.353784, -18.471862 ], [ -64.35308, -18.472231 ], [ -64.352888, -18.472424 ], [ -64.351472, -18.473851 ], [ -64.349631, -18.474781 ], [ -64.348959, -18.474745 ], [ -64.348694, -18.474596 ], [ -64.347985, -18.474256 ], [ -64.34699, -18.473905 ], [ -64.346148, -18.473853 ], [ -64.344585, -18.473965 ], [ -64.342457, -18.474855 ], [ -64.340628, -18.475399 ], [ -64.339953, -18.475643 ], [ -64.338966, -18.475886 ], [ -64.33835, -18.476037 ], [ -64.338018, -18.476149 ], [ -64.337673, -18.476295 ], [ -64.337364, -18.476446 ], [ -64.336842, -18.476412 ], [ -64.336308, -18.476677 ], [ -64.33568, -18.477069 ], [ -64.334081, -18.478328 ], [ -64.333608, -18.479451 ], [ -64.333928, -18.480621 ], [ -64.334148, -18.480973 ], [ -64.3363, -18.48172 ], [ -64.337205, -18.483901 ], [ -64.336255, -18.485389 ], [ -64.334228, -18.485944 ], [ -64.330838, -18.48672 ], [ -64.326041, -18.488698 ], [ -64.32423, -18.492536 ], [ -64.324675, -18.495635 ], [ -64.325474, -18.496966 ], [ -64.324819, -18.498452 ], [ -64.322534, -18.499385 ], [ -64.321057, -18.49864 ], [ -64.320774, -18.498272 ], [ -64.320442, -18.497692 ], [ -64.320144, -18.496368 ], [ -64.317989, -18.494972 ], [ -64.316655, -18.494558 ], [ -64.315848, -18.495341 ], [ -64.31578, -18.496257 ], [ -64.315052, -18.497815 ], [ -64.314746, -18.498946 ], [ -64.3117, -18.499926 ], [ -64.310737, -18.499035 ], [ -64.309885, -18.498235 ], [ -64.309661, -18.497469 ], [ -64.309551, -18.496818 ], [ -64.309372, -18.496629 ], [ -64.309073, -18.495989 ], [ -64.308323, -18.495489 ], [ -64.307371, -18.495552 ], [ -64.306607, -18.495827 ], [ -64.303987, -18.498216 ], [ -64.303088, -18.499944 ], [ -64.303322, -18.501494 ], [ -64.305314, -18.504794 ], [ -64.30575, -18.505128 ], [ -64.306221, -18.505778 ], [ -64.306098, -18.506377 ], [ -64.306246, -18.506731 ], [ -64.305873, -18.507232 ], [ -64.305709, -18.507632 ], [ -64.305593, -18.508207 ], [ -64.305476, -18.508649 ], [ -64.305338, -18.508975 ], [ -64.305022, -18.509627 ], [ -64.304768, -18.510413 ], [ -64.304613, -18.51116 ], [ -64.304399, -18.512023 ], [ -64.304487, -18.513036 ], [ -64.304294, -18.514032 ], [ -64.304578, -18.514546 ], [ -64.304765, -18.51531 ], [ -64.305233, -18.516244 ], [ -64.305318, -18.516855 ], [ -64.305219, -18.517081 ], [ -64.30529, -18.517251 ], [ -64.30493, -18.518523 ], [ -64.30374, -18.519383 ], [ -64.30253, -18.519817 ], [ -64.302212, -18.519708 ], [ -64.301657, -18.518663 ], [ -64.3011, -18.518566 ], [ -64.30052, -18.518782 ], [ -64.299619, -18.518846 ], [ -64.299119, -18.519079 ], [ -64.298598, -18.51976 ], [ -64.298228, -18.520537 ], [ -64.298452, -18.521015 ], [ -64.298441, -18.522277 ], [ -64.298729, -18.523117 ], [ -64.298937, -18.524168 ], [ -64.299318, -18.526824 ], [ -64.29989, -18.528216 ], [ -64.300119, -18.529285 ], [ -64.300707, -18.530289 ], [ -64.301155, -18.531134 ], [ -64.3014, -18.531687 ], [ -64.301707, -18.532507 ], [ -64.301791, -18.532965 ], [ -64.301138, -18.533514 ], [ -64.299833, -18.534025 ], [ -64.299067, -18.534145 ], [ -64.29797, -18.534181 ], [ -64.296332, -18.534274 ], [ -64.295802, -18.534109 ], [ -64.294843, -18.532857 ], [ -64.293133, -18.533351 ], [ -64.291366, -18.534492 ], [ -64.28836, -18.538005 ], [ -64.288151, -18.5397 ], [ -64.288904, -18.54153 ], [ -64.290701, -18.54441 ], [ -64.290548, -18.544808 ], [ -64.289599, -18.546575 ], [ -64.289493, -18.54758 ], [ -64.289315, -18.548836 ], [ -64.288498, -18.550276 ], [ -64.287676, -18.551308 ], [ -64.287008, -18.552116 ], [ -64.286224, -18.552838 ], [ -64.285253, -18.55367 ], [ -64.285053, -18.554553 ], [ -64.285299, -18.555269 ], [ -64.285757, -18.55571 ], [ -64.286737, -18.556062 ], [ -64.287424, -18.55597 ], [ -64.288491, -18.555503 ], [ -64.289249, -18.553756 ], [ -64.289439, -18.553614 ], [ -64.2895, -18.553461 ], [ -64.29029, -18.552897 ], [ -64.291252, -18.552116 ], [ -64.291746, -18.552191 ], [ -64.292576, -18.552524 ], [ -64.292896, -18.552947 ], [ -64.293072, -18.553509 ], [ -64.293379, -18.554331 ], [ -64.293528, -18.555031 ], [ -64.293491, -18.555528 ], [ -64.293934, -18.555918 ], [ -64.298501, -18.557178 ], [ -64.298836, -18.557678 ], [ -64.29905, -18.558135 ], [ -64.298987, -18.55834 ], [ -64.299094, -18.558606 ], [ -64.298286, -18.559458 ], [ -64.296813, -18.560244 ], [ -64.295036, -18.560045 ], [ -64.293554, -18.559843 ], [ -64.292967, -18.560412 ], [ -64.294316, -18.56266 ], [ -64.295127, -18.563326 ], [ -64.296325, -18.564269 ], [ -64.296851, -18.565324 ], [ -64.296492, -18.566738 ], [ -64.295758, -18.567519 ], [ -64.294282, -18.568023 ], [ -64.29266, -18.56881 ], [ -64.291459, -18.569245 ], [ -64.290354, -18.569829 ], [ -64.289256, -18.5704 ], [ -64.28883, -18.571102 ], [ -64.288841, -18.572505 ], [ -64.287971, -18.57491 ], [ -64.287831, -18.575119 ], [ -64.287093, -18.576222 ], [ -64.287251, -18.578501 ], [ -64.287074, -18.580277 ], [ -64.287339, -18.582129 ], [ -64.288287, -18.582983 ], [ -64.289366, -18.582555 ], [ -64.29101, -18.582391 ], [ -64.292182, -18.583511 ], [ -64.292433, -18.584425 ], [ -64.292436, -18.584843 ], [ -64.292186, -18.585986 ], [ -64.291761, -18.586985 ], [ -64.291379, -18.587728 ], [ -64.290554, -18.588399 ], [ -64.289154, -18.589021 ], [ -64.287874, -18.589527 ], [ -64.286672, -18.589669 ], [ -64.286371, -18.589976 ], [ -64.285426, -18.590768 ], [ -64.285069, -18.594305 ], [ -64.284662, -18.594964 ], [ -64.283531, -18.595412 ], [ -64.282519, -18.595527 ], [ -64.281762, -18.595485 ], [ -64.280436, -18.59627 ], [ -64.279702, -18.597122 ], [ -64.280085, -18.598884 ], [ -64.280986, -18.600571 ], [ -64.282411, -18.603172 ], [ -64.283455, -18.604223 ], [ -64.285532, -18.604914 ], [ -64.287079, -18.605617 ], [ -64.288135, -18.60659 ], [ -64.288834, -18.608156 ], [ -64.28868, -18.609234 ], [ -64.28928, -18.611984 ], [ -64.289869, -18.614237 ], [ -64.291148, -18.616356 ], [ -64.292741, -18.616878 ], [ -64.293303, -18.616635 ], [ -64.293243, -18.615705 ], [ -64.29359, -18.613823 ], [ -64.294784, -18.612684 ], [ -64.296244, -18.61225 ], [ -64.296624, -18.613517 ], [ -64.29771, -18.614672 ], [ -64.298051, -18.616259 ], [ -64.300127, -18.616809 ], [ -64.302714, -18.616368 ], [ -64.303754, -18.616925 ], [ -64.305251, -18.619173 ], [ -64.305289, -18.624076 ], [ -64.306177, -18.62407 ], [ -64.307358, -18.623709 ], [ -64.310919, -18.624743 ], [ -64.314928, -18.626408 ], [ -64.316644, -18.628231 ], [ -64.316735, -18.630347 ], [ -64.317694, -18.632079 ], [ -64.317609, -18.632332 ], [ -64.315591, -18.63402 ], [ -64.315523, -18.634941 ], [ -64.315073, -18.63558 ], [ -64.315091, -18.637978 ], [ -64.31481, -18.639885 ], [ -64.313264, -18.640955 ], [ -64.31187, -18.642587 ], [ -64.310989, -18.643511 ], [ -64.310629, -18.644854 ], [ -64.31108, -18.646709 ], [ -64.312351, -18.647452 ], [ -64.314272, -18.647016 ], [ -64.315891, -18.645805 ], [ -64.317716, -18.643586 ], [ -64.318474, -18.643683 ], [ -64.31838, -18.644472 ], [ -64.318509, -18.646009 ], [ -64.319607, -18.647684 ], [ -64.319326, -18.650262 ], [ -64.319964, -18.651517 ], [ -64.319973, -18.652638 ], [ -64.319893, -18.655244 ], [ -64.320523, -18.655622 ], [ -64.321127, -18.655542 ], [ -64.321154, -18.656281 ], [ -64.322063, -18.658103 ], [ -64.324132, -18.658518 ], [ -64.324455, -18.66041 ], [ -64.326387, -18.662947 ], [ -64.327739, -18.663847 ], [ -64.329364, -18.664891 ], [ -64.32967, -18.665175 ], [ -64.329895, -18.665268 ], [ -64.332533, -18.665892 ], [ -64.333248, -18.66595 ], [ -64.333673, -18.666124 ], [ -64.334032, -18.666336 ], [ -64.334298, -18.666523 ], [ -64.334723, -18.666722 ], [ -64.335307, -18.666894 ], [ -64.336354, -18.667089 ], [ -64.337082, -18.667172 ], [ -64.337929, -18.667191 ], [ -64.338803, -18.66726 ], [ -64.339161, -18.667334 ], [ -64.340875, -18.667491 ], [ -64.341832, -18.666936 ], [ -64.344849, -18.663547 ], [ -64.345972, -18.661647 ], [ -64.348502, -18.657465 ], [ -64.349547, -18.655558 ], [ -64.350525, -18.653207 ], [ -64.351272, -18.651201 ], [ -64.351746, -18.64948 ], [ -64.352369, -18.647818 ], [ -64.35314, -18.646136 ], [ -64.355279, -18.64321 ], [ -64.356939, -18.641299 ], [ -64.358049, -18.639654 ], [ -64.358862, -18.63793 ], [ -64.359384, -18.636896 ], [ -64.359802, -18.636206 ], [ -64.360132, -18.635011 ], [ -64.360122, -18.633779 ], [ -64.360169, -18.631697 ], [ -64.360371, -18.630483 ], [ -64.360527, -18.628704 ], [ -64.360789, -18.626984 ], [ -64.361198, -18.625102 ], [ -64.361373, -18.623745 ], [ -64.361438, -18.623203 ], [ -64.361473, -18.622392 ], [ -64.361293, -18.6211 ], [ -64.361131, -18.619403 ], [ -64.361097, -18.617726 ], [ -64.361109, -18.616655 ], [ -64.361099, -18.615302 ], [ -64.36149, -18.614875 ], [ -64.361816, -18.614832 ], [ -64.362771, -18.615067 ], [ -64.363559, -18.615567 ], [ -64.364181, -18.616471 ], [ -64.36451, -18.617863 ], [ -64.364947, -18.619436 ], [ -64.365611, -18.620402 ], [ -64.366785, -18.621424 ], [ -64.367705, -18.621961 ], [ -64.368407, -18.622369 ], [ -64.369256, -18.622962 ], [ -64.370741, -18.623113 ], [ -64.372457, -18.622999 ], [ -64.374065, -18.622603 ], [ -64.376031, -18.62212 ], [ -64.377148, -18.622061 ], [ -64.378043, -18.622055 ], [ -64.378821, -18.622057 ], [ -64.379787, -18.622127 ], [ -64.380799, -18.622384 ], [ -64.381651, -18.622642 ], [ -64.382244, -18.623055 ], [ -64.382587, -18.623385 ], [ -64.383286, -18.623602 ], [ -64.383726, -18.62376 ], [ -64.384542, -18.624053 ], [ -64.385151, -18.624236 ], [ -64.385751, -18.624308 ], [ -64.386349, -18.624142 ], [ -64.387267, -18.623794 ], [ -64.388185, -18.623446 ], [ -64.38904, -18.623039 ], [ -64.38995, -18.622726 ], [ -64.390333, -18.622527 ], [ -64.39111, -18.622393 ], [ -64.392084, -18.622352 ], [ -64.393067, -18.622242 ], [ -64.395167, -18.622056 ], [ -64.396078, -18.621922 ], [ -64.397516, -18.621766 ], [ -64.398151, -18.621787 ], [ -64.39867, -18.621877 ], [ -64.399694, -18.622415 ], [ -64.400827, -18.623225 ], [ -64.40243, -18.624611 ], [ -64.402908, -18.625068 ], [ -64.403502, -18.625549 ], [ -64.404006, -18.625887 ], [ -64.405029, -18.626331 ], [ -64.405423, -18.626464 ], [ -64.405862, -18.626469 ], [ -64.40621, -18.626467 ], [ -64.406719, -18.626301 ], [ -64.407093, -18.626205 ], [ -64.407521, -18.625954 ], [ -64.407904, -18.625764 ], [ -64.40826, -18.625625 ], [ -64.408671, -18.625622 ], [ -64.409271, -18.625711 ], [ -64.409746, -18.625827 ], [ -64.410185, -18.6259 ], [ -64.410606, -18.626025 ], [ -64.411001, -18.626158 ], [ -64.411576, -18.626495 ], [ -64.412259, -18.626882 ], [ -64.412822, -18.627258 ], [ -64.413481, -18.627632 ], [ -64.414092, -18.627925 ], [ -64.414773, -18.62821 ], [ -64.415294, -18.628385 ], [ -64.415805, -18.628552 ], [ -64.416342, -18.628684 ], [ -64.416736, -18.628681 ], [ -64.417388, -18.628668 ], [ -64.418193, -18.628585 ], [ -64.419086, -18.628502 ], [ -64.419952, -18.628307 ], [ -64.420747, -18.628182 ], [ -64.421426, -18.628117 ], [ -64.422265, -18.627949 ], [ -64.422944, -18.62785 ], [ -64.423524, -18.627801 ], [ -64.42432, -18.627763 ], [ -64.424633, -18.627769 ], [ -64.424857, -18.627827 ], [ -64.425064, -18.627928 ], [ -64.425818, -18.628306 ], [ -64.426447, -18.628642 ], [ -64.427147, -18.628918 ], [ -64.427891, -18.629143 ], [ -64.428571, -18.629291 ], [ -64.429075, -18.629614 ], [ -64.429786, -18.629993 ], [ -64.430562, -18.630385 ], [ -64.431613, -18.631037 ], [ -64.432535, -18.631613 ], [ -64.433184, -18.632283 ], [ -64.433786, -18.633137 ], [ -64.434948, -18.635429 ], [ -64.435835, -18.6376 ], [ -64.436162, -18.638514 ], [ -64.437432, -18.640058 ], [ -64.43828, -18.641309 ], [ -64.438723, -18.642349 ], [ -64.438763, -18.643315 ], [ -64.438645, -18.644589 ], [ -64.438572, -18.645433 ], [ -64.438824, -18.646689 ], [ -64.43935, -18.647988 ], [ -64.439905, -18.64892 ], [ -64.440542, -18.649796 ], [ -64.441479, -18.650549 ], [ -64.442775, -18.651551 ], [ -64.444407, -18.652352 ], [ -64.446099, -18.65263 ], [ -64.448995, -18.652608 ], [ -64.450765, -18.652548 ], [ -64.452695, -18.652441 ], [ -64.454129, -18.65266 ], [ -64.454936, -18.653007 ], [ -64.456343, -18.653778 ], [ -64.45733, -18.654491 ], [ -64.458223, -18.655405 ], [ -64.458775, -18.655999 ], [ -64.460404, -18.658317 ], [ -64.462716, -18.66149 ], [ -64.464288, -18.663874 ], [ -64.465886, -18.665208 ], [ -64.468205, -18.66726 ], [ -64.469837, -18.667968 ], [ -64.471835, -18.668336 ], [ -64.473378, -18.668109 ], [ -64.476748, -18.668039 ], [ -64.478528, -18.66813 ], [ -64.47993, -18.668334 ], [ -64.481205, -18.668799 ], [ -64.482337, -18.669419 ], [ -64.48437, -18.669971 ], [ -64.48811, -18.670739 ], [ -64.49505, -18.670767 ], [ -64.498105, -18.670966 ], [ -64.500229, -18.670918 ], [ -64.502351, -18.670641 ], [ -64.503543, -18.670232 ], [ -64.50638, -18.669458 ], [ -64.50715, -18.669237 ], [ -64.508706, -18.668611 ], [ -64.510022, -18.668186 ], [ -64.511083, -18.668071 ], [ -64.512564, -18.668181 ], [ -64.513421, -18.668681 ], [ -64.514603, -18.669484 ], [ -64.515635, -18.671073 ], [ -64.516354, -18.672706 ], [ -64.51666, -18.673541 ], [ -64.516749, -18.673746 ], [ -64.516949, -18.674496 ], [ -64.517534, -18.675166 ], [ -64.51828, -18.675773 ], [ -64.519813, -18.676252 ], [ -64.520505, -18.676262 ], [ -64.521678, -18.676037 ], [ -64.522624, -18.675646 ], [ -64.523875, -18.675176 ], [ -64.526236, -18.674697 ], [ -64.52836, -18.674649 ], [ -64.53013, -18.674619 ], [ -64.531514, -18.674623 ], [ -64.533412, -18.674844 ], [ -64.535124, -18.675146 ], [ -64.537009, -18.675437 ], [ -64.542654, -18.675038 ], [ -64.544999, -18.674482 ], [ -64.547381, -18.674539 ], [ -64.550471, -18.674514 ], [ -64.552288, -18.674361 ], [ -64.554172, -18.674163 ], [ -64.555166, -18.674153 ], [ -64.556069, -18.674329 ], [ -64.55678, -18.674599 ], [ -64.558152, -18.674382 ], [ -64.559186, -18.673736 ], [ -64.560199, -18.671964 ], [ -64.561508, -18.669008 ], [ -64.562311, -18.667069 ], [ -64.563178, -18.66338 ], [ -64.564204, -18.661209 ], [ -64.565382, -18.659788 ], [ -64.566978, -18.658818 ], [ -64.570713, -18.656661 ], [ -64.572297, -18.655323 ], [ -64.573657, -18.654526 ], [ -64.575201, -18.653976 ], [ -64.576607, -18.653811 ], [ -64.57816, -18.654239 ], [ -64.579973, -18.654549 ], [ -64.581663, -18.65465 ], [ -64.583409, -18.654214 ], [ -64.58615, -18.652599 ], [ -64.588282, -18.650453 ], [ -64.589691, -18.648447 ], [ -64.590985, -18.646979 ], [ -64.592021, -18.645935 ], [ -64.592996, -18.644815 ], [ -64.594192, -18.643712 ], [ -64.595434, -18.643107 ], [ -64.59688, -18.642884 ], [ -64.599221, -18.642986 ], [ -64.601569, -18.643247 ], [ -64.606179, -18.643706 ], [ -64.607421, -18.643235 ], [ -64.609357, -18.641647 ], [ -64.610508, -18.63995 ], [ -64.610797, -18.639674 ], [ -64.610906, -18.63956 ], [ -64.611584, -18.638886 ], [ -64.612681, -18.637995 ], [ -64.614263, -18.637214 ], [ -64.615806, -18.636684 ], [ -64.617031, -18.636481 ], [ -64.618835, -18.635795 ], [ -64.619998, -18.635459 ], [ -64.620898, -18.634933 ], [ -64.621556, -18.634372 ], [ -64.621851, -18.633622 ], [ -64.621817, -18.632725 ], [ -64.6219, -18.630266 ], [ -64.622055, -18.627619 ], [ -64.622302, -18.626083 ], [ -64.62285, -18.624506 ], [ -64.623424, -18.623485 ], [ -64.624099, -18.622598 ], [ -64.624958, -18.621938 ], [ -64.625698, -18.621606 ], [ -64.626479, -18.621197 ], [ -64.627402, -18.620959 ], [ -64.628245, -18.620817 ], [ -64.629764, -18.620659 ], [ -64.631054, -18.620141 ], [ -64.632051, -18.61927 ], [ -64.632787, -18.618439 ], [ -64.63392, -18.617049 ], [ -64.634443, -18.615012 ], [ -64.634689, -18.613399 ], [ -64.634363, -18.610833 ], [ -64.633626, -18.60944 ], [ -64.633209, -18.60791 ], [ -64.633097, -18.606646 ], [ -64.633584, -18.60505 ], [ -64.6338, -18.604473 ], [ -64.634518, -18.603853 ], [ -64.635762, -18.603593 ], [ -64.636771, -18.603834 ], [ -64.638242, -18.60432 ], [ -64.640236, -18.604705 ], [ -64.641544, -18.604789 ], [ -64.643513, -18.604638 ], [ -64.645055, -18.603992 ], [ -64.646612, -18.602847 ], [ -64.647226, -18.601806 ], [ -64.647537, -18.600692 ], [ -64.647919, -18.598675 ], [ -64.647912, -18.5958 ], [ -64.647715, -18.594172 ], [ -64.647063, -18.593219 ], [ -64.64603, -18.5925 ], [ -64.645247, -18.592545 ], [ -64.644745, -18.592645 ], [ -64.644141, -18.592497 ], [ -64.643433, -18.592081 ], [ -64.643085, -18.591471 ], [ -64.642975, -18.590417 ], [ -64.643007, -18.589573 ], [ -64.643257, -18.58844 ], [ -64.643788, -18.58717 ], [ -64.644257, -18.585728 ], [ -64.644811, -18.584822 ], [ -64.645732, -18.583603 ], [ -64.646933, -18.581851 ], [ -64.648, -18.579829 ], [ -64.648925, -18.577808 ], [ -64.649975, -18.576227 ], [ -64.651439, -18.574225 ], [ -64.652926, -18.572747 ], [ -64.654062, -18.571885 ], [ -64.656158, -18.570962 ], [ -64.657549, -18.570355 ], [ -64.659978, -18.570231 ], [ -64.662193, -18.570177 ], [ -64.663944, -18.570094 ], [ -64.666293, -18.569085 ], [ -64.669455, -18.567216 ], [ -64.671084, -18.565634 ], [ -64.673348, -18.563296 ], [ -64.674229, -18.562062 ], [ -64.674827, -18.561 ], [ -64.675334, -18.55959 ], [ -64.675868, -18.557889 ], [ -64.676496, -18.556282 ], [ -64.677655, -18.554192 ], [ -64.678954, -18.551863 ], [ -64.680182, -18.549557 ], [ -64.680603, -18.548679 ], [ -64.680803, -18.547245 ], [ -64.680867, -18.545901 ], [ -64.68113, -18.544175 ], [ -64.681723, -18.54267 ], [ -64.682604, -18.541367 ], [ -64.68402, -18.540025 ], [ -64.684693, -18.539474 ], [ -64.685713, -18.538808 ], [ -64.686542, -18.538571 ], [ -64.688329, -18.538556 ], [ -64.689115, -18.538617 ], [ -64.690725, -18.538807 ], [ -64.691585, -18.539038 ], [ -64.692371, -18.539031 ], [ -64.693222, -18.538741 ], [ -64.693864, -18.538267 ], [ -64.694356, -18.537445 ], [ -64.69495, -18.536008 ], [ -64.695461, -18.53355 ], [ -64.695798, -18.532114 ], [ -64.696118, -18.530637 ], [ -64.696369, -18.529922 ], [ -64.696854, -18.5295 ], [ -64.697805, -18.529345 ], [ -64.698423, -18.529339 ], [ -64.69917, -18.529332 ], [ -64.699711, -18.529401 ], [ -64.700402, -18.529796 ], [ -64.700749, -18.530153 ], [ -64.701012, -18.530716 ], [ -64.701383, -18.531842 ], [ -64.701523, -18.532996 ], [ -64.701716, -18.534222 ], [ -64.702098, -18.53638 ], [ -64.702602, -18.537923 ], [ -64.703179, -18.538999 ], [ -64.703724, -18.539387 ], [ -64.704525, -18.539625 ], [ -64.705839, -18.539663 ], [ -64.706891, -18.539358 ], [ -64.708326, -18.538633 ], [ -64.709119, -18.53811 ], [ -64.709574, -18.537222 ], [ -64.709926, -18.536359 ], [ -64.710331, -18.535667 ], [ -64.710713, -18.535246 ], [ -64.71115, -18.535095 ], [ -64.711844, -18.535015 ], [ -64.712643, -18.535057 ], [ -64.713699, -18.535096 ], [ -64.71473, -18.53521 ], [ -64.715427, -18.535326 ], [ -64.71651, -18.535489 ], [ -64.717027, -18.535754 ], [ -64.717981, -18.535844 ], [ -64.718858, -18.536008 ], [ -64.719789, -18.536318 ], [ -64.720736, -18.536706 ], [ -64.721186, -18.536969 ], [ -64.721676, -18.537038 ], [ -64.722242, -18.536984 ], [ -64.722906, -18.536487 ], [ -64.723619, -18.535719 ], [ -64.724307, -18.534975 ], [ -64.72502, -18.534134 ], [ -64.725716, -18.53393 ], [ -64.726229, -18.534049 ], [ -64.726955, -18.534509 ], [ -64.728303, -18.53543 ], [ -64.729753, -18.536178 ], [ -64.732673, -18.537159 ], [ -64.734685, -18.537484 ], [ -64.736376, -18.537294 ], [ -64.738176, -18.536396 ], [ -64.739224, -18.535649 ], [ -64.73975, -18.53534 ], [ -64.741093, -18.534551 ], [ -64.742094, -18.534198 ], [ -64.743919, -18.53396 ], [ -64.745851, -18.534016 ], [ -64.747015, -18.534472 ], [ -64.748331, -18.534755 ], [ -64.750132, -18.534591 ], [ -64.751773, -18.533888 ], [ -64.753824, -18.532984 ], [ -64.755667, -18.531911 ], [ -64.757536, -18.530911 ], [ -64.760878, -18.52978 ], [ -64.761935, -18.529492 ], [ -64.763327, -18.528951 ], [ -64.764383, -18.52859 ], [ -64.765027, -18.528481 ], [ -64.765672, -18.528519 ], [ -64.766396, -18.528703 ], [ -64.76735, -18.528914 ], [ -64.76838, -18.52905 ], [ -64.769256, -18.529116 ], [ -64.77067, -18.529219 ], [ -64.771254, -18.529199 ], [ -64.771896, -18.528886 ], [ -64.773468, -18.527963 ], [ -64.774095, -18.527708 ], [ -64.775844, -18.527603 ], [ -64.776956, -18.527557 ], [ -64.777947, -18.527467 ], [ -64.778437, -18.52733 ], [ -64.779699, -18.526877 ], [ -64.780855, -18.52656 ], [ -64.782034, -18.526183 ], [ -64.783547, -18.525495 ], [ -64.784371, -18.525004 ], [ -64.785621, -18.524054 ], [ -64.786665, -18.522609 ], [ -64.787346, -18.521577 ], [ -64.787538, -18.520916 ], [ -64.787501, -18.520228 ], [ -64.787293, -18.519468 ], [ -64.786886, -18.518695 ], [ -64.786558, -18.51823 ], [ -64.786234, -18.517998 ], [ -64.785894, -18.51787 ], [ -64.785682, -18.517572 ], [ -64.785673, -18.517242 ], [ -64.785823, -18.516889 ], [ -64.786049, -18.516491 ], [ -64.786352, -18.516049 ], [ -64.787932, -18.514408 ], [ -64.788732, -18.51314 ], [ -64.789349, -18.511919 ], [ -64.789953, -18.510946 ], [ -64.790483, -18.510165 ], [ -64.793077, -18.507166 ], [ -64.794381, -18.505601 ], [ -64.795461, -18.504565 ], [ -64.796221, -18.503899 ], [ -64.796917, -18.50296 ], [ -64.797612, -18.501732 ], [ -64.797849, -18.500954 ], [ -64.798054, -18.5 ], [ -64.798056, -18.49874 ], [ -64.797981, -18.497363 ], [ -64.797973, -18.496675 ], [ -64.798055, -18.495678 ], [ -64.798231, -18.494841 ], [ -64.798607, -18.494135 ], [ -64.799429, -18.493438 ], [ -64.800557, -18.492681 ], [ -64.801595, -18.492041 ], [ -64.802893, -18.491369 ], [ -64.804037, -18.490714 ], [ -64.805275, -18.490145 ], [ -64.8065, -18.489811 ], [ -64.808656, -18.488956 ], [ -64.810066, -18.488723 ], [ -64.810956, -18.488714 ], [ -64.812662, -18.488888 ], [ -64.816122, -18.489137 ] ] ] ] } }
]
}
