{
"type": "FeatureCollection",
"name": "POCONA",
"crs": { "type": "name", "properties": { "name": "urn:ogc:def:crs:OGC:1.3:CRS84" } },
"bbox": [ -65.544999, -17.787831, -65.237538, -17.481711 ],                                                                        
"features": [
{ "type": "Feature", "properties": { "NOMBRE": "Pocona", "NIVEL": "Municipios", "PROVINCIA": "Carrasco", "REGION": "Cono Sur", "DEPARTAMENTO": "Cochabamba" }, "bbox": [ -65.544999, -17.787831, -65.237538, -17.481711 ], "geometry": { "type": "MultiPolygon", "coordinates": [ [ [ [ -65.344013, -17.514843 ], [ -65.344013, -17.514843 ], [ -65.339969, -17.52015 ], [ -65.336971, -17.523309 ], [ -65.333866, -17.526581 ], [ -65.323469, -17.537535 ], [ -65.300202, -17.55225 ], [ -65.297767, -17.555213 ], [ -65.273314, -17.579554 ], [ -65.269154, -17.582578 ], [ -65.266708, -17.586457 ], [ -65.266462, -17.586848 ], [ -65.265617, -17.587199 ], [ -65.264437, -17.587575 ], [ -65.262471, -17.588163 ], [ -65.261768, -17.588433 ], [ -65.260793, -17.588853 ], [ -65.259866, -17.58932 ], [ -65.258713, -17.589949 ], [ -65.257811, -17.590461 ], [ -65.256884, -17.590962 ], [ -65.256039, -17.591313 ], [ -65.254836, -17.5917 ], [ -65.254312, -17.591911 ], [ -65.253694, -17.592191 ], [ -65.253016, -17.592529 ], [ -65.249407, -17.594709 ], [ -65.250144, -17.595226 ], [ -65.251059, -17.59539 ], [ -65.252747, -17.595523 ], [ -65.252747, -17.595523 ], [ -65.253133, -17.595773 ], [ -65.253133, -17.595773 ], [ -65.254375, -17.596433 ], [ -65.254375, -17.596433 ], [ -65.255679, -17.597241 ], [ -65.255679, -17.597241 ], [ -65.256489, -17.597811 ], [ -65.256489, -17.597811 ], [ -65.257396, -17.598484 ], [ -65.257396, -17.598484 ], [ -65.25804, -17.599228 ], [ -65.25859, -17.600006 ], [ -65.259269, -17.601475 ], [ -65.259732, -17.602128 ], [ -65.260314, -17.602641 ], [ -65.260314, -17.602642 ], [ -65.260871, -17.603098 ], [ -65.260871, -17.603098 ], [ -65.261299, -17.60374 ], [ -65.261596, -17.604474 ], [ -65.261757, -17.604985 ], [ -65.262135, -17.606185 ], [ -65.262481, -17.607 ], [ -65.262813, -17.607619 ], [ -65.263302, -17.60834 ], [ -65.263716, -17.608833 ], [ -65.264228, -17.609485 ], [ -65.264634, -17.610299 ], [ -65.265068, -17.611355 ], [ -65.265321, -17.612389 ], [ -65.265322, -17.613298 ], [ -65.265298, -17.61415 ], [ -65.26538, -17.614851 ], [ -65.265645, -17.615885 ], [ -65.26568, -17.616632 ], [ -65.265597, -17.617565 ], [ -65.26543, -17.618441 ], [ -65.265152, -17.619098 ], [ -65.264858, -17.619503 ], [ -65.264542, -17.619988 ], [ -65.264285, -17.620462 ], [ -65.264183, -17.6209 ], [ -65.264186, -17.621119 ], [ -65.26424, -17.621532 ], [ -65.264216, -17.622419 ], [ -65.263825, -17.623176 ], [ -65.259265, -17.627898 ], [ -65.255385, -17.633257 ], [ -65.254989, -17.635194 ], [ -65.254976, -17.640912 ], [ -65.251565, -17.647171 ], [ -65.248143, -17.651941 ], [ -65.246166, -17.655084 ], [ -65.243118, -17.660642 ], [ -65.24064, -17.665891 ], [ -65.237538, -17.672506 ], [ -65.240457, -17.67431 ], [ -65.243041, -17.675168 ], [ -65.243041, -17.675168 ], [ -65.243041, -17.675168 ], [ -65.24399, -17.675996 ], [ -65.24602, -17.677684 ], [ -65.24602, -17.677684 ], [ -65.246956, -17.678443 ], [ -65.246956, -17.678443 ], [ -65.24812, -17.679143 ], [ -65.24812, -17.679143 ], [ -65.24908, -17.679775 ], [ -65.249081, -17.679775 ], [ -65.249909, -17.680384 ], [ -65.249909, -17.680384 ], [ -65.250606, -17.680993 ], [ -65.251219, -17.681659 ], [ -65.251628, -17.682142 ], [ -65.25206, -17.682555 ], [ -65.252264, -17.682682 ], [ -65.252671, -17.682682 ], [ -65.253246, -17.682659 ], [ -65.253988, -17.682704 ], [ -65.254539, -17.682808 ], [ -65.255031, -17.683049 ], [ -65.255031, -17.683049 ], [ -65.255559, -17.683359 ], [ -65.255559, -17.683359 ], [ -65.256147, -17.683738 ], [ -65.256147, -17.683738 ], [ -65.256807, -17.684083 ], [ -65.257539, -17.684381 ], [ -65.25839, -17.684634 ], [ -65.259396, -17.68484 ], [ -65.260234, -17.684944 ], [ -65.26051, -17.685001 ], [ -65.260558, -17.685024 ], [ -65.260558, -17.685024 ], [ -65.260558, -17.685024 ], [ -65.260642, -17.685104 ], [ -65.260944, -17.685771 ], [ -65.261125, -17.686046 ], [ -65.261317, -17.686265 ], [ -65.261533, -17.686449 ], [ -65.261689, -17.686506 ], [ -65.262145, -17.686609 ], [ -65.262145, -17.686609 ], [ -65.26644, -17.689886 ], [ -65.26644, -17.689886 ], [ -65.26856, -17.692066 ], [ -65.26898, -17.69241 ], [ -65.26898, -17.69241 ], [ -65.269425, -17.692904 ], [ -65.270135, -17.693881 ], [ -65.270652, -17.694467 ], [ -65.271181, -17.694984 ], [ -65.271722, -17.695397 ], [ -65.271722, -17.695397 ], [ -65.272142, -17.695661 ], [ -65.272142, -17.695661 ], [ -65.27249, -17.69596 ], [ -65.272635, -17.696167 ], [ -65.273153, -17.697028 ], [ -65.273707, -17.697775 ], [ -65.274272, -17.698395 ], [ -65.274921, -17.698993 ], [ -65.275593, -17.699521 ], [ -65.275593, -17.699521 ], [ -65.276218, -17.69998 ], [ -65.276218, -17.69998 ], [ -65.276711, -17.700451 ], [ -65.277697, -17.7016 ], [ -65.278852, -17.703013 ], [ -65.279562, -17.703737 ], [ -65.280007, -17.704219 ], [ -65.280019, -17.704254 ], [ -65.280404, -17.704771 ], [ -65.280536, -17.704909 ], [ -65.280548, -17.704943 ], [ -65.281814, -17.706451 ], [ -65.278405, -17.711658 ], [ -65.272396, -17.718588 ], [ -65.262865, -17.72958 ], [ -65.262852, -17.729595 ], [ -65.254366, -17.739379 ], [ -65.249261, -17.749022 ], [ -65.249535, -17.749347 ], [ -65.251169, -17.751288 ], [ -65.271132, -17.774996 ], [ -65.293528, -17.75413 ], [ -65.326914, -17.758822 ], [ -65.326914, -17.758822 ], [ -65.328889, -17.759837 ], [ -65.335115, -17.763034 ], [ -65.342431, -17.76679 ], [ -65.362413, -17.777048 ], [ -65.362484, -17.777072 ], [ -65.362626, -17.777156 ], [ -65.362812, -17.777447 ], [ -65.362848, -17.777471 ], [ -65.362847, -17.777494 ], [ -65.362894, -17.777575 ], [ -65.363105, -17.777821 ], [ -65.363437, -17.778 ], [ -65.364144, -17.778004 ], [ -65.364455, -17.778056 ], [ -65.364633, -17.778117 ], [ -65.365214, -17.778463 ], [ -65.365486, -17.778652 ], [ -65.365736, -17.778761 ], [ -65.366234, -17.779036 ], [ -65.366588, -17.779319 ], [ -65.366836, -17.779496 ], [ -65.366847, -17.77952 ], [ -65.366978, -17.779568 ], [ -65.367026, -17.779604 ], [ -65.36724, -17.779677 ], [ -65.36724, -17.7797 ], [ -65.367605, -17.779995 ], [ -65.367746, -17.780171 ], [ -65.36778, -17.780252 ], [ -65.367827, -17.780276 ], [ -65.367851, -17.780322 ], [ -65.367922, -17.78037 ], [ -65.36804, -17.780418 ], [ -65.368542, -17.780509 ], [ -65.368962, -17.780518 ], [ -65.369191, -17.780465 ], [ -65.369334, -17.780468 ], [ -65.369476, -17.780563 ], [ -65.369593, -17.780738 ], [ -65.36978, -17.78096 ], [ -65.369969, -17.781125 ], [ -65.370111, -17.781208 ], [ -65.370706, -17.781439 ], [ -65.371015, -17.781595 ], [ -65.371536, -17.781905 ], [ -65.371535, -17.781939 ], [ -65.371725, -17.782058 ], [ -65.371724, -17.782104 ], [ -65.371995, -17.782328 ], [ -65.372457, -17.782591 ], [ -65.372492, -17.782637 ], [ -65.372564, -17.782639 ], [ -65.373016, -17.782832 ], [ -65.373255, -17.782872 ], [ -65.373553, -17.782981 ], [ -65.374048, -17.783394 ], [ -65.374191, -17.783454 ], [ -65.374675, -17.783798 ], [ -65.375067, -17.784013 ], [ -65.375425, -17.784101 ], [ -65.375581, -17.784104 ], [ -65.375664, -17.784129 ], [ -65.375806, -17.784224 ], [ -65.375995, -17.784389 ], [ -65.376243, -17.784578 ], [ -65.376776, -17.784899 ], [ -65.376811, -17.784934 ], [ -65.377698, -17.784964 ], [ -65.378372, -17.784818 ], [ -65.378516, -17.784821 ], [ -65.378704, -17.784997 ], [ -65.378677, -17.785157 ], [ -65.378673, -17.785352 ], [ -65.378742, -17.785526 ], [ -65.378942, -17.785714 ], [ -65.379049, -17.785751 ], [ -65.379084, -17.785786 ], [ -65.3798, -17.785951 ], [ -65.379872, -17.785952 ], [ -65.37999, -17.786047 ], [ -65.380035, -17.786197 ], [ -65.380116, -17.786336 ], [ -65.38021, -17.78643 ], [ -65.38033, -17.786467 ], [ -65.380905, -17.786491 ], [ -65.381035, -17.786574 ], [ -65.381164, -17.786726 ], [ -65.381377, -17.786868 ], [ -65.382046, -17.786986 ], [ -65.382463, -17.787132 ], [ -65.382664, -17.78724 ], [ -65.382806, -17.787346 ], [ -65.383042, -17.787558 ], [ -65.383278, -17.787736 ], [ -65.383385, -17.787784 ], [ -65.38342, -17.78783 ], [ -65.383444, -17.787831 ], [ -65.383507, -17.787694 ], [ -65.383579, -17.787661 ], [ -65.383786, -17.787493 ], [ -65.383824, -17.787437 ], [ -65.383824, -17.787391 ], [ -65.383874, -17.787323 ], [ -65.383888, -17.787208 ], [ -65.384071, -17.78704 ], [ -65.384229, -17.786928 ], [ -65.384278, -17.786918 ], [ -65.384436, -17.786818 ], [ -65.384525, -17.786567 ], [ -65.38453, -17.786314 ], [ -65.384496, -17.786187 ], [ -65.384461, -17.78614 ], [ -65.384419, -17.785829 ], [ -65.384443, -17.78583 ], [ -65.384481, -17.785761 ], [ -65.384566, -17.785671 ], [ -65.384591, -17.785626 ], [ -65.384652, -17.785604 ], [ -65.384713, -17.785548 ], [ -65.384809, -17.785538 ], [ -65.385217, -17.785547 ], [ -65.385408, -17.785574 ], [ -65.3856, -17.785578 ], [ -65.385684, -17.785534 ], [ -65.385925, -17.785481 ], [ -65.385998, -17.785437 ], [ -65.385999, -17.785414 ], [ -65.386047, -17.785381 ], [ -65.386451, -17.784964 ], [ -65.386671, -17.784762 ], [ -65.386733, -17.784671 ], [ -65.386757, -17.784672 ], [ -65.386806, -17.784627 ], [ -65.387012, -17.784516 ], [ -65.387025, -17.784482 ], [ -65.387407, -17.783961 ], [ -65.387602, -17.78377 ], [ -65.387771, -17.783739 ], [ -65.387951, -17.783743 ], [ -65.388368, -17.783878 ], [ -65.38868, -17.783861 ], [ -65.38885, -17.783739 ], [ -65.389059, -17.783479 ], [ -65.389282, -17.783116 ], [ -65.38932, -17.783013 ], [ -65.389362, -17.782738 ], [ -65.389367, -17.782497 ], [ -65.389392, -17.782406 ], [ -65.38949, -17.782316 ], [ -65.389753, -17.782344 ], [ -65.390276, -17.782608 ], [ -65.390358, -17.782679 ], [ -65.390441, -17.782726 ], [ -65.390607, -17.782856 ], [ -65.391118, -17.783051 ], [ -65.391167, -17.783017 ], [ -65.391299, -17.782997 ], [ -65.391627, -17.782786 ], [ -65.391833, -17.782675 ], [ -65.392037, -17.782668 ], [ -65.392156, -17.782728 ], [ -65.392382, -17.782801 ], [ -65.392453, -17.782849 ], [ -65.392548, -17.782885 ], [ -65.392856, -17.783122 ], [ -65.392891, -17.783122 ], [ -65.392891, -17.783134 ], [ -65.393367, -17.783351 ], [ -65.393509, -17.783445 ], [ -65.393712, -17.78345 ], [ -65.393896, -17.783281 ], [ -65.394044, -17.783077 ], [ -65.394202, -17.782931 ], [ -65.394454, -17.782914 ], [ -65.394598, -17.782951 ], [ -65.394682, -17.782953 ], [ -65.394848, -17.783014 ], [ -65.395345, -17.783346 ], [ -65.395381, -17.783347 ], [ -65.395476, -17.783383 ], [ -65.395584, -17.783385 ], [ -65.395645, -17.783329 ], [ -65.395742, -17.783274 ], [ -65.395875, -17.783254 ], [ -65.395934, -17.783266 ], [ -65.396186, -17.783272 ], [ -65.396222, -17.783295 ], [ -65.396365, -17.783298 ], [ -65.396771, -17.783399 ], [ -65.396891, -17.783401 ], [ -65.397165, -17.783476 ], [ -65.39751, -17.783621 ], [ -65.397795, -17.783776 ], [ -65.397961, -17.783837 ], [ -65.397986, -17.783803 ], [ -65.397978, -17.783619 ], [ -65.397944, -17.783527 ], [ -65.397953, -17.783067 ], [ -65.397966, -17.783021 ], [ -65.398015, -17.782976 ], [ -65.398074, -17.782989 ], [ -65.398406, -17.783169 ], [ -65.398478, -17.78317 ], [ -65.398574, -17.783195 ], [ -65.398718, -17.783186 ], [ -65.398995, -17.7831 ], [ -65.399127, -17.783103 ], [ -65.399246, -17.783152 ], [ -65.399377, -17.783177 ], [ -65.399615, -17.783883 ], [ -65.39965, -17.783918 ], [ -65.399651, -17.783907 ], [ -65.399699, -17.783908 ], [ -65.399723, -17.783885 ], [ -65.399747, -17.783886 ], [ -65.399772, -17.783829 ], [ -65.39987, -17.783728 ], [ -65.400109, -17.783756 ], [ -65.400442, -17.783889 ], [ -65.401174, -17.78449 ], [ -65.401517, -17.784704 ], [ -65.402064, -17.784968 ], [ -65.402194, -17.785051 ], [ -65.403112, -17.785335 ], [ -65.404202, -17.785381 ], [ -65.404679, -17.785482 ], [ -65.404728, -17.78546 ], [ -65.4048, -17.785462 ], [ -65.405197, -17.785367 ], [ -65.405355, -17.785301 ], [ -65.405402, -17.785314 ], [ -65.405585, -17.785145 ], [ -65.405804, -17.785 ], [ -65.405913, -17.784968 ], [ -65.406069, -17.784971 ], [ -65.406104, -17.784995 ], [ -65.406319, -17.785023 ], [ -65.406438, -17.785082 ], [ -65.406686, -17.785271 ], [ -65.406697, -17.785306 ], [ -65.406876, -17.785379 ], [ -65.407307, -17.785411 ], [ -65.407543, -17.785577 ], [ -65.407732, -17.78573 ], [ -65.407978, -17.786022 ], [ -65.408179, -17.786199 ], [ -65.408465, -17.786251 ], [ -65.408753, -17.786257 ], [ -65.408885, -17.786236 ], [ -65.409163, -17.78615 ], [ -65.409321, -17.786039 ], [ -65.40987, -17.785568 ], [ -65.409944, -17.785466 ], [ -65.410398, -17.784958 ], [ -65.410679, -17.7847 ], [ -65.410848, -17.784611 ], [ -65.411126, -17.784525 ], [ -65.411749, -17.784538 ], [ -65.411916, -17.784565 ], [ -65.41212, -17.784569 ], [ -65.412277, -17.784515 ], [ -65.412495, -17.784393 ], [ -65.412642, -17.784269 ], [ -65.412642, -17.784246 ], [ -65.412913, -17.783907 ], [ -65.413061, -17.783681 ], [ -65.413318, -17.783399 ], [ -65.413979, -17.782746 ], [ -65.414345, -17.782443 ], [ -65.414648, -17.782254 ], [ -65.415148, -17.781863 ], [ -65.41538, -17.781626 ], [ -65.41548, -17.781421 ], [ -65.415603, -17.781263 ], [ -65.41581, -17.781095 ], [ -65.415979, -17.781041 ], [ -65.416387, -17.78105 ], [ -65.416435, -17.781028 ], [ -65.416736, -17.780976 ], [ -65.416845, -17.780933 ], [ -65.417126, -17.780674 ], [ -65.417422, -17.780267 ], [ -65.417458, -17.780245 ], [ -65.41752, -17.780142 ], [ -65.417776, -17.779918 ], [ -65.417873, -17.779874 ], [ -65.418067, -17.779752 ], [ -65.418406, -17.779621 ], [ -65.41855, -17.779601 ], [ -65.418958, -17.779609 ], [ -65.419138, -17.77959 ], [ -65.419331, -17.779537 ], [ -65.419379, -17.779538 ], [ -65.419379, -17.779515 ], [ -65.419452, -17.779482 ], [ -65.419548, -17.779472 ], [ -65.41962, -17.779439 ], [ -65.419872, -17.779444 ], [ -65.420075, -17.779483 ], [ -65.420566, -17.779516 ], [ -65.420578, -17.779505 ], [ -65.420902, -17.779512 ], [ -65.421093, -17.779539 ], [ -65.421392, -17.779614 ], [ -65.421775, -17.779633 ], [ -65.421859, -17.779612 ], [ -65.421931, -17.779614 ], [ -65.422041, -17.779501 ], [ -65.422077, -17.779502 ], [ -65.422103, -17.779433 ], [ -65.422237, -17.779321 ], [ -65.422685, -17.779066 ], [ -65.422973, -17.779072 ], [ -65.423259, -17.779159 ], [ -65.423568, -17.779291 ], [ -65.423593, -17.779269 ], [ -65.423617, -17.779269 ], [ -65.423617, -17.779246 ], [ -65.423678, -17.77919 ], [ -65.423751, -17.779157 ], [ -65.423909, -17.779023 ], [ -65.423984, -17.778898 ], [ -65.424204, -17.778696 ], [ -65.424204, -17.778661 ], [ -65.424289, -17.778605 ], [ -65.424495, -17.778506 ], [ -65.424785, -17.778397 ], [ -65.424906, -17.77832 ], [ -65.425075, -17.778266 ], [ -65.425124, -17.778221 ], [ -65.425365, -17.778034 ], [ -65.425845, -17.777839 ], [ -65.42613, -17.777793 ], [ -65.426283, -17.777771 ], [ -65.426414, -17.777769 ], [ -65.426528, -17.777766 ], [ -65.426668, -17.777753 ], [ -65.426765, -17.777752 ], [ -65.427016, -17.777743 ], [ -65.427077, -17.777721 ], [ -65.427197, -17.777712 ], [ -65.42745, -17.77766 ], [ -65.427582, -17.777651 ], [ -65.428444, -17.77768 ], [ -65.428575, -17.777718 ], [ -65.428791, -17.777722 ], [ -65.429197, -17.777799 ], [ -65.429495, -17.777909 ], [ -65.430234, -17.778108 ], [ -65.430544, -17.77823 ], [ -65.431092, -17.778379 ], [ -65.431691, -17.778426 ], [ -65.431703, -17.778437 ], [ -65.431847, -17.77844 ], [ -65.432156, -17.77855 ], [ -65.432768, -17.778551 ], [ -65.433309, -17.778448 ], [ -65.433405, -17.77845 ], [ -65.433477, -17.778428 ], [ -65.433729, -17.778422 ], [ -65.433886, -17.778391 ], [ -65.434689, -17.778407 ], [ -65.435155, -17.778497 ], [ -65.435368, -17.778617 ], [ -65.435452, -17.778641 ], [ -65.435595, -17.778644 ], [ -65.43568, -17.7786 ], [ -65.435801, -17.778568 ], [ -65.435945, -17.778571 ], [ -65.43603, -17.778515 ], [ -65.436126, -17.778517 ], [ -65.436197, -17.778553 ], [ -65.43628, -17.778567 ], [ -65.436447, -17.77865 ], [ -65.436614, -17.7787 ], [ -65.436756, -17.778772 ], [ -65.436862, -17.778854 ], [ -65.437053, -17.778904 ], [ -65.437916, -17.778911 ], [ -65.438025, -17.77889 ], [ -65.438061, -17.778868 ], [ -65.438289, -17.778872 ], [ -65.438409, -17.778852 ], [ -65.43896, -17.778863 ], [ -65.439105, -17.778832 ], [ -65.439225, -17.778834 ], [ -65.439357, -17.778814 ], [ -65.439514, -17.778737 ], [ -65.440015, -17.778299 ], [ -65.440052, -17.778219 ], [ -65.440101, -17.778174 ], [ -65.440102, -17.77814 ], [ -65.440127, -17.778095 ], [ -65.440127, -17.77806 ], [ -65.440382, -17.777916 ], [ -65.440526, -17.777896 ], [ -65.440599, -17.777863 ], [ -65.440815, -17.777822 ], [ -65.440936, -17.777778 ], [ -65.441574, -17.777665 ], [ -65.441778, -17.777646 ], [ -65.441982, -17.77765 ], [ -65.441982, -17.777627 ], [ -65.442006, -17.777628 ], [ -65.442166, -17.777459 ], [ -65.442277, -17.777277 ], [ -65.442328, -17.77714 ], [ -65.442526, -17.7768 ], [ -65.442599, -17.776744 ], [ -65.443145, -17.776445 ], [ -65.443242, -17.776355 ], [ -65.443909, -17.776013 ], [ -65.443982, -17.775957 ], [ -65.444115, -17.77589 ], [ -65.444477, -17.775783 ], [ -65.444717, -17.775765 ], [ -65.444887, -17.775677 ], [ -65.445163, -17.775625 ], [ -65.445272, -17.775581 ], [ -65.445392, -17.775561 ], [ -65.445634, -17.775485 ], [ -65.445706, -17.775487 ], [ -65.445875, -17.775421 ], [ -65.446863, -17.775177 ], [ -65.447284, -17.775117 ], [ -65.448494, -17.775131 ], [ -65.448881, -17.774966 ], [ -65.449124, -17.774822 ], [ -65.449246, -17.774721 ], [ -65.449367, -17.774677 ], [ -65.449498, -17.77468 ], [ -65.449833, -17.774756 ], [ -65.450106, -17.774854 ], [ -65.450344, -17.774973 ], [ -65.450451, -17.774999 ], [ -65.450737, -17.775108 ], [ -65.45094, -17.775135 ], [ -65.451286, -17.775223 ], [ -65.451499, -17.775388 ], [ -65.451522, -17.775434 ], [ -65.45157, -17.775435 ], [ -65.451771, -17.775589 ], [ -65.451902, -17.775626 ], [ -65.452191, -17.77554 ], [ -65.452192, -17.775517 ], [ -65.45224, -17.775472 ], [ -65.452288, -17.775473 ], [ -65.452325, -17.775416 ], [ -65.452508, -17.775294 ], [ -65.452676, -17.775274 ], [ -65.452856, -17.775289 ], [ -65.453034, -17.775339 ], [ -65.45307, -17.775374 ], [ -65.45351, -17.775521 ], [ -65.453846, -17.775528 ], [ -65.454147, -17.775477 ], [ -65.454378, -17.775321 ], [ -65.45455, -17.775106 ], [ -65.454799, -17.774617 ], [ -65.454994, -17.774472 ], [ -65.455114, -17.774451 ], [ -65.455282, -17.774455 ], [ -65.455377, -17.774491 ], [ -65.455473, -17.774505 ], [ -65.455591, -17.774564 ], [ -65.45565, -17.774646 ], [ -65.455721, -17.774682 ], [ -65.45591, -17.774847 ], [ -65.456354, -17.775396 ], [ -65.456543, -17.775584 ], [ -65.457073, -17.776031 ], [ -65.457322, -17.776174 ], [ -65.457617, -17.776421 ], [ -65.457759, -17.776505 ], [ -65.457771, -17.776528 ], [ -65.458011, -17.776533 ], [ -65.458226, -17.77656 ], [ -65.458419, -17.776507 ], [ -65.458635, -17.776488 ], [ -65.458864, -17.776436 ], [ -65.4589, -17.776413 ], [ -65.458901, -17.77639 ], [ -65.459034, -17.776336 ], [ -65.459226, -17.776294 ], [ -65.459552, -17.776197 ], [ -65.459854, -17.776077 ], [ -65.460328, -17.775753 ], [ -65.460606, -17.775644 ], [ -65.461088, -17.775539 ], [ -65.461089, -17.775447 ], [ -65.461281, -17.77544 ], [ -65.46133, -17.775406 ], [ -65.46149, -17.775214 ], [ -65.461552, -17.775101 ], [ -65.461565, -17.775043 ], [ -65.461764, -17.774657 ], [ -65.461963, -17.774316 ], [ -65.462036, -17.774249 ], [ -65.462037, -17.774226 ], [ -65.46222, -17.774057 ], [ -65.462352, -17.774026 ], [ -65.462748, -17.774045 ], [ -65.463165, -17.77418 ], [ -65.463188, -17.774204 ], [ -65.463452, -17.774221 ], [ -65.463596, -17.774201 ], [ -65.463777, -17.774135 ], [ -65.463874, -17.774068 ], [ -65.464045, -17.773911 ], [ -65.464058, -17.773842 ], [ -65.464094, -17.773843 ], [ -65.464264, -17.773732 ], [ -65.464421, -17.773689 ], [ -65.46448, -17.773725 ], [ -65.464598, -17.773853 ], [ -65.464714, -17.774051 ], [ -65.46489, -17.774227 ], [ -65.464913, -17.774274 ], [ -65.465056, -17.774334 ], [ -65.465212, -17.774349 ], [ -65.465537, -17.774252 ], [ -65.465658, -17.774185 ], [ -65.465817, -17.774062 ], [ -65.465942, -17.773801 ], [ -65.466032, -17.773469 ], [ -65.466041, -17.77301 ], [ -65.466066, -17.772953 ], [ -65.466068, -17.772884 ], [ -65.466229, -17.772612 ], [ -65.466361, -17.772614 ], [ -65.466516, -17.772663 ], [ -65.466731, -17.772691 ], [ -65.466957, -17.772753 ], [ -65.467278, -17.772897 ], [ -65.467278, -17.772909 ], [ -65.467302, -17.772909 ], [ -65.467587, -17.773065 ], [ -65.468062, -17.773293 ], [ -65.468385, -17.773345 ], [ -65.468746, -17.773261 ], [ -65.468746, -17.773249 ], [ -65.468782, -17.773238 ], [ -65.468904, -17.773126 ], [ -65.469003, -17.772979 ], [ -65.469138, -17.772832 ], [ -65.469625, -17.772463 ], [ -65.46977, -17.772397 ], [ -65.469938, -17.7724 ], [ -65.470095, -17.772346 ], [ -65.470131, -17.772347 ], [ -65.470375, -17.772134 ], [ -65.470461, -17.772032 ], [ -65.470523, -17.771895 ], [ -65.470555, -17.771471 ], [ -65.470594, -17.771345 ], [ -65.470599, -17.771081 ], [ -65.470627, -17.770875 ], [ -65.470704, -17.770612 ], [ -65.470779, -17.770464 ], [ -65.470815, -17.770454 ], [ -65.47084, -17.770408 ], [ -65.470913, -17.770375 ], [ -65.47101, -17.770297 ], [ -65.471543, -17.770009 ], [ -65.471991, -17.769811 ], [ -65.472087, -17.769713 ], [ -65.472242, -17.769604 ], [ -65.472443, -17.769472 ], [ -65.472693, -17.769244 ], [ -65.487904, -17.765955 ], [ -65.488313, -17.765894 ], [ -65.488354, -17.765894 ], [ -65.488421, -17.765885 ], [ -65.488529, -17.765849 ], [ -65.488618, -17.76583 ], [ -65.48895, -17.765724 ], [ -65.489138, -17.765647 ], [ -65.489188, -17.765631 ], [ -65.489444, -17.765515 ], [ -65.489627, -17.765355 ], [ -65.489825, -17.765225 ], [ -65.489954, -17.764946 ], [ -65.490199, -17.764474 ], [ -65.490261, -17.764372 ], [ -65.490324, -17.764212 ], [ -65.490559, -17.763838 ], [ -65.490705, -17.763703 ], [ -65.490948, -17.763558 ], [ -65.491057, -17.763469 ], [ -65.491217, -17.763265 ], [ -65.491859, -17.762348 ], [ -65.492031, -17.762133 ], [ -65.492254, -17.761735 ], [ -65.492293, -17.761564 ], [ -65.492299, -17.761288 ], [ -65.492278, -17.76115 ], [ -65.49229, -17.761139 ], [ -65.492306, -17.760944 ], [ -65.492345, -17.760772 ], [ -65.492642, -17.760295 ], [ -65.492949, -17.759911 ], [ -65.493295, -17.75939 ], [ -65.493457, -17.759083 ], [ -65.49372, -17.758514 ], [ -65.493972, -17.757864 ], [ -65.494024, -17.75767 ], [ -65.494087, -17.75751 ], [ -65.494258, -17.756744 ], [ -65.494391, -17.756034 ], [ -65.494432, -17.755173 ], [ -65.494556, -17.754349 ], [ -65.494563, -17.753993 ], [ -65.494592, -17.753752 ], [ -65.494931, -17.752932 ], [ -65.495022, -17.752566 ], [ -65.495069, -17.752015 ], [ -65.495094, -17.751958 ], [ -65.495121, -17.751798 ], [ -65.495124, -17.751672 ], [ -65.49526, -17.751466 ], [ -65.495405, -17.751296 ], [ -65.495579, -17.751125 ], [ -65.49593, -17.751036 ], [ -65.496133, -17.750934 ], [ -65.496231, -17.750821 ], [ -65.496438, -17.750653 ], [ -65.496609, -17.750473 ], [ -65.496719, -17.750394 ], [ -65.496719, -17.750371 ], [ -65.496804, -17.750316 ], [ -65.49724, -17.750095 ], [ -65.497604, -17.749884 ], [ -65.498005, -17.749628 ], [ -65.498355, -17.749463 ], [ -65.49879, -17.749311 ], [ -65.499527, -17.748992 ], [ -65.499722, -17.748859 ], [ -65.499818, -17.748838 ], [ -65.500159, -17.74858 ], [ -65.500184, -17.748535 ], [ -65.500403, -17.748332 ], [ -65.50044, -17.748276 ], [ -65.50055, -17.748175 ], [ -65.500894, -17.747779 ], [ -65.501027, -17.747702 ], [ -65.501293, -17.747581 ], [ -65.501341, -17.747582 ], [ -65.501402, -17.747549 ], [ -65.501768, -17.747473 ], [ -65.502075, -17.747342 ], [ -65.502232, -17.747259 ], [ -65.502783, -17.746658 ], [ -65.503152, -17.746157 ], [ -65.503384, -17.745885 ], [ -65.503778, -17.745327 ], [ -65.504023, -17.745043 ], [ -65.504414, -17.744658 ], [ -65.504487, -17.744625 ], [ -65.50489, -17.744286 ], [ -65.505351, -17.74404 ], [ -65.505678, -17.743919 ], [ -65.505884, -17.743865 ], [ -65.50766, -17.743573 ], [ -65.508035, -17.743465 ], [ -65.50829, -17.743354 ], [ -65.508886, -17.742984 ], [ -65.509386, -17.742601 ], [ -65.509593, -17.74242 ], [ -65.510242, -17.74167 ], [ -65.510293, -17.741521 ], [ -65.510813, -17.740516 ], [ -65.511344, -17.73965 ], [ -65.511455, -17.739421 ], [ -65.511681, -17.73878 ], [ -65.511817, -17.73854 ], [ -65.51216, -17.738131 ], [ -65.512477, -17.737917 ], [ -65.512817, -17.737727 ], [ -65.514199, -17.737164 ], [ -65.514782, -17.736874 ], [ -65.514891, -17.736784 ], [ -65.515086, -17.736683 ], [ -65.515684, -17.736175 ], [ -65.515818, -17.736039 ], [ -65.516013, -17.735893 ], [ -65.51672, -17.735306 ], [ -65.517183, -17.735002 ], [ -65.517463, -17.734788 ], [ -65.518522, -17.734058 ], [ -65.51868, -17.733922 ], [ -65.518838, -17.733821 ], [ -65.518924, -17.733719 ], [ -65.519034, -17.733628 ], [ -65.519279, -17.733379 ], [ -65.519414, -17.733209 ], [ -65.519524, -17.733095 ], [ -65.519647, -17.732913 ], [ -65.519757, -17.732788 ], [ -65.519991, -17.732446 ], [ -65.520113, -17.73231 ], [ -65.5202, -17.73215 ], [ -65.52047, -17.731775 ], [ -65.520878, -17.731033 ], [ -65.521264, -17.730175 ], [ -65.521264, -17.730129 ], [ -65.521379, -17.729704 ], [ -65.52164, -17.729098 ], [ -65.521752, -17.728904 ], [ -65.521864, -17.728641 ], [ -65.522073, -17.728333 ], [ -65.522172, -17.728128 ], [ -65.52221, -17.728002 ], [ -65.522346, -17.72775 ], [ -65.522469, -17.727603 ], [ -65.522652, -17.727433 ], [ -65.52292, -17.727265 ], [ -65.523077, -17.72721 ], [ -65.523198, -17.727143 ], [ -65.523319, -17.72711 ], [ -65.523417, -17.727054 ], [ -65.523671, -17.726966 ], [ -65.523962, -17.726845 ], [ -65.524314, -17.726655 ], [ -65.524666, -17.726488 ], [ -65.52519, -17.726105 ], [ -65.525519, -17.725823 ], [ -65.525666, -17.725629 ], [ -65.525864, -17.725322 ], [ -65.525926, -17.725161 ], [ -65.526, -17.725036 ], [ -65.526087, -17.724842 ], [ -65.526226, -17.724429 ], [ -65.526251, -17.724303 ], [ -65.526314, -17.724119 ], [ -65.526341, -17.723935 ], [ -65.526541, -17.72342 ], [ -65.52669, -17.723112 ], [ -65.527291, -17.722338 ], [ -65.527895, -17.721404 ], [ -65.528268, -17.720592 ], [ -65.528458, -17.719927 ], [ -65.528459, -17.719846 ], [ -65.528495, -17.719847 ], [ -65.528532, -17.719778 ], [ -65.528607, -17.719561 ], [ -65.528684, -17.719274 ], [ -65.528982, -17.718645 ], [ -65.529093, -17.718451 ], [ -65.529339, -17.718086 ], [ -65.529437, -17.717996 ], [ -65.529535, -17.717859 ], [ -65.529718, -17.71769 ], [ -65.530266, -17.717319 ], [ -65.531143, -17.716619 ], [ -65.531839, -17.715986 ], [ -65.532085, -17.71561 ], [ -65.532282, -17.71536 ], [ -65.532393, -17.715177 ], [ -65.533069, -17.714232 ], [ -65.533179, -17.714107 ], [ -65.533683, -17.71339 ], [ -65.533781, -17.713288 ], [ -65.533879, -17.713151 ], [ -65.534259, -17.712708 ], [ -65.534564, -17.712426 ], [ -65.53481, -17.712107 ], [ -65.535025, -17.711362 ], [ -65.535087, -17.711201 ], [ -65.535149, -17.711099 ], [ -65.535787, -17.710245 ], [ -65.535983, -17.71003 ], [ -65.536447, -17.709623 ], [ -65.536703, -17.709431 ], [ -65.536984, -17.709114 ], [ -65.537097, -17.708804 ], [ -65.540161, -17.70427 ], [ -65.540185, -17.704259 ], [ -65.540679, -17.703369 ], [ -65.541039, -17.70266 ], [ -65.54108, -17.70253 ], [ -65.541257, -17.702355 ], [ -65.541441, -17.702154 ], [ -65.541541, -17.702075 ], [ -65.541757, -17.701934 ], [ -65.541779, -17.701919 ], [ -65.541882, -17.701791 ], [ -65.541907, -17.701775 ], [ -65.541862, -17.701745 ], [ -65.542971, -17.701124 ], [ -65.543261, -17.700851 ], [ -65.543286, -17.70069 ], [ -65.543287, -17.700471 ], [ -65.543228, -17.700252 ], [ -65.543181, -17.699987 ], [ -65.543051, -17.699561 ], [ -65.542793, -17.698294 ], [ -65.542761, -17.697523 ], [ -65.54307, -17.695708 ], [ -65.543076, -17.694524 ], [ -65.543058, -17.693431 ], [ -65.543074, -17.692523 ], [ -65.543137, -17.691937 ], [ -65.543273, -17.691202 ], [ -65.543679, -17.689538 ], [ -65.543899, -17.688769 ], [ -65.544641, -17.687051 ], [ -65.544923, -17.685937 ], [ -65.544999, -17.685179 ], [ -65.544895, -17.684327 ], [ -65.544694, -17.683612 ], [ -65.544516, -17.683162 ], [ -65.544339, -17.682574 ], [ -65.543183, -17.681233 ], [ -65.543095, -17.681131 ], [ -65.527204, -17.654828 ], [ -65.525528, -17.651998 ], [ -65.525587, -17.650998 ], [ -65.525558, -17.650574 ], [ -65.525385, -17.650116 ], [ -65.524319, -17.649068 ], [ -65.523241, -17.647767 ], [ -65.523535, -17.646449 ], [ -65.523461, -17.645613 ], [ -65.523319, -17.64436 ], [ -65.523037, -17.642033 ], [ -65.521983, -17.637982 ], [ -65.520258, -17.630475 ], [ -65.516761, -17.616505 ], [ -65.510647, -17.584491 ], [ -65.509378, -17.569267 ], [ -65.510333, -17.561724 ], [ -65.517266, -17.552608 ], [ -65.517309, -17.552552 ], [ -65.500208, -17.539632 ], [ -65.492347, -17.53352 ], [ -65.462624, -17.555885 ], [ -65.438613, -17.571003 ], [ -65.417805, -17.579745 ], [ -65.419288, -17.572355 ], [ -65.419287, -17.572252 ], [ -65.419192, -17.5716 ], [ -65.419016, -17.570908 ], [ -65.418866, -17.570518 ], [ -65.418621, -17.570117 ], [ -65.418366, -17.569877 ], [ -65.418004, -17.569638 ], [ -65.41663, -17.569004 ], [ -65.416256, -17.568811 ], [ -65.415893, -17.568515 ], [ -65.415577, -17.56816 ], [ -65.415123, -17.567439 ], [ -65.414766, -17.566705 ], [ -65.414301, -17.566053 ], [ -65.41407, -17.565813 ], [ -65.413624, -17.56554 ], [ -65.412562, -17.564961 ], [ -65.411366, -17.564199 ], [ -65.410822, -17.563777 ], [ -65.410385, -17.563355 ], [ -65.409959, -17.562875 ], [ -65.409605, -17.562394 ], [ -65.409213, -17.561799 ], [ -65.408869, -17.561203 ], [ -65.40873, -17.560675 ], [ -65.408598, -17.559847 ], [ -65.408435, -17.559354 ], [ -65.408128, -17.558815 ], [ -65.407872, -17.558449 ], [ -65.407724, -17.558151 ], [ -65.407709, -17.557978 ], [ -65.407728, -17.557644 ], [ -65.407526, -17.556382 ], [ -65.408041, -17.556123 ], [ -65.419476, -17.5554 ], [ -65.447561, -17.538418 ], [ -65.472034, -17.521014 ], [ -65.472535, -17.520657 ], [ -65.47191, -17.520493 ], [ -65.443823, -17.513125 ], [ -65.443633, -17.513196 ], [ -65.443214, -17.513222 ], [ -65.441731, -17.513222 ], [ -65.441407, -17.513144 ], [ -65.441059, -17.512568 ], [ -65.440494, -17.512276 ], [ -65.439886, -17.5122 ], [ -65.43928, -17.511721 ], [ -65.438773, -17.51138 ], [ -65.438483, -17.51121 ], [ -65.438231, -17.511154 ], [ -65.437849, -17.511157 ], [ -65.436552, -17.51089 ], [ -65.434927, -17.510491 ], [ -65.433248, -17.509868 ], [ -65.432706, -17.50963 ], [ -65.432346, -17.509518 ], [ -65.43201, -17.509463 ], [ -65.431089, -17.50947 ], [ -65.43049, -17.509428 ], [ -65.429593, -17.509412 ], [ -65.429148, -17.509277 ], [ -65.428147, -17.508663 ], [ -65.427638, -17.508241 ], [ -65.427331, -17.507714 ], [ -65.427106, -17.507026 ], [ -65.426866, -17.506165 ], [ -65.4267, -17.505453 ], [ -65.42655, -17.505039 ], [ -65.426378, -17.504753 ], [ -65.426134, -17.504421 ], [ -65.425818, -17.504055 ], [ -65.425575, -17.503827 ], [ -65.424922, -17.502845 ], [ -65.424095, -17.50154 ], [ -65.421567, -17.496594 ], [ -65.419281, -17.490781 ], [ -65.415452, -17.481711 ], [ -65.381183, -17.490964 ], [ -65.365093, -17.499016 ], [ -65.344013, -17.514843 ] ] ] ] } }
]
}
