{
"type": "FeatureCollection",
"name": "POJO",
"crs": { "type": "name", "properties": { "name": "urn:ogc:def:crs:OGC:1.3:CRS84" } },
"bbox": [ -65.072060, -17.987015, -64.588726, -17.213522 ],                                                                        
"features": [
{ "type": "Feature", "properties": { "NOMBRE": "Pojo", "NIVEL": "Municipios", "PROVINCIA": "Carrasco", "REGION": "Cono Sur", "DEPARTAMENTO": "Cochabamba" }, "bbox": [ -65.07206, -17.987015, -64.588726, -17.213522 ], "geometry": { "type": "MultiPolygon", "coordinates": [ [ [ [ -65.057252, -17.221392 ], [ -65.029575, -17.236389 ], [ -65.02353, -17.241443 ], [ -65.016449, -17.247806 ], [ -65.012901, -17.250994 ], [ -65.009647, -17.253129 ], [ -65.008411, -17.253858 ], [ -65.007197, -17.254414 ], [ -65.006173, -17.254854 ], [ -65.000436, -17.257958 ], [ -64.972499, -17.265725 ], [ -64.946653, -17.272599 ], [ -64.932217, -17.269669 ], [ -64.931653, -17.269813 ], [ -64.932629, -17.276643 ], [ -64.919243, -17.282525 ], [ -64.90194, -17.292117 ], [ -64.903689, -17.293445 ], [ -64.904724, -17.294625 ], [ -64.90549, -17.295755 ], [ -64.905766, -17.296477 ], [ -64.90561, -17.296995 ], [ -64.905347, -17.297566 ], [ -64.905308, -17.299015 ], [ -64.905258, -17.299429 ], [ -64.90478, -17.300002 ], [ -64.904571, -17.300676 ], [ -64.904423, -17.301919 ], [ -64.904606, -17.303098 ], [ -64.904442, -17.303832 ], [ -64.904072, -17.304508 ], [ -64.903269, -17.304877 ], [ -64.901495, -17.305101 ], [ -64.900471, -17.305059 ], [ -64.898535, -17.305233 ], [ -64.896977, -17.305558 ], [ -64.892983, -17.309784 ], [ -64.892502, -17.310047 ], [ -64.889923, -17.310537 ], [ -64.887774, -17.311022 ], [ -64.885808, -17.313523 ], [ -64.883408, -17.315769 ], [ -64.882768, -17.316344 ], [ -64.881666, -17.316823 ], [ -64.880675, -17.316984 ], [ -64.879702, -17.316631 ], [ -64.878734, -17.316744 ], [ -64.875946, -17.317804 ], [ -64.874449, -17.318904 ], [ -64.870588, -17.320336 ], [ -64.870225, -17.320456 ], [ -64.867046, -17.321507 ], [ -64.865058, -17.321836 ], [ -64.862259, -17.321914 ], [ -64.860802, -17.321617 ], [ -64.859234, -17.320908 ], [ -64.858101, -17.320206 ], [ -64.857013, -17.319532 ], [ -64.855121, -17.318774 ], [ -64.853667, -17.318787 ], [ -64.852808, -17.31895 ], [ -64.851791, -17.31958 ], [ -64.851079, -17.32006 ], [ -64.850935, -17.320157 ], [ -64.850564, -17.320678 ], [ -64.850731, -17.321245 ], [ -64.851062, -17.322474 ], [ -64.852487, -17.32459 ], [ -64.854538, -17.326891 ], [ -64.855193, -17.327932 ], [ -64.855394, -17.328263 ], [ -64.855996, -17.329019 ], [ -64.856299, -17.32954 ], [ -64.856155, -17.329969 ], [ -64.856209, -17.330445 ], [ -64.856365, -17.331157 ], [ -64.856321, -17.331776 ], [ -64.856128, -17.332254 ], [ -64.855297, -17.333356 ], [ -64.854612, -17.334267 ], [ -64.853091, -17.335804 ], [ -64.852109, -17.336717 ], [ -64.851865, -17.337005 ], [ -64.851723, -17.337673 ], [ -64.851235, -17.338439 ], [ -64.851054, -17.339244 ], [ -64.850502, -17.339493 ], [ -64.850258, -17.339876 ], [ -64.849763, -17.339928 ], [ -64.849315, -17.339694 ], [ -64.848819, -17.339699 ], [ -64.848176, -17.339847 ], [ -64.847044, -17.340619 ], [ -64.846751, -17.34105 ], [ -64.846307, -17.341245 ], [ -64.845464, -17.34111 ], [ -64.845016, -17.340971 ], [ -64.843579, -17.340984 ], [ -64.84254, -17.341137 ], [ -64.841107, -17.341578 ], [ -64.841013, -17.342007 ], [ -64.841019, -17.342626 ], [ -64.840674, -17.342867 ], [ -64.839982, -17.342969 ], [ -64.839386, -17.342927 ], [ -64.838442, -17.34265 ], [ -64.836112, -17.342528 ], [ -64.834773, -17.342446 ], [ -64.833287, -17.342507 ], [ -64.831778, -17.343011 ], [ -64.831469, -17.344046 ], [ -64.830831, -17.344719 ], [ -64.830345, -17.345627 ], [ -64.829713, -17.346918 ], [ -64.828833, -17.348116 ], [ -64.828046, -17.348694 ], [ -64.827211, -17.349511 ], [ -64.826571, -17.349898 ], [ -64.82573, -17.350048 ], [ -64.825138, -17.350291 ], [ -64.824695, -17.350676 ], [ -64.824553, -17.351296 ], [ -64.82436, -17.351869 ], [ -64.823967, -17.352206 ], [ -64.822779, -17.352312 ], [ -64.82139, -17.352134 ], [ -64.820395, -17.351762 ], [ -64.818558, -17.351494 ], [ -64.815931, -17.351375 ], [ -64.813901, -17.351583 ], [ -64.812936, -17.351791 ], [ -64.812169, -17.351837 ], [ -64.811427, -17.352034 ], [ -64.810838, -17.352563 ], [ -64.810496, -17.353137 ], [ -64.810304, -17.35371 ], [ -64.810161, -17.35433 ], [ -64.810017, -17.354807 ], [ -64.809526, -17.35524 ], [ -64.808539, -17.355677 ], [ -64.807995, -17.355778 ], [ -64.806756, -17.355789 ], [ -64.805421, -17.356134 ], [ -64.804631, -17.356427 ], [ -64.803987, -17.35648 ], [ -64.803248, -17.356915 ], [ -64.802807, -17.357395 ], [ -64.802568, -17.358301 ], [ -64.802277, -17.35897 ], [ -64.802084, -17.359543 ], [ -64.801791, -17.359927 ], [ -64.801099, -17.360171 ], [ -64.800109, -17.360227 ], [ -64.799316, -17.360282 ], [ -64.798324, -17.360148 ], [ -64.797624, -17.359536 ], [ -64.796632, -17.35945 ], [ -64.796138, -17.359597 ], [ -64.795604, -17.360744 ], [ -64.795168, -17.361842 ], [ -64.794431, -17.362515 ], [ -64.79307, -17.365193 ], [ -64.792583, -17.366101 ], [ -64.792435, -17.367336 ], [ -64.792059, -17.368248 ], [ -64.791968, -17.369105 ], [ -64.791673, -17.369394 ], [ -64.791178, -17.369446 ], [ -64.789144, -17.369273 ], [ -64.78855, -17.369326 ], [ -64.787855, -17.369237 ], [ -64.787063, -17.36934 ], [ -64.78652, -17.369535 ], [ -64.785331, -17.369546 ], [ -64.784488, -17.369553 ], [ -64.783944, -17.369701 ], [ -64.776738, -17.372811 ], [ -64.775255, -17.373205 ], [ -64.772632, -17.373609 ], [ -64.77174, -17.373617 ], [ -64.769821, -17.375109 ], [ -64.769228, -17.375257 ], [ -64.768433, -17.375074 ], [ -64.766725, -17.374793 ], [ -64.765313, -17.375387 ], [ -64.764773, -17.375916 ], [ -64.76379, -17.376781 ], [ -64.7632, -17.37731 ], [ -64.761423, -17.378039 ], [ -64.760437, -17.378571 ], [ -64.759353, -17.379343 ], [ -64.758913, -17.379965 ], [ -64.757982, -17.381116 ], [ -64.755772, -17.383229 ], [ -64.754988, -17.38414 ], [ -64.754397, -17.384622 ], [ -64.751392, -17.386504 ], [ -64.749968, -17.387992 ], [ -64.748515, -17.38941 ], [ -64.747565, -17.390726 ], [ -64.745698, -17.392408 ], [ -64.744048, -17.393406 ], [ -64.743381, -17.393809 ], [ -64.742889, -17.394241 ], [ -64.740736, -17.397163 ], [ -64.740149, -17.398025 ], [ -64.739815, -17.399361 ], [ -64.739531, -17.400839 ], [ -64.739295, -17.402031 ], [ -64.738858, -17.403034 ], [ -64.737837, -17.405089 ], [ -64.737154, -17.406285 ], [ -64.736761, -17.406669 ], [ -64.736467, -17.407053 ], [ -64.735802, -17.408496 ], [ -64.735494, -17.408965 ], [ -64.73525, -17.409396 ], [ -64.734362, -17.409879 ], [ -64.732486, -17.410705 ], [ -64.731151, -17.411097 ], [ -64.730461, -17.411484 ], [ -64.72883, -17.412117 ], [ -64.727794, -17.412649 ], [ -64.726263, -17.413186 ], [ -64.724096, -17.414775 ], [ -64.722813, -17.415358 ], [ -64.722466, -17.415456 ], [ -64.722073, -17.41584 ], [ -64.721286, -17.416418 ], [ -64.720642, -17.416566 ], [ -64.720051, -17.416952 ], [ -64.71946, -17.417338 ], [ -64.718821, -17.417915 ], [ -64.71818, -17.418301 ], [ -64.717588, -17.418592 ], [ -64.716649, -17.41898 ], [ -64.715759, -17.419226 ], [ -64.715165, -17.419326 ], [ -64.713578, -17.419292 ], [ -64.712587, -17.419349 ], [ -64.7113, -17.41955 ], [ -64.710757, -17.41984 ], [ -64.709775, -17.420801 ], [ -64.709186, -17.42152 ], [ -64.708454, -17.422716 ], [ -64.707819, -17.423768 ], [ -64.707526, -17.424247 ], [ -64.707133, -17.424678 ], [ -64.706593, -17.425207 ], [ -64.706004, -17.425878 ], [ -64.705317, -17.426598 ], [ -64.705027, -17.427409 ], [ -64.704737, -17.428269 ], [ -64.704197, -17.428844 ], [ -64.703315, -17.429899 ], [ -64.702504, -17.430921 ], [ -64.70249, -17.431905 ], [ -64.702454, -17.433381 ], [ -64.702075, -17.43524 ], [ -64.7009, -17.436916 ], [ -64.700214, -17.437779 ], [ -64.699136, -17.439121 ], [ -64.697908, -17.440369 ], [ -64.697125, -17.441518 ], [ -64.695398, -17.442389 ], [ -64.693819, -17.443259 ], [ -64.692683, -17.443697 ], [ -64.691601, -17.444706 ], [ -64.691013, -17.445473 ], [ -64.690279, -17.446573 ], [ -64.689839, -17.447244 ], [ -64.689549, -17.448008 ], [ -64.689208, -17.448724 ], [ -64.689013, -17.449107 ], [ -64.688975, -17.450345 ], [ -64.688785, -17.451203 ], [ -64.688544, -17.451967 ], [ -64.688553, -17.452918 ], [ -64.688458, -17.453443 ], [ -64.688217, -17.454206 ], [ -64.687759, -17.455175 ], [ -64.686992, -17.45574 ], [ -64.686205, -17.45646 ], [ -64.685369, -17.457229 ], [ -64.684682, -17.458044 ], [ -64.683948, -17.45905 ], [ -64.683459, -17.459815 ], [ -64.683118, -17.460485 ], [ -64.682677, -17.461107 ], [ -64.682038, -17.461684 ], [ -64.6811, -17.462167 ], [ -64.679763, -17.462369 ], [ -64.67877, -17.462282 ], [ -64.678175, -17.46224 ], [ -64.675846, -17.462497 ], [ -64.673817, -17.462895 ], [ -64.672678, -17.463048 ], [ -64.671788, -17.463388 ], [ -64.670603, -17.463969 ], [ -64.669664, -17.464358 ], [ -64.668625, -17.464557 ], [ -64.66723, -17.464652 ], [ -64.666844, -17.465096 ], [ -64.666212, -17.466481 ], [ -64.665486, -17.468391 ], [ -64.664849, -17.469253 ], [ -64.66411, -17.469783 ], [ -64.663368, -17.470075 ], [ -64.663024, -17.470411 ], [ -64.662682, -17.470985 ], [ -64.662247, -17.472226 ], [ -64.661912, -17.473514 ], [ -64.661576, -17.474707 ], [ -64.661138, -17.47571 ], [ -64.660894, -17.47614 ], [ -64.66006, -17.477099 ], [ -64.659025, -17.477869 ], [ -64.658039, -17.478496 ], [ -64.657795, -17.478974 ], [ -64.657563, -17.480642 ], [ -64.657477, -17.482118 ], [ -64.657605, -17.48303 ], [ -64.6575, -17.484898 ], [ -64.657437, -17.485493 ], [ -64.656759, -17.48662 ], [ -64.655468, -17.488214 ], [ -64.654583, -17.489211 ], [ -64.654245, -17.489874 ], [ -64.653841, -17.490867 ], [ -64.653509, -17.492123 ], [ -64.653719, -17.492814 ], [ -64.654136, -17.493257 ], [ -64.654756, -17.493351 ], [ -64.655582, -17.493245 ], [ -64.656819, -17.492986 ], [ -64.657541, -17.492832 ], [ -64.658261, -17.492528 ], [ -64.659035, -17.492423 ], [ -64.659811, -17.492565 ], [ -64.660643, -17.493202 ], [ -64.660853, -17.493597 ], [ -64.660964, -17.494389 ], [ -64.660766, -17.495382 ], [ -64.66026, -17.496477 ], [ -64.659856, -17.497521 ], [ -64.659607, -17.498514 ], [ -64.659515, -17.499804 ], [ -64.659526, -17.500944 ], [ -64.659333, -17.502531 ], [ -64.659288, -17.503226 ], [ -64.659348, -17.504167 ], [ -64.659249, -17.504663 ], [ -64.658481, -17.505413 ], [ -64.657456, -17.506215 ], [ -64.656994, -17.506615 ], [ -64.656432, -17.507215 ], [ -64.656176, -17.507514 ], [ -64.656026, -17.50806 ], [ -64.65624, -17.508852 ], [ -64.656767, -17.509987 ], [ -64.657757, -17.51102 ], [ -64.658123, -17.511463 ], [ -64.658439, -17.512154 ], [ -64.658652, -17.512797 ], [ -64.658914, -17.513241 ], [ -64.659228, -17.513684 ], [ -64.65949, -17.514128 ], [ -64.659442, -17.514525 ], [ -64.659083, -17.514776 ], [ -64.658464, -17.51488 ], [ -64.657843, -17.514736 ], [ -64.657171, -17.514693 ], [ -64.656602, -17.514648 ], [ -64.656087, -17.514801 ], [ -64.65552, -17.514905 ], [ -64.655213, -17.515205 ], [ -64.655061, -17.515602 ], [ -64.654962, -17.516099 ], [ -64.655018, -17.516544 ], [ -64.65554, -17.517085 ], [ -64.656012, -17.517924 ], [ -64.656277, -17.518616 ], [ -64.656755, -17.520049 ], [ -64.656817, -17.521188 ], [ -64.656669, -17.521983 ], [ -64.656313, -17.52258 ], [ -64.655598, -17.523479 ], [ -64.655469, -17.523646 ], [ -64.655291, -17.523878 ], [ -64.654726, -17.52418 ], [ -64.654369, -17.524678 ], [ -64.654269, -17.525125 ], [ -64.65391, -17.525426 ], [ -64.653342, -17.52543 ], [ -64.652809, -17.525358 ], [ -64.651736, -17.524899 ], [ -64.650854, -17.524509 ], [ -64.65013, -17.524367 ], [ -64.649305, -17.524572 ], [ -64.648637, -17.524974 ], [ -64.648022, -17.525524 ], [ -64.647717, -17.526072 ], [ -64.647571, -17.527015 ], [ -64.647637, -17.52865 ], [ -64.647808, -17.530433 ], [ -64.647869, -17.531424 ], [ -64.647875, -17.532117 ], [ -64.647723, -17.532466 ], [ -64.64783, -17.532812 ], [ -64.648142, -17.533057 ], [ -64.648406, -17.533749 ], [ -64.648307, -17.534146 ], [ -64.647796, -17.534795 ], [ -64.647439, -17.535293 ], [ -64.646976, -17.535495 ], [ -64.6462, -17.535403 ], [ -64.645269, -17.535361 ], [ -64.644752, -17.535315 ], [ -64.643877, -17.53567 ], [ -64.643311, -17.535873 ], [ -64.64285, -17.536372 ], [ -64.642391, -17.536971 ], [ -64.641826, -17.537372 ], [ -64.640743, -17.537579 ], [ -64.639919, -17.537883 ], [ -64.639717, -17.538331 ], [ -64.639891, -17.54051 ], [ -64.6399, -17.541502 ], [ -64.639706, -17.542941 ], [ -64.638682, -17.54399 ], [ -64.638169, -17.544341 ], [ -64.637244, -17.544944 ], [ -64.636216, -17.545448 ], [ -64.635085, -17.546151 ], [ -64.634314, -17.546603 ], [ -64.633716, -17.547084 ], [ -64.632714, -17.546765 ], [ -64.631993, -17.54697 ], [ -64.631171, -17.547571 ], [ -64.629987, -17.548076 ], [ -64.62891, -17.548878 ], [ -64.628085, -17.549133 ], [ -64.626488, -17.549592 ], [ -64.62613, -17.549992 ], [ -64.625772, -17.55049 ], [ -64.625573, -17.551285 ], [ -64.625165, -17.551883 ], [ -64.624913, -17.552579 ], [ -64.624297, -17.553129 ], [ -64.623526, -17.553582 ], [ -64.622752, -17.553687 ], [ -64.621929, -17.55409 ], [ -64.620623, -17.554484 ], [ -64.618522, -17.554416 ], [ -64.61599, -17.554337 ], [ -64.614231, -17.554153 ], [ -64.613041, -17.553965 ], [ -64.612211, -17.553625 ], [ -64.611897, -17.553131 ], [ -64.611422, -17.552045 ], [ -64.61095, -17.551206 ], [ -64.610479, -17.550566 ], [ -64.609751, -17.550026 ], [ -64.609182, -17.549981 ], [ -64.608718, -17.550035 ], [ -64.608098, -17.55004 ], [ -64.607529, -17.549995 ], [ -64.606963, -17.550297 ], [ -64.606554, -17.550746 ], [ -64.606302, -17.551492 ], [ -64.60631, -17.552334 ], [ -64.606214, -17.553227 ], [ -64.605861, -17.554172 ], [ -64.605506, -17.554968 ], [ -64.604737, -17.555618 ], [ -64.604069, -17.55602 ], [ -64.603352, -17.55677 ], [ -64.602943, -17.557318 ], [ -64.602535, -17.557916 ], [ -64.602427, -17.558509 ], [ -64.602556, -17.560245 ], [ -64.60241, -17.561238 ], [ -64.602364, -17.561982 ], [ -64.602577, -17.562674 ], [ -64.60274, -17.563515 ], [ -64.60285, -17.564307 ], [ -64.602804, -17.564952 ], [ -64.602552, -17.565648 ], [ -64.6023, -17.566443 ], [ -64.60179, -17.567141 ], [ -64.601488, -17.568135 ], [ -64.601085, -17.569229 ], [ -64.600526, -17.570324 ], [ -64.600067, -17.571021 ], [ -64.599815, -17.571767 ], [ -64.599461, -17.572662 ], [ -64.599266, -17.574002 ], [ -64.599117, -17.574647 ], [ -64.599124, -17.575391 ], [ -64.599129, -17.575985 ], [ -64.599106, -17.576806 ], [ -64.598677, -17.577476 ], [ -64.598632, -17.578269 ], [ -64.598799, -17.579656 ], [ -64.599065, -17.580447 ], [ -64.599076, -17.581735 ], [ -64.598881, -17.583075 ], [ -64.598839, -17.584116 ], [ -64.599002, -17.585106 ], [ -64.599215, -17.585798 ], [ -64.599063, -17.586147 ], [ -64.598862, -17.586743 ], [ -64.598711, -17.58729 ], [ -64.598356, -17.587986 ], [ -64.598362, -17.58868 ], [ -64.598572, -17.589075 ], [ -64.598578, -17.589769 ], [ -64.598325, -17.590316 ], [ -64.597863, -17.590766 ], [ -64.597298, -17.591068 ], [ -64.596576, -17.591322 ], [ -64.595752, -17.591626 ], [ -64.594878, -17.592079 ], [ -64.594365, -17.592529 ], [ -64.593752, -17.593376 ], [ -64.593348, -17.59447 ], [ -64.592946, -17.595713 ], [ -64.592337, -17.597006 ], [ -64.591725, -17.597953 ], [ -64.591213, -17.598552 ], [ -64.590803, -17.598952 ], [ -64.590034, -17.599602 ], [ -64.589366, -17.600054 ], [ -64.588726, -17.600564 ], [ -64.588913, -17.600553 ], [ -64.588795, -17.600694 ], [ -64.588835, -17.600981 ], [ -64.589113, -17.601433 ], [ -64.589327, -17.601688 ], [ -64.589679, -17.602026 ], [ -64.589912, -17.602249 ], [ -64.590219, -17.602474 ], [ -64.590446, -17.602735 ], [ -64.590555, -17.60311 ], [ -64.590553, -17.603565 ], [ -64.5907, -17.604036 ], [ -64.590946, -17.604347 ], [ -64.591366, -17.60466 ], [ -64.59176, -17.604824 ], [ -64.592278, -17.604898 ], [ -64.592641, -17.605009 ], [ -64.592898, -17.605198 ], [ -64.593138, -17.605566 ], [ -64.593272, -17.60593 ], [ -64.59325, -17.606295 ], [ -64.59314, -17.606532 ], [ -64.592901, -17.606929 ], [ -64.592711, -17.607349 ], [ -64.592554, -17.607876 ], [ -64.592371, -17.608409 ], [ -64.592213, -17.608876 ], [ -64.592149, -17.609336 ], [ -64.592159, -17.609803 ], [ -64.592156, -17.610209 ], [ -64.592128, -17.610568 ], [ -64.592056, -17.610865 ], [ -64.592105, -17.611414 ], [ -64.592102, -17.611833 ], [ -64.591993, -17.612222 ], [ -64.591828, -17.612594 ], [ -64.591713, -17.612989 ], [ -64.591674, -17.613425 ], [ -64.591709, -17.613915 ], [ -64.591876, -17.614439 ], [ -64.59201, -17.614797 ], [ -64.592162, -17.615095 ], [ -64.59239, -17.615475 ], [ -64.592605, -17.61588 ], [ -64.592708, -17.61619 ], [ -64.592704, -17.616459 ], [ -64.592724, -17.616644 ], [ -64.592851, -17.616864 ], [ -64.592921, -17.617097 ], [ -64.592898, -17.617324 ], [ -64.592837, -17.617505 ], [ -64.592647, -17.617811 ], [ -64.592482, -17.618177 ], [ -64.59241, -17.618507 ], [ -64.592463, -17.618847 ], [ -64.592615, -17.619115 ], [ -64.592897, -17.619351 ], [ -64.593242, -17.619616 ], [ -64.593612, -17.619829 ], [ -64.593931, -17.619963 ], [ -64.594176, -17.620171 ], [ -64.594365, -17.620438 ], [ -64.594505, -17.62073 ], [ -64.594514, -17.620981 ], [ -64.594472, -17.621238 ], [ -64.594431, -17.621508 ], [ -64.594383, -17.621777 ], [ -64.594317, -17.621969 ], [ -64.59425, -17.622226 ], [ -64.594209, -17.62246 ], [ -64.594136, -17.62265 ], [ -64.594199, -17.622823 ], [ -64.594356, -17.622935 ], [ -64.594544, -17.622994 ], [ -64.594731, -17.623034 ], [ -64.5949, -17.623146 ], [ -64.595051, -17.623312 ], [ -64.595184, -17.623532 ], [ -64.595223, -17.623711 ], [ -64.595268, -17.623896 ], [ -64.595301, -17.624069 ], [ -64.595315, -17.624225 ], [ -64.595279, -17.624386 ], [ -64.595237, -17.624536 ], [ -64.595181, -17.624609 ], [ -64.595201, -17.624753 ], [ -64.595228, -17.624938 ], [ -64.595136, -17.6251 ], [ -64.594993, -17.625197 ], [ -64.594764, -17.625384 ], [ -64.594685, -17.62563 ], [ -64.594681, -17.625821 ], [ -64.594707, -17.625994 ], [ -64.594746, -17.626203 ], [ -64.594705, -17.626502 ], [ -64.594765, -17.626914 ], [ -64.594954, -17.627165 ], [ -64.595318, -17.627443 ], [ -64.595851, -17.627773 ], [ -64.59621, -17.628153 ], [ -64.596349, -17.628785 ], [ -64.596483, -17.629806 ], [ -64.596683, -17.630561 ], [ -64.596912, -17.631139 ], [ -64.597036, -17.631784 ], [ -64.597247, -17.63229 ], [ -64.597318, -17.632594 ], [ -64.597272, -17.632995 ], [ -64.597187, -17.633313 ], [ -64.597059, -17.633666 ], [ -64.596957, -17.634039 ], [ -64.596972, -17.634385 ], [ -64.597119, -17.634815 ], [ -64.597335, -17.635231 ], [ -64.597605, -17.635504 ], [ -64.598143, -17.635733 ], [ -64.598656, -17.635848 ], [ -64.599135, -17.635857 ], [ -64.599833, -17.635719 ], [ -64.600199, -17.635614 ], [ -64.600547, -17.635384 ], [ -64.60082, -17.635245 ], [ -64.60113, -17.635105 ], [ -64.601444, -17.635096 ], [ -64.601746, -17.635279 ], [ -64.601954, -17.635564 ], [ -64.602176, -17.636011 ], [ -64.60243, -17.63653 ], [ -64.602739, -17.637 ], [ -64.602925, -17.637488 ], [ -64.602909, -17.637835 ], [ -64.602744, -17.638177 ], [ -64.602571, -17.638364 ], [ -64.60228, -17.638641 ], [ -64.602035, -17.639067 ], [ -64.601913, -17.639379 ], [ -64.601759, -17.639631 ], [ -64.601724, -17.639853 ], [ -64.601715, -17.640335 ], [ -64.601738, -17.640783 ], [ -64.601829, -17.641236 ], [ -64.601938, -17.641516 ], [ -64.602034, -17.641832 ], [ -64.602236, -17.642064 ], [ -64.602561, -17.642222 ], [ -64.602923, -17.642279 ], [ -64.603228, -17.642169 ], [ -64.603551, -17.642047 ], [ -64.603924, -17.642002 ], [ -64.604324, -17.642053 ], [ -64.60468, -17.642134 ], [ -64.604962, -17.642322 ], [ -64.605325, -17.642523 ], [ -64.605831, -17.642638 ], [ -64.60632, -17.642873 ], [ -64.606665, -17.643157 ], [ -64.606968, -17.643513 ], [ -64.607309, -17.644049 ], [ -64.607486, -17.64431 ], [ -64.60775, -17.644631 ], [ -64.608146, -17.64492 ], [ -64.608597, -17.645133 ], [ -64.608969, -17.645312 ], [ -64.609197, -17.645686 ], [ -64.609319, -17.646122 ], [ -64.609316, -17.64654 ], [ -64.609271, -17.647037 ], [ -64.609393, -17.647466 ], [ -64.609642, -17.647698 ], [ -64.610305, -17.647998 ], [ -64.61071, -17.647988 ], [ -64.611022, -17.64801 ], [ -64.611404, -17.648192 ], [ -64.611761, -17.648386 ], [ -64.612063, -17.648724 ], [ -64.612311, -17.64923 ], [ -64.612578, -17.649832 ], [ -64.612756, -17.650231 ], [ -64.612948, -17.650719 ], [ -64.613157, -17.651112 ], [ -64.613487, -17.651423 ], [ -64.613757, -17.651684 ], [ -64.614046, -17.651902 ], [ -64.61431, -17.652139 ], [ -64.614526, -17.65239 ], [ -64.614664, -17.652734 ], [ -64.614786, -17.65311 ], [ -64.614821, -17.65354 ], [ -64.614787, -17.653888 ], [ -64.61484, -17.65421 ], [ -64.614929, -17.654496 ], [ -64.615038, -17.654836 ], [ -64.615092, -17.65523 ], [ -64.615061, -17.655657 ], [ -64.614957, -17.656152 ], [ -64.614898, -17.656565 ], [ -64.614908, -17.656949 ], [ -64.614975, -17.657487 ], [ -64.61501, -17.657983 ], [ -64.615102, -17.658472 ], [ -64.615231, -17.658945 ], [ -64.615403, -17.659349 ], [ -64.615556, -17.659735 ], [ -64.615661, -17.66014 ], [ -64.615769, -17.660541 ], [ -64.615967, -17.660984 ], [ -64.616139, -17.661389 ], [ -64.616251, -17.661696 ], [ -64.616317, -17.662036 ], [ -64.616343, -17.662413 ], [ -64.616391, -17.6628 ], [ -64.616593, -17.663139 ], [ -64.616877, -17.663549 ], [ -64.61711, -17.663741 ], [ -64.617362, -17.663804 ], [ -64.617627, -17.663809 ], [ -64.6179, -17.663738 ], [ -64.618101, -17.663647 ], [ -64.618292, -17.663501 ], [ -64.618441, -17.663352 ], [ -64.6186, -17.663197 ], [ -64.618816, -17.663077 ], [ -64.61907, -17.662999 ], [ -64.619402, -17.662946 ], [ -64.619724, -17.662936 ], [ -64.62003, -17.662959 ], [ -64.620311, -17.663 ], [ -64.620593, -17.663044 ], [ -64.620817, -17.663096 ], [ -64.62099, -17.663152 ], [ -64.621159, -17.663201 ], [ -64.621285, -17.663157 ], [ -64.621355, -17.663038 ], [ -64.621425, -17.662901 ], [ -64.62154, -17.662735 ], [ -64.621639, -17.662548 ], [ -64.621734, -17.662282 ], [ -64.621814, -17.662051 ], [ -64.621887, -17.661867 ], [ -64.622032, -17.661733 ], [ -64.622127, -17.661517 ], [ -64.622219, -17.661327 ], [ -64.622357, -17.661077 ], [ -64.622565, -17.660947 ], [ -64.622842, -17.660878 ], [ -64.623035, -17.66084 ], [ -64.623265, -17.660725 ], [ -64.623382, -17.660539 ], [ -64.623541, -17.660221 ], [ -64.62377, -17.660004 ], [ -64.623989, -17.659772 ], [ -64.624305, -17.659549 ], [ -64.624745, -17.65927 ], [ -64.625241, -17.659015 ], [ -64.625695, -17.658832 ], [ -64.626243, -17.658791 ], [ -64.626853, -17.658807 ], [ -64.627241, -17.658891 ], [ -64.627483, -17.658986 ], [ -64.627686, -17.659078 ], [ -64.627868, -17.659244 ], [ -64.628001, -17.659452 ], [ -64.628084, -17.659643 ], [ -64.628167, -17.659935 ], [ -64.628319, -17.660161 ], [ -64.628436, -17.660355 ], [ -64.628606, -17.660503 ], [ -64.628713, -17.660669 ], [ -64.628752, -17.660866 ], [ -64.628786, -17.661075 ], [ -64.628794, -17.661332 ], [ -64.628883, -17.661541 ], [ -64.628991, -17.661737 ], [ -64.629049, -17.661916 ], [ -64.629213, -17.662141 ], [ -64.629339, -17.662314 ], [ -64.629444, -17.662499 ], [ -64.629515, -17.662786 ], [ -64.629536, -17.66306 ], [ -64.629608, -17.66346 ], [ -64.629697, -17.663681 ], [ -64.629763, -17.664021 ], [ -64.629796, -17.664281 ], [ -64.629744, -17.664658 ], [ -64.629709, -17.665005 ], [ -64.629631, -17.665275 ], [ -64.629539, -17.665509 ], [ -64.629597, -17.665735 ], [ -64.629655, -17.66593 ], [ -64.629794, -17.666048 ], [ -64.630012, -17.666124 ], [ -64.630256, -17.666152 ], [ -64.630412, -17.666198 ], [ -64.630619, -17.666358 ], [ -64.630896, -17.666672 ], [ -64.631262, -17.667094 ], [ -64.631602, -17.667491 ], [ -64.631904, -17.667829 ], [ -64.632244, -17.668209 ], [ -64.63276, -17.668622 ], [ -64.632941, -17.668811 ], [ -64.633142, -17.669039 ], [ -64.633368, -17.669281 ], [ -64.633617, -17.669501 ], [ -64.6339, -17.669706 ], [ -64.634203, -17.669755 ], [ -64.634442, -17.669704 ], [ -64.634693, -17.669592 ], [ -64.634967, -17.669561 ], [ -64.635232, -17.669597 ], [ -64.635537, -17.669681 ], [ -64.635777, -17.669739 ], [ -64.635962, -17.669876 ], [ -64.636059, -17.670086 ], [ -64.636091, -17.670339 ], [ -64.636048, -17.670507 ], [ -64.635936, -17.670664 ], [ -64.635821, -17.670824 ], [ -64.635748, -17.671002 ], [ -64.63576, -17.67125 ], [ -64.635812, -17.671446 ], [ -64.635918, -17.671632 ], [ -64.63624, -17.671897 ], [ -64.636476, -17.672101 ], [ -64.636719, -17.672429 ], [ -64.637006, -17.672771 ], [ -64.637222, -17.672989 ], [ -64.637329, -17.673219 ], [ -64.637456, -17.673471 ], [ -64.637648, -17.673718 ], [ -64.637795, -17.673965 ], [ -64.637986, -17.674179 ], [ -64.638133, -17.674398 ], [ -64.638196, -17.674713 ], [ -64.638193, -17.674938 ], [ -64.638225, -17.675225 ], [ -64.638337, -17.675415 ], [ -64.638517, -17.675524 ], [ -64.638788, -17.675622 ], [ -64.639042, -17.675644 ], [ -64.639316, -17.675623 ], [ -64.639545, -17.675597 ], [ -64.639795, -17.675575 ], [ -64.640074, -17.675554 ], [ -64.640293, -17.675576 ], [ -64.640474, -17.675699 ], [ -64.640676, -17.675922 ], [ -64.640847, -17.676121 ], [ -64.640999, -17.676354 ], [ -64.641061, -17.67666 ], [ -64.641038, -17.676808 ], [ -64.640966, -17.677086 ], [ -64.640854, -17.677379 ], [ -64.640402, -17.678136 ], [ -64.640259, -17.678338 ], [ -64.640151, -17.678569 ], [ -64.640093, -17.678775 ], [ -64.640061, -17.679043 ], [ -64.640093, -17.679272 ], [ -64.640184, -17.679472 ], [ -64.640311, -17.679682 ], [ -64.640501, -17.679795 ], [ -64.640692, -17.67987 ], [ -64.640902, -17.679931 ], [ -64.641176, -17.679962 ], [ -64.641416, -17.679979 ], [ -64.641606, -17.680011 ], [ -64.641776, -17.680091 ], [ -64.641927, -17.680257 ], [ -64.642048, -17.680438 ], [ -64.642115, -17.680643 ], [ -64.642192, -17.680881 ], [ -64.642249, -17.681148 ], [ -64.642271, -17.681335 ], [ -64.642263, -17.681516 ], [ -64.642225, -17.681702 ], [ -64.642161, -17.681889 ], [ -64.642038, -17.682072 ], [ -64.64192, -17.682207 ], [ -64.641826, -17.682337 ], [ -64.641678, -17.682438 ], [ -64.641569, -17.682559 ], [ -64.641481, -17.682717 ], [ -64.641387, -17.682843 ], [ -64.641298, -17.682939 ], [ -64.641119, -17.683007 ], [ -64.640985, -17.683109 ], [ -64.640904, -17.683235 ], [ -64.640813, -17.683335 ], [ -64.640789, -17.683474 ], [ -64.640775, -17.683608 ], [ -64.640738, -17.683725 ], [ -64.640796, -17.683913 ], [ -64.640867, -17.684107 ], [ -64.641002, -17.684276 ], [ -64.641162, -17.684397 ], [ -64.641316, -17.684554 ], [ -64.641348, -17.684711 ], [ -64.641423, -17.685108 ], [ -64.641374, -17.685357 ], [ -64.64132, -17.685514 ], [ -64.641247, -17.685694 ], [ -64.641188, -17.685908 ], [ -64.641175, -17.686173 ], [ -64.641252, -17.686424 ], [ -64.6413, -17.68671 ], [ -64.641347, -17.686936 ], [ -64.641352, -17.68714 ], [ -64.641403, -17.687308 ], [ -64.641453, -17.687498 ], [ -64.64153, -17.687694 ], [ -64.64152, -17.687831 ], [ -64.641479, -17.687946 ], [ -64.641518, -17.688077 ], [ -64.641611, -17.688399 ], [ -64.641622, -17.688829 ], [ -64.641388, -17.689405 ], [ -64.640991, -17.690219 ], [ -64.640849, -17.690987 ], [ -64.640681, -17.692324 ], [ -64.640551, -17.693084 ], [ -64.640371, -17.693867 ], [ -64.640072, -17.694556 ], [ -64.639881, -17.695538 ], [ -64.639901, -17.696205 ], [ -64.640131, -17.696649 ], [ -64.640629, -17.697119 ], [ -64.640931, -17.69749 ], [ -64.641026, -17.69802 ], [ -64.640859, -17.698602 ], [ -64.640684, -17.69907 ], [ -64.640375, -17.699689 ], [ -64.640039, -17.700338 ], [ -64.639949, -17.700719 ], [ -64.639851, -17.700989 ], [ -64.639864, -17.701317 ], [ -64.639978, -17.701597 ], [ -64.640242, -17.701813 ], [ -64.640615, -17.702046 ], [ -64.641009, -17.702296 ], [ -64.641459, -17.702613 ], [ -64.641805, -17.702885 ], [ -64.642017, -17.703138 ], [ -64.642086, -17.703324 ], [ -64.642051, -17.703583 ], [ -64.641933, -17.703849 ], [ -64.641734, -17.70413 ], [ -64.641482, -17.704368 ], [ -64.641101, -17.704493 ], [ -64.640728, -17.704561 ], [ -64.640233, -17.704533 ], [ -64.639801, -17.704541 ], [ -64.639564, -17.70461 ], [ -64.639401, -17.704737 ], [ -64.639242, -17.704957 ], [ -64.639132, -17.705234 ], [ -64.639131, -17.70567 ], [ -64.639156, -17.706194 ], [ -64.63928, -17.706581 ], [ -64.639432, -17.706981 ], [ -64.639514, -17.707314 ], [ -64.639529, -17.707563 ], [ -64.639537, -17.707878 ], [ -64.639627, -17.7082 ], [ -64.639785, -17.708438 ], [ -64.640024, -17.708615 ], [ -64.640305, -17.708696 ], [ -64.640553, -17.708581 ], [ -64.640758, -17.708471 ], [ -64.641026, -17.708403 ], [ -64.641274, -17.708282 ], [ -64.641496, -17.708065 ], [ -64.641676, -17.707962 ], [ -64.641858, -17.708008 ], [ -64.641959, -17.708186 ], [ -64.641993, -17.708455 ], [ -64.64197, -17.708712 ], [ -64.641947, -17.708952 ], [ -64.642018, -17.709142 ], [ -64.642269, -17.709319 ], [ -64.642637, -17.709394 ], [ -64.643033, -17.709385 ], [ -64.643482, -17.709381 ], [ -64.644073, -17.709412 ], [ -64.644598, -17.709508 ], [ -64.645175, -17.709625 ], [ -64.645737, -17.709714 ], [ -64.646231, -17.709695 ], [ -64.646619, -17.709591 ], [ -64.64686, -17.709457 ], [ -64.647005, -17.709214 ], [ -64.647208, -17.708943 ], [ -64.647461, -17.70869 ], [ -64.647729, -17.708598 ], [ -64.648009, -17.70861 ], [ -64.648257, -17.708748 ], [ -64.64846, -17.708932 ], [ -64.648615, -17.709031 ], [ -64.648892, -17.709314 ], [ -64.649346, -17.709837 ], [ -64.649837, -17.710332 ], [ -64.650271, -17.710777 ], [ -64.650643, -17.711198 ], [ -64.65088, -17.711882 ], [ -64.651238, -17.712883 ], [ -64.651386, -17.713324 ], [ -64.651503, -17.713915 ], [ -64.651845, -17.714426 ], [ -64.652603, -17.71485 ], [ -64.653719, -17.715144 ], [ -64.654794, -17.71544 ], [ -64.655801, -17.715683 ], [ -64.656849, -17.716143 ], [ -64.657848, -17.716272 ], [ -64.658866, -17.716353 ], [ -64.659656, -17.716149 ], [ -64.660365, -17.715672 ], [ -64.661338, -17.71561 ], [ -64.662184, -17.715393 ], [ -64.663478, -17.715102 ], [ -64.664672, -17.715054 ], [ -64.665594, -17.714957 ], [ -64.666544, -17.714847 ], [ -64.667216, -17.714644 ], [ -64.667848, -17.71425 ], [ -64.668581, -17.713939 ], [ -64.669066, -17.713798 ], [ -64.669622, -17.713823 ], [ -64.670553, -17.714108 ], [ -64.671706, -17.714666 ], [ -64.672994, -17.715378 ], [ -64.673713, -17.715611 ], [ -64.674802, -17.716014 ], [ -64.675808, -17.716221 ], [ -64.67724, -17.716629 ], [ -64.678057, -17.71664 ], [ -64.678643, -17.716635 ], [ -64.679411, -17.716718 ], [ -64.680184, -17.716957 ], [ -64.681122, -17.717337 ], [ -64.682184, -17.717513 ], [ -64.683171, -17.717666 ], [ -64.683799, -17.717829 ], [ -64.684209, -17.717931 ], [ -64.68464, -17.718128 ], [ -64.684965, -17.718451 ], [ -64.685217, -17.718764 ], [ -64.685731, -17.719142 ], [ -64.684886, -17.722122 ], [ -64.685098, -17.72578 ], [ -64.686723, -17.729052 ], [ -64.711539, -17.760913 ], [ -64.715446, -17.776511 ], [ -64.717389, -17.78101 ], [ -64.717214, -17.783905 ], [ -64.71873, -17.786999 ], [ -64.716184, -17.789157 ], [ -64.71542, -17.789721 ], [ -64.715349, -17.790768 ], [ -64.715566, -17.791849 ], [ -64.71528, -17.79293 ], [ -64.713785, -17.794083 ], [ -64.71323, -17.794913 ], [ -64.713454, -17.797855 ], [ -64.713385, -17.799534 ], [ -64.713114, -17.80025 ], [ -64.711995, -17.801928 ], [ -64.711578, -17.802885 ], [ -64.711662, -17.804688 ], [ -64.712027, -17.805483 ], [ -64.712795, -17.807216 ], [ -64.712797, -17.809491 ], [ -64.713322, -17.809417 ], [ -64.714464, -17.81005 ], [ -64.715203, -17.811627 ], [ -64.71601, -17.812477 ], [ -64.717845, -17.814078 ], [ -64.718259, -17.815554 ], [ -64.718644, -17.815967 ], [ -64.719701, -17.816379 ], [ -64.720357, -17.816987 ], [ -64.721563, -17.81769 ], [ -64.723043, -17.818558 ], [ -64.724365, -17.819613 ], [ -64.725495, -17.819772 ], [ -64.727776, -17.819262 ], [ -64.729658, -17.81925 ], [ -64.732379, -17.819617 ], [ -64.734165, -17.81925 ], [ -64.737513, -17.819208 ], [ -64.739277, -17.82054 ], [ -64.73998, -17.822098 ], [ -64.740787, -17.822857 ], [ -64.741723, -17.824963 ], [ -64.74239, -17.825521 ], [ -64.743795, -17.826699 ], [ -64.746606, -17.827464 ], [ -64.747245, -17.826014 ], [ -64.748678, -17.823089 ], [ -64.746518, -17.81843 ], [ -64.749876, -17.816349 ], [ -64.753136, -17.814066 ], [ -64.755421, -17.813925 ], [ -64.760467, -17.814844 ], [ -64.762667, -17.815619 ], [ -64.764334, -17.817276 ], [ -64.764867, -17.818862 ], [ -64.76601, -17.820193 ], [ -64.76837, -17.82271 ], [ -64.768493, -17.82284 ], [ -64.769581, -17.824458 ], [ -64.771238, -17.826761 ], [ -64.772735, -17.827401 ], [ -64.772769, -17.830843 ], [ -64.777374, -17.838571 ], [ -64.780697, -17.838622 ], [ -64.783178, -17.845403 ], [ -64.780756, -17.846016 ], [ -64.778341, -17.846649 ], [ -64.776546, -17.847715 ], [ -64.775263, -17.847848 ], [ -64.77327, -17.847644 ], [ -64.77092, -17.848625 ], [ -64.769278, -17.849002 ], [ -64.766505, -17.849421 ], [ -64.765115, -17.850849 ], [ -64.764566, -17.852544 ], [ -64.762875, -17.85465 ], [ -64.761939, -17.855632 ], [ -64.761021, -17.856056 ], [ -64.760292, -17.856738 ], [ -64.759885, -17.857176 ], [ -64.759646, -17.857682 ], [ -64.758668, -17.860421 ], [ -64.758554, -17.862674 ], [ -64.758291, -17.863203 ], [ -64.757562, -17.863735 ], [ -64.757454, -17.864723 ], [ -64.755757, -17.867808 ], [ -64.755301, -17.868246 ], [ -64.754272, -17.86972 ], [ -64.753438, -17.872481 ], [ -64.752931, -17.873197 ], [ -64.75114, -17.875315 ], [ -64.750684, -17.875661 ], [ -64.749532, -17.875963 ], [ -64.748742, -17.875902 ], [ -64.747952, -17.875842 ], [ -64.746787, -17.875604 ], [ -64.745844, -17.875411 ], [ -64.743712, -17.87739 ], [ -64.743473, -17.877896 ], [ -64.74333, -17.878494 ], [ -64.743381, -17.879644 ], [ -64.743576, -17.880792 ], [ -64.743651, -17.881988 ], [ -64.743462, -17.883161 ], [ -64.742779, -17.884934 ], [ -64.742363, -17.885807 ], [ -64.742102, -17.886888 ], [ -64.74208, -17.888038 ], [ -64.742469, -17.889669 ], [ -64.742609, -17.890478 ], [ -64.742713, -17.891415 ], [ -64.743148, -17.892495 ], [ -64.743391, -17.893597 ], [ -64.743133, -17.895943 ], [ -64.74316, -17.897161 ], [ -64.743089, -17.897759 ], [ -64.74259, -17.900059 ], [ -64.74252, -17.900634 ], [ -64.742641, -17.901326 ], [ -64.74267, -17.902955 ], [ -64.742292, -17.905807 ], [ -64.742489, -17.907553 ], [ -64.74249, -17.908013 ], [ -64.743059, -17.908813 ], [ -64.746981, -17.910408 ], [ -64.74963, -17.910935 ], [ -64.751061, -17.91189 ], [ -64.752129, -17.915135 ], [ -64.752401, -17.918674 ], [ -64.753479, -17.921801 ], [ -64.753754, -17.923987 ], [ -64.753702, -17.925794 ], [ -64.752932, -17.928038 ], [ -64.749768, -17.92852 ], [ -64.746319, -17.929211 ], [ -64.741561, -17.930682 ], [ -64.739359, -17.931452 ], [ -64.737298, -17.932736 ], [ -64.735223, -17.932998 ], [ -64.733567, -17.933692 ], [ -64.731948, -17.934813 ], [ -64.728316, -17.937327 ], [ -64.727571, -17.941466 ], [ -64.729897, -17.94248 ], [ -64.733071, -17.944602 ], [ -64.734298, -17.945915 ], [ -64.736793, -17.94752 ], [ -64.740674, -17.949626 ], [ -64.743631, -17.950621 ], [ -64.745229, -17.952246 ], [ -64.745086, -17.953747 ], [ -64.743519, -17.955792 ], [ -64.744188, -17.958218 ], [ -64.744378, -17.961472 ], [ -64.745868, -17.964818 ], [ -64.745657, -17.965939 ], [ -64.744581, -17.968385 ], [ -64.744737, -17.971232 ], [ -64.754354, -17.979615 ], [ -64.766294, -17.985988 ], [ -64.806943, -17.987015 ], [ -64.821979, -17.980098 ], [ -64.85813, -17.983829 ], [ -64.886204, -17.982646 ], [ -64.894702, -17.969463 ], [ -64.901855, -17.945361 ], [ -64.919783, -17.92296 ], [ -64.932317, -17.8951 ], [ -64.97586, -17.873433 ], [ -64.997677, -17.872019 ], [ -64.997567, -17.871549 ], [ -64.998353, -17.868388 ], [ -64.996868, -17.86554 ], [ -64.997759, -17.86254 ], [ -64.99833, -17.861836 ], [ -64.998666, -17.861763 ], [ -64.998834, -17.861712 ], [ -64.999225, -17.861009 ], [ -64.999757, -17.860668 ], [ -65.000382, -17.860896 ], [ -65.003107, -17.858873 ], [ -65.004615, -17.857239 ], [ -65.003309, -17.85606 ], [ -65.00537, -17.853878 ], [ -65.006795, -17.853627 ], [ -65.008355, -17.850055 ], [ -65.009965, -17.847265 ], [ -65.009502, -17.845524 ], [ -65.008889, -17.845052 ], [ -65.008517, -17.844181 ], [ -65.008277, -17.84261 ], [ -65.008373, -17.841536 ], [ -65.009898, -17.841276 ], [ -65.011195, -17.840901 ], [ -65.012256, -17.838758 ], [ -65.012864, -17.836593 ], [ -65.012657, -17.834951 ], [ -65.012334, -17.834819 ], [ -65.012658, -17.833633 ], [ -65.013373, -17.832387 ], [ -65.016318, -17.83176 ], [ -65.020866, -17.830222 ], [ -65.02258, -17.826609 ], [ -65.023968, -17.823433 ], [ -65.024178, -17.823287 ], [ -65.025109, -17.823338 ], [ -65.026137, -17.822124 ], [ -65.0269, -17.821596 ], [ -65.027956, -17.821084 ], [ -65.028604, -17.820082 ], [ -65.029085, -17.819712 ], [ -65.03017, -17.81887 ], [ -65.030353, -17.817558 ], [ -65.030258, -17.816655 ], [ -65.029677, -17.816146 ], [ -65.029558, -17.815911 ], [ -65.029724, -17.815568 ], [ -65.02982, -17.815132 ], [ -65.030097, -17.815011 ], [ -65.030317, -17.814462 ], [ -65.030585, -17.813905 ], [ -65.030598, -17.813445 ], [ -65.03078, -17.813064 ], [ -65.031189, -17.81265 ], [ -65.031242, -17.812111 ], [ -65.03141, -17.811747 ], [ -65.031628, -17.811619 ], [ -65.031453, -17.810307 ], [ -65.031101, -17.809796 ], [ -65.031103, -17.808823 ], [ -65.031277, -17.808695 ], [ -65.031765, -17.808005 ], [ -65.032375, -17.807729 ], [ -65.032729, -17.807429 ], [ -65.032712, -17.807114 ], [ -65.033678, -17.806401 ], [ -65.034353, -17.806034 ], [ -65.035026, -17.805407 ], [ -65.035395, -17.804914 ], [ -65.035852, -17.804514 ], [ -65.036348, -17.80427 ], [ -65.036757, -17.804039 ], [ -65.037083, -17.803882 ], [ -65.037588, -17.803712 ], [ -65.03776, -17.803448 ], [ -65.037918, -17.803135 ], [ -65.038277, -17.802869 ], [ -65.038638, -17.802829 ], [ -65.039033, -17.802442 ], [ -65.039228, -17.802034 ], [ -65.0396, -17.801851 ], [ -65.040323, -17.801784 ], [ -65.040795, -17.801611 ], [ -65.041105, -17.801405 ], [ -65.041666, -17.801339 ], [ -65.042013, -17.801156 ], [ -65.042361, -17.801045 ], [ -65.042858, -17.800897 ], [ -65.043346, -17.800987 ], [ -65.044008, -17.800847 ], [ -65.044216, -17.800739 ], [ -65.045159, -17.799664 ], [ -65.045447, -17.799037 ], [ -65.045974, -17.79876 ], [ -65.046966, -17.797535 ], [ -65.048586, -17.796705 ], [ -65.049686, -17.796059 ], [ -65.050422, -17.795459 ], [ -65.051309, -17.795251 ], [ -65.052066, -17.794719 ], [ -65.052123, -17.793607 ], [ -65.052488, -17.792971 ], [ -65.052523, -17.79202 ], [ -65.053057, -17.79138 ], [ -65.053284, -17.791358 ], [ -65.053341, -17.791002 ], [ -65.053601, -17.790869 ], [ -65.054175, -17.790882 ], [ -65.054573, -17.790557 ], [ -65.055149, -17.789509 ], [ -65.055428, -17.789245 ], [ -65.056959, -17.78819 ], [ -65.057616, -17.787479 ], [ -65.058013, -17.787224 ], [ -65.057546, -17.785945 ], [ -65.057286, -17.785788 ], [ -65.05692, -17.785443 ], [ -65.056318, -17.78476 ], [ -65.056165, -17.784391 ], [ -65.055885, -17.783732 ], [ -65.05568, -17.78252 ], [ -65.054931, -17.781826 ], [ -65.054193, -17.781184 ], [ -65.054108, -17.781038 ], [ -65.053673, -17.780833 ], [ -65.053428, -17.780749 ], [ -65.053216, -17.780565 ], [ -65.052951, -17.780515 ], [ -65.052687, -17.78059 ], [ -65.052459, -17.780668 ], [ -65.052307, -17.780503 ], [ -65.052067, -17.780462 ], [ -65.05191, -17.780301 ], [ -65.051719, -17.780174 ], [ -65.05148, -17.780186 ], [ -65.051221, -17.780237 ], [ -65.051109, -17.780042 ], [ -65.051002, -17.779809 ], [ -65.050885, -17.779604 ], [ -65.050708, -17.779401 ], [ -65.050541, -17.77924 ], [ -65.05023, -17.779128 ], [ -65.049899, -17.779086 ], [ -65.049651, -17.779096 ], [ -65.049322, -17.779119 ], [ -65.049064, -17.779227 ], [ -65.048771, -17.779349 ], [ -65.048453, -17.779477 ], [ -65.048265, -17.77957 ], [ -65.047966, -17.779688 ], [ -65.047618, -17.779787 ], [ -65.047335, -17.779928 ], [ -65.047056, -17.77996 ], [ -65.046772, -17.780001 ], [ -65.046394, -17.78011 ], [ -65.045951, -17.780129 ], [ -65.045677, -17.780247 ], [ -65.045456, -17.780522 ], [ -65.045209, -17.780768 ], [ -65.0449, -17.780724 ], [ -65.044683, -17.780568 ], [ -65.041963, -17.782167 ], [ -65.037727, -17.787322 ], [ -65.034765, -17.784738 ], [ -65.033063, -17.780563 ], [ -65.036418, -17.778616 ], [ -65.039877, -17.775071 ], [ -65.038466, -17.772845 ], [ -65.037936, -17.771839 ], [ -65.037544, -17.771391 ], [ -65.035975, -17.770233 ], [ -65.033893, -17.769577 ], [ -65.032054, -17.767817 ], [ -65.031418, -17.766649 ], [ -65.03123, -17.765006 ], [ -65.030875, -17.763664 ], [ -65.029842, -17.761489 ], [ -65.029026, -17.760187 ], [ -65.027933, -17.757777 ], [ -65.027381, -17.756482 ], [ -65.027399, -17.756419 ], [ -65.027065, -17.755997 ], [ -65.027753, -17.75555 ], [ -65.027857, -17.755265 ], [ -65.028042, -17.75472 ], [ -65.028398, -17.754317 ], [ -65.028778, -17.753621 ], [ -65.029069, -17.75309 ], [ -65.029156, -17.752714 ], [ -65.029238, -17.752262 ], [ -65.029542, -17.75181 ], [ -65.029826, -17.751504 ], [ -65.029865, -17.751157 ], [ -65.030164, -17.750652 ], [ -65.030246, -17.749996 ], [ -65.030703, -17.749517 ], [ -65.030874, -17.748955 ], [ -65.031421, -17.748284 ], [ -65.03175, -17.747625 ], [ -65.031947, -17.747207 ], [ -65.032024, -17.746804 ], [ -65.032351, -17.746677 ], [ -65.032773, -17.746264 ], [ -65.032878, -17.745996 ], [ -65.033039, -17.745726 ], [ -65.033247, -17.745595 ], [ -65.033435, -17.74543 ], [ -65.033532, -17.74519 ], [ -65.03365, -17.745017 ], [ -65.033812, -17.744819 ], [ -65.033954, -17.74455 ], [ -65.03405, -17.744277 ], [ -65.034077, -17.74398 ], [ -65.034064, -17.743783 ], [ -65.033996, -17.74334 ], [ -65.033824, -17.743025 ], [ -65.033653, -17.742798 ], [ -65.033638, -17.742463 ], [ -65.0336, -17.742039 ], [ -65.033365, -17.741765 ], [ -65.032861, -17.741706 ], [ -65.032608, -17.741377 ], [ -65.032524, -17.74098 ], [ -65.032502, -17.740682 ], [ -65.032228, -17.740542 ], [ -65.032144, -17.740241 ], [ -65.032311, -17.739945 ], [ -65.032326, -17.739736 ], [ -65.031806, -17.739447 ], [ -65.031621, -17.739148 ], [ -65.0317, -17.738816 ], [ -65.031589, -17.738394 ], [ -65.031353, -17.738077 ], [ -65.03115, -17.737851 ], [ -65.031383, -17.73715 ], [ -65.031208, -17.736786 ], [ -65.031068, -17.736411 ], [ -65.030941, -17.735627 ], [ -65.030994, -17.735205 ], [ -65.030748, -17.734887 ], [ -65.030675, -17.734582 ], [ -65.030872, -17.734215 ], [ -65.031148, -17.733908 ], [ -65.031249, -17.733556 ], [ -65.031072, -17.733425 ], [ -65.030752, -17.732998 ], [ -65.030821, -17.732359 ], [ -65.031025, -17.731883 ], [ -65.031364, -17.731392 ], [ -65.031818, -17.731177 ], [ -65.032292, -17.731008 ], [ -65.03249, -17.730623 ], [ -65.032639, -17.730478 ], [ -65.032954, -17.730171 ], [ -65.033017, -17.72952 ], [ -65.031489, -17.726961 ], [ -65.032121, -17.725549 ], [ -65.032484, -17.724995 ], [ -65.033027, -17.724596 ], [ -65.033127, -17.723457 ], [ -65.033942, -17.722952 ], [ -65.034535, -17.722928 ], [ -65.035733, -17.72212 ], [ -65.036203, -17.720363 ], [ -65.035942, -17.71892 ], [ -65.035506, -17.717849 ], [ -65.036382, -17.715329 ], [ -65.037028, -17.714278 ], [ -65.037445, -17.713439 ], [ -65.036225, -17.712241 ], [ -65.036577, -17.711704 ], [ -65.036772, -17.71158 ], [ -65.036617, -17.711185 ], [ -65.036587, -17.710836 ], [ -65.036785, -17.710446 ], [ -65.036847, -17.71002 ], [ -65.037042, -17.70963 ], [ -65.037363, -17.709407 ], [ -65.03763, -17.70901 ], [ -65.037546, -17.708198 ], [ -65.037751, -17.708083 ], [ -65.038759, -17.707074 ], [ -65.039509, -17.705946 ], [ -65.040262, -17.704149 ], [ -65.040608, -17.703116 ], [ -65.040608, -17.703098 ], [ -65.039755, -17.702842 ], [ -65.039377, -17.702578 ], [ -65.03918, -17.702706 ], [ -65.03843, -17.703023 ], [ -65.036722, -17.70368 ], [ -65.034088, -17.701666 ], [ -65.033448, -17.700859 ], [ -65.032325, -17.700717 ], [ -65.031897, -17.700128 ], [ -65.030047, -17.700335 ], [ -65.029133, -17.70019 ], [ -65.028958, -17.699871 ], [ -65.026898, -17.699229 ], [ -65.0273, -17.698718 ], [ -65.027147, -17.698224 ], [ -65.027215, -17.697796 ], [ -65.028276, -17.696052 ], [ -65.029341, -17.694341 ], [ -65.029793, -17.694311 ], [ -65.02911, -17.692443 ], [ -65.028269, -17.691553 ], [ -65.028123, -17.690703 ], [ -65.028425, -17.690028 ], [ -65.027981, -17.689063 ], [ -65.029995, -17.687154 ], [ -65.030502, -17.685499 ], [ -65.029144, -17.682736 ], [ -65.028276, -17.68176 ], [ -65.028468, -17.680501 ], [ -65.0286, -17.677954 ], [ -65.02702, -17.676414 ], [ -65.026829, -17.676274 ], [ -65.027644, -17.67552 ], [ -65.027937, -17.675594 ], [ -65.028523, -17.675362 ], [ -65.028541, -17.675048 ], [ -65.028712, -17.674447 ], [ -65.029107, -17.674389 ], [ -65.029505, -17.674566 ], [ -65.029896, -17.6744 ], [ -65.030108, -17.673941 ], [ -65.02975, -17.673563 ], [ -65.030117, -17.672412 ], [ -65.029989, -17.672075 ], [ -65.030046, -17.671562 ], [ -65.030506, -17.670506 ], [ -65.030509, -17.669783 ], [ -65.030927, -17.668136 ], [ -65.027463, -17.668288 ], [ -65.026703, -17.668442 ], [ -65.026234, -17.667668 ], [ -65.026063, -17.667627 ], [ -65.025432, -17.668396 ], [ -65.025009, -17.66847 ], [ -65.02325, -17.669257 ], [ -65.022454, -17.669362 ], [ -65.021493, -17.668693 ], [ -65.020844, -17.668474 ], [ -65.020137, -17.668853 ], [ -65.019347, -17.668672 ], [ -65.018176, -17.668242 ], [ -65.017948, -17.66837 ], [ -65.017312, -17.668585 ], [ -65.016847, -17.668639 ], [ -65.016642, -17.668771 ], [ -65.01689, -17.666438 ], [ -65.016153, -17.662922 ], [ -65.014726, -17.661708 ], [ -65.012758, -17.660102 ], [ -65.011138, -17.658529 ], [ -65.009561, -17.658238 ], [ -65.009298, -17.655711 ], [ -65.009369, -17.652792 ], [ -65.007841, -17.649284 ], [ -65.002599, -17.639598 ], [ -64.999065, -17.629308 ], [ -65.007947, -17.620608 ], [ -65.0149, -17.612939 ], [ -65.020392, -17.595989 ], [ -65.020364, -17.589214 ], [ -65.01763, -17.584725 ], [ -65.017266, -17.568918 ], [ -65.015868, -17.567494 ], [ -65.015182, -17.566679 ], [ -65.014636, -17.566053 ], [ -65.013793, -17.565545 ], [ -65.012672, -17.565098 ], [ -65.011988, -17.564512 ], [ -65.011298, -17.563467 ], [ -65.01063, -17.562537 ], [ -65.009879, -17.561302 ], [ -65.008991, -17.560316 ], [ -65.007605, -17.559413 ], [ -65.006818, -17.558483 ], [ -65.005811, -17.557614 ], [ -65.004748, -17.557032 ], [ -65.003865, -17.556429 ], [ -65.003296, -17.555459 ], [ -65.002531, -17.554798 ], [ -65.001802, -17.553811 ], [ -65.001073, -17.552766 ], [ -65.000365, -17.551817 ], [ -65.000252, -17.550595 ], [ -65.000101, -17.549669 ], [ -65.00049, -17.548699 ], [ -65.000222, -17.54786 ], [ -64.999691, -17.546718 ], [ -64.999045, -17.545922 ], [ -64.999184, -17.544065 ], [ -64.999801, -17.54404 ], [ -65.000516, -17.543803 ], [ -65.001045, -17.542957 ], [ -65.001135, -17.542 ], [ -65.001025, -17.541083 ], [ -65.000718, -17.54034 ], [ -65.00051, -17.539596 ], [ -65.000042, -17.538686 ], [ -64.999872, -17.537958 ], [ -64.999565, -17.537292 ], [ -64.999572, -17.53673 ], [ -65.000216, -17.536389 ], [ -65.00085, -17.536299 ], [ -65.001345, -17.535995 ], [ -65.001825, -17.535429 ], [ -65.002505, -17.534932 ], [ -65.002783, -17.534212 ], [ -65.002355, -17.533834 ], [ -65.00133, -17.533509 ], [ -65.000801, -17.532989 ], [ -65.000535, -17.532525 ], [ -65.000415, -17.531845 ], [ -65.000419, -17.531021 ], [ -65.000112, -17.530295 ], [ -65.000407, -17.529945 ], [ -65.00111, -17.52934 ], [ -65.001565, -17.52881 ], [ -65.001349, -17.528406 ], [ -65.000869, -17.527789 ], [ -65.000666, -17.527492 ], [ -65.000599, -17.527003 ], [ -65.000642, -17.526369 ], [ -65.000006, -17.52634 ], [ -64.999501, -17.525747 ], [ -64.998706, -17.524811 ], [ -64.997925, -17.52397 ], [ -64.997553, -17.523054 ], [ -64.997995, -17.522463 ], [ -64.998322, -17.521576 ], [ -64.997742, -17.520984 ], [ -64.997387, -17.520414 ], [ -64.997868, -17.519919 ], [ -64.998212, -17.519485 ], [ -64.99833, -17.518934 ], [ -64.997269, -17.51867 ], [ -64.996409, -17.518619 ], [ -64.996015, -17.517966 ], [ -64.995919, -17.517106 ], [ -64.995562, -17.516369 ], [ -64.994944, -17.515717 ], [ -64.994773, -17.514977 ], [ -64.994662, -17.513965 ], [ -64.994009, -17.512576 ], [ -64.99372, -17.511622 ], [ -64.993754, -17.511067 ], [ -64.994327, -17.510679 ], [ -64.994301, -17.510106 ], [ -64.994411, -17.509225 ], [ -64.994463, -17.508459 ], [ -64.994454, -17.507656 ], [ -64.994287, -17.507008 ], [ -64.994599, -17.506316 ], [ -64.994914, -17.505904 ], [ -64.995507, -17.505504 ], [ -64.99616, -17.505077 ], [ -64.99683, -17.504458 ], [ -64.997621, -17.503896 ], [ -64.998392, -17.503314 ], [ -64.998913, -17.503577 ], [ -64.999634, -17.503837 ], [ -65.000406, -17.503389 ], [ -65.000975, -17.50258 ], [ -65.001365, -17.501754 ], [ -65.001654, -17.50091 ], [ -65.001526, -17.500146 ], [ -65.001122, -17.499596 ], [ -65.000655, -17.498797 ], [ -65.000747, -17.498108 ], [ -65.001361, -17.497738 ], [ -65.002092, -17.497234 ], [ -65.002604, -17.496617 ], [ -65.003013, -17.495771 ], [ -65.003382, -17.494888 ], [ -65.003572, -17.494044 ], [ -65.003284, -17.493244 ], [ -65.002504, -17.492965 ], [ -65.002257, -17.49226 ], [ -65.002585, -17.491301 ], [ -65.002957, -17.490666 ], [ -65.003329, -17.490012 ], [ -65.003579, -17.489244 ], [ -65.003251, -17.488425 ], [ -65.002524, -17.487477 ], [ -65.002332, -17.48635 ], [ -65.002496, -17.484991 ], [ -65.002222, -17.483617 ], [ -65.00193, -17.482396 ], [ -65.002422, -17.481855 ], [ -65.002794, -17.48124 ], [ -65.002566, -17.480401 ], [ -65.002093, -17.479048 ], [ -65.002137, -17.477651 ], [ -65.002406, -17.476467 ], [ -65.001411, -17.476855 ], [ -65.000659, -17.477284 ], [ -64.99975, -17.478039 ], [ -64.998867, -17.479291 ], [ -64.99824, -17.480291 ], [ -64.9975, -17.48179 ], [ -64.996737, -17.483137 ], [ -64.995975, -17.484559 ], [ -64.99469, -17.485433 ], [ -64.993569, -17.486222 ], [ -64.993521, -17.487911 ], [ -64.992918, -17.489256 ], [ -64.992418, -17.490925 ], [ -64.991773, -17.49206 ], [ -64.990745, -17.492873 ], [ -64.989758, -17.493705 ], [ -64.988655, -17.494921 ], [ -64.987865, -17.49556 ], [ -64.986979, -17.496563 ], [ -64.986612, -17.497657 ], [ -64.986845, -17.498879 ], [ -64.986775, -17.499797 ], [ -64.986844, -17.500619 ], [ -64.986114, -17.501276 ], [ -64.985214, -17.501037 ], [ -64.984318, -17.501103 ], [ -64.983707, -17.50174 ], [ -64.983097, -17.501505 ], [ -64.982192, -17.501495 ], [ -64.981236, -17.501475 ], [ -64.980428, -17.501405 ], [ -64.979612, -17.501355 ], [ -64.978827, -17.501263 ], [ -64.978197, -17.501104 ], [ -64.977538, -17.500953 ], [ -64.976734, -17.500567 ], [ -64.976081, -17.500293 ], [ -64.975593, -17.499773 ], [ -64.966194, -17.505739 ], [ -64.957948, -17.509434 ], [ -64.953975, -17.507666 ], [ -64.952893, -17.494577 ], [ -64.952609, -17.494182 ], [ -64.952689, -17.493524 ], [ -64.952642, -17.49264 ], [ -64.952449, -17.49208 ], [ -64.952269, -17.491532 ], [ -64.952125, -17.490876 ], [ -64.952117, -17.490147 ], [ -64.952097, -17.48943 ], [ -64.952065, -17.488749 ], [ -64.952018, -17.487865 ], [ -64.951972, -17.487065 ], [ -64.952103, -17.486538 ], [ -64.952383, -17.48589 ], [ -64.952429, -17.485531 ], [ -64.952412, -17.485077 ], [ -64.952257, -17.484552 ], [ -64.952102, -17.48404 ], [ -64.952034, -17.483491 ], [ -64.95184, -17.482895 ], [ -64.95186, -17.482405 ], [ -64.951866, -17.481819 ], [ -64.9518, -17.481449 ], [ -64.951533, -17.480938 ], [ -64.951516, -17.48052 ], [ -64.951484, -17.479875 ], [ -64.95112, -17.479556 ], [ -64.950668, -17.479201 ], [ -64.950314, -17.478775 ], [ -64.950135, -17.478346 ], [ -64.949968, -17.477798 ], [ -64.949925, -17.477332 ], [ -64.949921, -17.476902 ], [ -64.949913, -17.476209 ], [ -64.949867, -17.475634 ], [ -64.949342, -17.474802 ], [ -64.948852, -17.474413 ], [ -64.948794, -17.473696 ], [ -64.949234, -17.472891 ], [ -64.949573, -17.47192 ], [ -64.949577, -17.471131 ], [ -64.949632, -17.470533 ], [ -64.949213, -17.4697 ], [ -64.948858, -17.469178 ], [ -64.948327, -17.468406 ], [ -64.947798, -17.467802 ], [ -64.947136, -17.467653 ], [ -64.946241, -17.467781 ], [ -64.945291, -17.467515 ], [ -64.944937, -17.467029 ], [ -64.944729, -17.466182 ], [ -64.944305, -17.464979 ], [ -64.943798, -17.464135 ], [ -64.942964, -17.462996 ], [ -64.942443, -17.461997 ], [ -64.942, -17.46132 ], [ -64.941456, -17.460525 ], [ -64.940666, -17.459995 ], [ -64.939165, -17.4594 ], [ -64.937453, -17.459041 ], [ -64.938672, -17.456755 ], [ -64.9399, -17.45507 ], [ -64.940078, -17.45306 ], [ -64.939758, -17.451055 ], [ -64.939185, -17.44867 ], [ -64.939256, -17.44604 ], [ -64.939833, -17.444026 ], [ -64.940901, -17.441386 ], [ -64.94203, -17.439893 ], [ -64.942853, -17.437638 ], [ -64.942853, -17.435678 ], [ -64.943057, -17.433333 ], [ -64.94448, -17.431359 ], [ -64.944607, -17.429254 ], [ -64.945132, -17.427098 ], [ -64.946016, -17.425918 ], [ -64.947531, -17.424325 ], [ -64.949017, -17.423594 ], [ -64.949452, -17.422334 ], [ -64.950217, -17.420498 ], [ -64.95144, -17.419554 ], [ -64.953108, -17.418426 ], [ -64.954889, -17.416859 ], [ -64.957564, -17.41598 ], [ -64.959645, -17.414956 ], [ -64.961244, -17.414294 ], [ -64.962851, -17.414386 ], [ -64.964131, -17.415306 ], [ -64.965224, -17.416191 ], [ -64.96617, -17.417365 ], [ -64.967341, -17.418645 ], [ -64.968433, -17.419387 ], [ -64.969821, -17.419983 ], [ -64.971622, -17.420718 ], [ -64.973311, -17.421526 ], [ -64.97503, -17.421545 ], [ -64.97658, -17.421162 ], [ -64.977978, -17.421372 ], [ -64.979625, -17.421678 ], [ -64.981198, -17.422021 ], [ -64.982552, -17.422904 ], [ -64.983637, -17.423073 ], [ -64.984748, -17.422201 ], [ -64.985782, -17.421151 ], [ -64.987092, -17.421317 ], [ -64.989001, -17.421728 ], [ -64.990719, -17.421675 ], [ -64.992619, -17.421262 ], [ -64.995188, -17.420555 ], [ -64.996708, -17.4195 ], [ -64.997021, -17.418474 ], [ -64.998359, -17.416687 ], [ -64.998753, -17.415141 ], [ -64.999374, -17.41388 ], [ -65.000263, -17.413225 ], [ -65.001876, -17.413855 ], [ -65.003452, -17.414556 ], [ -65.003853, -17.41362 ], [ -65.003314, -17.412191 ], [ -65.003529, -17.411328 ], [ -65.004872, -17.411207 ], [ -65.006294, -17.411408 ], [ -65.008572, -17.411385 ], [ -65.010774, -17.411255 ], [ -65.013203, -17.411338 ], [ -65.015522, -17.411709 ], [ -65.017426, -17.411618 ], [ -65.019359, -17.41081 ], [ -65.021293, -17.410073 ], [ -65.023002, -17.409231 ], [ -65.024372, -17.408142 ], [ -65.024877, -17.406523 ], [ -65.025759, -17.405223 ], [ -65.027624, -17.404989 ], [ -65.029456, -17.405186 ], [ -65.030419, -17.404494 ], [ -65.030289, -17.402882 ], [ -65.029268, -17.401709 ], [ -65.030121, -17.401163 ], [ -65.031048, -17.400544 ], [ -65.032056, -17.399362 ], [ -65.03329, -17.398453 ], [ -65.034646, -17.397185 ], [ -65.03424, -17.395918 ], [ -65.033159, -17.393838 ], [ -65.03276, -17.391511 ], [ -65.03246, -17.389341 ], [ -65.03259, -17.387449 ], [ -65.031451, -17.385728 ], [ -65.029574, -17.384791 ], [ -65.027901, -17.385525 ], [ -65.026621, -17.38552 ], [ -65.025722, -17.385487 ], [ -65.025202, -17.383461 ], [ -65.026181, -17.381897 ], [ -65.026411, -17.380221 ], [ -65.024403, -17.378688 ], [ -65.022399, -17.377573 ], [ -65.021382, -17.375671 ], [ -65.021305, -17.374297 ], [ -65.021097, -17.372387 ], [ -65.020325, -17.370475 ], [ -65.019313, -17.369051 ], [ -65.017808, -17.367967 ], [ -65.017247, -17.366777 ], [ -65.017977, -17.36524 ], [ -65.01951, -17.364316 ], [ -65.021096, -17.363583 ], [ -65.022181, -17.362664 ], [ -65.021324, -17.361764 ], [ -65.020369, -17.360865 ], [ -65.019409, -17.359584 ], [ -65.018713, -17.358493 ], [ -65.019587, -17.35767 ], [ -65.020627, -17.357182 ], [ -65.022719, -17.357304 ], [ -65.024814, -17.357617 ], [ -65.026807, -17.357836 ], [ -65.027845, -17.357108 ], [ -65.028378, -17.355812 ], [ -65.029711, -17.354747 ], [ -65.031196, -17.354015 ], [ -65.032577, -17.352806 ], [ -65.033858, -17.351597 ], [ -65.035346, -17.351152 ], [ -65.03699, -17.351279 ], [ -65.038829, -17.350973 ], [ -65.039554, -17.349053 ], [ -65.040224, -17.34656 ], [ -65.041149, -17.344687 ], [ -65.041999, -17.34506 ], [ -65.042955, -17.346007 ], [ -65.044145, -17.345516 ], [ -65.045131, -17.344646 ], [ -65.045314, -17.34321 ], [ -65.046797, -17.342286 ], [ -65.049083, -17.341928 ], [ -65.050069, -17.341105 ], [ -65.050055, -17.339863 ], [ -65.04994, -17.338429 ], [ -65.050325, -17.337278 ], [ -65.051606, -17.336022 ], [ -65.053238, -17.335097 ], [ -65.05497, -17.334171 ], [ -65.056455, -17.333438 ], [ -65.057289, -17.33233 ], [ -65.057473, -17.331038 ], [ -65.058261, -17.330217 ], [ -65.059095, -17.329109 ], [ -65.060529, -17.328329 ], [ -65.06221, -17.32726 ], [ -65.06399, -17.32619 ], [ -65.065325, -17.325411 ], [ -65.066758, -17.324488 ], [ -65.069817, -17.322114 ], [ -65.070923, -17.320467 ], [ -65.071173, -17.318753 ], [ -65.071153, -17.316937 ], [ -65.07163, -17.315068 ], [ -65.07206, -17.313533 ], [ -65.071693, -17.311864 ], [ -65.070444, -17.311446 ], [ -65.069581, -17.309878 ], [ -65.069508, -17.307823 ], [ -65.069581, -17.30548 ], [ -65.068911, -17.303383 ], [ -65.067452, -17.301964 ], [ -65.066, -17.301214 ], [ -65.064049, -17.300326 ], [ -65.061208, -17.299877 ], [ -65.059804, -17.298935 ], [ -65.058843, -17.297558 ], [ -65.057535, -17.296281 ], [ -65.056492, -17.295726 ], [ -65.05696, -17.293849 ], [ -65.057845, -17.292836 ], [ -65.059081, -17.292106 ], [ -65.060515, -17.291326 ], [ -65.061799, -17.290405 ], [ -65.062732, -17.289296 ], [ -65.062422, -17.288247 ], [ -65.062254, -17.286623 ], [ -65.062583, -17.284851 ], [ -65.063209, -17.283028 ], [ -65.0645, -17.282776 ], [ -65.065839, -17.282332 ], [ -65.067226, -17.281744 ], [ -65.068559, -17.280822 ], [ -65.068646, -17.279673 ], [ -65.067291, -17.278683 ], [ -65.066085, -17.277596 ], [ -65.065173, -17.276171 ], [ -65.06416, -17.274508 ], [ -65.062998, -17.272943 ], [ -65.061687, -17.272364 ], [ -65.062127, -17.270753 ], [ -65.062356, -17.268981 ], [ -65.062483, -17.266924 ], [ -65.061866, -17.265162 ], [ -65.061107, -17.263974 ], [ -65.060597, -17.26288 ], [ -65.060284, -17.261592 ], [ -65.060031, -17.260127 ], [ -65.059693, -17.257974 ], [ -65.059043, -17.255117 ], [ -65.058334, -17.252913 ], [ -65.057619, -17.250112 ], [ -65.057471, -17.248022 ], [ -65.056505, -17.244984 ], [ -65.057588, -17.241746 ], [ -65.059243, -17.239518 ], [ -65.061085, -17.237408 ], [ -65.06199, -17.234888 ], [ -65.062087, -17.232437 ], [ -65.063502, -17.231048 ], [ -65.064475, -17.229066 ], [ -65.065642, -17.226474 ], [ -65.06764, -17.223149 ], [ -65.068862, -17.220268 ], [ -65.069284, -17.216833 ], [ -65.0693, -17.216706 ], [ -65.068836, -17.213522 ], [ -65.065364, -17.21814 ], [ -65.057252, -17.221392 ] ] ] ] } }
]
}
