{
"type": "FeatureCollection",
"name": "PUERTO_VILLARROEL",
"crs": { "type": "name", "properties": { "name": "urn:ogc:def:crs:OGC:1.3:CRS84" } },
"bbox": [ -65.111660, -17.351317, -64.612050, -16.752051 ],                                                                        
"features": [
{ "type": "Feature", "properties": { "NOMBRE": "Puerto Villarroel", "NIVEL": "Municipios", "PROVINCIA": "Carrasco", "REGION": "Tropico", "DEPARTAMENTO": "Cochabamba" }, "bbox": [ -65.11166, -17.351317, -64.61205, -16.752051 ], "geometry": { "type": "MultiPolygon", "coordinates": [ [ [ [ -64.881886, -16.752753 ], [ -64.880407, -16.75333 ], [ -64.877812, -16.753932 ], [ -64.877015, -16.754228 ], [ -64.876319, -16.754668 ], [ -64.87528, -16.755834 ], [ -64.871492, -16.760898 ], [ -64.869943, -16.762042 ], [ -64.868098, -16.763018 ], [ -64.867265, -16.763247 ], [ -64.865717, -16.763477 ], [ -64.865241, -16.763477 ], [ -64.863799, -16.763359 ], [ -64.862683, -16.762961 ], [ -64.860585, -16.761991 ], [ -64.859979, -16.761418 ], [ -64.859693, -16.760579 ], [ -64.859643, -16.760513 ], [ -64.85897, -16.75882 ], [ -64.858461, -16.757046 ], [ -64.857749, -16.75559 ], [ -64.856251, -16.75339 ], [ -64.856233, -16.753374 ], [ -64.855343, -16.752737 ], [ -64.853812, -16.752193 ], [ -64.852436, -16.752089 ], [ -64.850839, -16.752441 ], [ -64.848703, -16.75405 ], [ -64.845301, -16.759092 ], [ -64.844572, -16.760133 ], [ -64.843663, -16.760634 ], [ -64.84202, -16.761178 ], [ -64.841169, -16.761153 ], [ -64.840197, -16.760637 ], [ -64.838589, -16.759994 ], [ -64.837136, -16.759045 ], [ -64.836365, -16.758207 ], [ -64.836075, -16.757891 ], [ -64.835666, -16.756352 ], [ -64.835936, -16.754501 ], [ -64.831489, -16.75206 ], [ -64.830735, -16.754035 ], [ -64.830094, -16.755498 ], [ -64.829665, -16.757367 ], [ -64.829575, -16.759591 ], [ -64.829966, -16.76156 ], [ -64.830615, -16.763275 ], [ -64.831549, -16.765228 ], [ -64.831979, -16.765845 ], [ -64.833036, -16.767378 ], [ -64.834318, -16.769088 ], [ -64.835228, -16.770765 ], [ -64.835503, -16.772233 ], [ -64.835142, -16.773492 ], [ -64.834332, -16.774431 ], [ -64.833297, -16.775193 ], [ -64.832111, -16.775706 ], [ -64.830325, -16.775794 ], [ -64.828798, -16.775351 ], [ -64.827399, -16.774336 ], [ -64.826128, -16.773305 ], [ -64.825119, -16.772156 ], [ -64.824215, -16.771041 ], [ -64.82314, -16.770142 ], [ -64.821465, -16.76889 ], [ -64.819423, -16.767342 ], [ -64.817741, -16.766639 ], [ -64.816023, -16.766045 ], [ -64.81449, -16.765269 ], [ -64.812806, -16.764388 ], [ -64.81075, -16.763402 ], [ -64.808845, -16.762701 ], [ -64.806755, -16.762146 ], [ -64.804855, -16.762019 ], [ -64.802995, -16.762071 ], [ -64.80084, -16.762484 ], [ -64.798946, -16.763039 ], [ -64.797241, -16.763807 ], [ -64.795614, -16.764968 ], [ -64.794551, -16.766627 ], [ -64.794007, -16.768246 ], [ -64.793985, -16.769824 ], [ -64.794444, -16.771147 ], [ -64.795274, -16.772359 ], [ -64.796438, -16.773425 ], [ -64.797749, -16.774202 ], [ -64.79924, -16.774476 ], [ -64.800616, -16.774404 ], [ -64.801928, -16.774058 ], [ -64.803114, -16.773474 ], [ -64.804148, -16.772628 ], [ -64.805081, -16.771544 ], [ -64.806013, -16.770436 ], [ -64.806922, -16.7694 ], [ -64.807856, -16.768483 ], [ -64.808867, -16.767733 ], [ -64.810115, -16.767244 ], [ -64.811454, -16.767089 ], [ -64.812609, -16.767187 ], [ -64.813915, -16.76757 ], [ -64.815151, -16.768383 ], [ -64.815943, -16.769416 ], [ -64.816293, -16.770991 ], [ -64.816271, -16.772641 ], [ -64.816061, -16.774042 ], [ -64.815626, -16.775301 ], [ -64.814895, -16.77667 ], [ -64.813861, -16.777611 ], [ -64.812265, -16.778371 ], [ -64.810599, -16.779282 ], [ -64.808819, -16.779979 ], [ -64.807378, -16.78114 ], [ -64.806496, -16.782402 ], [ -64.805356, -16.783883 ], [ -64.80459, -16.785503 ], [ -64.804126, -16.787587 ], [ -64.803921, -16.789597 ], [ -64.803891, -16.792071 ], [ -64.803504, -16.794135 ], [ -64.802652, -16.795995 ], [ -64.80161, -16.79732 ], [ -64.800189, -16.797989 ], [ -64.798516, -16.798243 ], [ -64.796835, -16.79766 ], [ -64.794843, -16.7969 ], [ -64.793224, -16.796317 ], [ -64.791174, -16.796096 ], [ -64.789561, -16.79605 ], [ -64.787577, -16.796306 ], [ -64.785907, -16.796799 ], [ -64.784302, -16.797733 ], [ -64.782948, -16.79894 ], [ -64.78141, -16.800328 ], [ -64.780059, -16.801834 ], [ -64.779083, -16.803696 ], [ -64.778728, -16.805552 ], [ -64.778932, -16.807463 ], [ -64.779388, -16.80979 ], [ -64.780091, -16.811935 ], [ -64.781907, -16.813713 ], [ -64.783905, -16.81501 ], [ -64.785836, -16.81583 ], [ -64.787579, -16.816389 ], [ -64.789643, -16.818044 ], [ -64.79109, -16.820124 ], [ -64.79229, -16.822444 ], [ -64.79269, -16.82537 ], [ -64.792593, -16.82818 ], [ -64.791933, -16.830636 ], [ -64.791408, -16.833774 ], [ -64.791191, -16.837552 ], [ -64.79092, -16.840423 ], [ -64.790274, -16.842939 ], [ -64.789249, -16.844884 ], [ -64.787701, -16.846548 ], [ -64.786147, -16.847637 ], [ -64.784367, -16.848441 ], [ -64.782312, -16.848158 ], [ -64.780997, -16.847768 ], [ -64.7795, -16.84692 ], [ -64.778536, -16.845838 ], [ -64.777983, -16.844064 ], [ -64.77791, -16.84263 ], [ -64.778671, -16.841075 ], [ -64.779909, -16.839744 ], [ -64.781749, -16.838925 ], [ -64.783827, -16.838161 ], [ -64.785903, -16.837225 ], [ -64.787563, -16.836292 ], [ -64.788918, -16.834617 ], [ -64.789319, -16.832949 ], [ -64.789177, -16.830483 ], [ -64.788623, -16.828594 ], [ -64.787294, -16.826712 ], [ -64.785378, -16.825696 ], [ -64.783588, -16.825367 ], [ -64.781443, -16.825386 ], [ -64.779541, -16.825862 ], [ -64.777998, -16.826449 ], [ -64.776755, -16.827378 ], [ -64.775451, -16.828077 ], [ -64.773909, -16.828837 ], [ -64.772187, -16.829483 ], [ -64.770463, -16.829842 ], [ -64.769039, -16.830543 ], [ -64.767915, -16.831298 ], [ -64.766316, -16.832402 ], [ -64.765008, -16.832643 ], [ -64.763761, -16.833113 ], [ -64.762397, -16.833813 ], [ -64.761513, -16.834853 ], [ -64.760871, -16.836293 ], [ -64.760588, -16.837902 ], [ -64.761022, -16.839735 ], [ -64.76175, -16.841163 ], [ -64.762832, -16.842244 ], [ -64.764031, -16.84298 ], [ -64.765287, -16.843485 ], [ -64.766723, -16.84415 ], [ -64.768399, -16.844939 ], [ -64.771209, -16.846005 ], [ -64.77325, -16.847594 ], [ -64.77505, -16.849013 ], [ -64.776198, -16.850667 ], [ -64.77693, -16.852439 ], [ -64.776613, -16.85394 ], [ -64.775351, -16.855056 ], [ -64.7744, -16.85623 ], [ -64.773294, -16.857435 ], [ -64.772649, -16.858128 ], [ -64.772314, -16.858848 ], [ -64.771857, -16.859749 ], [ -64.771275, -16.860591 ], [ -64.770566, -16.861105 ], [ -64.769576, -16.861442 ], [ -64.768551, -16.861331 ], [ -64.767648, -16.86098 ], [ -64.767024, -16.860597 ], [ -64.766271, -16.859797 ], [ -64.765474, -16.858882 ], [ -64.764747, -16.858028 ], [ -64.764138, -16.85667 ], [ -64.763654, -16.855383 ], [ -64.763123, -16.85436 ], [ -64.762271, -16.853435 ], [ -64.761146, -16.852608 ], [ -64.759578, -16.852167 ], [ -64.757714, -16.851992 ], [ -64.755551, -16.852249 ], [ -64.753917, -16.852693 ], [ -64.752056, -16.852877 ], [ -64.750616, -16.852793 ], [ -64.749446, -16.852445 ], [ -64.747877, -16.85198 ], [ -64.746236, -16.851659 ], [ -64.74472, -16.851576 ], [ -64.743283, -16.851828 ], [ -64.741727, -16.852773 ], [ -64.740644, -16.853739 ], [ -64.73991, -16.854988 ], [ -64.739524, -16.856211 ], [ -64.739587, -16.857717 ], [ -64.740247, -16.859241 ], [ -64.741227, -16.860548 ], [ -64.742702, -16.861587 ], [ -64.744416, -16.862252 ], [ -64.746383, -16.86288 ], [ -64.748472, -16.863221 ], [ -64.751132, -16.863533 ], [ -64.752474, -16.863665 ], [ -64.753938, -16.863653 ], [ -64.755456, -16.863951 ], [ -64.757172, -16.864271 ], [ -64.758315, -16.86438 ], [ -64.759582, -16.864417 ], [ -64.76121, -16.864636 ], [ -64.763047, -16.865278 ], [ -64.764758, -16.865712 ], [ -64.766472, -16.866414 ], [ -64.767876, -16.867209 ], [ -64.769097, -16.868334 ], [ -64.770074, -16.869909 ], [ -64.770401, -16.871759 ], [ -64.770103, -16.873017 ], [ -64.769648, -16.874187 ], [ -64.76882, -16.87524 ], [ -64.767649, -16.876146 ], [ -64.766146, -16.876757 ], [ -64.764566, -16.877129 ], [ -64.762892, -16.877323 ], [ -64.761246, -16.877248 ], [ -64.759441, -16.876665 ], [ -64.757665, -16.875933 ], [ -64.755857, -16.875112 ], [ -64.754425, -16.874286 ], [ -64.753275, -16.87346 ], [ -64.751775, -16.872301 ], [ -64.750151, -16.871215 ], [ -64.749, -16.870245 ], [ -64.747997, -16.869177 ], [ -64.747192, -16.86806 ], [ -64.746363, -16.867039 ], [ -64.745339, -16.866355 ], [ -64.744117, -16.865768 ], [ -64.742749, -16.865516 ], [ -64.741682, -16.865549 ], [ -64.740343, -16.865823 ], [ -64.739033, -16.866408 ], [ -64.737873, -16.867202 ], [ -64.736989, -16.86831 ], [ -64.73648, -16.869605 ], [ -64.736195, -16.871042 ], [ -64.736234, -16.87262 ], [ -64.736546, -16.874171 ], [ -64.736979, -16.875363 ], [ -64.737616, -16.876457 ], [ -64.738682, -16.877643 ], [ -64.739996, -16.878708 ], [ -64.741434, -16.879862 ], [ -64.742777, -16.880747 ], [ -64.744118, -16.881452 ], [ -64.745366, -16.882099 ], [ -64.746924, -16.882773 ], [ -64.748264, -16.88336 ], [ -64.749947, -16.884021 ], [ -64.751262, -16.884469 ], [ -64.752637, -16.884916 ], [ -64.753851, -16.885135 ], [ -64.754746, -16.885319 ], [ -64.75594, -16.885538 ], [ -64.756777, -16.885837 ], [ -64.757735, -16.886288 ], [ -64.758534, -16.886702 ], [ -64.759254, -16.887308 ], [ -64.759916, -16.887991 ], [ -64.760441, -16.888904 ], [ -64.760668, -16.889801 ], [ -64.760618, -16.890857 ], [ -64.760429, -16.891911 ], [ -64.760101, -16.892927 ], [ -64.759614, -16.893907 ], [ -64.758886, -16.894736 ], [ -64.758058, -16.895431 ], [ -64.75727, -16.896088 ], [ -64.756501, -16.896726 ], [ -64.755473, -16.897347 ], [ -64.754722, -16.897625 ], [ -64.753731, -16.897932 ], [ -64.752583, -16.898032 ], [ -64.751495, -16.897921 ], [ -64.750313, -16.897633 ], [ -64.749285, -16.897193 ], [ -64.748069, -16.896606 ], [ -64.746882, -16.895839 ], [ -64.745697, -16.895191 ], [ -64.744448, -16.894395 ], [ -64.74338, -16.893119 ], [ -64.742596, -16.892199 ], [ -64.74212, -16.891098 ], [ -64.741955, -16.890053 ], [ -64.741789, -16.888799 ], [ -64.741377, -16.887877 ], [ -64.740903, -16.887014 ], [ -64.739964, -16.886155 ], [ -64.738812, -16.885747 ], [ -64.737878, -16.885486 ], [ -64.736638, -16.885616 ], [ -64.735152, -16.886106 ], [ -64.733578, -16.887076 ], [ -64.732348, -16.888282 ], [ -64.731581, -16.889275 ], [ -64.730753, -16.890417 ], [ -64.729961, -16.892038 ], [ -64.729261, -16.893568 ], [ -64.7285, -16.895278 ], [ -64.727985, -16.896657 ], [ -64.727812, -16.898093 ], [ -64.728041, -16.899376 ], [ -64.728672, -16.900536 ], [ -64.729426, -16.901456 ], [ -64.730611, -16.902074 ], [ -64.732284, -16.902448 ], [ -64.733868, -16.902524 ], [ -64.735171, -16.902364 ], [ -64.736597, -16.902202 ], [ -64.737932, -16.902221 ], [ -64.739176, -16.902449 ], [ -64.740701, -16.902885 ], [ -64.742073, -16.90353 ], [ -64.743382, -16.904147 ], [ -64.744757, -16.905121 ], [ -64.745727, -16.90595 ], [ -64.746576, -16.907078 ], [ -64.747175, -16.908059 ], [ -64.74768, -16.909041 ], [ -64.748652, -16.910019 ], [ -64.749279, -16.910731 ], [ -64.74988, -16.911862 ], [ -64.7502, -16.912911 ], [ -64.750462, -16.914433 ], [ -64.750352, -16.915958 ], [ -64.749773, -16.917158 ], [ -64.748883, -16.918242 ], [ -64.747681, -16.919178 ], [ -64.745947, -16.919671 ], [ -64.744471, -16.919923 ], [ -64.743136, -16.919934 ], [ -64.742009, -16.91974 ], [ -64.740865, -16.919356 ], [ -64.739866, -16.918767 ], [ -64.739208, -16.918145 ], [ -64.738764, -16.917132 ], [ -64.738445, -16.916119 ], [ -64.737941, -16.915376 ], [ -64.737189, -16.914606 ], [ -64.736222, -16.914136 ], [ -64.735072, -16.913936 ], [ -64.734047, -16.913945 ], [ -64.732622, -16.914286 ], [ -64.731199, -16.914776 ], [ -64.729962, -16.915294 ], [ -64.728881, -16.915991 ], [ -64.727927, -16.916866 ], [ -64.726879, -16.917652 ], [ -64.726014, -16.918137 ], [ -64.725086, -16.918563 ], [ -64.724097, -16.91908 ], [ -64.722956, -16.919836 ], [ -64.721878, -16.920832 ], [ -64.721049, -16.921885 ], [ -64.720533, -16.923144 ], [ -64.720141, -16.924403 ], [ -64.719906, -16.925839 ], [ -64.720102, -16.926973 ], [ -64.720671, -16.928074 ], [ -64.721549, -16.928993 ], [ -64.72261, -16.929612 ], [ -64.723947, -16.92987 ], [ -64.725189, -16.929859 ], [ -64.726087, -16.929553 ], [ -64.726951, -16.929007 ], [ -64.727783, -16.928343 ], [ -64.728459, -16.9275 ], [ -64.728979, -16.926719 ], [ -64.729592, -16.925787 ], [ -64.73033, -16.925034 ], [ -64.73144, -16.924188 ], [ -64.732677, -16.923609 ], [ -64.734071, -16.923299 ], [ -64.735499, -16.923257 ], [ -64.736742, -16.923485 ], [ -64.737742, -16.924104 ], [ -64.738494, -16.924875 ], [ -64.739216, -16.925795 ], [ -64.7395, -16.926301 ], [ -64.739726, -16.927196 ], [ -64.73964, -16.928003 ], [ -64.739087, -16.928636 ], [ -64.738409, -16.929255 ], [ -64.737136, -16.930212 ], [ -64.736099, -16.930924 ], [ -64.735376, -16.931676 ], [ -64.73492, -16.932397 ], [ -64.73454, -16.933132 ], [ -64.734411, -16.93397 ], [ -64.734238, -16.935442 ], [ -64.73436, -16.936624 ], [ -64.734633, -16.937877 ], [ -64.735314, -16.938983 ], [ -64.736289, -16.939763 ], [ -64.737451, -16.940471 ], [ -64.738648, -16.941034 ], [ -64.739991, -16.941131 ], [ -64.741294, -16.941012 ], [ -64.742408, -16.940644 ], [ -64.743409, -16.940097 ], [ -64.744448, -16.939622 ], [ -64.745526, -16.939398 ], [ -64.746571, -16.939568 ], [ -64.747396, -16.940171 ], [ -64.747553, -16.940994 ], [ -64.747077, -16.941895 ], [ -64.746261, -16.942261 ], [ -64.745332, -16.942555 ], [ -64.744493, -16.942921 ], [ -64.743158, -16.943614 ], [ -64.741824, -16.944343 ], [ -64.740714, -16.945284 ], [ -64.739605, -16.94619 ], [ -64.738536, -16.947491 ], [ -64.73784, -16.948716 ], [ -64.736957, -16.950014 ], [ -64.735925, -16.951242 ], [ -64.735001, -16.952039 ], [ -64.733779, -16.952839 ], [ -64.732777, -16.953277 ], [ -64.731626, -16.953753 ], [ -64.730624, -16.954156 ], [ -64.729208, -16.95424 ], [ -64.727942, -16.954251 ], [ -64.726672, -16.953903 ], [ -64.72555, -16.953482 ], [ -64.724465, -16.952989 ], [ -64.723398, -16.952107 ], [ -64.722625, -16.951463 ], [ -64.721687, -16.950753 ], [ -64.720822, -16.949864 ], [ -64.720105, -16.948866 ], [ -64.71972, -16.947542 ], [ -64.719223, -16.946112 ], [ -64.718651, -16.944718 ], [ -64.717972, -16.943791 ], [ -64.716846, -16.942833 ], [ -64.715573, -16.942198 ], [ -64.71408, -16.941923 ], [ -64.712518, -16.942223 ], [ -64.71133, -16.942736 ], [ -64.710295, -16.943605 ], [ -64.70952, -16.944436 ], [ -64.708897, -16.945553 ], [ -64.708499, -16.946883 ], [ -64.708362, -16.948283 ], [ -64.708527, -16.949967 ], [ -64.70895, -16.951434 ], [ -64.708396, -16.952018 ], [ -64.707243, -16.952052 ], [ -64.705341, -16.951758 ], [ -64.703595, -16.951734 ], [ -64.702131, -16.951979 ], [ -64.7006, -16.952398 ], [ -64.699203, -16.953196 ], [ -64.699017, -16.953274 ], [ -64.697867, -16.953822 ], [ -64.696793, -16.954512 ], [ -64.69598, -16.955272 ], [ -64.695354, -16.956102 ], [ -64.694394, -16.957078 ], [ -64.693619, -16.957946 ], [ -64.69251, -16.958995 ], [ -64.691148, -16.960025 ], [ -64.689667, -16.961077 ], [ -64.688037, -16.96213 ], [ -64.686107, -16.963043 ], [ -64.684291, -16.964134 ], [ -64.682771, -16.964971 ], [ -64.681326, -16.96588 ], [ -64.679918, -16.966788 ], [ -64.678807, -16.967622 ], [ -64.677623, -16.968564 ], [ -64.676773, -16.96936 ], [ -64.675849, -16.970193 ], [ -64.675035, -16.970881 ], [ -64.674372, -16.971747 ], [ -64.673785, -16.972827 ], [ -64.673422, -16.97387 ], [ -64.67332, -16.974983 ], [ -64.673292, -16.976059 ], [ -64.673561, -16.977025 ], [ -64.674262, -16.977859 ], [ -64.675276, -16.978783 ], [ -64.676622, -16.979274 ], [ -64.677888, -16.979156 ], [ -64.678926, -16.978538 ], [ -64.679814, -16.977741 ], [ -64.680697, -16.976443 ], [ -64.681355, -16.975039 ], [ -64.681827, -16.973636 ], [ -64.682262, -16.972306 ], [ -64.682812, -16.971297 ], [ -64.683512, -16.970395 ], [ -64.6844, -16.96967 ], [ -64.685475, -16.969052 ], [ -64.686815, -16.968861 ], [ -64.68827, -16.969064 ], [ -64.689469, -16.9697 ], [ -64.690594, -16.970587 ], [ -64.691425, -16.9718 ], [ -64.691772, -16.973088 ], [ -64.691669, -16.974021 ], [ -64.691456, -16.975278 ], [ -64.691316, -16.976283 ], [ -64.691551, -16.977573 ], [ -64.691935, -16.978789 ], [ -64.692654, -16.980059 ], [ -64.693559, -16.981164 ], [ -64.694498, -16.981945 ], [ -64.695695, -16.982509 ], [ -64.696819, -16.983109 ], [ -64.698313, -16.983527 ], [ -64.699732, -16.983874 ], [ -64.700928, -16.984151 ], [ -64.702347, -16.984462 ], [ -64.703468, -16.984811 ], [ -64.704494, -16.984971 ], [ -64.705483, -16.985153 ], [ -64.706269, -16.985469 ], [ -64.707093, -16.985964 ], [ -64.708069, -16.986673 ], [ -64.708672, -16.987457 ], [ -64.709203, -16.988492 ], [ -64.709511, -16.989566 ], [ -64.709673, -16.990963 ], [ -64.709611, -16.992362 ], [ -64.7094, -16.993784 ], [ -64.708964, -16.995007 ], [ -64.708494, -16.996553 ], [ -64.708282, -16.997882 ], [ -64.708406, -16.999244 ], [ -64.708193, -17.000393 ], [ -64.707603, -17.001115 ], [ -64.706715, -17.00184 ], [ -64.705676, -17.002351 ], [ -64.704263, -17.002757 ], [ -64.70281, -17.002733 ], [ -64.70169, -17.002563 ], [ -64.700493, -17.002143 ], [ -64.699371, -17.001614 ], [ -64.698283, -17.000906 ], [ -64.697308, -17.000197 ], [ -64.696344, -16.999137 ], [ -64.695612, -16.998131 ], [ -64.695231, -16.997238 ], [ -64.695184, -16.996126 ], [ -64.695362, -16.995157 ], [ -64.695912, -16.994184 ], [ -64.696762, -16.993352 ], [ -64.697647, -16.992304 ], [ -64.698121, -16.991153 ], [ -64.698333, -16.989824 ], [ -64.698322, -16.988677 ], [ -64.697862, -16.987282 ], [ -64.697144, -16.98614 ], [ -64.696241, -16.985144 ], [ -64.69505, -16.984551 ], [ -64.693816, -16.984095 ], [ -64.692322, -16.983713 ], [ -64.691017, -16.983652 ], [ -64.689266, -16.983703 ], [ -64.687703, -16.983967 ], [ -64.686476, -16.984264 ], [ -64.685099, -16.984526 ], [ -64.683537, -16.984826 ], [ -64.682273, -16.985231 ], [ -64.681048, -16.985779 ], [ -64.679824, -16.986434 ], [ -64.678676, -16.987219 ], [ -64.677826, -16.98805 ], [ -64.677051, -16.988953 ], [ -64.676199, -16.989462 ], [ -64.675272, -16.990044 ], [ -64.674347, -16.990769 ], [ -64.673534, -16.991564 ], [ -64.672981, -16.992286 ], [ -64.672394, -16.993331 ], [ -64.672105, -16.994409 ], [ -64.671967, -16.995594 ], [ -64.672126, -16.99674 ], [ -64.672671, -16.997967 ], [ -64.673525, -16.998964 ], [ -64.674485, -16.999645 ], [ -64.675562, -17.000038 ], [ -64.676875, -17.000161 ], [ -64.677927, -16.99998 ], [ -64.679197, -16.999683 ], [ -64.680089, -16.999388 ], [ -64.68084, -16.999 ], [ -64.681617, -16.99863 ], [ -64.682111, -16.998237 ], [ -64.682386, -16.997757 ], [ -64.682692, -16.997246 ], [ -64.683215, -16.996674 ], [ -64.684111, -16.996159 ], [ -64.684884, -16.995734 ], [ -64.685907, -16.995516 ], [ -64.686838, -16.995419 ], [ -64.687895, -16.995559 ], [ -64.688767, -16.995881 ], [ -64.689549, -16.996442 ], [ -64.690238, -16.997034 ], [ -64.690867, -16.997955 ], [ -64.691247, -16.998819 ], [ -64.691381, -16.999834 ], [ -64.691359, -17.00091 ], [ -64.69109, -17.001988 ], [ -64.690634, -17.003098 ], [ -64.69024, -17.004237 ], [ -64.689877, -17.005345 ], [ -64.689606, -17.006244 ], [ -64.68946, -17.007351 ], [ -64.689501, -17.008427 ], [ -64.689728, -17.009531 ], [ -64.690175, -17.010872 ], [ -64.690462, -17.011706 ], [ -64.690814, -17.012869 ], [ -64.691012, -17.014063 ], [ -64.69093, -17.015318 ], [ -64.690659, -17.016277 ], [ -64.6902, -17.017118 ], [ -64.689554, -17.017751 ], [ -64.688629, -17.018505 ], [ -64.687577, -17.019052 ], [ -64.686028, -17.019453 ], [ -64.684704, -17.019364 ], [ -64.684506, -17.020884 ], [ -64.684966, -17.02123 ], [ -64.685655, -17.021597 ], [ -64.686122, -17.022038 ], [ -64.686513, -17.022479 ], [ -64.686802, -17.023137 ], [ -64.68688, -17.023719 ], [ -64.686917, -17.024255 ], [ -64.686668, -17.024773 ], [ -64.686405, -17.025378 ], [ -64.686172, -17.025997 ], [ -64.686135, -17.026563 ], [ -64.686257, -17.027215 ], [ -64.686665, -17.027829 ], [ -64.687279, -17.028025 ], [ -64.688007, -17.027885 ], [ -64.688228, -17.027443 ], [ -64.688356, -17.026811 ], [ -64.688128, -17.026296 ], [ -64.688018, -17.02568 ], [ -64.688163, -17.025177 ], [ -64.688501, -17.024629 ], [ -64.689085, -17.024478 ], [ -64.689648, -17.024505 ], [ -64.690157, -17.024802 ], [ -64.690519, -17.025287 ], [ -64.690925, -17.025613 ], [ -64.69136, -17.025896 ], [ -64.691928, -17.026064 ], [ -64.69251, -17.026212 ], [ -64.693694, -17.026006 ], [ -64.694825, -17.025738 ], [ -64.695585, -17.02566 ], [ -64.69627, -17.025554 ], [ -64.696882, -17.025592 ], [ -64.697221, -17.025811 ], [ -64.697753, -17.026316 ], [ -64.698011, -17.026845 ], [ -64.698, -17.02729 ], [ -64.697735, -17.027679 ], [ -64.697261, -17.027927 ], [ -64.696781, -17.028029 ], [ -64.696039, -17.028023 ], [ -64.695456, -17.027899 ], [ -64.694724, -17.027719 ], [ -64.694021, -17.027538 ], [ -64.693364, -17.0274 ], [ -64.692783, -17.027405 ], [ -64.692054, -17.027655 ], [ -64.691736, -17.02827 ], [ -64.691791, -17.028757 ], [ -64.692164, -17.029369 ], [ -64.692635, -17.029596 ], [ -64.693462, -17.030039 ], [ -64.69406, -17.030177 ], [ -64.694703, -17.030344 ], [ -64.695253, -17.030472 ], [ -64.696503, -17.031563 ], [ -64.696776, -17.032077 ], [ -64.696976, -17.032706 ], [ -64.696968, -17.033496 ], [ -64.696945, -17.034227 ], [ -64.697071, -17.035044 ], [ -64.697339, -17.03575 ], [ -64.697637, -17.036632 ], [ -64.697895, -17.037131 ], [ -64.697902, -17.037834 ], [ -64.697669, -17.038482 ], [ -64.697467, -17.039215 ], [ -64.697101, -17.039538 ], [ -64.696502, -17.039711 ], [ -64.695813, -17.039372 ], [ -64.69517, -17.039191 ], [ -64.69462, -17.039368 ], [ -64.694164, -17.040032 ], [ -64.693953, -17.040522 ], [ -64.693324, -17.041143 ], [ -64.692955, -17.041591 ], [ -64.692542, -17.042082 ], [ -64.692234, -17.042716 ], [ -64.692001, -17.04332 ], [ -64.691778, -17.044286 ], [ -64.692252, -17.04499 ], [ -64.692733, -17.045174 ], [ -64.693361, -17.045186 ], [ -64.693929, -17.045104 ], [ -64.694159, -17.044507 ], [ -64.694079, -17.043819 ], [ -64.693819, -17.043205 ], [ -64.693694, -17.042474 ], [ -64.693927, -17.041913 ], [ -64.694519, -17.041449 ], [ -64.695428, -17.041312 ], [ -64.696289, -17.041198 ], [ -64.696881, -17.041466 ], [ -64.6975, -17.04184 ], [ -64.698238, -17.042174 ], [ -64.699132, -17.042946 ], [ -64.699869, -17.043929 ], [ -64.70001, -17.045104 ], [ -64.699825, -17.045804 ], [ -64.6995, -17.046371 ], [ -64.699073, -17.046977 ], [ -64.698301, -17.047342 ], [ -64.697649, -17.047892 ], [ -64.697304, -17.048482 ], [ -64.697035, -17.049231 ], [ -64.69724, -17.050435 ], [ -64.697562, -17.051379 ], [ -64.69817, -17.0518 ], [ -64.698916, -17.052194 ], [ -64.699745, -17.052271 ], [ -64.700392, -17.05208 ], [ -64.70116, -17.051609 ], [ -64.702278, -17.051115 ], [ -64.70342, -17.051064 ], [ -64.704891, -17.051292 ], [ -64.705427, -17.051635 ], [ -64.705625, -17.052488 ], [ -64.705783, -17.053282 ], [ -64.705473, -17.053866 ], [ -64.704956, -17.054358 ], [ -64.704165, -17.054379 ], [ -64.703508, -17.054255 ], [ -64.702852, -17.054218 ], [ -64.702107, -17.054324 ], [ -64.701568, -17.054718 ], [ -64.701117, -17.055337 ], [ -64.700869, -17.055956 ], [ -64.700772, -17.05676 ], [ -64.700732, -17.057334 ], [ -64.70062, -17.057897 ], [ -64.70022, -17.058371 ], [ -64.699971, -17.058947 ], [ -64.700023, -17.059664 ], [ -64.700378, -17.060176 ], [ -64.700981, -17.060388 ], [ -64.701713, -17.060195 ], [ -64.702275, -17.05976 ], [ -64.703048, -17.059409 ], [ -64.703638, -17.059218 ], [ -64.704496, -17.059304 ], [ -64.705094, -17.059626 ], [ -64.705443, -17.060393 ], [ -64.705799, -17.06126 ], [ -64.706041, -17.062181 ], [ -64.706406, -17.062981 ], [ -64.706845, -17.063666 ], [ -64.707205, -17.063965 ], [ -64.707821, -17.064447 ], [ -64.708125, -17.065119 ], [ -64.708039, -17.065895 ], [ -64.707641, -17.06594 ], [ -64.706803, -17.065689 ], [ -64.70595, -17.065338 ], [ -64.705084, -17.065273 ], [ -64.704436, -17.065347 ], [ -64.703655, -17.065515 ], [ -64.702942, -17.065793 ], [ -64.702258, -17.066086 ], [ -64.701441, -17.06661 ], [ -64.700864, -17.066973 ], [ -64.700421, -17.067407 ], [ -64.700098, -17.067955 ], [ -64.699669, -17.068403 ], [ -64.698847, -17.068584 ], [ -64.698343, -17.068529 ], [ -64.697669, -17.068176 ], [ -64.697156, -17.067535 ], [ -64.696748, -17.066936 ], [ -64.69628, -17.066308 ], [ -64.695886, -17.065637 ], [ -64.695405, -17.065225 ], [ -64.694553, -17.065331 ], [ -64.694068, -17.065782 ], [ -64.693926, -17.066572 ], [ -64.694141, -17.067273 ], [ -64.694848, -17.067885 ], [ -64.695752, -17.068414 ], [ -64.6962, -17.068977 ], [ -64.696413, -17.069492 ], [ -64.696495, -17.070352 ], [ -64.696294, -17.071157 ], [ -64.695823, -17.071878 ], [ -64.695159, -17.072629 ], [ -64.694634, -17.073143 ], [ -64.694074, -17.073693 ], [ -64.693517, -17.074121 ], [ -64.692864, -17.074542 ], [ -64.692302, -17.075035 ], [ -64.691782, -17.07524 ], [ -64.69126, -17.075287 ], [ -64.690858, -17.075305 ], [ -64.690425, -17.075294 ], [ -64.690003, -17.075453 ], [ -64.68961, -17.075903 ], [ -64.689332, -17.076436 ], [ -64.689189, -17.077141 ], [ -64.689223, -17.077657 ], [ -64.689541, -17.078142 ], [ -64.689991, -17.078468 ], [ -64.690562, -17.078951 ], [ -64.690894, -17.079393 ], [ -64.691183, -17.079921 ], [ -64.691442, -17.080579 ], [ -64.691658, -17.081366 ], [ -64.692066, -17.081922 ], [ -64.692606, -17.082305 ], [ -64.693117, -17.082717 ], [ -64.69342, -17.083202 ], [ -64.69359, -17.083946 ], [ -64.693642, -17.084649 ], [ -64.693491, -17.085056 ], [ -64.693294, -17.085756 ], [ -64.69297, -17.086232 ], [ -64.692646, -17.08668 ], [ -64.692262, -17.087171 ], [ -64.691851, -17.087573 ], [ -64.691553, -17.087951 ], [ -64.691019, -17.088257 ], [ -64.690454, -17.088434 ], [ -64.689814, -17.088554 ], [ -64.689368, -17.08873 ], [ -64.688923, -17.089035 ], [ -64.688637, -17.089615 ], [ -64.688516, -17.090243 ], [ -64.688507, -17.090874 ], [ -64.688452, -17.091434 ], [ -64.688443, -17.092037 ], [ -64.688313, -17.092497 ], [ -64.688139, -17.093029 ], [ -64.687911, -17.093507 ], [ -64.687476, -17.093982 ], [ -64.687048, -17.09453 ], [ -64.686749, -17.095323 ], [ -64.686756, -17.095906 ], [ -64.686994, -17.096436 ], [ -64.687404, -17.096746 ], [ -64.688415, -17.09699 ], [ -64.689249, -17.097108 ], [ -64.689875, -17.09706 ], [ -64.690621, -17.097039 ], [ -64.691308, -17.097148 ], [ -64.691997, -17.097487 ], [ -64.692388, -17.097842 ], [ -64.692556, -17.098228 ], [ -64.69276, -17.098752 ], [ -64.692715, -17.099317 ], [ -64.69236, -17.09965 ], [ -64.69193, -17.099926 ], [ -64.691499, -17.100116 ], [ -64.691023, -17.100292 ], [ -64.690414, -17.100498 ], [ -64.690072, -17.100688 ], [ -64.689642, -17.100978 ], [ -64.689298, -17.101442 ], [ -64.689112, -17.101729 ], [ -64.689014, -17.102217 ], [ -64.689123, -17.103047 ], [ -64.689319, -17.103418 ], [ -64.689721, -17.103754 ], [ -64.690379, -17.103943 ], [ -64.690817, -17.103838 ], [ -64.691267, -17.103711 ], [ -64.691796, -17.103272 ], [ -64.692457, -17.10274 ], [ -64.693505, -17.102538 ], [ -64.694341, -17.10266 ], [ -64.695237, -17.102753 ], [ -64.696028, -17.102747 ], [ -64.696594, -17.102684 ], [ -64.697312, -17.102338 ], [ -64.697923, -17.101977 ], [ -64.698706, -17.101472 ], [ -64.699158, -17.101171 ], [ -64.699987, -17.100969 ], [ -64.700611, -17.100849 ], [ -64.701273, -17.100914 ], [ -64.702069, -17.101082 ], [ -64.702747, -17.101705 ], [ -64.702723, -17.102229 ], [ -64.702607, -17.102849 ], [ -64.702208, -17.103226 ], [ -64.701554, -17.103561 ], [ -64.700692, -17.103855 ], [ -64.700067, -17.104047 ], [ -64.699668, -17.104134 ], [ -64.698994, -17.104128 ], [ -64.698323, -17.104219 ], [ -64.697475, -17.104384 ], [ -64.696925, -17.104633 ], [ -64.696451, -17.10501 ], [ -64.696126, -17.1054 ], [ -64.696086, -17.105873 ], [ -64.696276, -17.106205 ], [ -64.696597, -17.106633 ], [ -64.697268, -17.106794 ], [ -64.697834, -17.106543 ], [ -64.698529, -17.106182 ], [ -64.699175, -17.105806 ], [ -64.699597, -17.105626 ], [ -64.700635, -17.105778 ], [ -64.701278, -17.105959 ], [ -64.701818, -17.10627 ], [ -64.702298, -17.106581 ], [ -64.702599, -17.106952 ], [ -64.702828, -17.107524 ], [ -64.702797, -17.108319 ], [ -64.702601, -17.108745 ], [ -64.702217, -17.109179 ], [ -64.701727, -17.109441 ], [ -64.701311, -17.109645 ], [ -64.701, -17.109849 ], [ -64.700599, -17.110024 ], [ -64.700249, -17.110257 ], [ -64.700019, -17.110474 ], [ -64.699802, -17.110716 ], [ -64.69958, -17.111002 ], [ -64.699287, -17.111319 ], [ -64.699092, -17.111703 ], [ -64.698907, -17.112126 ], [ -64.698723, -17.112624 ], [ -64.698537, -17.113028 ], [ -64.698372, -17.113488 ], [ -64.69816, -17.113987 ], [ -64.698052, -17.114304 ], [ -64.697846, -17.114611 ], [ -64.697619, -17.114871 ], [ -64.697342, -17.115055 ], [ -64.697145, -17.115268 ], [ -64.69688, -17.115604 ], [ -64.696565, -17.11598 ], [ -64.696489, -17.116421 ], [ -64.696533, -17.116831 ], [ -64.696713, -17.117124 ], [ -64.69696, -17.117458 ], [ -64.697278, -17.117592 ], [ -64.697737, -17.11757 ], [ -64.698274, -17.117376 ], [ -64.698625, -17.116973 ], [ -64.699005, -17.116611 ], [ -64.699442, -17.116291 ], [ -64.699955, -17.116168 ], [ -64.700296, -17.116121 ], [ -64.700733, -17.116117 ], [ -64.701204, -17.116419 ], [ -64.701456, -17.116838 ], [ -64.701529, -17.11722 ], [ -64.70151, -17.117664 ], [ -64.701307, -17.118006 ], [ -64.701001, -17.118238 ], [ -64.700566, -17.1185 ], [ -64.700289, -17.118684 ], [ -64.699923, -17.118878 ], [ -64.699715, -17.119023 ], [ -64.699409, -17.119275 ], [ -64.699195, -17.119707 ], [ -64.699171, -17.120348 ], [ -64.699322, -17.120696 ], [ -64.699473, -17.121006 ], [ -64.699886, -17.121327 ], [ -64.700354, -17.121409 ], [ -64.700821, -17.121434 ], [ -64.70126, -17.121526 ], [ -64.70196, -17.121976 ], [ -64.702186, -17.12224 ], [ -64.702361, -17.122583 ], [ -64.702446, -17.122869 ], [ -64.702336, -17.123135 ], [ -64.702145, -17.123402 ], [ -64.701908, -17.123583 ], [ -64.701573, -17.123672 ], [ -64.701252, -17.123704 ], [ -64.700864, -17.123671 ], [ -64.700505, -17.123545 ], [ -64.700146, -17.123433 ], [ -64.699817, -17.123386 ], [ -64.699467, -17.123396 ], [ -64.69905, -17.123486 ], [ -64.698835, -17.123631 ], [ -64.698665, -17.123833 ], [ -64.698585, -17.124042 ], [ -64.698525, -17.124267 ], [ -64.698523, -17.124616 ], [ -64.698518, -17.124874 ], [ -64.698469, -17.125219 ], [ -64.698323, -17.125607 ], [ -64.698249, -17.125748 ], [ -64.698206, -17.125816 ], [ -64.698036, -17.125969 ], [ -64.69785, -17.126099 ], [ -64.697598, -17.126245 ], [ -64.6973, -17.126297 ], [ -64.697024, -17.1263 ], [ -64.696646, -17.126361 ], [ -64.696016, -17.126229 ], [ -64.695635, -17.126096 ], [ -64.695268, -17.125927 ], [ -64.694802, -17.125522 ], [ -64.694643, -17.125273 ], [ -64.694513, -17.12498 ], [ -64.694414, -17.124744 ], [ -64.694285, -17.124479 ], [ -64.694096, -17.124208 ], [ -64.693922, -17.123952 ], [ -64.693711, -17.123753 ], [ -64.693367, -17.123598 ], [ -64.69315, -17.123528 ], [ -64.692911, -17.123465 ], [ -64.692552, -17.123432 ], [ -64.692261, -17.123428 ], [ -64.691979, -17.123523 ], [ -64.691689, -17.123819 ], [ -64.691539, -17.124032 ], [ -64.691449, -17.124384 ], [ -64.691484, -17.124647 ], [ -64.691508, -17.125033 ], [ -64.6916, -17.125305 ], [ -64.691728, -17.125505 ], [ -64.691977, -17.125761 ], [ -64.69224, -17.12601 ], [ -64.692465, -17.126116 ], [ -64.69272, -17.126286 ], [ -64.693057, -17.126441 ], [ -64.693409, -17.12661 ], [ -64.693761, -17.126729 ], [ -64.694083, -17.126877 ], [ -64.694331, -17.127031 ], [ -64.694607, -17.12708 ], [ -64.695025, -17.12712 ], [ -64.695428, -17.127145 ], [ -64.695779, -17.127178 ], [ -64.696197, -17.127196 ], [ -64.69651, -17.127236 ], [ -64.696758, -17.127282 ], [ -64.697086, -17.127346 ], [ -64.69743, -17.127487 ], [ -64.69776, -17.127685 ], [ -64.698237, -17.127937 ], [ -64.698617, -17.128125 ], [ -64.698937, -17.128314 ], [ -64.699178, -17.128468 ], [ -64.699342, -17.128664 ], [ -64.699537, -17.128961 ], [ -64.699645, -17.129229 ], [ -64.699773, -17.129545 ], [ -64.699875, -17.129831 ], [ -64.69992, -17.130004 ], [ -64.699972, -17.130237 ], [ -64.699999, -17.130469 ], [ -64.699969, -17.130643 ], [ -64.699896, -17.130793 ], [ -64.699811, -17.130997 ], [ -64.699706, -17.131129 ], [ -64.699575, -17.131225 ], [ -64.699385, -17.131311 ], [ -64.699199, -17.131361 ], [ -64.698962, -17.131363 ], [ -64.698719, -17.131311 ], [ -64.698314, -17.131147 ], [ -64.698101, -17.13097 ], [ -64.697913, -17.130804 ], [ -64.697543, -17.13049 ], [ -64.69733, -17.130259 ], [ -64.697129, -17.130021 ], [ -64.696922, -17.129814 ], [ -64.696696, -17.129607 ], [ -64.696471, -17.129471 ], [ -64.696307, -17.129418 ], [ -64.696078, -17.129271 ], [ -64.69584, -17.129154 ], [ -64.695522, -17.128989 ], [ -64.695259, -17.128824 ], [ -64.695003, -17.128682 ], [ -64.694766, -17.128595 ], [ -64.694492, -17.128507 ], [ -64.694224, -17.128444 ], [ -64.693882, -17.128435 ], [ -64.693596, -17.128485 ], [ -64.693398, -17.128582 ], [ -64.693126, -17.128746 ], [ -64.692985, -17.128974 ], [ -64.692771, -17.129281 ], [ -64.692654, -17.129473 ], [ -64.692599, -17.129775 ], [ -64.692549, -17.130151 ], [ -64.692552, -17.130362 ], [ -64.692565, -17.130613 ], [ -64.69261, -17.130983 ], [ -64.692689, -17.131183 ], [ -64.692826, -17.131365 ], [ -64.693012, -17.131527 ], [ -64.693315, -17.131691 ], [ -64.693546, -17.131791 ], [ -64.693901, -17.131895 ], [ -64.694325, -17.131999 ], [ -64.69473, -17.132127 ], [ -64.694961, -17.132293 ], [ -64.695317, -17.132475 ], [ -64.695656, -17.132777 ], [ -64.695821, -17.13317 ], [ -64.695897, -17.133379 ], [ -64.695932, -17.133623 ], [ -64.695959, -17.133964 ], [ -64.695949, -17.134233 ], [ -64.695883, -17.134521 ], [ -64.695804, -17.134754 ], [ -64.695663, -17.135013 ], [ -64.695485, -17.135247 ], [ -64.695288, -17.135398 ], [ -64.695152, -17.135531 ], [ -64.69498, -17.1357 ], [ -64.69456, -17.136068 ], [ -64.694425, -17.136266 ], [ -64.694315, -17.13647 ], [ -64.694217, -17.136632 ], [ -64.694182, -17.13686 ], [ -64.694171, -17.137051 ], [ -64.694255, -17.137326 ], [ -64.694351, -17.137477 ], [ -64.694494, -17.137711 ], [ -64.694635, -17.137874 ], [ -64.694821, -17.138134 ], [ -64.69496, -17.138306 ], [ -64.695291, -17.138464 ], [ -64.695708, -17.138569 ], [ -64.696107, -17.138679 ], [ -64.696469, -17.138819 ], [ -64.696781, -17.138936 ], [ -64.696987, -17.139036 ], [ -64.697299, -17.139165 ], [ -64.697461, -17.139277 ], [ -64.697657, -17.139374 ], [ -64.697874, -17.139483 ], [ -64.698068, -17.13969 ], [ -64.698244, -17.139922 ], [ -64.698421, -17.140225 ], [ -64.698548, -17.140529 ], [ -64.698662, -17.140773 ], [ -64.698721, -17.141054 ], [ -64.698724, -17.141388 ], [ -64.698649, -17.141977 ], [ -64.698614, -17.142238 ], [ -64.69856, -17.142543 ], [ -64.698445, -17.142897 ], [ -64.698378, -17.143035 ], [ -64.698103, -17.143509 ], [ -64.697839, -17.143894 ], [ -64.697661, -17.144147 ], [ -64.697508, -17.144399 ], [ -64.697358, -17.144699 ], [ -64.697265, -17.144999 ], [ -64.697193, -17.145316 ], [ -64.697076, -17.145627 ], [ -64.696961, -17.146044 ], [ -64.696904, -17.146396 ], [ -64.696907, -17.146733 ], [ -64.696955, -17.14712 ], [ -64.697002, -17.147328 ], [ -64.6972, -17.147821 ], [ -64.697405, -17.148113 ], [ -64.697705, -17.148376 ], [ -64.697976, -17.148603 ], [ -64.698315, -17.148952 ], [ -64.698408, -17.149317 ], [ -64.698314, -17.149648 ], [ -64.698152, -17.149957 ], [ -64.697942, -17.150088 ], [ -64.69758, -17.150206 ], [ -64.697191, -17.150059 ], [ -64.696942, -17.149716 ], [ -64.696678, -17.14941 ], [ -64.696607, -17.149002 ], [ -64.696603, -17.148579 ], [ -64.696569, -17.148063 ], [ -64.696468, -17.147719 ], [ -64.696316, -17.147319 ], [ -64.696119, -17.147012 ], [ -64.695802, -17.146628 ], [ -64.695517, -17.146443 ], [ -64.695106, -17.146425 ], [ -64.694756, -17.146479 ], [ -64.694406, -17.146684 ], [ -64.694187, -17.147086 ], [ -64.694065, -17.147582 ], [ -64.693987, -17.148006 ], [ -64.693747, -17.148739 ], [ -64.693571, -17.149071 ], [ -64.693299, -17.149467 ], [ -64.693011, -17.149771 ], [ -64.692752, -17.150046 ], [ -64.692523, -17.15032 ], [ -64.692257, -17.150538 ], [ -64.691996, -17.150619 ], [ -64.691471, -17.150576 ], [ -64.691144, -17.150432 ], [ -64.690948, -17.15024 ], [ -64.690826, -17.149875 ], [ -64.690785, -17.14951 ], [ -64.690871, -17.149129 ], [ -64.691077, -17.14874 ], [ -64.691342, -17.148401 ], [ -64.691512, -17.148191 ], [ -64.691748, -17.147874 ], [ -64.691983, -17.147535 ], [ -64.692129, -17.147203 ], [ -64.692158, -17.147031 ], [ -64.69211, -17.14673 ], [ -64.691913, -17.146434 ], [ -64.691748, -17.146246 ], [ -64.691425, -17.146076 ], [ -64.691089, -17.146 ], [ -64.690776, -17.146024 ], [ -64.690433, -17.146099 ], [ -64.690076, -17.146224 ], [ -64.689839, -17.146369 ], [ -64.689549, -17.146479 ], [ -64.689274, -17.146596 ], [ -64.688969, -17.146649 ], [ -64.688679, -17.146737 ], [ -64.688366, -17.146833 ], [ -64.688121, -17.146936 ], [ -64.687869, -17.147088 ], [ -64.687654, -17.147241 ], [ -64.687542, -17.147374 ], [ -64.687418, -17.147587 ], [ -64.687316, -17.147839 ], [ -64.687248, -17.148145 ], [ -64.687284, -17.148449 ], [ -64.687302, -17.148764 ], [ -64.687327, -17.149058 ], [ -64.687367, -17.149381 ], [ -64.687399, -17.149653 ], [ -64.687425, -17.149983 ], [ -64.687421, -17.150349 ], [ -64.687445, -17.150626 ], [ -64.687489, -17.150989 ], [ -64.687532, -17.1514 ], [ -64.687546, -17.151849 ], [ -64.687511, -17.152327 ], [ -64.687463, -17.152615 ], [ -64.687228, -17.15299 ], [ -64.686872, -17.153222 ], [ -64.686336, -17.153285 ], [ -64.686151, -17.153276 ], [ -64.685862, -17.153168 ], [ -64.685562, -17.15298 ], [ -64.685406, -17.152775 ], [ -64.685274, -17.152442 ], [ -64.685246, -17.152117 ], [ -64.685243, -17.151825 ], [ -64.6853, -17.151514 ], [ -64.685519, -17.150972 ], [ -64.685636, -17.150712 ], [ -64.685827, -17.150434 ], [ -64.685954, -17.150189 ], [ -64.68605, -17.149805 ], [ -64.686152, -17.149465 ], [ -64.686213, -17.149115 ], [ -64.686166, -17.1488 ], [ -64.68611, -17.148638 ], [ -64.685991, -17.148472 ], [ -64.685862, -17.148229 ], [ -64.685652, -17.148049 ], [ -64.685427, -17.147955 ], [ -64.685148, -17.147924 ], [ -64.684905, -17.147945 ], [ -64.684647, -17.148043 ], [ -64.684454, -17.148183 ], [ -64.684267, -17.148367 ], [ -64.684175, -17.148621 ], [ -64.684182, -17.148893 ], [ -64.684204, -17.149118 ], [ -64.684222, -17.149273 ], [ -64.684292, -17.149485 ], [ -64.684418, -17.149723 ], [ -64.68453, -17.149961 ], [ -64.684567, -17.150157 ], [ -64.684558, -17.150368 ], [ -64.684526, -17.150621 ], [ -64.684468, -17.150827 ], [ -64.68438, -17.15101 ], [ -64.684198, -17.151246 ], [ -64.683912, -17.151463 ], [ -64.683679, -17.151599 ], [ -64.683397, -17.151745 ], [ -64.683184, -17.151823 ], [ -64.682796, -17.151817 ], [ -64.682591, -17.15168 ], [ -64.682449, -17.151432 ], [ -64.682376, -17.151031 ], [ -64.682392, -17.150606 ], [ -64.682388, -17.15019 ], [ -64.682395, -17.149848 ], [ -64.682403, -17.149568 ], [ -64.682331, -17.149286 ], [ -64.682279, -17.149134 ], [ -64.682173, -17.148881 ], [ -64.681987, -17.148701 ], [ -64.681732, -17.148531 ], [ -64.681418, -17.148491 ], [ -64.681135, -17.148493 ], [ -64.680916, -17.148514 ], [ -64.680653, -17.148583 ], [ -64.680421, -17.148752 ], [ -64.680243, -17.148926 ], [ -64.680131, -17.149156 ], [ -64.680059, -17.149387 ], [ -64.680006, -17.149674 ], [ -64.679974, -17.149942 ], [ -64.679889, -17.150406 ], [ -64.679875, -17.150593 ], [ -64.679786, -17.151144 ], [ -64.679728, -17.151383 ], [ -64.679671, -17.15168 ], [ -64.679624, -17.151915 ], [ -64.679551, -17.152159 ], [ -64.679479, -17.15237 ], [ -64.679466, -17.152643 ], [ -64.679523, -17.152839 ], [ -64.679629, -17.153058 ], [ -64.679735, -17.153267 ], [ -64.679826, -17.153439 ], [ -64.680056, -17.153566 ], [ -64.68031, -17.153611 ], [ -64.680684, -17.153647 ], [ -64.681017, -17.153625 ], [ -64.681315, -17.153613 ], [ -64.681583, -17.153587 ], [ -64.681802, -17.153594 ], [ -64.682071, -17.15364 ], [ -64.682351, -17.153747 ], [ -64.682521, -17.15388 ], [ -64.682667, -17.154051 ], [ -64.682798, -17.154255 ], [ -64.682897, -17.154497 ], [ -64.682967, -17.154721 ], [ -64.683013, -17.154961 ], [ -64.683011, -17.15521 ], [ -64.682958, -17.155449 ], [ -64.682825, -17.155736 ], [ -64.682635, -17.156002 ], [ -64.682478, -17.156247 ], [ -64.682316, -17.15648 ], [ -64.682129, -17.156695 ], [ -64.681986, -17.156878 ], [ -64.681792, -17.157073 ], [ -64.681468, -17.157298 ], [ -64.681116, -17.157492 ], [ -64.680769, -17.157538 ], [ -64.680261, -17.157562 ], [ -64.6797, -17.1576 ], [ -64.679202, -17.157599 ], [ -64.678865, -17.157621 ], [ -64.678371, -17.157563 ], [ -64.677854, -17.157567 ], [ -64.677198, -17.157554 ], [ -64.67666, -17.15752 ], [ -64.676172, -17.157438 ], [ -64.675803, -17.157383 ], [ -64.675318, -17.157335 ], [ -64.674961, -17.15731 ], [ -64.674689, -17.157436 ], [ -64.674521, -17.157683 ], [ -64.674489, -17.157944 ], [ -64.674517, -17.1583 ], [ -64.67463, -17.158543 ], [ -64.674736, -17.15872 ], [ -64.675177, -17.158986 ], [ -64.675631, -17.159 ], [ -64.676122, -17.158912 ], [ -64.676581, -17.158854 ], [ -64.67709, -17.158779 ], [ -64.677507, -17.158739 ], [ -64.677972, -17.158682 ], [ -64.678289, -17.158679 ], [ -64.678603, -17.158798 ], [ -64.67871, -17.159118 ], [ -64.678664, -17.159572 ], [ -64.678432, -17.159981 ], [ -64.677882, -17.160183 ], [ -64.677357, -17.160244 ], [ -64.677115, -17.160377 ], [ -64.676957, -17.160498 ], [ -64.676794, -17.160653 ], [ -64.676651, -17.160778 ], [ -64.676507, -17.160921 ], [ -64.676307, -17.161173 ], [ -64.676194, -17.16138 ], [ -64.676126, -17.161586 ], [ -64.676104, -17.161854 ], [ -64.67612, -17.162229 ], [ -64.676106, -17.162527 ], [ -64.676163, -17.162874 ], [ -64.676194, -17.163068 ], [ -64.676207, -17.163255 ], [ -64.676207, -17.16357 ], [ -64.676168, -17.163712 ], [ -64.676046, -17.163988 ], [ -64.675846, -17.164201 ], [ -64.675679, -17.164285 ], [ -64.675105, -17.164322 ], [ -64.674757, -17.164217 ], [ -64.674495, -17.164094 ], [ -64.673803, -17.163899 ], [ -64.673396, -17.163852 ], [ -64.673082, -17.163797 ], [ -64.672824, -17.163677 ], [ -64.672577, -17.163572 ], [ -64.672296, -17.163484 ], [ -64.672098, -17.163436 ], [ -64.671895, -17.163363 ], [ -64.671449, -17.163253 ], [ -64.670928, -17.16338 ], [ -64.670571, -17.163765 ], [ -64.670488, -17.164172 ], [ -64.670674, -17.164485 ], [ -64.671266, -17.164931 ], [ -64.671844, -17.16545 ], [ -64.672236, -17.165746 ], [ -64.672645, -17.166199 ], [ -64.672935, -17.16671 ], [ -64.672935, -17.167222 ], [ -64.672848, -17.167511 ], [ -64.672701, -17.167795 ], [ -64.672561, -17.167947 ], [ -64.672312, -17.168075 ], [ -64.671996, -17.168171 ], [ -64.671779, -17.168207 ], [ -64.671057, -17.168307 ], [ -64.67044, -17.168284 ], [ -64.669911, -17.168154 ], [ -64.669423, -17.167996 ], [ -64.668974, -17.167875 ], [ -64.668465, -17.167717 ], [ -64.668057, -17.167682 ], [ -64.667764, -17.167742 ], [ -64.667499, -17.167881 ], [ -64.667454, -17.168155 ], [ -64.667665, -17.168393 ], [ -64.667956, -17.168649 ], [ -64.668347, -17.168872 ], [ -64.668781, -17.169353 ], [ -64.66904, -17.169859 ], [ -64.668886, -17.170267 ], [ -64.668679, -17.170517 ], [ -64.668397, -17.170612 ], [ -64.667838, -17.170993 ], [ -64.667402, -17.171235 ], [ -64.666302, -17.171742 ], [ -64.665778, -17.1721 ], [ -64.664956, -17.172556 ], [ -64.664145, -17.172955 ], [ -64.663502, -17.173419 ], [ -64.662907, -17.173673 ], [ -64.662512, -17.173973 ], [ -64.662227, -17.174422 ], [ -64.661994, -17.174991 ], [ -64.661879, -17.175517 ], [ -64.662172, -17.175945 ], [ -64.662423, -17.176221 ], [ -64.662576, -17.176615 ], [ -64.662619, -17.177022 ], [ -64.662459, -17.178028 ], [ -64.662296, -17.178727 ], [ -64.662251, -17.179244 ], [ -64.662167, -17.179914 ], [ -64.662092, -17.180412 ], [ -64.662014, -17.181101 ], [ -64.662034, -17.181694 ], [ -64.662117, -17.182114 ], [ -64.662236, -17.182708 ], [ -64.662479, -17.183684 ], [ -64.662677, -17.184142 ], [ -64.663045, -17.18496 ], [ -64.663541, -17.185555 ], [ -64.663964, -17.186211 ], [ -64.663986, -17.187139 ], [ -64.663877, -17.188091 ], [ -64.664004, -17.189154 ], [ -64.664562, -17.18964 ], [ -64.665219, -17.190482 ], [ -64.665523, -17.191353 ], [ -64.665659, -17.192416 ], [ -64.665555, -17.193379 ], [ -64.665541, -17.194509 ], [ -64.665206, -17.195343 ], [ -64.663827, -17.196436 ], [ -64.663087, -17.197477 ], [ -64.662882, -17.198263 ], [ -64.663166, -17.199329 ], [ -64.663675, -17.20055 ], [ -64.664509, -17.202533 ], [ -64.664421, -17.204041 ], [ -64.663738, -17.205666 ], [ -64.662842, -17.207977 ], [ -64.661386, -17.208877 ], [ -64.660339, -17.209299 ], [ -64.659236, -17.209217 ], [ -64.658226, -17.209615 ], [ -64.657736, -17.210626 ], [ -64.657976, -17.211594 ], [ -64.657727, -17.21241 ], [ -64.657123, -17.212886 ], [ -64.656499, -17.213108 ], [ -64.655923, -17.213841 ], [ -64.655737, -17.214878 ], [ -64.655103, -17.215749 ], [ -64.653877, -17.215662 ], [ -64.652974, -17.215269 ], [ -64.651725, -17.214933 ], [ -64.650617, -17.214694 ], [ -64.649947, -17.214578 ], [ -64.649285, -17.215255 ], [ -64.648963, -17.216267 ], [ -64.649437, -17.216929 ], [ -64.650273, -17.21718 ], [ -64.651483, -17.21783 ], [ -64.651969, -17.218754 ], [ -64.651417, -17.219972 ], [ -64.650646, -17.22074 ], [ -64.650016, -17.221032 ], [ -64.64875, -17.220976 ], [ -64.647957, -17.221085 ], [ -64.64747, -17.221345 ], [ -64.647249, -17.221648 ], [ -64.647231, -17.221895 ], [ -64.647299, -17.2223 ], [ -64.647488, -17.222586 ], [ -64.64802, -17.222855 ], [ -64.648353, -17.223277 ], [ -64.648349, -17.223937 ], [ -64.648108, -17.224281 ], [ -64.64773, -17.224549 ], [ -64.647394, -17.224595 ], [ -64.646926, -17.224599 ], [ -64.646485, -17.224696 ], [ -64.646293, -17.224998 ], [ -64.646222, -17.225343 ], [ -64.64627, -17.225744 ], [ -64.646519, -17.226022 ], [ -64.64664, -17.226336 ], [ -64.646815, -17.226736 ], [ -64.646978, -17.227165 ], [ -64.64713, -17.227489 ], [ -64.647154, -17.227919 ], [ -64.647108, -17.228398 ], [ -64.647063, -17.228848 ], [ -64.646873, -17.229289 ], [ -64.646663, -17.22976 ], [ -64.646477, -17.230172 ], [ -64.646113, -17.230682 ], [ -64.645881, -17.231089 ], [ -64.645453, -17.231307 ], [ -64.644906, -17.231381 ], [ -64.644334, -17.231326 ], [ -64.643901, -17.231329 ], [ -64.643703, -17.231591 ], [ -64.643518, -17.231975 ], [ -64.643293, -17.232474 ], [ -64.643097, -17.232853 ], [ -64.642711, -17.233381 ], [ -64.642241, -17.233889 ], [ -64.641974, -17.23412 ], [ -64.641559, -17.234375 ], [ -64.641073, -17.234596 ], [ -64.640676, -17.234734 ], [ -64.640259, -17.234813 ], [ -64.639832, -17.23496 ], [ -64.639208, -17.235252 ], [ -64.638634, -17.235393 ], [ -64.638049, -17.235632 ], [ -64.637582, -17.235992 ], [ -64.637027, -17.236536 ], [ -64.636587, -17.2371 ], [ -64.636354, -17.237781 ], [ -64.636262, -17.23834 ], [ -64.635239, -17.240743 ], [ -64.63477, -17.242188 ], [ -64.63483, -17.243264 ], [ -64.635231, -17.244104 ], [ -64.634386, -17.245304 ], [ -64.633682, -17.2454 ], [ -64.633406, -17.246107 ], [ -64.632071, -17.247248 ], [ -64.631767, -17.247991 ], [ -64.63093, -17.24912 ], [ -64.630187, -17.250118 ], [ -64.628164, -17.254255 ], [ -64.628066, -17.256976 ], [ -64.626798, -17.260456 ], [ -64.625474, -17.26175 ], [ -64.623715, -17.263798 ], [ -64.622662, -17.265984 ], [ -64.622251, -17.267388 ], [ -64.62222, -17.26924 ], [ -64.622091, -17.270615 ], [ -64.622212, -17.27159 ], [ -64.623255, -17.273588 ], [ -64.624017, -17.276871 ], [ -64.625312, -17.279652 ], [ -64.628209, -17.280767 ], [ -64.628785, -17.281387 ], [ -64.628864, -17.281903 ], [ -64.628865, -17.282615 ], [ -64.628725, -17.283081 ], [ -64.628458, -17.283404 ], [ -64.627777, -17.28392 ], [ -64.627218, -17.284872 ], [ -64.627286, -17.285818 ], [ -64.627145, -17.287074 ], [ -64.626965, -17.288345 ], [ -64.626958, -17.289278 ], [ -64.627184, -17.291502 ], [ -64.625279, -17.293108 ], [ -64.621913, -17.295358 ], [ -64.620292, -17.29613 ], [ -64.612053, -17.305928 ], [ -64.612065, -17.306739 ], [ -64.61205, -17.3082 ], [ -64.612322, -17.310247 ], [ -64.613508, -17.312098 ], [ -64.615099, -17.314768 ], [ -64.617009, -17.31682 ], [ -64.619169, -17.318224 ], [ -64.624314, -17.331005 ], [ -64.641783, -17.345591 ], [ -64.659711, -17.351317 ], [ -64.665726, -17.349532 ], [ -64.670611, -17.346581 ], [ -64.682229, -17.344342 ], [ -64.701642, -17.327245 ], [ -64.713994, -17.320137 ], [ -64.722439, -17.317805 ], [ -64.737763, -17.321739 ], [ -64.749976, -17.321994 ], [ -64.7568, -17.320443 ], [ -64.769131, -17.311453 ], [ -64.780648, -17.305866 ], [ -64.790995, -17.305882 ], [ -64.796704, -17.304901 ], [ -64.805833, -17.29675 ], [ -64.828317, -17.294269 ], [ -64.84336, -17.30033 ], [ -64.850146, -17.304505 ], [ -64.861771, -17.302626 ], [ -64.872315, -17.305392 ], [ -64.885081, -17.303782 ], [ -64.893247, -17.296648 ], [ -64.90194, -17.292117 ], [ -64.919243, -17.282525 ], [ -64.932629, -17.276643 ], [ -64.931653, -17.269813 ], [ -64.932217, -17.269669 ], [ -64.946653, -17.272599 ], [ -64.972499, -17.265725 ], [ -65.000436, -17.257958 ], [ -65.006173, -17.254854 ], [ -65.007197, -17.254414 ], [ -65.008411, -17.253858 ], [ -65.009647, -17.253129 ], [ -65.012901, -17.250994 ], [ -65.02353, -17.241443 ], [ -65.029575, -17.236389 ], [ -65.057252, -17.221392 ], [ -65.065364, -17.21814 ], [ -65.068836, -17.213522 ], [ -65.068601, -17.213004 ], [ -65.068317, -17.212376 ], [ -65.068373, -17.212019 ], [ -65.068489, -17.21173 ], [ -65.068769, -17.211052 ], [ -65.069258, -17.210329 ], [ -65.069962, -17.209919 ], [ -65.07014, -17.209768 ], [ -65.071434, -17.208947 ], [ -65.072184, -17.208668 ], [ -65.072757, -17.208517 ], [ -65.073497, -17.208411 ], [ -65.07382, -17.208387 ], [ -65.07469, -17.208131 ], [ -65.075628, -17.207529 ], [ -65.076504, -17.206744 ], [ -65.077249, -17.206039 ], [ -65.078406, -17.204804 ], [ -65.078773, -17.204446 ], [ -65.079188, -17.20418 ], [ -65.079616, -17.203948 ], [ -65.080378, -17.203635 ], [ -65.081126, -17.203195 ], [ -65.081826, -17.20271 ], [ -65.082299, -17.202225 ], [ -65.082652, -17.201763 ], [ -65.082946, -17.201325 ], [ -65.083473, -17.200402 ], [ -65.083671, -17.200022 ], [ -65.083893, -17.199537 ], [ -65.083993, -17.19861 ], [ -65.084166, -17.197472 ], [ -65.084223, -17.196933 ], [ -65.084034, -17.196756 ], [ -65.08366, -17.19664 ], [ -65.083066, -17.19657 ], [ -65.082393, -17.196331 ], [ -65.081805, -17.196195 ], [ -65.081326, -17.196162 ], [ -65.080797, -17.196025 ], [ -65.080183, -17.19567 ], [ -65.079711, -17.195258 ], [ -65.079129, -17.194672 ], [ -65.07874, -17.194179 ], [ -65.077563, -17.192847 ], [ -65.07646, -17.19178 ], [ -65.075977, -17.191356 ], [ -65.075907, -17.191301 ], [ -65.075493, -17.190978 ], [ -65.075095, -17.190726 ], [ -65.074626, -17.190532 ], [ -65.074593, -17.190525 ], [ -65.074194, -17.190441 ], [ -65.073763, -17.190408 ], [ -65.073273, -17.190444 ], [ -65.072771, -17.190526 ], [ -65.07239, -17.190642 ], [ -65.072032, -17.190712 ], [ -65.071565, -17.190679 ], [ -65.070809, -17.190521 ], [ -65.070695, -17.190486 ], [ -65.070124, -17.190316 ], [ -65.069692, -17.190225 ], [ -65.069465, -17.190237 ], [ -65.069466, -17.19026 ], [ -65.069171, -17.190629 ], [ -65.068709, -17.191034 ], [ -65.068496, -17.191162 ], [ -65.068306, -17.191277 ], [ -65.06802, -17.191404 ], [ -65.06746, -17.191567 ], [ -65.067113, -17.191591 ], [ -65.066575, -17.191593 ], [ -65.065732, -17.191175 ], [ -65.065421, -17.191118 ], [ -65.064903, -17.190942 ], [ -65.064334, -17.190403 ], [ -65.063313, -17.189128 ], [ -65.062632, -17.188233 ], [ -65.062328, -17.187865 ], [ -65.062014, -17.187579 ], [ -65.061389, -17.186809 ], [ -65.061275, -17.186793 ], [ -65.060483, -17.186457 ], [ -65.059571, -17.186493 ], [ -65.058981, -17.186184 ], [ -65.057788, -17.18552 ], [ -65.057572, -17.185455 ], [ -65.057368, -17.185394 ], [ -65.056889, -17.185338 ], [ -65.055924, -17.185352 ], [ -65.05586, -17.185353 ], [ -65.055309, -17.185309 ], [ -65.054036, -17.184933 ], [ -65.052894, -17.184522 ], [ -65.052497, -17.184328 ], [ -65.052135, -17.184075 ], [ -65.05182, -17.183766 ], [ -65.051443, -17.183295 ], [ -65.051211, -17.182916 ], [ -65.051063, -17.182594 ], [ -65.050964, -17.182306 ], [ -65.050888, -17.181961 ], [ -65.05086, -17.181616 ], [ -65.050855, -17.181248 ], [ -65.051121, -17.180476 ], [ -65.051321, -17.180187 ], [ -65.052098, -17.179195 ], [ -65.052403, -17.178699 ], [ -65.052578, -17.178296 ], [ -65.05267, -17.177996 ], [ -65.052802, -17.177098 ], [ -65.052878, -17.176442 ], [ -65.053001, -17.175785 ], [ -65.053211, -17.174804 ], [ -65.05311, -17.17459 ], [ -65.053036, -17.174395 ], [ -65.053033, -17.174211 ], [ -65.053043, -17.174039 ], [ -65.053065, -17.173866 ], [ -65.053111, -17.173796 ], [ -65.053166, -17.173624 ], [ -65.053162, -17.173275 ], [ -65.053182, -17.172953 ], [ -65.053284, -17.172538 ], [ -65.053374, -17.172054 ], [ -65.053449, -17.171341 ], [ -65.053468, -17.170903 ], [ -65.053461, -17.170408 ], [ -65.053121, -17.169843 ], [ -65.052903, -17.169258 ], [ -65.052991, -17.168961 ], [ -65.053138, -17.16871 ], [ -65.05328, -17.168529 ], [ -65.053467, -17.168292 ], [ -65.053734, -17.168032 ], [ -65.053939, -17.167945 ], [ -65.054203, -17.167927 ], [ -65.054514, -17.167934 ], [ -65.05467, -17.167891 ], [ -65.054719, -17.1678 ], [ -65.054846, -17.167401 ], [ -65.054857, -17.167366 ], [ -65.054877, -17.167292 ], [ -65.055059, -17.166622 ], [ -65.055145, -17.166462 ], [ -65.055194, -17.166417 ], [ -65.055795, -17.166223 ], [ -65.055964, -17.166135 ], [ -65.056219, -17.165887 ], [ -65.056599, -17.165204 ], [ -65.056844, -17.164818 ], [ -65.057146, -17.16464 ], [ -65.057446, -17.164566 ], [ -65.057805, -17.164574 ], [ -65.058033, -17.164556 ], [ -65.058465, -17.164439 ], [ -65.058696, -17.164225 ], [ -65.05882, -17.163917 ], [ -65.058889, -17.163671 ], [ -65.059022, -17.163196 ], [ -65.059059, -17.1631 ], [ -65.059409, -17.162196 ], [ -65.059556, -17.161814 ], [ -65.059645, -17.16147 ], [ -65.059674, -17.161172 ], [ -65.059677, -17.160964 ], [ -65.059645, -17.160699 ], [ -65.059648, -17.160434 ], [ -65.059691, -17.159998 ], [ -65.059891, -17.15938 ], [ -65.060162, -17.158868 ], [ -65.060809, -17.157949 ], [ -65.061203, -17.157244 ], [ -65.061511, -17.156583 ], [ -65.061795, -17.156025 ], [ -65.062261, -17.155194 ], [ -65.062469, -17.154876 ], [ -65.062713, -17.154605 ], [ -65.062847, -17.154401 ], [ -65.062765, -17.154284 ], [ -65.062564, -17.154107 ], [ -65.062342, -17.153791 ], [ -65.062267, -17.153564 ], [ -65.062259, -17.153539 ], [ -65.062227, -17.153443 ], [ -65.062197, -17.153074 ], [ -65.062142, -17.152681 ], [ -65.06204, -17.152299 ], [ -65.061853, -17.15203 ], [ -65.061452, -17.15163 ], [ -65.061289, -17.151293 ], [ -65.061174, -17.150968 ], [ -65.061172, -17.150277 ], [ -65.061164, -17.150126 ], [ -65.060982, -17.14974 ], [ -65.061041, -17.149548 ], [ -65.060796, -17.149026 ], [ -65.060485, -17.14819 ], [ -65.060395, -17.147785 ], [ -65.060376, -17.147497 ], [ -65.060402, -17.147336 ], [ -65.060561, -17.147109 ], [ -65.060851, -17.14692 ], [ -65.060908, -17.146903 ], [ -65.06089, -17.146506 ], [ -65.061396, -17.146323 ], [ -65.061812, -17.146389 ], [ -65.062284, -17.14663 ], [ -65.062565, -17.146672 ], [ -65.062995, -17.146566 ], [ -65.063205, -17.146463 ], [ -65.063528, -17.146145 ], [ -65.063524, -17.146065 ], [ -65.063247, -17.145843 ], [ -65.06287, -17.145478 ], [ -65.062518, -17.144998 ], [ -65.062417, -17.144535 ], [ -65.062614, -17.144148 ], [ -65.063121, -17.143814 ], [ -65.063783, -17.14354 ], [ -65.064191, -17.143434 ], [ -65.064563, -17.143419 ], [ -65.065292, -17.143458 ], [ -65.066189, -17.143477 ], [ -65.06662, -17.143463 ], [ -65.067028, -17.143368 ], [ -65.067186, -17.143211 ], [ -65.067432, -17.142721 ], [ -65.067569, -17.142378 ], [ -65.067594, -17.142264 ], [ -65.067578, -17.141768 ], [ -65.067491, -17.141145 ], [ -65.067367, -17.140589 ], [ -65.067219, -17.140102 ], [ -65.067024, -17.139546 ], [ -65.066936, -17.139014 ], [ -65.067051, -17.138475 ], [ -65.067334, -17.137975 ], [ -65.067651, -17.137521 ], [ -65.068211, -17.136877 ], [ -65.068443, -17.136525 ], [ -65.069078, -17.135755 ], [ -65.06932, -17.135155 ], [ -65.069004, -17.13468 ], [ -65.068502, -17.134267 ], [ -65.067802, -17.133748 ], [ -65.067654, -17.13325 ], [ -65.067539, -17.132096 ], [ -65.067347, -17.13132 ], [ -65.067032, -17.130726 ], [ -65.066585, -17.130267 ], [ -65.066265, -17.130019 ], [ -65.065862, -17.129757 ], [ -65.065673, -17.129614 ], [ -65.065521, -17.129392 ], [ -65.065358, -17.129044 ], [ -65.06527, -17.128558 ], [ -65.065303, -17.128248 ], [ -65.065165, -17.128058 ], [ -65.06549, -17.127491 ], [ -65.065868, -17.127143 ], [ -65.065934, -17.127076 ], [ -65.065962, -17.12703 ], [ -65.066183, -17.12662 ], [ -65.066235, -17.126322 ], [ -65.066215, -17.126057 ], [ -65.066028, -17.1258 ], [ -65.0656, -17.125595 ], [ -65.063895, -17.125178 ], [ -65.063313, -17.124923 ], [ -65.062684, -17.124541 ], [ -65.062105, -17.124091 ], [ -65.061669, -17.123645 ], [ -65.061554, -17.123308 ], [ -65.061583, -17.12294 ], [ -65.061829, -17.122531 ], [ -65.062059, -17.122329 ], [ -65.062866, -17.12192 ], [ -65.06318, -17.121708 ], [ -65.063411, -17.121494 ], [ -65.063775, -17.121122 ], [ -65.063913, -17.120956 ], [ -65.064149, -17.120375 ], [ -65.064581, -17.11995 ], [ -65.064631, -17.119817 ], [ -65.064635, -17.119598 ], [ -65.064412, -17.119271 ], [ -65.063998, -17.118928 ], [ -65.063442, -17.118548 ], [ -65.062982, -17.1181 ], [ -65.062654, -17.117632 ], [ -65.062459, -17.117041 ], [ -65.062361, -17.116383 ], [ -65.062301, -17.115587 ], [ -65.06236, -17.114805 ], [ -65.062536, -17.114245 ], [ -65.062592, -17.114144 ], [ -65.062732, -17.113892 ], [ -65.063047, -17.113634 ], [ -65.063335, -17.11356 ], [ -65.063778, -17.113558 ], [ -65.064112, -17.113622 ], [ -65.065694, -17.114209 ], [ -65.066361, -17.114442 ], [ -65.067159, -17.114678 ], [ -65.067535, -17.114752 ], [ -65.067683, -17.114782 ], [ -65.068137, -17.114826 ], [ -65.068484, -17.114811 ], [ -65.069108, -17.114686 ], [ -65.069639, -17.114398 ], [ -65.070002, -17.114083 ], [ -65.070247, -17.11372 ], [ -65.070335, -17.113388 ], [ -65.070352, -17.113032 ], [ -65.070108, -17.112554 ], [ -65.069779, -17.11219 ], [ -65.069376, -17.111928 ], [ -65.06877, -17.11165 ], [ -65.068234, -17.111455 ], [ -65.067256, -17.111284 ], [ -65.066253, -17.111182 ], [ -65.065752, -17.111067 ], [ -65.065264, -17.110907 ], [ -65.064801, -17.110667 ], [ -65.064338, -17.110403 ], [ -65.063996, -17.110039 ], [ -65.063764, -17.109551 ], [ -65.0637, -17.109043 ], [ -65.063814, -17.108642 ], [ -65.063843, -17.108596 ], [ -65.064046, -17.108279 ], [ -65.064517, -17.107978 ], [ -65.064974, -17.107838 ], [ -65.06574, -17.107797 ], [ -65.066672, -17.10784 ], [ -65.068118, -17.107952 ], [ -65.068667, -17.108021 ], [ -65.069171, -17.107994 ], [ -65.069278, -17.107988 ], [ -65.069674, -17.107836 ], [ -65.069869, -17.107587 ], [ -65.070005, -17.107336 ], [ -65.070093, -17.106993 ], [ -65.070099, -17.106601 ], [ -65.069849, -17.106504 ], [ -65.068697, -17.105995 ], [ -65.068185, -17.1058 ], [ -65.067674, -17.105582 ], [ -65.067269, -17.10547 ], [ -65.066908, -17.105336 ], [ -65.066748, -17.105314 ], [ -65.066243, -17.104823 ], [ -65.06613, -17.104542 ], [ -65.065982, -17.10429 ], [ -65.065824, -17.103654 ], [ -65.06583, -17.103262 ], [ -65.065926, -17.102378 ], [ -65.065886, -17.101836 ], [ -65.06556, -17.101337 ], [ -65.064689, -17.101394 ], [ -65.063485, -17.10131 ], [ -65.062194, -17.100913 ], [ -65.061816, -17.100462 ], [ -65.061579, -17.100269 ], [ -65.061132, -17.099753 ], [ -65.060757, -17.099273 ], [ -65.060281, -17.098284 ], [ -65.059672, -17.097395 ], [ -65.059593, -17.097025 ], [ -65.059842, -17.095603 ], [ -65.060117, -17.094757 ], [ -65.060377, -17.094141 ], [ -65.060536, -17.093879 ], [ -65.060645, -17.093801 ], [ -65.060718, -17.093803 ], [ -65.060741, -17.093764 ], [ -65.061145, -17.093491 ], [ -65.061462, -17.093531 ], [ -65.061824, -17.093528 ], [ -65.062279, -17.093827 ], [ -65.062555, -17.094302 ], [ -65.062501, -17.095322 ], [ -65.062714, -17.096386 ], [ -65.063169, -17.096686 ], [ -65.063622, -17.096855 ], [ -65.064119, -17.096807 ], [ -65.064476, -17.096455 ], [ -65.064776, -17.095863 ], [ -65.06455, -17.095083 ], [ -65.064226, -17.094339 ], [ -65.06391, -17.093826 ], [ -65.063772, -17.093466 ], [ -65.063741, -17.09312 ], [ -65.063854, -17.092777 ], [ -65.064123, -17.092333 ], [ -65.064513, -17.091847 ], [ -65.064937, -17.091476 ], [ -65.06508, -17.091415 ], [ -65.065298, -17.091322 ], [ -65.065466, -17.091303 ], [ -65.065466, -17.091326 ], [ -65.065713, -17.091608 ], [ -65.066272, -17.092315 ], [ -65.06637, -17.092439 ], [ -65.066396, -17.09249 ], [ -65.066719, -17.093138 ], [ -65.066895, -17.093395 ], [ -65.067084, -17.093549 ], [ -65.067298, -17.093599 ], [ -65.067502, -17.093604 ], [ -65.067695, -17.093493 ], [ -65.067937, -17.093279 ], [ -65.068121, -17.092949 ], [ -65.068259, -17.092526 ], [ -65.068353, -17.091826 ], [ -65.068359, -17.090559 ], [ -65.068307, -17.090329 ], [ -65.068236, -17.090016 ], [ -65.06797, -17.089365 ], [ -65.067665, -17.088933 ], [ -65.067207, -17.088393 ], [ -65.066806, -17.087981 ], [ -65.066001, -17.0874 ], [ -65.065693, -17.087243 ], [ -65.065289, -17.087074 ], [ -65.06517, -17.08703 ], [ -65.065007, -17.08697 ], [ -65.063825, -17.086535 ], [ -65.063066, -17.086139 ], [ -65.062426, -17.085734 ], [ -65.06194, -17.085389 ], [ -65.061643, -17.085279 ], [ -65.06144, -17.085252 ], [ -65.061069, -17.08529 ], [ -65.060733, -17.085363 ], [ -65.060362, -17.085378 ], [ -65.059755, -17.085169 ], [ -65.059365, -17.084816 ], [ -65.059122, -17.084292 ], [ -65.059093, -17.083819 ], [ -65.059194, -17.083476 ], [ -65.059514, -17.082827 ], [ -65.059748, -17.082385 ], [ -65.059785, -17.08198 ], [ -65.059813, -17.081785 ], [ -65.060343, -17.081108 ], [ -65.061104, -17.080276 ], [ -65.061602, -17.079897 ], [ -65.062176, -17.079393 ], [ -65.063116, -17.078541 ], [ -65.063392, -17.077526 ], [ -65.063315, -17.076754 ], [ -65.063159, -17.075809 ], [ -65.062991, -17.074898 ], [ -65.062984, -17.074232 ], [ -65.063049, -17.073522 ], [ -65.063234, -17.072779 ], [ -65.06351, -17.072234 ], [ -65.063906, -17.071198 ], [ -65.064011, -17.071008 ], [ -65.064154, -17.069732 ], [ -65.064392, -17.069058 ], [ -65.064699, -17.068454 ], [ -65.064899, -17.068203 ], [ -65.065187, -17.067843 ], [ -65.065349, -17.067363 ], [ -65.066153, -17.066355 ], [ -65.06659, -17.06595 ], [ -65.067013, -17.065626 ], [ -65.067483, -17.065359 ], [ -65.067916, -17.065185 ], [ -65.068493, -17.065001 ], [ -65.069069, -17.064852 ], [ -65.069597, -17.064749 ], [ -65.070052, -17.064713 ], [ -65.070554, -17.064723 ], [ -65.071032, -17.064757 ], [ -65.072117, -17.064941 ], [ -65.072523, -17.064973 ], [ -65.072881, -17.065027 ], [ -65.073479, -17.065074 ], [ -65.07386, -17.065083 ], [ -65.07416, -17.065089 ], [ -65.074651, -17.06503 ], [ -65.075001, -17.064842 ], [ -65.07522, -17.064536 ], [ -65.075601, -17.063877 ], [ -65.07582, -17.063582 ], [ -65.076195, -17.063279 ], [ -65.07657, -17.063022 ], [ -65.076776, -17.062897 ], [ -65.077065, -17.062722 ], [ -65.077427, -17.062454 ], [ -65.077888, -17.06198 ], [ -65.078229, -17.061584 ], [ -65.078408, -17.061409 ], [ -65.078678, -17.061145 ], [ -65.079101, -17.060843 ], [ -65.079666, -17.060602 ], [ -65.080159, -17.060417 ], [ -65.080641, -17.060208 ], [ -65.081244, -17.059818 ], [ -65.082479, -17.058774 ], [ -65.082989, -17.05829 ], [ -65.083438, -17.057828 ], [ -65.083804, -17.057341 ], [ -65.08417, -17.056819 ], [ -65.084561, -17.056205 ], [ -65.084881, -17.055591 ], [ -65.085141, -17.055009 ], [ -65.085304, -17.054471 ], [ -65.08542, -17.053898 ], [ -65.085488, -17.053335 ], [ -65.085517, -17.052127 ], [ -65.085476, -17.050837 ], [ -65.085522, -17.050193 ], [ -65.085673, -17.049632 ], [ -65.085942, -17.049258 ], [ -65.086143, -17.049148 ], [ -65.086388, -17.049014 ], [ -65.086771, -17.048953 ], [ -65.087225, -17.04902 ], [ -65.089341, -17.049837 ], [ -65.090139, -17.050039 ], [ -65.090987, -17.050103 ], [ -65.091731, -17.049935 ], [ -65.091735, -17.049933 ], [ -65.092333, -17.04966 ], [ -65.092889, -17.04928 ], [ -65.093373, -17.048853 ], [ -65.093692, -17.04833 ], [ -65.093857, -17.047666 ], [ -65.093867, -17.046976 ], [ -65.093617, -17.046038 ], [ -65.093307, -17.045144 ], [ -65.092852, -17.044375 ], [ -65.09223, -17.043544 ], [ -65.091583, -17.042805 ], [ -65.090876, -17.042122 ], [ -65.089622, -17.041173 ], [ -65.088756, -17.040717 ], [ -65.08828, -17.040557 ], [ -65.087851, -17.040468 ], [ -65.086932, -17.040367 ], [ -65.086455, -17.040276 ], [ -65.085789, -17.04002 ], [ -65.085492, -17.039853 ], [ -65.085198, -17.039558 ], [ -65.085058, -17.039291 ], [ -65.085025, -17.039083 ], [ -65.085101, -17.038785 ], [ -65.085199, -17.038637 ], [ -65.085429, -17.038412 ], [ -65.085708, -17.038176 ], [ -65.086109, -17.037759 ], [ -65.086902, -17.036648 ], [ -65.087212, -17.035906 ], [ -65.087439, -17.035082 ], [ -65.087583, -17.034187 ], [ -65.087692, -17.033303 ], [ -65.087703, -17.032531 ], [ -65.08781, -17.031728 ], [ -65.087953, -17.031363 ], [ -65.08783, -17.030864 ], [ -65.088048, -17.030209 ], [ -65.088493, -17.029597 ], [ -65.088896, -17.029245 ], [ -65.089458, -17.029022 ], [ -65.09027, -17.028927 ], [ -65.090995, -17.02918 ], [ -65.091856, -17.029432 ], [ -65.092515, -17.029672 ], [ -65.093756, -17.029673 ], [ -65.094527, -17.029926 ], [ -65.095298, -17.030265 ], [ -65.096973, -17.030552 ], [ -65.097697, -17.030675 ], [ -65.098375, -17.030755 ], [ -65.098874, -17.030924 ], [ -65.099248, -17.031209 ], [ -65.099956, -17.030984 ], [ -65.100186, -17.030842 ], [ -65.100609, -17.030506 ], [ -65.100902, -17.030121 ], [ -65.101151, -17.029435 ], [ -65.101268, -17.02877 ], [ -65.101292, -17.027941 ], [ -65.10122, -17.027134 ], [ -65.101004, -17.026444 ], [ -65.100992, -17.026426 ], [ -65.100968, -17.026367 ], [ -65.10075, -17.025912 ], [ -65.100305, -17.025608 ], [ -65.099985, -17.025263 ], [ -65.099576, -17.025007 ], [ -65.099212, -17.024837 ], [ -65.098803, -17.024537 ], [ -65.098122, -17.02424 ], [ -65.097577, -17.024028 ], [ -65.097495, -17.023982 ], [ -65.096417, -17.023611 ], [ -65.096179, -17.023514 ], [ -65.095835, -17.023288 ], [ -65.095564, -17.023017 ], [ -65.095355, -17.022644 ], [ -65.095194, -17.02218 ], [ -65.095142, -17.021615 ], [ -65.095149, -17.021189 ], [ -65.095181, -17.020591 ], [ -65.09519, -17.019969 ], [ -65.095166, -17.019186 ], [ -65.095029, -17.018723 ], [ -65.094714, -17.01814 ], [ -65.093778, -17.017613 ], [ -65.092873, -17.017329 ], [ -65.090739, -17.016903 ], [ -65.089829, -17.01654 ], [ -65.087716, -17.015697 ], [ -65.086687, -17.015368 ], [ -65.08626, -17.015136 ], [ -65.085741, -17.014695 ], [ -65.085638, -17.014607 ], [ -65.085592, -17.014563 ], [ -65.08528, -17.014264 ], [ -65.085041, -17.013805 ], [ -65.085025, -17.013732 ], [ -65.084742, -17.012486 ], [ -65.084676, -17.011589 ], [ -65.084718, -17.010916 ], [ -65.084729, -17.010744 ], [ -65.084917, -17.010301 ], [ -65.085533, -17.009678 ], [ -65.087599, -17.008022 ], [ -65.088653, -17.007579 ], [ -65.08945, -17.007232 ], [ -65.090316, -17.007192 ], [ -65.091183, -17.007276 ], [ -65.092247, -17.007851 ], [ -65.093636, -17.008731 ], [ -65.094536, -17.008969 ], [ -65.095435, -17.009052 ], [ -65.096429, -17.009073 ], [ -65.097227, -17.009169 ], [ -65.098166, -17.009159 ], [ -65.09874, -17.009203 ], [ -65.099282, -17.008982 ], [ -65.099543, -17.008467 ], [ -65.099474, -17.007757 ], [ -65.099377, -17.007193 ], [ -65.099004, -17.006111 ], [ -65.098401, -17.004683 ], [ -65.097662, -17.003622 ], [ -65.097386, -17.003214 ], [ -65.097299, -17.002937 ], [ -65.097041, -17.002514 ], [ -65.096962, -17.001975 ], [ -65.096837, -17.001474 ], [ -65.096833, -17.001459 ], [ -65.096513, -17.001066 ], [ -65.096113, -17.000671 ], [ -65.095802, -17.000465 ], [ -65.095126, -17.000208 ], [ -65.094236, -17.000034 ], [ -65.093593, -16.999578 ], [ -65.092935, -16.99911 ], [ -65.092324, -16.998929 ], [ -65.091126, -16.998896 ], [ -65.091081, -16.998895 ], [ -65.091045, -16.998888 ], [ -65.090275, -16.998739 ], [ -65.08932, -16.998257 ], [ -65.088488, -16.99789 ], [ -65.087244, -16.997739 ], [ -65.08629, -16.997444 ], [ -65.085241, -16.997387 ], [ -65.083726, -16.996861 ], [ -65.08214, -16.996718 ], [ -65.081704, -16.996467 ], [ -65.081565, -16.996386 ], [ -65.08116, -16.996109 ], [ -65.080731, -16.995947 ], [ -65.080624, -16.995906 ], [ -65.080357, -16.995803 ], [ -65.080254, -16.995763 ], [ -65.079896, -16.995555 ], [ -65.079849, -16.995348 ], [ -65.079849, -16.995073 ], [ -65.079826, -16.995004 ], [ -65.079711, -16.994782 ], [ -65.07948, -16.993405 ], [ -65.079592, -16.992199 ], [ -65.079713, -16.991786 ], [ -65.07988, -16.991372 ], [ -65.08, -16.991097 ], [ -65.080114, -16.990988 ], [ -65.080182, -16.990762 ], [ -65.080796, -16.990083 ], [ -65.081434, -16.989815 ], [ -65.08205, -16.989398 ], [ -65.082704, -16.988793 ], [ -65.08363, -16.988261 ], [ -65.084787, -16.987539 ], [ -65.086024, -16.987115 ], [ -65.087147, -16.986805 ], [ -65.088078, -16.986683 ], [ -65.088778, -16.986863 ], [ -65.089479, -16.987043 ], [ -65.090285, -16.987245 ], [ -65.090581, -16.987161 ], [ -65.090868, -16.987116 ], [ -65.091345, -16.987117 ], [ -65.092109, -16.987187 ], [ -65.092872, -16.98728 ], [ -65.092999, -16.987308 ], [ -65.093207, -16.987042 ], [ -65.09328, -16.98663 ], [ -65.093276, -16.986256 ], [ -65.093153, -16.98566 ], [ -65.092913, -16.985102 ], [ -65.09248, -16.984546 ], [ -65.09189, -16.983879 ], [ -65.091168, -16.983551 ], [ -65.090351, -16.983372 ], [ -65.089729, -16.983304 ], [ -65.088991, -16.983311 ], [ -65.088059, -16.983246 ], [ -65.087281, -16.983142 ], [ -65.086577, -16.982664 ], [ -65.08591, -16.981998 ], [ -65.085595, -16.98159 ], [ -65.085087, -16.981334 ], [ -65.084466, -16.981377 ], [ -65.08404, -16.981457 ], [ -65.083537, -16.981648 ], [ -65.082961, -16.982177 ], [ -65.082615, -16.98248 ], [ -65.082114, -16.982859 ], [ -65.081574, -16.983163 ], [ -65.080952, -16.983132 ], [ -65.080561, -16.982874 ], [ -65.080287, -16.98269 ], [ -65.080011, -16.982282 ], [ -65.079811, -16.981761 ], [ -65.079808, -16.9815 ], [ -65.079841, -16.980939 ], [ -65.07995, -16.980265 ], [ -65.080215, -16.979627 ], [ -65.080387, -16.979364 ], [ -65.080733, -16.979099 ], [ -65.081235, -16.978795 ], [ -65.081699, -16.978641 ], [ -65.081849, -16.978191 ], [ -65.081765, -16.977594 ], [ -65.081485, -16.976812 ], [ -65.081013, -16.976257 ], [ -65.080348, -16.97589 ], [ -65.079416, -16.975825 ], [ -65.078251, -16.975799 ], [ -65.077472, -16.97562 ], [ -65.077078, -16.975064 ], [ -65.076994, -16.974467 ], [ -65.07699, -16.974131 ], [ -65.077295, -16.973642 ], [ -65.077601, -16.973153 ], [ -65.078139, -16.972662 ], [ -65.07887, -16.972094 ], [ -65.079373, -16.971939 ], [ -65.079878, -16.971934 ], [ -65.080423, -16.972041 ], [ -65.080928, -16.972148 ], [ -65.081281, -16.972443 ], [ -65.081754, -16.973111 ], [ -65.081953, -16.973557 ], [ -65.082114, -16.974004 ], [ -65.082274, -16.97445 ], [ -65.082742, -16.97467 ], [ -65.08313, -16.974629 ], [ -65.08363, -16.97425 ], [ -65.08436, -16.973495 ], [ -65.085051, -16.972778 ], [ -65.085591, -16.972474 ], [ -65.085977, -16.97232 ], [ -65.086561, -16.972464 ], [ -65.087073, -16.973094 ], [ -65.087233, -16.97354 ], [ -65.087241, -16.974213 ], [ -65.08713, -16.974774 ], [ -65.086907, -16.975636 ], [ -65.087148, -16.976381 ], [ -65.087698, -16.976898 ], [ -65.088398, -16.977003 ], [ -65.089017, -16.976885 ], [ -65.089555, -16.976319 ], [ -65.089757, -16.975894 ], [ -65.089767, -16.975737 ], [ -65.089731, -16.975231 ], [ -65.089721, -16.975094 ], [ -65.089484, -16.974312 ], [ -65.089107, -16.973536 ], [ -65.088389, -16.972707 ], [ -65.087605, -16.972042 ], [ -65.086975, -16.971272 ], [ -65.086769, -16.971066 ], [ -65.086365, -16.97056 ], [ -65.086104, -16.970107 ], [ -65.086008, -16.969939 ], [ -65.085842, -16.969226 ], [ -65.085867, -16.968698 ], [ -65.085892, -16.968123 ], [ -65.085919, -16.967731 ], [ -65.085941, -16.967411 ], [ -65.086062, -16.966744 ], [ -65.086062, -16.966308 ], [ -65.086055, -16.966234 ], [ -65.086052, -16.966205 ], [ -65.085969, -16.965388 ], [ -65.085731, -16.964951 ], [ -65.08551, -16.964695 ], [ -65.085017, -16.964409 ], [ -65.084003, -16.964009 ], [ -65.08299, -16.963683 ], [ -65.082286, -16.963204 ], [ -65.082124, -16.962811 ], [ -65.082036, -16.962715 ], [ -65.081822, -16.962163 ], [ -65.081854, -16.961711 ], [ -65.081799, -16.961341 ], [ -65.081982, -16.960293 ], [ -65.082124, -16.959133 ], [ -65.08224, -16.957967 ], [ -65.082138, -16.957325 ], [ -65.082095, -16.95724 ], [ -65.081881, -16.956808 ], [ -65.081714, -16.956601 ], [ -65.081623, -16.956454 ], [ -65.0815, -16.956256 ], [ -65.081024, -16.955749 ], [ -65.080619, -16.955197 ], [ -65.080524, -16.95476 ], [ -65.080573, -16.954393 ], [ -65.080717, -16.953841 ], [ -65.081006, -16.953393 ], [ -65.081028, -16.953359 ], [ -65.081292, -16.952808 ], [ -65.081344, -16.952658 ], [ -65.08151, -16.951676 ], [ -65.081556, -16.950913 ], [ -65.081545, -16.949918 ], [ -65.081596, -16.949042 ], [ -65.081774, -16.94869 ], [ -65.082133, -16.948277 ], [ -65.082578, -16.948003 ], [ -65.082586, -16.947952 ], [ -65.082594, -16.947861 ], [ -65.082595, -16.947769 ], [ -65.082588, -16.947678 ], [ -65.082575, -16.947587 ], [ -65.082554, -16.947498 ], [ -65.082527, -16.94741 ], [ -65.082493, -16.947325 ], [ -65.082258, -16.946742 ], [ -65.081806, -16.946327 ], [ -65.081162, -16.94589 ], [ -65.080519, -16.945406 ], [ -65.07978, -16.944761 ], [ -65.078947, -16.944001 ], [ -65.078376, -16.942782 ], [ -65.07852, -16.9423 ], [ -65.078688, -16.941817 ], [ -65.079072, -16.940898 ], [ -65.079241, -16.940094 ], [ -65.079486, -16.938092 ], [ -65.078608, -16.937221 ], [ -65.077455, -16.935773 ], [ -65.075993, -16.933818 ], [ -65.075484, -16.93311 ], [ -65.075119, -16.93279 ], [ -65.072755, -16.929515 ], [ -65.069096, -16.926713 ], [ -65.06841, -16.925952 ], [ -65.068043, -16.92515 ], [ -65.067874, -16.924307 ], [ -65.068247, -16.92306 ], [ -65.069035, -16.921068 ], [ -65.070773, -16.918909 ], [ -65.071045, -16.918179 ], [ -65.072615, -16.91612 ], [ -65.074498, -16.915006 ], [ -65.075782, -16.914628 ], [ -65.077219, -16.914322 ], [ -65.078431, -16.914236 ], [ -65.07965, -16.914735 ], [ -65.080945, -16.915378 ], [ -65.082255, -16.916303 ], [ -65.082937, -16.916591 ], [ -65.083123, -16.916775 ], [ -65.084226, -16.917315 ], [ -65.086209, -16.91839 ], [ -65.087966, -16.919612 ], [ -65.088122, -16.919759 ], [ -65.089201, -16.920241 ], [ -65.089766, -16.920493 ], [ -65.090343, -16.921158 ], [ -65.091822, -16.923215 ], [ -65.09272, -16.924009 ], [ -65.09298, -16.924201 ], [ -65.094097, -16.92488 ], [ -65.096095, -16.926096 ], [ -65.097812, -16.926806 ], [ -65.09883, -16.927226 ], [ -65.100804, -16.928242 ], [ -65.10201, -16.928595 ], [ -65.103526, -16.928274 ], [ -65.104847, -16.927961 ], [ -65.106512, -16.927449 ], [ -65.109579, -16.926277 ], [ -65.110869, -16.925124 ], [ -65.111561, -16.923406 ], [ -65.11166, -16.921695 ], [ -65.111404, -16.919987 ], [ -65.110797, -16.918625 ], [ -65.110079, -16.917948 ], [ -65.108526, -16.916824 ], [ -65.106494, -16.915135 ], [ -65.103746, -16.912997 ], [ -65.103471, -16.912807 ], [ -65.102333, -16.912753 ], [ -65.100861, -16.912431 ], [ -65.098967, -16.911912 ], [ -65.097345, -16.910784 ], [ -65.095926, -16.909378 ], [ -65.093537, -16.907228 ], [ -65.092752, -16.906521 ], [ -65.091054, -16.904781 ], [ -65.089428, -16.903276 ], [ -65.088776, -16.902384 ], [ -65.07453, -16.88739 ], [ -65.07234, -16.886408 ], [ -65.07109, -16.884779 ], [ -65.070976, -16.882956 ], [ -65.071715, -16.881215 ], [ -65.073308, -16.879648 ], [ -65.064742, -16.873876 ], [ -65.060828, -16.868447 ], [ -65.060283, -16.86833 ], [ -65.058997, -16.867696 ], [ -65.057609, -16.866509 ], [ -65.056446, -16.865412 ], [ -65.05583, -16.864587 ], [ -65.05397, -16.861148 ], [ -65.05352, -16.860303 ], [ -65.052684, -16.859234 ], [ -65.052347, -16.858916 ], [ -65.051704, -16.858421 ], [ -65.050333, -16.857622 ], [ -65.047856, -16.85637 ], [ -65.046422, -16.855107 ], [ -65.045559, -16.854112 ], [ -65.044783, -16.852478 ], [ -65.04458, -16.851203 ], [ -65.044563, -16.849652 ], [ -65.044649, -16.848831 ], [ -65.045203, -16.847457 ], [ -65.045944, -16.845899 ], [ -65.047346, -16.844152 ], [ -65.049424, -16.843583 ], [ -65.051694, -16.843287 ], [ -65.054445, -16.843625 ], [ -65.055404, -16.844033 ], [ -65.055512, -16.844065 ], [ -65.055628, -16.844128 ], [ -65.057585, -16.844961 ], [ -65.058659, -16.845786 ], [ -65.060312, -16.846727 ], [ -65.061539, -16.847107 ], [ -65.062723, -16.847252 ], [ -65.063906, -16.847093 ], [ -65.064562, -16.846807 ], [ -65.06504, -16.846579 ], [ -65.066894, -16.845016 ], [ -65.066978, -16.844934 ], [ -65.067707, -16.843765 ], [ -65.068822, -16.841747 ], [ -65.06965, -16.839458 ], [ -65.070064, -16.837577 ], [ -65.070078, -16.83738 ], [ -65.070145, -16.835966 ], [ -65.07017, -16.834513 ], [ -65.070159, -16.833571 ], [ -65.070014, -16.832625 ], [ -65.069953, -16.831764 ], [ -65.069416, -16.829585 ], [ -65.069177, -16.828954 ], [ -65.069058, -16.828782 ], [ -65.06876, -16.828266 ], [ -65.068343, -16.827635 ], [ -65.067926, -16.82712 ], [ -65.066615, -16.825859 ], [ -65.065484, -16.825057 ], [ -65.065008, -16.824828 ], [ -65.063936, -16.82437 ], [ -65.0634, -16.824314 ], [ -65.062627, -16.824314 ], [ -65.061912, -16.824373 ], [ -65.060841, -16.824431 ], [ -65.060068, -16.824662 ], [ -65.058877, -16.824892 ], [ -65.058164, -16.825237 ], [ -65.056616, -16.825354 ], [ -65.056112, -16.825354 ], [ -65.054504, -16.825814 ], [ -65.052501, -16.825931 ], [ -65.050996, -16.825753 ], [ -65.049587, -16.825092 ], [ -65.047865, -16.823372 ], [ -65.047248, -16.821834 ], [ -65.046628, -16.820104 ], [ -65.046509, -16.818368 ], [ -65.046591, -16.81663 ], [ -65.046568, -16.814508 ], [ -65.046533, -16.814338 ], [ -65.046257, -16.813881 ], [ -65.045718, -16.813061 ], [ -65.044851, -16.812049 ], [ -65.044028, -16.811311 ], [ -65.043099, -16.810823 ], [ -65.04202, -16.810388 ], [ -65.040044, -16.810025 ], [ -65.038811, -16.810124 ], [ -65.038632, -16.810124 ], [ -65.037442, -16.810355 ], [ -65.037026, -16.810528 ], [ -65.036431, -16.8107 ], [ -65.035717, -16.810988 ], [ -65.035181, -16.811161 ], [ -65.034884, -16.811276 ], [ -65.034348, -16.811448 ], [ -65.032684, -16.81199 ], [ -65.031211, -16.81228 ], [ -65.030515, -16.812436 ], [ -65.029929, -16.812568 ], [ -65.027354, -16.812718 ], [ -65.025541, -16.81249 ], [ -65.023696, -16.811573 ], [ -65.023061, -16.811017 ], [ -65.022522, -16.810027 ], [ -65.021982, -16.808473 ], [ -65.021538, -16.80701 ], [ -65.021327, -16.806741 ], [ -65.020573, -16.805781 ], [ -65.019805, -16.805192 ], [ -65.019064, -16.804686 ], [ -65.01792, -16.804175 ], [ -65.016838, -16.803754 ], [ -65.016671, -16.803727 ], [ -65.015249, -16.803817 ], [ -65.013856, -16.804699 ], [ -65.012567, -16.805966 ], [ -65.011879, -16.807228 ], [ -65.011896, -16.808868 ], [ -65.012112, -16.810313 ], [ -65.012732, -16.81214 ], [ -65.013394, -16.813587 ], [ -65.013757, -16.814148 ], [ -65.014244, -16.815107 ], [ -65.014373, -16.815655 ], [ -65.014493, -16.816159 ], [ -65.014321, -16.817454 ], [ -65.013535, -16.818762 ], [ -65.012843, -16.819588 ], [ -65.01205, -16.820319 ], [ -65.011304, -16.820711 ], [ -65.010655, -16.820862 ], [ -65.009654, -16.820824 ], [ -65.008652, -16.820737 ], [ -65.007701, -16.820699 ], [ -65.006322, -16.820539 ], [ -65.005397, -16.820432 ], [ -65.004143, -16.820107 ], [ -65.002939, -16.819781 ], [ -65.001838, -16.819744 ], [ -65.000463, -16.81982 ], [ -65.000377, -16.819854 ], [ -65.000072, -16.819971 ], [ -64.998941, -16.820254 ], [ -64.99584, -16.820332 ], [ -64.994186, -16.820011 ], [ -64.993131, -16.819588 ], [ -64.99265, -16.81929 ], [ -64.991519, -16.818591 ], [ -64.990914, -16.818115 ], [ -64.990448, -16.817164 ], [ -64.990089, -16.815762 ], [ -64.989615, -16.813454 ], [ -64.989336, -16.810686 ], [ -64.989061, -16.808279 ], [ -64.988938, -16.80616 ], [ -64.988739, -16.805188 ], [ -64.988203, -16.804156 ], [ -64.987905, -16.803697 ], [ -64.987667, -16.803467 ], [ -64.987254, -16.803144 ], [ -64.986714, -16.802722 ], [ -64.986238, -16.802436 ], [ -64.985583, -16.802092 ], [ -64.983976, -16.801634 ], [ -64.983441, -16.801635 ], [ -64.982687, -16.801546 ], [ -64.981984, -16.801657 ], [ -64.980789, -16.801806 ], [ -64.979991, -16.802102 ], [ -64.978998, -16.802835 ], [ -64.978355, -16.803515 ], [ -64.977616, -16.804583 ], [ -64.976882, -16.806228 ], [ -64.976794, -16.807385 ], [ -64.976804, -16.808301 ], [ -64.976866, -16.809457 ], [ -64.976838, -16.811221 ], [ -64.976541, -16.812311 ], [ -64.976125, -16.813517 ], [ -64.975634, -16.81511 ], [ -64.974579, -16.817706 ], [ -64.974281, -16.818165 ], [ -64.973805, -16.819141 ], [ -64.973449, -16.819715 ], [ -64.973032, -16.820117 ], [ -64.972556, -16.820634 ], [ -64.971247, -16.821839 ], [ -64.970652, -16.822184 ], [ -64.970354, -16.822242 ], [ -64.969164, -16.822243 ], [ -64.96845, -16.822186 ], [ -64.968033, -16.822071 ], [ -64.967259, -16.822072 ], [ -64.966724, -16.821957 ], [ -64.966419, -16.82186 ], [ -64.965547, -16.821956 ], [ -64.96414, -16.821487 ], [ -64.963026, -16.82034 ], [ -64.962415, -16.819381 ], [ -64.962203, -16.818225 ], [ -64.961924, -16.81543 ], [ -64.962007, -16.813788 ], [ -64.962395, -16.81253 ], [ -64.96308, -16.81098 ], [ -64.96316, -16.809049 ], [ -64.96304, -16.807121 ], [ -64.962846, -16.805737 ], [ -64.962617, -16.805493 ], [ -64.961863, -16.805114 ], [ -64.960807, -16.804642 ], [ -64.959605, -16.804461 ], [ -64.958251, -16.804185 ], [ -64.956648, -16.804007 ], [ -64.955345, -16.803731 ], [ -64.953804, -16.803375 ], [ -64.953209, -16.802974 ], [ -64.952534, -16.802794 ], [ -64.951629, -16.802369 ], [ -64.950571, -16.801608 ], [ -64.950103, -16.800846 ], [ -64.94985, -16.800588 ], [ -64.949538, -16.799433 ], [ -64.949429, -16.798566 ], [ -64.949511, -16.796828 ], [ -64.949698, -16.795475 ], [ -64.950087, -16.79441 ], [ -64.950775, -16.793053 ], [ -64.951567, -16.792177 ], [ -64.952961, -16.791295 ], [ -64.954857, -16.790602 ], [ -64.956452, -16.789911 ], [ -64.958945, -16.788729 ], [ -64.960744, -16.788326 ], [ -64.962236, -16.787347 ], [ -64.96418, -16.78646 ], [ -64.965124, -16.784676 ], [ -64.965112, -16.783518 ], [ -64.965045, -16.783058 ], [ -64.964833, -16.782621 ], [ -64.964427, -16.782095 ], [ -64.963871, -16.781474 ], [ -64.963126, -16.780763 ], [ -64.962769, -16.780533 ], [ -64.962055, -16.77996 ], [ -64.961579, -16.779731 ], [ -64.960091, -16.778929 ], [ -64.959318, -16.778757 ], [ -64.957711, -16.778241 ], [ -64.955271, -16.777899 ], [ -64.953664, -16.777727 ], [ -64.952712, -16.777728 ], [ -64.951727, -16.777686 ], [ -64.948876, -16.777713 ], [ -64.946478, -16.778025 ], [ -64.94518, -16.778278 ], [ -64.944183, -16.778625 ], [ -64.942294, -16.779799 ], [ -64.940756, -16.781018 ], [ -64.939963, -16.781749 ], [ -64.938671, -16.78258 ], [ -64.937026, -16.783174 ], [ -64.935877, -16.783281 ], [ -64.934677, -16.783292 ], [ -64.933376, -16.783256 ], [ -64.931421, -16.782939 ], [ -64.930317, -16.782562 ], [ -64.929109, -16.781802 ], [ -64.927988, -16.780694 ], [ -64.926985, -16.779509 ], [ -64.926223, -16.778408 ], [ -64.926092, -16.778187 ], [ -64.925222, -16.777333 ], [ -64.924093, -16.776572 ], [ -64.92232, -16.775585 ], [ -64.920871, -16.774903 ], [ -64.920003, -16.774835 ], [ -64.918536, -16.774976 ], [ -64.917087, -16.775183 ], [ -64.915091, -16.775683 ], [ -64.912699, -16.776573 ], [ -64.911106, -16.77731 ], [ -64.90996, -16.777726 ], [ -64.90891, -16.777784 ], [ -64.907857, -16.777553 ], [ -64.907777, -16.777494 ], [ -64.90695, -16.776886 ], [ -64.905886, -16.775547 ], [ -64.905444, -16.774798 ], [ -64.905377, -16.774684 ], [ -64.905442, -16.77461 ], [ -64.905435, -16.773889 ], [ -64.90591, -16.773267 ], [ -64.906461, -16.772258 ], [ -64.907166, -16.77063 ], [ -64.908429, -16.768766 ], [ -64.910333, -16.766818 ], [ -64.911286, -16.76596 ], [ -64.911749, -16.765046 ], [ -64.911779, -16.764611 ], [ -64.911715, -16.763166 ], [ -64.911353, -16.761965 ], [ -64.910783, -16.759994 ], [ -64.91018, -16.758094 ], [ -64.909993, -16.757694 ], [ -64.909045, -16.756204 ], [ -64.908211, -16.75538 ], [ -64.907731, -16.755031 ], [ -64.907612, -16.75496 ], [ -64.906476, -16.754444 ], [ -64.905234, -16.754043 ], [ -64.904989, -16.75403 ], [ -64.903422, -16.754087 ], [ -64.901874, -16.754391 ], [ -64.90023, -16.755032 ], [ -64.899087, -16.755766 ], [ -64.898395, -16.756639 ], [ -64.897606, -16.757755 ], [ -64.897167, -16.758819 ], [ -64.896929, -16.760074 ], [ -64.897115, -16.762132 ], [ -64.897195, -16.763298 ], [ -64.897908, -16.766856 ], [ -64.898146, -16.767601 ], [ -64.898206, -16.768175 ], [ -64.898206, -16.768261 ], [ -64.898211, -16.771812 ], [ -64.898211, -16.771899 ], [ -64.89792, -16.774212 ], [ -64.897193, -16.776151 ], [ -64.895347, -16.778287 ], [ -64.893719, -16.779379 ], [ -64.892669, -16.779485 ], [ -64.891619, -16.779447 ], [ -64.890869, -16.77955 ], [ -64.890211, -16.779481 ], [ -64.889488, -16.779244 ], [ -64.88878, -16.779214 ], [ -64.887654, -16.778761 ], [ -64.886764, -16.77792 ], [ -64.886111, -16.776691 ], [ -64.885535, -16.77523 ], [ -64.885782, -16.771831 ], [ -64.886306, -16.768043 ], [ -64.886681, -16.765492 ], [ -64.887452, -16.762397 ], [ -64.88815, -16.760075 ], [ -64.888697, -16.758603 ], [ -64.889566, -16.75736 ], [ -64.889962, -16.756686 ], [ -64.890188, -16.756136 ], [ -64.890379, -16.755219 ], [ -64.890422, -16.754496 ], [ -64.890334, -16.753942 ], [ -64.889756, -16.752912 ], [ -64.888959, -16.752051 ], [ -64.887113, -16.752365 ], [ -64.885198, -16.753231 ], [ -64.883845, -16.75329 ], [ -64.882238, -16.752811 ], [ -64.881886, -16.752753 ] ] ] ] } }
]
}
