{
"type": "FeatureCollection",
"name": "PUNATA",
"crs": { "type": "name", "properties": { "name": "urn:ogc:def:crs:OGC:1.3:CRS84" } },
"bbox": [ -65.898630, -17.598993, -65.751612, -17.445559 ],                                                                        
"features": [
{ "type": "Feature", "properties": { "NOMBRE": "Punata", "NIVEL": "Municipios", "PROVINCIA": "Punata", "REGION": "Valles", "DEPARTAMENTO": "Cochabamba" }, "bbox": [ -65.89863, -17.598993, -65.751612, -17.445559 ], "geometry": { "type": "MultiPolygon", "coordinates": [ [ [ [ -65.786919, -17.488742 ], [ -65.786775, -17.488928 ], [ -65.786377, -17.489282 ], [ -65.786195, -17.489365 ], [ -65.785359, -17.49002 ], [ -65.784609, -17.490646 ], [ -65.784583, -17.490664 ], [ -65.784402, -17.49095 ], [ -65.78417, -17.491344 ], [ -65.783776, -17.491522 ], [ -65.783499, -17.491785 ], [ -65.783326, -17.491944 ], [ -65.782979, -17.492018 ], [ -65.782478, -17.492044 ], [ -65.782238, -17.492134 ], [ -65.781877, -17.492305 ], [ -65.781144, -17.492573 ], [ -65.780954, -17.492693 ], [ -65.780464, -17.492949 ], [ -65.779854, -17.493229 ], [ -65.779472, -17.49345 ], [ -65.778365, -17.494012 ], [ -65.779994, -17.499469 ], [ -65.791005, -17.519293 ], [ -65.790832, -17.519256 ], [ -65.788415, -17.518546 ], [ -65.776272, -17.516137 ], [ -65.764693, -17.513839 ], [ -65.751612, -17.517221 ], [ -65.760969, -17.519702 ], [ -65.761577, -17.518808 ], [ -65.76177, -17.517876 ], [ -65.763292, -17.517078 ], [ -65.764473, -17.52052 ], [ -65.764641, -17.521646 ], [ -65.765697, -17.522417 ], [ -65.766637, -17.523569 ], [ -65.767185, -17.524934 ], [ -65.767754, -17.525811 ], [ -65.776976, -17.536229 ], [ -65.793173, -17.547127 ], [ -65.795234, -17.54708 ], [ -65.797242, -17.547873 ], [ -65.797277, -17.547701 ], [ -65.800925, -17.548074 ], [ -65.80775, -17.547884 ], [ -65.807704, -17.557121 ], [ -65.809432, -17.573523 ], [ -65.809971, -17.578646 ], [ -65.810039, -17.57929 ], [ -65.811468, -17.582353 ], [ -65.810881, -17.587465 ], [ -65.810632, -17.589628 ], [ -65.810219, -17.590329 ], [ -65.810478, -17.591211 ], [ -65.810849, -17.591938 ], [ -65.81141, -17.593039 ], [ -65.8116, -17.593768 ], [ -65.813446, -17.596812 ], [ -65.820373, -17.594642 ], [ -65.866918, -17.597483 ], [ -65.886524, -17.598993 ], [ -65.886537, -17.592991 ], [ -65.886539, -17.592263 ], [ -65.886395, -17.592071 ], [ -65.886376, -17.592046 ], [ -65.886166, -17.591765 ], [ -65.886137, -17.590071 ], [ -65.886083, -17.58695 ], [ -65.88621, -17.586863 ], [ -65.886656, -17.586281 ], [ -65.887189, -17.585689 ], [ -65.887611, -17.585325 ], [ -65.888051, -17.584703 ], [ -65.888161, -17.584507 ], [ -65.888252, -17.584183 ], [ -65.888329, -17.583658 ], [ -65.888454, -17.58293 ], [ -65.888848, -17.581454 ], [ -65.888996, -17.580941 ], [ -65.889204, -17.580079 ], [ -65.88926, -17.579762 ], [ -65.889372, -17.579134 ], [ -65.889411, -17.578598 ], [ -65.889484, -17.578036 ], [ -65.889579, -17.577693 ], [ -65.889758, -17.57751 ], [ -65.890093, -17.57719 ], [ -65.891237, -17.576215 ], [ -65.891818, -17.575662 ], [ -65.89242, -17.575119 ], [ -65.893185, -17.574391 ], [ -65.893661, -17.573959 ], [ -65.89397, -17.573602 ], [ -65.89411, -17.573441 ], [ -65.894258, -17.573224 ], [ -65.894442, -17.572679 ], [ -65.894487, -17.572596 ], [ -65.894517, -17.57234 ], [ -65.894515, -17.572187 ], [ -65.894512, -17.571972 ], [ -65.894498, -17.571659 ], [ -65.894424, -17.571501 ], [ -65.89421, -17.571116 ], [ -65.893994, -17.570642 ], [ -65.893704, -17.569982 ], [ -65.893588, -17.569685 ], [ -65.893581, -17.569448 ], [ -65.89358, -17.569425 ], [ -65.893542, -17.569199 ], [ -65.893603, -17.569043 ], [ -65.893669, -17.568872 ], [ -65.893797, -17.568629 ], [ -65.894008, -17.568232 ], [ -65.894108, -17.567504 ], [ -65.894103, -17.567485 ], [ -65.894383, -17.566517 ], [ -65.895129, -17.565276 ], [ -65.895484, -17.564686 ], [ -65.895644, -17.563469 ], [ -65.895876, -17.562877 ], [ -65.896683, -17.560818 ], [ -65.896878, -17.56059 ], [ -65.897478, -17.559889 ], [ -65.897641, -17.559437 ], [ -65.897882, -17.558767 ], [ -65.897545, -17.55768 ], [ -65.897551, -17.557632 ], [ -65.897494, -17.557598 ], [ -65.89742, -17.55752 ], [ -65.897381, -17.557418 ], [ -65.89738, -17.557383 ], [ -65.897389, -17.557291 ], [ -65.8974, -17.557268 ], [ -65.897422, -17.557187 ], [ -65.897444, -17.557129 ], [ -65.89749, -17.55707 ], [ -65.897514, -17.557058 ], [ -65.89756, -17.557011 ], [ -65.897659, -17.55695 ], [ -65.89863, -17.556284 ], [ -65.898294, -17.555404 ], [ -65.885087, -17.554766 ], [ -65.886173, -17.559003 ], [ -65.874387, -17.558099 ], [ -65.874497, -17.550624 ], [ -65.874534, -17.548077 ], [ -65.871944, -17.548246 ], [ -65.868783, -17.548454 ], [ -65.870001, -17.545493 ], [ -65.870298, -17.545194 ], [ -65.870806, -17.544684 ], [ -65.873365, -17.542114 ], [ -65.875284, -17.541059 ], [ -65.87843, -17.539331 ], [ -65.879878, -17.537979 ], [ -65.879313, -17.537743 ], [ -65.878753, -17.537751 ], [ -65.876943, -17.537687 ], [ -65.872419, -17.534211 ], [ -65.86985, -17.533758 ], [ -65.867918, -17.532808 ], [ -65.867452, -17.532579 ], [ -65.865701, -17.530667 ], [ -65.860477, -17.527011 ], [ -65.8579, -17.526374 ], [ -65.856605, -17.526554 ], [ -65.853044, -17.525846 ], [ -65.85168, -17.526108 ], [ -65.850712, -17.526654 ], [ -65.849751, -17.526834 ], [ -65.846979, -17.526101 ], [ -65.845857, -17.52616 ], [ -65.844846, -17.526547 ], [ -65.843442, -17.526456 ], [ -65.841017, -17.525197 ], [ -65.835419, -17.524921 ], [ -65.833557, -17.524216 ], [ -65.829035, -17.521825 ], [ -65.822449, -17.517025 ], [ -65.821686, -17.516425 ], [ -65.819764, -17.514913 ], [ -65.817495, -17.513146 ], [ -65.815081, -17.487303 ], [ -65.840042, -17.469623 ], [ -65.827628, -17.449511 ], [ -65.819578, -17.446779 ], [ -65.809216, -17.445559 ], [ -65.807129, -17.446632 ], [ -65.807046, -17.446713 ], [ -65.806653, -17.447015 ], [ -65.806199, -17.447294 ], [ -65.805758, -17.447596 ], [ -65.805411, -17.448083 ], [ -65.804983, -17.448095 ], [ -65.804588, -17.44827 ], [ -65.804217, -17.448387 ], [ -65.80412, -17.448353 ], [ -65.80412, -17.44833 ], [ -65.799811, -17.449909 ], [ -65.799231, -17.450592 ], [ -65.799006, -17.450892 ], [ -65.798631, -17.4517 ], [ -65.798235, -17.452807 ], [ -65.798074, -17.45343 ], [ -65.797901, -17.453983 ], [ -65.797667, -17.45456 ], [ -65.79689, -17.455934 ], [ -65.796323, -17.456708 ], [ -65.795635, -17.457541 ], [ -65.794981, -17.458143 ], [ -65.794398, -17.458619 ], [ -65.79286, -17.459744 ], [ -65.792371, -17.460046 ], [ -65.791487, -17.460465 ], [ -65.791152, -17.460652 ], [ -65.790961, -17.460779 ], [ -65.790533, -17.461127 ], [ -65.789662, -17.461708 ], [ -65.786985, -17.46307 ], [ -65.786174, -17.463581 ], [ -65.785328, -17.46423 ], [ -65.784711, -17.464867 ], [ -65.783477, -17.466266 ], [ -65.782801, -17.467099 ], [ -65.782282, -17.467873 ], [ -65.781716, -17.468866 ], [ -65.78127, -17.46972 ], [ -65.780965, -17.470413 ], [ -65.78079, -17.470851 ], [ -65.780578, -17.47122 ], [ -65.780092, -17.47181 ], [ -65.779459, -17.472066 ], [ -65.778401, -17.47288 ], [ -65.77846, -17.472926 ], [ -65.778439, -17.472942 ], [ -65.779161, -17.473502 ], [ -65.780041, -17.474427 ], [ -65.780975, -17.47518 ], [ -65.781484, -17.475522 ], [ -65.781994, -17.475933 ], [ -65.782309, -17.476127 ], [ -65.782914, -17.476434 ], [ -65.783737, -17.476958 ], [ -65.784124, -17.477163 ], [ -65.784682, -17.477527 ], [ -65.785602, -17.478097 ], [ -65.786039, -17.478462 ], [ -65.786441, -17.478851 ], [ -65.786795, -17.479305 ], [ -65.787089, -17.479791 ], [ -65.787325, -17.48048 ], [ -65.787417, -17.481135 ], [ -65.787388, -17.481699 ], [ -65.787286, -17.482241 ], [ -65.787147, -17.482679 ], [ -65.78668, -17.483873 ], [ -65.786669, -17.483902 ], [ -65.786556, -17.484478 ], [ -65.786538, -17.484996 ], [ -65.786581, -17.485582 ], [ -65.786708, -17.486203 ], [ -65.786834, -17.486674 ], [ -65.787032, -17.487076 ], [ -65.787154, -17.487282 ], [ -65.787255, -17.487639 ], [ -65.787258, -17.487938 ], [ -65.787182, -17.488629 ], [ -65.786919, -17.488742 ] ] ] ] } }
]
}
