{
"type": "FeatureCollection",
"name": "QUILLACOLLO",
"crs": { "type": "name", "properties": { "name": "urn:ogc:def:crs:OGC:1.3:CRS84" } },
"bbox": [ -66.462151, -17.459617, -66.223228, -17.041573 ],                                                                        
"features": [
{ "type": "Feature", "properties": { "NOMBRE": "Quillacollo", "NIVEL": "Municipios", "PROVINCIA": "Quillacollo", "REGION": "Metropolitana", "DEPARTAMENTO": "Cochabamba" }, "bbox": [ -66.462151, -17.459617, -66.223228, -17.041573 ], "geometry": { "type": "MultiPolygon", "coordinates": [ [ [ [ -66.273632, -17.063763 ], [ -66.273142, -17.063999 ], [ -66.272699, -17.064862 ], [ -66.267094, -17.075794 ], [ -66.265808, -17.077939 ], [ -66.259789, -17.089358 ], [ -66.262657, -17.096026 ], [ -66.267003, -17.106132 ], [ -66.267246, -17.1063 ], [ -66.267246, -17.106335 ], [ -66.267368, -17.106425 ], [ -66.267417, -17.106516 ], [ -66.267441, -17.106516 ], [ -66.267637, -17.106708 ], [ -66.268251, -17.106963 ], [ -66.26854, -17.107039 ], [ -66.268647, -17.107015 ], [ -66.268812, -17.106897 ], [ -66.269251, -17.106729 ], [ -66.269869, -17.106535 ], [ -66.270143, -17.106508 ], [ -66.270273, -17.106437 ], [ -66.27075, -17.10636 ], [ -66.27093, -17.10638 ], [ -66.271159, -17.10648 ], [ -66.271456, -17.1069 ], [ -66.271729, -17.107081 ], [ -66.272369, -17.107266 ], [ -66.272968, -17.107245 ], [ -66.273088, -17.107243 ], [ -66.273148, -17.107265 ], [ -66.273865, -17.107254 ], [ -66.274021, -17.107275 ], [ -66.274081, -17.107308 ], [ -66.274472, -17.107728 ], [ -66.274715, -17.107885 ], [ -66.274751, -17.107884 ], [ -66.274775, -17.107918 ], [ -66.275314, -17.107956 ], [ -66.275576, -17.107894 ], [ -66.276544, -17.107879 ], [ -66.276674, -17.107831 ], [ -66.27683, -17.107817 ], [ -66.27702, -17.107768 ], [ -66.278252, -17.107794 ], [ -66.278825, -17.107774 ], [ -66.278994, -17.107817 ], [ -66.279328, -17.107812 ], [ -66.279749, -17.107908 ], [ -66.281015, -17.107842 ], [ -66.281217, -17.107793 ], [ -66.282005, -17.107746 ], [ -66.282253, -17.107604 ], [ -66.282538, -17.107507 ], [ -66.28267, -17.107505 ], [ -66.28279, -17.107538 ], [ -66.283293, -17.107553 ], [ -66.283518, -17.107457 ], [ -66.283744, -17.107396 ], [ -66.284158, -17.107183 ], [ -66.284587, -17.107118 ], [ -66.285221, -17.10712 ], [ -66.285461, -17.107162 ], [ -66.285436, -17.107116 ], [ -66.285831, -17.107133 ], [ -66.287934, -17.107088 ], [ -66.287934, -17.107065 ], [ -66.288764, -17.107265 ], [ -66.28922, -17.107448 ], [ -66.293086, -17.117356 ], [ -66.288494, -17.122817 ], [ -66.288627, -17.122907 ], [ -66.288786, -17.123054 ], [ -66.289202, -17.123553 ], [ -66.289512, -17.124089 ], [ -66.289762, -17.124637 ], [ -66.289952, -17.125152 ], [ -66.29, -17.126325 ], [ -66.28994, -17.126901 ], [ -66.289862, -17.127201 ], [ -66.289828, -17.127869 ], [ -66.289806, -17.127973 ], [ -66.289993, -17.128315 ], [ -66.291055, -17.129379 ], [ -66.291312, -17.129686 ], [ -66.291793, -17.13038 ], [ -66.291819, -17.130483 ], [ -66.291867, -17.130517 ], [ -66.29193, -17.130688 ], [ -66.291955, -17.1307 ], [ -66.292388, -17.131429 ], [ -66.29256, -17.131633 ], [ -66.29272, -17.131872 ], [ -66.29297, -17.132386 ], [ -66.293072, -17.13273 ], [ -66.29306, -17.133316 ], [ -66.29297, -17.133582 ], [ -66.292695, -17.134162 ], [ -66.292614, -17.13429 ], [ -66.292557, -17.13444 ], [ -66.29177, -17.135718 ], [ -66.291346, -17.136657 ], [ -66.291218, -17.137384 ], [ -66.290896, -17.13862 ], [ -66.29085, -17.138724 ], [ -66.290829, -17.138851 ], [ -66.290772, -17.138967 ], [ -66.29054, -17.139902 ], [ -66.290537, -17.140351 ], [ -66.290636, -17.141097 ], [ -66.290643, -17.141442 ], [ -66.290542, -17.141778 ], [ -66.290349, -17.142264 ], [ -66.290227, -17.142737 ], [ -66.290142, -17.143291 ], [ -66.290129, -17.143797 ], [ -66.290147, -17.144119 ], [ -66.290307, -17.144945 ], [ -66.29051, -17.145517 ], [ -66.290552, -17.145815 ], [ -66.290762, -17.146123 ], [ -66.290798, -17.146122 ], [ -66.291577, -17.14741 ], [ -66.291971, -17.147944 ], [ -66.292416, -17.148662 ], [ -66.292843, -17.149667 ], [ -66.293018, -17.150021 ], [ -66.293536, -17.150784 ], [ -66.293752, -17.151096 ], [ -66.294807, -17.152121 ], [ -66.295299, -17.152815 ], [ -66.296331, -17.154731 ], [ -66.296442, -17.15489 ], [ -66.29715, -17.156214 ], [ -66.297301, -17.156556 ], [ -66.2974, -17.156704 ], [ -66.29755, -17.157047 ], [ -66.297859, -17.157514 ], [ -66.298437, -17.15831 ], [ -66.298928, -17.158935 ], [ -66.299099, -17.159093 ], [ -66.299809, -17.160284 ], [ -66.299594, -17.166848 ], [ -66.299556, -17.167201 ], [ -66.29955, -17.167585 ], [ -66.299536, -17.168209 ], [ -66.299375, -17.168522 ], [ -66.2992, -17.168755 ], [ -66.298871, -17.169036 ], [ -66.298704, -17.169074 ], [ -66.298491, -17.169157 ], [ -66.298168, -17.169174 ], [ -66.297703, -17.169251 ], [ -66.297561, -17.169299 ], [ -66.297431, -17.169404 ], [ -66.297283, -17.16974 ], [ -66.297155, -17.169938 ], [ -66.297025, -17.170009 ], [ -66.296662, -17.170255 ], [ -66.296191, -17.170619 ], [ -66.295963, -17.170801 ], [ -66.295326, -17.171176 ], [ -66.295099, -17.171243 ], [ -66.294655, -17.171309 ], [ -66.294584, -17.171285 ], [ -66.294404, -17.17133 ], [ -66.294163, -17.171604 ], [ -66.293911, -17.171787 ], [ -66.293743, -17.171843 ], [ -66.293132, -17.171781 ], [ -66.29275, -17.171674 ], [ -66.29227, -17.171878 ], [ -66.291899, -17.171898 ], [ -66.291312, -17.171813 ], [ -66.291108, -17.171881 ], [ -66.291084, -17.171915 ], [ -66.290868, -17.172005 ], [ -66.290545, -17.172049 ], [ -66.290329, -17.172024 ], [ -66.289816, -17.171664 ], [ -66.289506, -17.171282 ], [ -66.289255, -17.171165 ], [ -66.289052, -17.171106 ], [ -66.288645, -17.171103 ], [ -66.288645, -17.17108 ], [ -66.287568, -17.171026 ], [ -66.287125, -17.171046 ], [ -66.286705, -17.1711 ], [ -66.28613, -17.171291 ], [ -66.285985, -17.171394 ], [ -66.285889, -17.171497 ], [ -66.285768, -17.171737 ], [ -66.285646, -17.1723 ], [ -66.285501, -17.172587 ], [ -66.285297, -17.172827 ], [ -66.284061, -17.173231 ], [ -66.283533, -17.173504 ], [ -66.282226, -17.174046 ], [ -66.282226, -17.174069 ], [ -66.281769, -17.174307 ], [ -66.281157, -17.174728 ], [ -66.280005, -17.175295 ], [ -66.279813, -17.175351 ], [ -66.279513, -17.175487 ], [ -66.279237, -17.175577 ], [ -66.278626, -17.175664 ], [ -66.277225, -17.175665 ], [ -66.276902, -17.175709 ], [ -66.276746, -17.175753 ], [ -66.27665, -17.175753 ], [ -66.276434, -17.175797 ], [ -66.276074, -17.175921 ], [ -66.27581, -17.176114 ], [ -66.275365, -17.176525 ], [ -66.275185, -17.176719 ], [ -66.274657, -17.176992 ], [ -66.273279, -17.177016 ], [ -66.27262, -17.177149 ], [ -66.272189, -17.177261 ], [ -66.27196, -17.177431 ], [ -66.271576, -17.177774 ], [ -66.271468, -17.177819 ], [ -66.271371, -17.177899 ], [ -66.270987, -17.178057 ], [ -66.270341, -17.178109 ], [ -66.270088, -17.17828 ], [ -66.269787, -17.17868 ], [ -66.26951, -17.17915 ], [ -66.268958, -17.179387 ], [ -66.26849, -17.17951 ], [ -66.267963, -17.17961 ], [ -66.267567, -17.179791 ], [ -66.267194, -17.180064 ], [ -66.266762, -17.180256 ], [ -66.266535, -17.180301 ], [ -66.266343, -17.180437 ], [ -66.265982, -17.180814 ], [ -66.265754, -17.180893 ], [ -66.26537, -17.180959 ], [ -66.265083, -17.180968 ], [ -66.264783, -17.18107 ], [ -66.264482, -17.181309 ], [ -66.264302, -17.181515 ], [ -66.264302, -17.181538 ], [ -66.263472, -17.18221 ], [ -66.263268, -17.182301 ], [ -66.263089, -17.182345 ], [ -66.262993, -17.182344 ], [ -66.262825, -17.182401 ], [ -66.261711, -17.182404 ], [ -66.261579, -17.182449 ], [ -66.261123, -17.182675 ], [ -66.260871, -17.182765 ], [ -66.259973, -17.182839 ], [ -66.259614, -17.182836 ], [ -66.259482, -17.182858 ], [ -66.259111, -17.182856 ], [ -66.258453, -17.182678 ], [ -66.258357, -17.182677 ], [ -66.258237, -17.182642 ], [ -66.257866, -17.182662 ], [ -66.257602, -17.182706 ], [ -66.257375, -17.182796 ], [ -66.257242, -17.18291 ], [ -66.257002, -17.183047 ], [ -66.25681, -17.183126 ], [ -66.256451, -17.183169 ], [ -66.2562, -17.183109 ], [ -66.255819, -17.182577 ], [ -66.255795, -17.182577 ], [ -66.255688, -17.182473 ], [ -66.255544, -17.182391 ], [ -66.255197, -17.18232 ], [ -66.254634, -17.182522 ], [ -66.254261, -17.182807 ], [ -66.254081, -17.182978 ], [ -66.253493, -17.183261 ], [ -66.253385, -17.183295 ], [ -66.253084, -17.183477 ], [ -66.252988, -17.183649 ], [ -66.252902, -17.184039 ], [ -66.252852, -17.184522 ], [ -66.252767, -17.184889 ], [ -66.252392, -17.185508 ], [ -66.252368, -17.185519 ], [ -66.252344, -17.185691 ], [ -66.252342, -17.18599 ], [ -66.252269, -17.186404 ], [ -66.252245, -17.186404 ], [ -66.25198, -17.186701 ], [ -66.251608, -17.186917 ], [ -66.251557, -17.186942 ], [ -66.251484, -17.186953 ], [ -66.251387, -17.186981 ], [ -66.250896, -17.186927 ], [ -66.250586, -17.186993 ], [ -66.250469, -17.187073 ], [ -66.250413, -17.187218 ], [ -66.250364, -17.187334 ], [ -66.250344, -17.187495 ], [ -66.250244, -17.187853 ], [ -66.25015, -17.188498 ], [ -66.250135, -17.188936 ], [ -66.249811, -17.189423 ], [ -66.249708, -17.189643 ], [ -66.249575, -17.190139 ], [ -66.249613, -17.190276 ], [ -66.249637, -17.190276 ], [ -66.249653, -17.190437 ], [ -66.249548, -17.190576 ], [ -66.249524, -17.190577 ], [ -66.249398, -17.190831 ], [ -66.24933, -17.191028 ], [ -66.249311, -17.191224 ], [ -66.249318, -17.191557 ], [ -66.249371, -17.191833 ], [ -66.249613, -17.192532 ], [ -66.249616, -17.192651 ], [ -66.249581, -17.193257 ], [ -66.249309, -17.193951 ], [ -66.249148, -17.194275 ], [ -66.248962, -17.19453 ], [ -66.248938, -17.19453 ], [ -66.248786, -17.194659 ], [ -66.248632, -17.194729 ], [ -66.248, -17.19484 ], [ -66.247822, -17.194911 ], [ -66.247741, -17.195004 ], [ -66.247661, -17.195201 ], [ -66.247607, -17.195455 ], [ -66.24755, -17.195605 ], [ -66.247552, -17.195685 ], [ -66.247529, -17.19572 ], [ -66.247359, -17.196746 ], [ -66.247362, -17.196861 ], [ -66.247328, -17.196977 ], [ -66.247324, -17.197345 ], [ -66.247191, -17.197818 ], [ -66.24714, -17.198005 ], [ -66.247043, -17.198194 ], [ -66.246986, -17.198327 ], [ -66.246802, -17.198674 ], [ -66.246404, -17.199093 ], [ -66.246292, -17.199428 ], [ -66.246144, -17.199764 ], [ -66.246074, -17.199845 ], [ -66.245944, -17.199927 ], [ -66.245656, -17.199907 ], [ -66.245549, -17.199931 ], [ -66.245514, -17.199966 ], [ -66.245205, -17.200626 ], [ -66.24496, -17.200916 ], [ -66.244653, -17.201081 ], [ -66.244463, -17.201152 ], [ -66.243999, -17.201261 ], [ -66.243881, -17.201308 ], [ -66.243468, -17.201601 ], [ -66.243267, -17.201695 ], [ -66.243064, -17.201698 ], [ -66.243053, -17.201732 ], [ -66.242684, -17.20184 ], [ -66.242368, -17.202143 ], [ -66.242126, -17.20256 ], [ -66.241909, -17.203069 ], [ -66.241724, -17.203359 ], [ -66.241545, -17.203947 ], [ -66.241413, -17.204501 ], [ -66.241333, -17.20464 ], [ -66.241253, -17.204848 ], [ -66.241184, -17.204941 ], [ -66.241104, -17.205149 ], [ -66.240883, -17.20598 ], [ -66.240414, -17.206998 ], [ -66.240103, -17.207543 ], [ -66.239842, -17.208236 ], [ -66.239791, -17.208616 ], [ -66.239785, -17.208915 ], [ -66.23975, -17.208985 ], [ -66.239756, -17.209261 ], [ -66.239724, -17.209445 ], [ -66.239727, -17.210136 ], [ -66.239704, -17.210159 ], [ -66.239661, -17.21039 ], [ -66.239581, -17.210609 ], [ -66.239546, -17.210633 ], [ -66.239525, -17.210771 ], [ -66.239333, -17.211303 ], [ -66.239015, -17.211536 ], [ -66.238955, -17.211537 ], [ -66.238444, -17.211681 ], [ -66.238303, -17.211763 ], [ -66.238232, -17.211833 ], [ -66.238082, -17.212099 ], [ -66.237917, -17.21278 ], [ -66.237779, -17.213023 ], [ -66.23778, -17.213058 ], [ -66.237321, -17.213961 ], [ -66.237322, -17.214007 ], [ -66.236928, -17.21461 ], [ -66.236851, -17.214933 ], [ -66.23686, -17.215358 ], [ -66.236901, -17.215599 ], [ -66.23691, -17.216048 ], [ -66.23689, -17.216232 ], [ -66.236776, -17.216475 ], [ -66.236484, -17.216824 ], [ -66.236297, -17.21701 ], [ -66.236181, -17.217173 ], [ -66.236067, -17.21745 ], [ -66.235801, -17.217879 ], [ -66.235567, -17.218146 ], [ -66.234746, -17.21888 ], [ -66.234617, -17.21902 ], [ -66.234062, -17.219901 ], [ -66.233724, -17.220342 ], [ -66.233552, -17.220655 ], [ -66.232856, -17.221698 ], [ -66.232331, -17.222326 ], [ -66.231921, -17.22271 ], [ -66.231664, -17.223012 ], [ -66.23164, -17.223012 ], [ -66.231501, -17.223187 ], [ -66.231375, -17.223476 ], [ -66.231376, -17.223533 ], [ -66.231226, -17.223765 ], [ -66.231097, -17.224468 ], [ -66.231102, -17.224721 ], [ -66.231141, -17.224848 ], [ -66.231146, -17.225112 ], [ -66.231101, -17.225216 ], [ -66.231083, -17.225527 ], [ -66.231138, -17.225826 ], [ -66.231366, -17.225904 ], [ -66.231426, -17.225903 ], [ -66.231595, -17.22597 ], [ -66.231595, -17.225993 ], [ -66.231705, -17.226107 ], [ -66.231708, -17.226222 ], [ -66.231651, -17.226349 ], [ -66.231569, -17.226442 ], [ -66.231236, -17.226549 ], [ -66.23095, -17.226564 ], [ -66.230855, -17.226588 ], [ -66.230738, -17.226705 ], [ -66.230678, -17.226728 ], [ -66.230682, -17.226912 ], [ -66.230853, -17.227083 ], [ -66.230974, -17.227151 ], [ -66.231023, -17.227208 ], [ -66.231038, -17.227346 ], [ -66.230865, -17.227658 ], [ -66.230714, -17.227844 ], [ -66.230668, -17.22796 ], [ -66.230696, -17.228144 ], [ -66.230784, -17.228338 ], [ -66.231045, -17.228266 ], [ -66.231249, -17.228275 ], [ -66.231287, -17.228367 ], [ -66.231288, -17.228447 ], [ -66.231243, -17.228563 ], [ -66.231126, -17.228679 ], [ -66.230902, -17.228832 ], [ -66.230783, -17.228879 ], [ -66.230652, -17.22888 ], [ -66.230471, -17.228802 ], [ -66.230375, -17.228803 ], [ -66.230234, -17.228897 ], [ -66.230319, -17.228999 ], [ -66.230658, -17.22918 ], [ -66.230696, -17.22926 ], [ -66.230698, -17.229386 ], [ -66.230675, -17.229432 ], [ -66.230317, -17.22946 ], [ -66.230112, -17.229393 ], [ -66.230027, -17.22929 ], [ -66.229771, -17.229086 ], [ -66.229566, -17.228973 ], [ -66.229449, -17.229124 ], [ -66.229443, -17.229424 ], [ -66.229478, -17.229906 ], [ -66.229433, -17.230057 ], [ -66.229435, -17.230137 ], [ -66.229253, -17.230599 ], [ -66.228914, -17.230994 ], [ -66.228858, -17.231156 ], [ -66.228892, -17.231736 ], [ -66.248546, -17.253466 ], [ -66.24174, -17.263427 ], [ -66.230744, -17.263808 ], [ -66.232447, -17.269299 ], [ -66.228926, -17.27198 ], [ -66.228593, -17.272041 ], [ -66.228273, -17.272194 ], [ -66.22813, -17.272231 ], [ -66.227941, -17.272348 ], [ -66.227813, -17.272522 ], [ -66.227654, -17.272903 ], [ -66.227508, -17.273365 ], [ -66.227059, -17.274164 ], [ -66.226675, -17.274709 ], [ -66.226491, -17.275034 ], [ -66.226439, -17.275403 ], [ -66.226233, -17.275865 ], [ -66.225501, -17.276898 ], [ -66.225289, -17.277027 ], [ -66.225063, -17.277098 ], [ -66.224633, -17.277149 ], [ -66.224406, -17.277152 ], [ -66.224109, -17.277259 ], [ -66.223757, -17.277562 ], [ -66.22368, -17.277885 ], [ -66.223681, -17.277954 ], [ -66.223557, -17.278277 ], [ -66.223446, -17.278693 ], [ -66.223436, -17.27882 ], [ -66.223292, -17.279362 ], [ -66.223228, -17.279719 ], [ -66.22323, -17.279811 ], [ -66.223332, -17.280132 ], [ -66.223811, -17.280691 ], [ -66.22475, -17.282164 ], [ -66.224827, -17.282382 ], [ -66.224906, -17.282715 ], [ -66.224917, -17.283279 ], [ -66.224852, -17.283602 ], [ -66.224694, -17.284018 ], [ -66.224695, -17.284075 ], [ -66.224615, -17.28426 ], [ -66.224528, -17.284675 ], [ -66.22449, -17.285125 ], [ -66.224517, -17.285274 ], [ -66.224664, -17.285479 ], [ -66.224827, -17.285811 ], [ -66.225059, -17.28605 ], [ -66.225441, -17.286575 ], [ -66.226543, -17.288357 ], [ -66.226643, -17.288563 ], [ -66.226704, -17.288643 ], [ -66.227118, -17.2901 ], [ -66.22715, -17.290502 ], [ -66.227132, -17.290802 ], [ -66.227034, -17.291263 ], [ -66.226832, -17.291887 ], [ -66.226824, -17.292082 ], [ -66.226778, -17.292163 ], [ -66.226667, -17.293143 ], [ -66.226679, -17.29427 ], [ -66.226766, -17.294442 ], [ -66.226819, -17.29466 ], [ -66.226919, -17.294889 ], [ -66.227049, -17.295405 ], [ -66.227139, -17.295657 ], [ -66.227221, -17.296151 ], [ -66.227253, -17.296553 ], [ -66.227278, -17.296611 ], [ -66.227319, -17.297427 ], [ -66.227357, -17.29753 ], [ -66.227373, -17.297726 ], [ -66.227549, -17.298138 ], [ -66.227623, -17.298229 ], [ -66.227648, -17.298298 ], [ -66.22831, -17.299061 ], [ -66.228664, -17.299402 ], [ -66.228935, -17.299733 ], [ -66.229059, -17.29995 ], [ -66.229124, -17.300214 ], [ -66.229158, -17.301249 ], [ -66.229118, -17.301652 ], [ -66.229123, -17.301871 ], [ -66.229093, -17.302159 ], [ -66.229109, -17.302941 ], [ -66.22908, -17.303252 ], [ -66.229085, -17.303494 ], [ -66.229158, -17.304137 ], [ -66.229163, -17.304356 ], [ -66.229202, -17.304482 ], [ -66.229218, -17.3047 ], [ -66.229285, -17.305033 ], [ -66.229301, -17.305252 ], [ -66.229367, -17.305504 ], [ -66.229369, -17.305608 ], [ -66.229599, -17.306341 ], [ -66.229787, -17.306742 ], [ -66.229874, -17.306879 ], [ -66.229898, -17.306879 ], [ -66.22996, -17.306982 ], [ -66.229996, -17.306981 ], [ -66.230057, -17.30705 ], [ -66.230407, -17.307207 ], [ -66.230554, -17.307343 ], [ -66.231147, -17.308268 ], [ -66.231609, -17.309195 ], [ -66.231763, -17.309665 ], [ -66.231939, -17.310089 ], [ -66.232259, -17.311063 ], [ -66.232332, -17.311166 ], [ -66.232666, -17.312232 ], [ -66.234535, -17.322072 ], [ -66.238827, -17.337261 ], [ -66.244517, -17.351748 ], [ -66.24435, -17.352069 ], [ -66.244244, -17.352345 ], [ -66.244222, -17.352701 ], [ -66.244272, -17.352874 ], [ -66.244332, -17.352954 ], [ -66.24455, -17.353138 ], [ -66.244646, -17.353264 ], [ -66.244672, -17.353292 ], [ -66.244717, -17.353356 ], [ -66.245175, -17.353115 ], [ -66.245725, -17.352598 ], [ -66.246525, -17.351747 ], [ -66.247546, -17.350935 ], [ -66.24782, -17.350731 ], [ -66.248011, -17.350604 ], [ -66.248229, -17.350452 ], [ -66.248347, -17.350353 ], [ -66.248453, -17.350621 ], [ -66.248485, -17.351724 ], [ -66.248538, -17.352448 ], [ -66.248507, -17.353217 ], [ -66.248559, -17.353723 ], [ -66.248566, -17.354734 ], [ -66.248626, -17.356549 ], [ -66.248606, -17.357101 ], [ -66.248536, -17.357503 ], [ -66.248418, -17.357847 ], [ -66.248335, -17.35802 ], [ -66.247752, -17.358916 ], [ -66.247657, -17.359134 ], [ -66.247634, -17.359295 ], [ -66.247708, -17.359548 ], [ -66.248429, -17.359376 ], [ -66.248621, -17.359375 ], [ -66.249224, -17.359536 ], [ -66.249778, -17.359777 ], [ -66.249935, -17.359777 ], [ -66.250247, -17.35972 ], [ -66.250427, -17.35972 ], [ -66.249012, -17.368857 ], [ -66.252567, -17.368657 ], [ -66.252517, -17.368901 ], [ -66.251853, -17.372551 ], [ -66.251748, -17.372862 ], [ -66.251703, -17.373195 ], [ -66.251685, -17.37377 ], [ -66.251771, -17.373977 ], [ -66.251883, -17.374367 ], [ -66.251897, -17.374528 ], [ -66.251934, -17.374631 ], [ -66.252103, -17.375249 ], [ -66.25208, -17.375556 ], [ -66.252143, -17.376371 ], [ -66.252117, -17.376823 ], [ -66.252107, -17.37751 ], [ -66.252141, -17.377782 ], [ -66.252134, -17.378216 ], [ -66.25211, -17.378577 ], [ -66.252022, -17.379426 ], [ -66.251913, -17.380078 ], [ -66.251867, -17.380469 ], [ -66.251503, -17.381744 ], [ -66.251414, -17.382744 ], [ -66.251356, -17.383134 ], [ -66.251246, -17.384536 ], [ -66.251176, -17.384881 ], [ -66.251117, -17.38503 ], [ -66.250956, -17.386225 ], [ -66.250945, -17.388086 ], [ -66.251009, -17.388718 ], [ -66.251059, -17.388994 ], [ -66.251047, -17.390706 ], [ -66.251014, -17.391211 ], [ -66.251042, -17.391728 ], [ -66.251024, -17.391893 ], [ -66.251018, -17.392264 ], [ -66.250928, -17.393335 ], [ -66.251912, -17.393191 ], [ -66.252424, -17.393099 ], [ -66.252434, -17.393288 ], [ -66.252407, -17.393417 ], [ -66.252391, -17.393677 ], [ -66.252375, -17.393936 ], [ -66.252362, -17.396204 ], [ -66.252486, -17.397743 ], [ -66.252507, -17.398525 ], [ -66.252577, -17.399502 ], [ -66.252857, -17.400725 ], [ -66.25294, -17.40114 ], [ -66.253009, -17.401527 ], [ -66.253013, -17.40224 ], [ -66.252921, -17.402744 ], [ -66.252991, -17.40298 ], [ -66.253758, -17.403496 ], [ -66.253782, -17.403531 ], [ -66.254156, -17.403747 ], [ -66.254314, -17.403907 ], [ -66.254411, -17.404045 ], [ -66.254718, -17.404699 ], [ -66.254756, -17.404917 ], [ -66.25483, -17.4051 ], [ -66.254931, -17.405525 ], [ -66.255008, -17.406054 ], [ -66.25499, -17.406594 ], [ -66.254832, -17.407595 ], [ -66.254825, -17.408031 ], [ -66.254852, -17.408376 ], [ -66.254927, -17.408629 ], [ -66.255196, -17.409122 ], [ -66.255215, -17.4098 ], [ -66.255265, -17.40996 ], [ -66.255301, -17.409983 ], [ -66.255741, -17.41074 ], [ -66.255816, -17.411038 ], [ -66.255817, -17.411199 ], [ -66.255783, -17.411372 ], [ -66.255665, -17.411579 ], [ -66.255582, -17.41166 ], [ -66.255391, -17.41173 ], [ -66.254851, -17.411732 ], [ -66.254009, -17.411472 ], [ -66.253576, -17.41137 ], [ -66.253024, -17.411362 ], [ -66.252629, -17.411501 ], [ -66.252464, -17.41172 ], [ -66.252467, -17.412054 ], [ -66.252506, -17.412306 ], [ -66.252661, -17.412529 ], [ -66.252804, -17.412777 ], [ -66.25289, -17.413149 ], [ -66.252929, -17.413787 ], [ -66.253302, -17.415073 ], [ -66.253415, -17.415532 ], [ -66.253506, -17.416164 ], [ -66.253521, -17.416463 ], [ -66.253597, -17.416922 ], [ -66.25371, -17.417404 ], [ -66.253813, -17.41799 ], [ -66.254064, -17.419092 ], [ -66.254298, -17.419712 ], [ -66.254322, -17.419712 ], [ -66.254469, -17.42001 ], [ -66.254819, -17.420554 ], [ -66.254852, -17.42089 ], [ -66.254785, -17.421153 ], [ -66.254644, -17.421391 ], [ -66.254543, -17.421474 ], [ -66.254237, -17.42185 ], [ -66.254118, -17.422012 ], [ -66.253536, -17.422566 ], [ -66.253262, -17.422774 ], [ -66.252902, -17.423047 ], [ -66.252566, -17.42333 ], [ -66.252471, -17.423411 ], [ -66.252298, -17.423549 ], [ -66.25222, -17.423623 ], [ -66.252136, -17.423709 ], [ -66.252029, -17.423817 ], [ -66.247184, -17.428365 ], [ -66.245943, -17.436702 ], [ -66.251686, -17.441576 ], [ -66.253988, -17.443729 ], [ -66.257335, -17.450553 ], [ -66.257559, -17.450856 ], [ -66.258879, -17.451783 ], [ -66.259144, -17.451896 ], [ -66.259553, -17.452021 ], [ -66.260541, -17.452373 ], [ -66.260782, -17.452429 ], [ -66.26118, -17.452623 ], [ -66.261529, -17.452748 ], [ -66.262, -17.453056 ], [ -66.26263, -17.453616 ], [ -66.263174, -17.454039 ], [ -66.263573, -17.454301 ], [ -66.263959, -17.454472 ], [ -66.263995, -17.454518 ], [ -66.264261, -17.45462 ], [ -66.264604, -17.454723 ], [ -66.264788, -17.454746 ], [ -66.265032, -17.454827 ], [ -66.265216, -17.45485 ], [ -66.265339, -17.454851 ], [ -66.265583, -17.454914 ], [ -66.265781, -17.454975 ], [ -66.26621, -17.455012 ], [ -66.266767, -17.455242 ], [ -66.280267, -17.459617 ], [ -66.279139, -17.450629 ], [ -66.294881, -17.445143 ], [ -66.305979, -17.42538 ], [ -66.306332, -17.422912 ], [ -66.304871, -17.409664 ], [ -66.304591, -17.409488 ], [ -66.304549, -17.409172 ], [ -66.304229, -17.409194 ], [ -66.304222, -17.409014 ], [ -66.304607, -17.409019 ], [ -66.304756, -17.408524 ], [ -66.304708, -17.407945 ], [ -66.304219, -17.407289 ], [ -66.303996, -17.407105 ], [ -66.302825, -17.406737 ], [ -66.302548, -17.406381 ], [ -66.302378, -17.405169 ], [ -66.302708, -17.40511 ], [ -66.302627, -17.404233 ], [ -66.303894, -17.403175 ], [ -66.303813, -17.401603 ], [ -66.303666, -17.384451 ], [ -66.303966, -17.3846 ], [ -66.304423, -17.384684 ], [ -66.305068, -17.384797 ], [ -66.30621, -17.384631 ], [ -66.307406, -17.384331 ], [ -66.308122, -17.383871 ], [ -66.308134, -17.383848 ], [ -66.308241, -17.383801 ], [ -66.308408, -17.383685 ], [ -66.308408, -17.383662 ], [ -66.308717, -17.383396 ], [ -66.309014, -17.383218 ], [ -66.309103, -17.383054 ], [ -66.309236, -17.382827 ], [ -66.309305, -17.382497 ], [ -66.309223, -17.382185 ], [ -66.309226, -17.382019 ], [ -66.309209, -17.380216 ], [ -66.309107, -17.378383 ], [ -66.309208, -17.377157 ], [ -66.309172, -17.374417 ], [ -66.309169, -17.374129 ], [ -66.309203, -17.373865 ], [ -66.309302, -17.370818 ], [ -66.309336, -17.370669 ], [ -66.309375, -17.369829 ], [ -66.309528, -17.368415 ], [ -66.309482, -17.367732 ], [ -66.310593, -17.359267 ], [ -66.313478, -17.359441 ], [ -66.315143, -17.355481 ], [ -66.31558, -17.352606 ], [ -66.315433, -17.351623 ], [ -66.315678, -17.350121 ], [ -66.315763, -17.349441 ], [ -66.315722, -17.348056 ], [ -66.315796, -17.347184 ], [ -66.316032, -17.346327 ], [ -66.316303, -17.345649 ], [ -66.316389, -17.344862 ], [ -66.31681, -17.344151 ], [ -66.316824, -17.343384 ], [ -66.317274, -17.343046 ], [ -66.317316, -17.342724 ], [ -66.317176, -17.342077 ], [ -66.317198, -17.341601 ], [ -66.318207, -17.340478 ], [ -66.318356, -17.33951 ], [ -66.318542, -17.338762 ], [ -66.318581, -17.338612 ], [ -66.319377, -17.337763 ], [ -66.320159, -17.337223 ], [ -66.322998, -17.335159 ], [ -66.323527, -17.334451 ], [ -66.323727, -17.333807 ], [ -66.32411, -17.333131 ], [ -66.324638, -17.332708 ], [ -66.324911, -17.331923 ], [ -66.325444, -17.331177 ], [ -66.325492, -17.330461 ], [ -66.326822, -17.328794 ], [ -66.327546, -17.327729 ], [ -66.328569, -17.326667 ], [ -66.32852, -17.326634 ], [ -66.327953, -17.326563 ], [ -66.326874, -17.326483 ], [ -66.324414, -17.326316 ], [ -66.32375, -17.325993 ], [ -66.32381, -17.325861 ], [ -66.323613, -17.325731 ], [ -66.323607, -17.325502 ], [ -66.322676, -17.321745 ], [ -66.33677, -17.289206 ], [ -66.351163, -17.290067 ], [ -66.351757, -17.289871 ], [ -66.352311, -17.289497 ], [ -66.352414, -17.289206 ], [ -66.352539, -17.28907 ], [ -66.352699, -17.288668 ], [ -66.352871, -17.28856 ], [ -66.353338, -17.288518 ], [ -66.353524, -17.288432 ], [ -66.353839, -17.288017 ], [ -66.35409, -17.28804 ], [ -66.354452, -17.288131 ], [ -66.354574, -17.287904 ], [ -66.354853, -17.287792 ], [ -66.355032, -17.287822 ], [ -66.355484, -17.287761 ], [ -66.355701, -17.287849 ], [ -66.35586, -17.28811 ], [ -66.356371, -17.28805 ], [ -66.356939, -17.288016 ], [ -66.357585, -17.287949 ], [ -66.358428, -17.287903 ], [ -66.358774, -17.287839 ], [ -66.358842, -17.28772 ], [ -66.35869, -17.28762 ], [ -66.358708, -17.287429 ], [ -66.3589, -17.287342 ], [ -66.359224, -17.287373 ], [ -66.359431, -17.287363 ], [ -66.359653, -17.287353 ], [ -66.359936, -17.287347 ], [ -66.360036, -17.287308 ], [ -66.360077, -17.287343 ], [ -66.360363, -17.287334 ], [ -66.360463, -17.287511 ], [ -66.360475, -17.287622 ], [ -66.360564, -17.287568 ], [ -66.360637, -17.287507 ], [ -66.360715, -17.287492 ], [ -66.360778, -17.287476 ], [ -66.360694, -17.287562 ], [ -66.360718, -17.287613 ], [ -66.360813, -17.287613 ], [ -66.360888, -17.287621 ], [ -66.360999, -17.287618 ], [ -66.361117, -17.28763 ], [ -66.361068, -17.287533 ], [ -66.361019, -17.287485 ], [ -66.36123, -17.287536 ], [ -66.361281, -17.287441 ], [ -66.361357, -17.28737 ], [ -66.361493, -17.287372 ], [ -66.36157, -17.287253 ], [ -66.361584, -17.28711 ], [ -66.36166, -17.287051 ], [ -66.361795, -17.287125 ], [ -66.361931, -17.287234 ], [ -66.36203, -17.287235 ], [ -66.362191, -17.287309 ], [ -66.36234, -17.287323 ], [ -66.362403, -17.287252 ], [ -66.362517, -17.287086 ], [ -66.362657, -17.287061 ], [ -66.36275, -17.287067 ], [ -66.362804, -17.287134 ], [ -66.362886, -17.287161 ], [ -66.362976, -17.287152 ], [ -66.363026, -17.287177 ], [ -66.363101, -17.287142 ], [ -66.363187, -17.287227 ], [ -66.363148, -17.287298 ], [ -66.363197, -17.287358 ], [ -66.363284, -17.287359 ], [ -66.363371, -17.287373 ], [ -66.363482, -17.287394 ], [ -66.363446, -17.287418 ], [ -66.363437, -17.28744 ], [ -66.36349, -17.287436 ], [ -66.363559, -17.287453 ], [ -66.363619, -17.287478 ], [ -66.363671, -17.287525 ], [ -66.363705, -17.287527 ], [ -66.363721, -17.287566 ], [ -66.363813, -17.287558 ], [ -66.363853, -17.287551 ], [ -66.363909, -17.287559 ], [ -66.363954, -17.287587 ], [ -66.36393, -17.287639 ], [ -66.363858, -17.287677 ], [ -66.36388, -17.287721 ], [ -66.363962, -17.287738 ], [ -66.364011, -17.287731 ], [ -66.364059, -17.287729 ], [ -66.364183, -17.287725 ], [ -66.364282, -17.287744 ], [ -66.364378, -17.287774 ], [ -66.364497, -17.287805 ], [ -66.364602, -17.287837 ], [ -66.364708, -17.287856 ], [ -66.364738, -17.287874 ], [ -66.364831, -17.287905 ], [ -66.364949, -17.287955 ], [ -66.365023, -17.287962 ], [ -66.36511, -17.287999 ], [ -66.36516, -17.28797 ], [ -66.365253, -17.287971 ], [ -66.365396, -17.287996 ], [ -66.365457, -17.288057 ], [ -66.3655, -17.288082 ], [ -66.365562, -17.2881 ], [ -66.365636, -17.288137 ], [ -66.365673, -17.288161 ], [ -66.365729, -17.288174 ], [ -66.365785, -17.288187 ], [ -66.365863, -17.288248 ], [ -66.365978, -17.288324 ], [ -66.366124, -17.2884 ], [ -66.366278, -17.28848 ], [ -66.366387, -17.288559 ], [ -66.366456, -17.288638 ], [ -66.366516, -17.288694 ], [ -66.366605, -17.28875 ], [ -66.36672, -17.288823 ], [ -66.366889, -17.288888 ], [ -66.367069, -17.28894 ], [ -66.367197, -17.289018 ], [ -66.367341, -17.289122 ], [ -66.367554, -17.289234 ], [ -66.367636, -17.289254 ], [ -66.367746, -17.28926 ], [ -66.367882, -17.289278 ], [ -66.367951, -17.289326 ], [ -66.36799, -17.289416 ], [ -66.367969, -17.289454 ], [ -66.367936, -17.289495 ], [ -66.367925, -17.289547 ], [ -66.367886, -17.289579 ], [ -66.367875, -17.289619 ], [ -66.36789, -17.289664 ], [ -66.367971, -17.289703 ], [ -66.368152, -17.289756 ], [ -66.368272, -17.28977 ], [ -66.368383, -17.289789 ], [ -66.368513, -17.289803 ], [ -66.36859, -17.289814 ], [ -66.36866, -17.28983 ], [ -66.368717, -17.289832 ], [ -66.368785, -17.289715 ], [ -66.368841, -17.289517 ], [ -66.368889, -17.289426 ], [ -66.368919, -17.289377 ], [ -66.368981, -17.289276 ], [ -66.369004, -17.289205 ], [ -66.369122, -17.289017 ], [ -66.369278, -17.288802 ], [ -66.369384, -17.288716 ], [ -66.36954, -17.288627 ], [ -66.369683, -17.288569 ], [ -66.369786, -17.288494 ], [ -66.369799, -17.288474 ], [ -66.369851, -17.288426 ], [ -66.369964, -17.2884 ], [ -66.370042, -17.288371 ], [ -66.370134, -17.288355 ], [ -66.370346, -17.28836 ], [ -66.370506, -17.288378 ], [ -66.370583, -17.28841 ], [ -66.370682, -17.288432 ], [ -66.370733, -17.288431 ], [ -66.370817, -17.28843 ], [ -66.370917, -17.288447 ], [ -66.371017, -17.288449 ], [ -66.371164, -17.288433 ], [ -66.371235, -17.288423 ], [ -66.371293, -17.288418 ], [ -66.371402, -17.288399 ], [ -66.371487, -17.288372 ], [ -66.371634, -17.288293 ], [ -66.371735, -17.288223 ], [ -66.371861, -17.288179 ], [ -66.372001, -17.288142 ], [ -66.372149, -17.288177 ], [ -66.372246, -17.288125 ], [ -66.372317, -17.288135 ], [ -66.372484, -17.288094 ], [ -66.372597, -17.288095 ], [ -66.372727, -17.288134 ], [ -66.372844, -17.288151 ], [ -66.372943, -17.288175 ], [ -66.373113, -17.288235 ], [ -66.373213, -17.288275 ], [ -66.373327, -17.288288 ], [ -66.373418, -17.288298 ], [ -66.373524, -17.288317 ], [ -66.373766, -17.288324 ], [ -66.373866, -17.288269 ], [ -66.37393, -17.288196 ], [ -66.374018, -17.288136 ], [ -66.374075, -17.288112 ], [ -66.374165, -17.288095 ], [ -66.374196, -17.288097 ], [ -66.374258, -17.288087 ], [ -66.374356, -17.288088 ], [ -66.374468, -17.288049 ], [ -66.374574, -17.288018 ], [ -66.374732, -17.28794 ], [ -66.374751, -17.287948 ], [ -66.37489, -17.287884 ], [ -66.374956, -17.287883 ], [ -66.375063, -17.287867 ], [ -66.375214, -17.28784 ], [ -66.375394, -17.287813 ], [ -66.375518, -17.287797 ], [ -66.375658, -17.287779 ], [ -66.375731, -17.287767 ], [ -66.375819, -17.287784 ], [ -66.376131, -17.28778 ], [ -66.376317, -17.287774 ], [ -66.376402, -17.287764 ], [ -66.376684, -17.287767 ], [ -66.376923, -17.287796 ], [ -66.377002, -17.287727 ], [ -66.377075, -17.287687 ], [ -66.377178, -17.287678 ], [ -66.377318, -17.287729 ], [ -66.377447, -17.28781 ], [ -66.377601, -17.287864 ], [ -66.377674, -17.287881 ], [ -66.377773, -17.287854 ], [ -66.377842, -17.287847 ], [ -66.377935, -17.287863 ], [ -66.378134, -17.287899 ], [ -66.378262, -17.287919 ], [ -66.378389, -17.287963 ], [ -66.378494, -17.288034 ], [ -66.378568, -17.288098 ], [ -66.378667, -17.288158 ], [ -66.378789, -17.288178 ], [ -66.37896, -17.288195 ], [ -66.379042, -17.2882 ], [ -66.379304, -17.288206 ], [ -66.379452, -17.288227 ], [ -66.379646, -17.288262 ], [ -66.379699, -17.288273 ], [ -66.379762, -17.288332 ], [ -66.379849, -17.288365 ], [ -66.37995, -17.288386 ], [ -66.38012, -17.288398 ], [ -66.380216, -17.288382 ], [ -66.380333, -17.288369 ], [ -66.380383, -17.288373 ], [ -66.380516, -17.288321 ], [ -66.380633, -17.288315 ], [ -66.380777, -17.288295 ], [ -66.380877, -17.288301 ], [ -66.380996, -17.288295 ], [ -66.381056, -17.288287 ], [ -66.381118, -17.288218 ], [ -66.381133, -17.288166 ], [ -66.381133, -17.287993 ], [ -66.381157, -17.287919 ], [ -66.381183, -17.287848 ], [ -66.381174, -17.287712 ], [ -66.381306, -17.287631 ], [ -66.381359, -17.287587 ], [ -66.38155, -17.287503 ], [ -66.381646, -17.287431 ], [ -66.381779, -17.287368 ], [ -66.381837, -17.287282 ], [ -66.381855, -17.287241 ], [ -66.381876, -17.287211 ], [ -66.381963, -17.287213 ], [ -66.382062, -17.287213 ], [ -66.382127, -17.287159 ], [ -66.382172, -17.287134 ], [ -66.382192, -17.2871 ], [ -66.382234, -17.287064 ], [ -66.382263, -17.287042 ], [ -66.382333, -17.287044 ], [ -66.382446, -17.287055 ], [ -66.382533, -17.287083 ], [ -66.382586, -17.287108 ], [ -66.382722, -17.287114 ], [ -66.382919, -17.287056 ], [ -66.382967, -17.287018 ], [ -66.383039, -17.286987 ], [ -66.383096, -17.286944 ], [ -66.383142, -17.286913 ], [ -66.383207, -17.286908 ], [ -66.383266, -17.286855 ], [ -66.383326, -17.286842 ], [ -66.383474, -17.286803 ], [ -66.383627, -17.286754 ], [ -66.38368, -17.286734 ], [ -66.383867, -17.286731 ], [ -66.383892, -17.286721 ], [ -66.383971, -17.286735 ], [ -66.384077, -17.286761 ], [ -66.38429, -17.286749 ], [ -66.384371, -17.286759 ], [ -66.384404, -17.286809 ], [ -66.384467, -17.286821 ], [ -66.384496, -17.286791 ], [ -66.384572, -17.286777 ], [ -66.384593, -17.286807 ], [ -66.384635, -17.286785 ], [ -66.38468, -17.286771 ], [ -66.384767, -17.286773 ], [ -66.384845, -17.286764 ], [ -66.38496, -17.286752 ], [ -66.385055, -17.28674 ], [ -66.385167, -17.28673 ], [ -66.385225, -17.286729 ], [ -66.385271, -17.28673 ], [ -66.385359, -17.286736 ], [ -66.385417, -17.286749 ], [ -66.385454, -17.286772 ], [ -66.385549, -17.286812 ], [ -66.385651, -17.286822 ], [ -66.385696, -17.286823 ], [ -66.385745, -17.286824 ], [ -66.385801, -17.286814 ], [ -66.385848, -17.286755 ], [ -66.385878, -17.286711 ], [ -66.385909, -17.286694 ], [ -66.385977, -17.286678 ], [ -66.386146, -17.286619 ], [ -66.386195, -17.286583 ], [ -66.386248, -17.286568 ], [ -66.386317, -17.28654 ], [ -66.386354, -17.286507 ], [ -66.386397, -17.286495 ], [ -66.386482, -17.286463 ], [ -66.38657, -17.28638 ], [ -66.386666, -17.286342 ], [ -66.386722, -17.286289 ], [ -66.386778, -17.28622 ], [ -66.386852, -17.286206 ], [ -66.386901, -17.286184 ], [ -66.386928, -17.286156 ], [ -66.386953, -17.286125 ], [ -66.387033, -17.286125 ], [ -66.387064, -17.286121 ], [ -66.387162, -17.286071 ], [ -66.387173, -17.286056 ], [ -66.387208, -17.28603 ], [ -66.38726, -17.285988 ], [ -66.387342, -17.285973 ], [ -66.387399, -17.285931 ], [ -66.387487, -17.285918 ], [ -66.387563, -17.285901 ], [ -66.387588, -17.285885 ], [ -66.387583, -17.285861 ], [ -66.387628, -17.285862 ], [ -66.387664, -17.28586 ], [ -66.387727, -17.285803 ], [ -66.387785, -17.285798 ], [ -66.387894, -17.285805 ], [ -66.38799, -17.28581 ], [ -66.388054, -17.285842 ], [ -66.388115, -17.285853 ], [ -66.388182, -17.285863 ], [ -66.388267, -17.285842 ], [ -66.388334, -17.285841 ], [ -66.388423, -17.285845 ], [ -66.388459, -17.285831 ], [ -66.388502, -17.285796 ], [ -66.38855, -17.285798 ], [ -66.388604, -17.285791 ], [ -66.388673, -17.285775 ], [ -66.388756, -17.285733 ], [ -66.388777, -17.28571 ], [ -66.388896, -17.285665 ], [ -66.388918, -17.285642 ], [ -66.388961, -17.285635 ], [ -66.389025, -17.285631 ], [ -66.389053, -17.285577 ], [ -66.389069, -17.285543 ], [ -66.389125, -17.285501 ], [ -66.38915, -17.285464 ], [ -66.389102, -17.28543 ], [ -66.389164, -17.285427 ], [ -66.389196, -17.285428 ], [ -66.389255, -17.285433 ], [ -66.38933, -17.285452 ], [ -66.38945, -17.285459 ], [ -66.389503, -17.285479 ], [ -66.389577, -17.285501 ], [ -66.389668, -17.285555 ], [ -66.389701, -17.285581 ], [ -66.389763, -17.285615 ], [ -66.389888, -17.285618 ], [ -66.389994, -17.285624 ], [ -66.390121, -17.285617 ], [ -66.390204, -17.285596 ], [ -66.390237, -17.285568 ], [ -66.390321, -17.285594 ], [ -66.390402, -17.285603 ], [ -66.390439, -17.285613 ], [ -66.390481, -17.285632 ], [ -66.390597, -17.285556 ], [ -66.390719, -17.285587 ], [ -66.390798, -17.285584 ], [ -66.390813, -17.285537 ], [ -66.39091, -17.285543 ], [ -66.390992, -17.285583 ], [ -66.391114, -17.285648 ], [ -66.391214, -17.285676 ], [ -66.391299, -17.285683 ], [ -66.391489, -17.285699 ], [ -66.391648, -17.285701 ], [ -66.391779, -17.285691 ], [ -66.391942, -17.285686 ], [ -66.391987, -17.285693 ], [ -66.392202, -17.285644 ], [ -66.392381, -17.285574 ], [ -66.392395, -17.285608 ], [ -66.392723, -17.285555 ], [ -66.392871, -17.285537 ], [ -66.392978, -17.285571 ], [ -66.393062, -17.285315 ], [ -66.392996, -17.284886 ], [ -66.392992, -17.28459 ], [ -66.39309, -17.28434 ], [ -66.393114, -17.284043 ], [ -66.39312, -17.28382 ], [ -66.393062, -17.283313 ], [ -66.393113, -17.282722 ], [ -66.393112, -17.282301 ], [ -66.393128, -17.281866 ], [ -66.393158, -17.281477 ], [ -66.393158, -17.281049 ], [ -66.393051, -17.280661 ], [ -66.393149, -17.280548 ], [ -66.393331, -17.280451 ], [ -66.393719, -17.280362 ], [ -66.393918, -17.280011 ], [ -66.394235, -17.279996 ], [ -66.394499, -17.279984 ], [ -66.394664, -17.280011 ], [ -66.394854, -17.280024 ], [ -66.395234, -17.279974 ], [ -66.395279, -17.27991 ], [ -66.395415, -17.279833 ], [ -66.39555, -17.279756 ], [ -66.395743, -17.279786 ], [ -66.395793, -17.279876 ], [ -66.396029, -17.280012 ], [ -66.396196, -17.280062 ], [ -66.396418, -17.280092 ], [ -66.396499, -17.280104 ], [ -66.396699, -17.280098 ], [ -66.396917, -17.280014 ], [ -66.397059, -17.279861 ], [ -66.397253, -17.279818 ], [ -66.397513, -17.279725 ], [ -66.398021, -17.279625 ], [ -66.398271, -17.279616 ], [ -66.398389, -17.279654 ], [ -66.398464, -17.279599 ], [ -66.398524, -17.27949 ], [ -66.398466, -17.279378 ], [ -66.398494, -17.279296 ], [ -66.398617, -17.27926 ], [ -66.398684, -17.27922 ], [ -66.398582, -17.279093 ], [ -66.398656, -17.279038 ], [ -66.398723, -17.278968 ], [ -66.398725, -17.278926 ], [ -66.39875, -17.27887 ], [ -66.398713, -17.278802 ], [ -66.398893, -17.278678 ], [ -66.398939, -17.278636 ], [ -66.399063, -17.278578 ], [ -66.39911, -17.278415 ], [ -66.399109, -17.278246 ], [ -66.398988, -17.278061 ], [ -66.398975, -17.277921 ], [ -66.398914, -17.277732 ], [ -66.398756, -17.277614 ], [ -66.39869, -17.277576 ], [ -66.398606, -17.277421 ], [ -66.398595, -17.277318 ], [ -66.398363, -17.277061 ], [ -66.398375, -17.276793 ], [ -66.398356, -17.276671 ], [ -66.398374, -17.276582 ], [ -66.398485, -17.276441 ], [ -66.398604, -17.276188 ], [ -66.398601, -17.276063 ], [ -66.39867, -17.275832 ], [ -66.398783, -17.275595 ], [ -66.398841, -17.275524 ], [ -66.398795, -17.275436 ], [ -66.398708, -17.275411 ], [ -66.398723, -17.275323 ], [ -66.398776, -17.275242 ], [ -66.398923, -17.275102 ], [ -66.399103, -17.27501 ], [ -66.399122, -17.274943 ], [ -66.399342, -17.274712 ], [ -66.399357, -17.274625 ], [ -66.399293, -17.274549 ], [ -66.399365, -17.274429 ], [ -66.399533, -17.274271 ], [ -66.399632, -17.274224 ], [ -66.399742, -17.274102 ], [ -66.399764, -17.274023 ], [ -66.39981, -17.273975 ], [ -66.399856, -17.273975 ], [ -66.399898, -17.273904 ], [ -66.399926, -17.273794 ], [ -66.399843, -17.273748 ], [ -66.399722, -17.273737 ], [ -66.399652, -17.273719 ], [ -66.399634, -17.27369 ], [ -66.399537, -17.273688 ], [ -66.399464, -17.273657 ], [ -66.399425, -17.273568 ], [ -66.39942, -17.273417 ], [ -66.399454, -17.273219 ], [ -66.399445, -17.273068 ], [ -66.399356, -17.272925 ], [ -66.399325, -17.272798 ], [ -66.399311, -17.272606 ], [ -66.399281, -17.272356 ], [ -66.399245, -17.272139 ], [ -66.399198, -17.27191 ], [ -66.399182, -17.271655 ], [ -66.399191, -17.271433 ], [ -66.399248, -17.271067 ], [ -66.399196, -17.270951 ], [ -66.39908, -17.270886 ], [ -66.399003, -17.270793 ], [ -66.398777, -17.270661 ], [ -66.398627, -17.27052 ], [ -66.398554, -17.270362 ], [ -66.398564, -17.270255 ], [ -66.398622, -17.270118 ], [ -66.398627, -17.270023 ], [ -66.398599, -17.269929 ], [ -66.398514, -17.269722 ], [ -66.398521, -17.269619 ], [ -66.398595, -17.269528 ], [ -66.398675, -17.269394 ], [ -66.398852, -17.269258 ], [ -66.399046, -17.269097 ], [ -66.399038, -17.268938 ], [ -66.398959, -17.268768 ], [ -66.398908, -17.268627 ], [ -66.398788, -17.268456 ], [ -66.398446, -17.268118 ], [ -66.398285, -17.267959 ], [ -66.398165, -17.267753 ], [ -66.398289, -17.267691 ], [ -66.398365, -17.267691 ], [ -66.398586, -17.267772 ], [ -66.398788, -17.267723 ], [ -66.398888, -17.267655 ], [ -66.398986, -17.267684 ], [ -66.39917, -17.267718 ], [ -66.399295, -17.267713 ], [ -66.3995, -17.267609 ], [ -66.399662, -17.267469 ], [ -66.39981, -17.267311 ], [ -66.399916, -17.267211 ], [ -66.400137, -17.267112 ], [ -66.400291, -17.266986 ], [ -66.400643, -17.266578 ], [ -66.400859, -17.266481 ], [ -66.401133, -17.266392 ], [ -66.401342, -17.266329 ], [ -66.401507, -17.266321 ], [ -66.40171, -17.266325 ], [ -66.40201, -17.266274 ], [ -66.402424, -17.266282 ], [ -66.402788, -17.266304 ], [ -66.403024, -17.266289 ], [ -66.403156, -17.266204 ], [ -66.403324, -17.266135 ], [ -66.403461, -17.26608 ], [ -66.403584, -17.265838 ], [ -66.403614, -17.265672 ], [ -66.403703, -17.265403 ], [ -66.403854, -17.265304 ], [ -66.404171, -17.265151 ], [ -66.404353, -17.265074 ], [ -66.404481, -17.264825 ], [ -66.404591, -17.264795 ], [ -66.404737, -17.264834 ], [ -66.404862, -17.264804 ], [ -66.405005, -17.264537 ], [ -66.405145, -17.264318 ], [ -66.405236, -17.26418 ], [ -66.405354, -17.263938 ], [ -66.405452, -17.263822 ], [ -66.405579, -17.263654 ], [ -66.405719, -17.263665 ], [ -66.405931, -17.263752 ], [ -66.406112, -17.263826 ], [ -66.406145, -17.263909 ], [ -66.406418, -17.263773 ], [ -66.406577, -17.263582 ], [ -66.406715, -17.263512 ], [ -66.406871, -17.263518 ], [ -66.407019, -17.263472 ], [ -66.407139, -17.263359 ], [ -66.407402, -17.263359 ], [ -66.407527, -17.263228 ], [ -66.407755, -17.263075 ], [ -66.407854, -17.262962 ], [ -66.407889, -17.26281 ], [ -66.407892, -17.262745 ], [ -66.407792, -17.262613 ], [ -66.407643, -17.262483 ], [ -66.407512, -17.262354 ], [ -66.407455, -17.262243 ], [ -66.40739, -17.262185 ], [ -66.407322, -17.26206 ], [ -66.407198, -17.261867 ], [ -66.407145, -17.261815 ], [ -66.407016, -17.261661 ], [ -66.406943, -17.261595 ], [ -66.406835, -17.261468 ], [ -66.406628, -17.261325 ], [ -66.406537, -17.261212 ], [ -66.406475, -17.261134 ], [ -66.406385, -17.260987 ], [ -66.406369, -17.260862 ], [ -66.406341, -17.26077 ], [ -66.40635, -17.260665 ], [ -66.406418, -17.260578 ], [ -66.406484, -17.260505 ], [ -66.406603, -17.260372 ], [ -66.406658, -17.260338 ], [ -66.406749, -17.260288 ], [ -66.406822, -17.260211 ], [ -66.406879, -17.260017 ], [ -66.406903, -17.259956 ], [ -66.406925, -17.259786 ], [ -66.406925, -17.25976 ], [ -66.406939, -17.2596 ], [ -66.406949, -17.259396 ], [ -66.40699, -17.259183 ], [ -66.407219, -17.259155 ], [ -66.407388, -17.259167 ], [ -66.407553, -17.259092 ], [ -66.407634, -17.258993 ], [ -66.407805, -17.25889 ], [ -66.407906, -17.258781 ], [ -66.40814, -17.258741 ], [ -66.408261, -17.258666 ], [ -66.408475, -17.258675 ], [ -66.418162, -17.250687 ], [ -66.417478, -17.250601 ], [ -66.393974, -17.247705 ], [ -66.397983, -17.235394 ], [ -66.397876, -17.222497 ], [ -66.400007, -17.213291 ], [ -66.416059, -17.21773 ], [ -66.427987, -17.212944 ], [ -66.43493, -17.194937 ], [ -66.435384, -17.19477 ], [ -66.445868, -17.191598 ], [ -66.458936, -17.181552 ], [ -66.461423, -17.170547 ], [ -66.461435, -17.170547 ], [ -66.46152, -17.169848 ], [ -66.461867, -17.167819 ], [ -66.461885, -17.167525 ], [ -66.461907, -17.167433 ], [ -66.461945, -17.167298 ], [ -66.462008, -17.16712 ], [ -66.462151, -17.166473 ], [ -66.462083, -17.16603 ], [ -66.461957, -17.165816 ], [ -66.461794, -17.165637 ], [ -66.461612, -17.165475 ], [ -66.461449, -17.165314 ], [ -66.461222, -17.165051 ], [ -66.461136, -17.164926 ], [ -66.461063, -17.164881 ], [ -66.46089, -17.164608 ], [ -66.460693, -17.164346 ], [ -66.46047, -17.16397 ], [ -66.46026, -17.163675 ], [ -66.460077, -17.163494 ], [ -66.459868, -17.163256 ], [ -66.459856, -17.163221 ], [ -66.459598, -17.162904 ], [ -66.459195, -17.162531 ], [ -66.459036, -17.162361 ], [ -66.458839, -17.162111 ], [ -66.458839, -17.162088 ], [ -66.458778, -17.162043 ], [ -66.458679, -17.161906 ], [ -66.458472, -17.161737 ], [ -66.458448, -17.161692 ], [ -66.45835, -17.161613 ], [ -66.458129, -17.16134 ], [ -66.457578, -17.160751 ], [ -66.457249, -17.160458 ], [ -66.456879, -17.159946 ], [ -66.45634, -17.159334 ], [ -66.456304, -17.159311 ], [ -66.456131, -17.159073 ], [ -66.45613, -17.159027 ], [ -66.455935, -17.158906 ], [ -66.45565, -17.158671 ], [ -66.455413, -17.158437 ], [ -66.4554, -17.158413 ], [ -66.455215, -17.158269 ], [ -66.455033, -17.158155 ], [ -66.454904, -17.157947 ], [ -66.454843, -17.157802 ], [ -66.454822, -17.157538 ], [ -66.454925, -17.157346 ], [ -66.454894, -17.15716 ], [ -66.454784, -17.157036 ], [ -66.454698, -17.156899 ], [ -66.454526, -17.156683 ], [ -66.454475, -17.156546 ], [ -66.454463, -17.156546 ], [ -66.454461, -17.156454 ], [ -66.454435, -17.156374 ], [ -66.454428, -17.156029 ], [ -66.454402, -17.155937 ], [ -66.454381, -17.155524 ], [ -66.454343, -17.155398 ], [ -66.454341, -17.155329 ], [ -66.454187, -17.154802 ], [ -66.454184, -17.154675 ], [ -66.454105, -17.154355 ], [ -66.454103, -17.154263 ], [ -66.454066, -17.154171 ], [ -66.454017, -17.153562 ], [ -66.453962, -17.153229 ], [ -66.453732, -17.152554 ], [ -66.45372, -17.152555 ], [ -66.453705, -17.152405 ], [ -66.453578, -17.152074 ], [ -66.453529, -17.151994 ], [ -66.453415, -17.15172 ], [ -66.453408, -17.151363 ], [ -66.453356, -17.151157 ], [ -66.453229, -17.150837 ], [ -66.453202, -17.150676 ], [ -66.453199, -17.15055 ], [ -66.453241, -17.15025 ], [ -66.453412, -17.149879 ], [ -66.453514, -17.14959 ], [ -66.45351, -17.149394 ], [ -66.453589, -17.149197 ], [ -66.453625, -17.149185 ], [ -66.453753, -17.14901 ], [ -66.453975, -17.148788 ], [ -66.454021, -17.148707 ], [ -66.454076, -17.148487 ], [ -66.454178, -17.148221 ], [ -66.454295, -17.148069 ], [ -66.454294, -17.148035 ], [ -66.454351, -17.147896 ], [ -66.454375, -17.147895 ], [ -66.454528, -17.147778 ], [ -66.454512, -17.147594 ], [ -66.454437, -17.147457 ], [ -66.454364, -17.147366 ], [ -66.454326, -17.147263 ], [ -66.454383, -17.147136 ], [ -66.454533, -17.14688 ], [ -66.454704, -17.146509 ], [ -66.454724, -17.146313 ], [ -66.454771, -17.146278 ], [ -66.454864, -17.14615 ], [ -66.454946, -17.146068 ], [ -66.45498, -17.145964 ], [ -66.455022, -17.14571 ], [ -66.455019, -17.145584 ], [ -66.45504, -17.145456 ], [ -66.455104, -17.145383 ], [ -66.455193, -17.145316 ], [ -66.455312, -17.145279 ], [ -66.455371, -17.145232 ], [ -66.455381, -17.145163 ], [ -66.455361, -17.144761 ], [ -66.455384, -17.144726 ], [ -66.455428, -17.144564 ], [ -66.455565, -17.144251 ], [ -66.455589, -17.144251 ], [ -66.455607, -17.144122 ], [ -66.45566, -17.143842 ], [ -66.455734, -17.143727 ], [ -66.456011, -17.143052 ], [ -66.456335, -17.142425 ], [ -66.456463, -17.14196 ], [ -66.456589, -17.141634 ], [ -66.456662, -17.141264 ], [ -66.45662, -17.140989 ], [ -66.456582, -17.140863 ], [ -66.456552, -17.140587 ], [ -66.45654, -17.140588 ], [ -66.456501, -17.14045 ], [ -66.456339, -17.140119 ], [ -66.456178, -17.139857 ], [ -66.456102, -17.139697 ], [ -66.45588, -17.139368 ], [ -66.455672, -17.139152 ], [ -66.455137, -17.138747 ], [ -66.454894, -17.138533 ], [ -66.454529, -17.138274 ], [ -66.454322, -17.138082 ], [ -66.454199, -17.137923 ], [ -66.454112, -17.137775 ], [ -66.453747, -17.137459 ], [ -66.453501, -17.137175 ], [ -66.45339, -17.136993 ], [ -66.453267, -17.136845 ], [ -66.452915, -17.136587 ], [ -66.452469, -17.136433 ], [ -66.452396, -17.136354 ], [ -66.452391, -17.136124 ], [ -66.452354, -17.136067 ], [ -66.452257, -17.136011 ], [ -66.4521, -17.135956 ], [ -66.451979, -17.135878 ], [ -66.451895, -17.135856 ], [ -66.451822, -17.135811 ], [ -66.451774, -17.135812 ], [ -66.451605, -17.135723 ], [ -66.451252, -17.135429 ], [ -66.451167, -17.135385 ], [ -66.451118, -17.135317 ], [ -66.451045, -17.13526 ], [ -66.450787, -17.134942 ], [ -66.450579, -17.13475 ], [ -66.450579, -17.134727 ], [ -66.450433, -17.134615 ], [ -66.450409, -17.134615 ], [ -66.450336, -17.134547 ], [ -66.450252, -17.134526 ], [ -66.450143, -17.13447 ], [ -66.450047, -17.134449 ], [ -66.449938, -17.134393 ], [ -66.449866, -17.134383 ], [ -66.449673, -17.134282 ], [ -66.449576, -17.134249 ], [ -66.449502, -17.134159 ], [ -66.449365, -17.133896 ], [ -66.449254, -17.133737 ], [ -66.449041, -17.13328 ], [ -66.448721, -17.13286 ], [ -66.448672, -17.132769 ], [ -66.448489, -17.132611 ], [ -66.448319, -17.13251 ], [ -66.448078, -17.132399 ], [ -66.447835, -17.132219 ], [ -66.447676, -17.13206 ], [ -66.447577, -17.13189 ], [ -66.44755, -17.131763 ], [ -66.447546, -17.131579 ], [ -66.44747, -17.131385 ], [ -66.447361, -17.131283 ], [ -66.44707, -17.131104 ], [ -66.447019, -17.13099 ], [ -66.446933, -17.130876 ], [ -66.446869, -17.13067 ], [ -66.446808, -17.130602 ], [ -66.446736, -17.13058 ], [ -66.446305, -17.130565 ], [ -66.446219, -17.130474 ], [ -66.446219, -17.130451 ], [ -66.446097, -17.130349 ], [ -66.445999, -17.130225 ], [ -66.445803, -17.130032 ], [ -66.445621, -17.129886 ], [ -66.445475, -17.129796 ], [ -66.445294, -17.129719 ], [ -66.444603, -17.129293 ], [ -66.444545, -17.129235 ], [ -66.444311, -17.129022 ], [ -66.444126, -17.128772 ], [ -66.444004, -17.128659 ], [ -66.443881, -17.128511 ], [ -66.4436, -17.12824 ], [ -66.443441, -17.128058 ], [ -66.443161, -17.127798 ], [ -66.442663, -17.127461 ], [ -66.44235, -17.127351 ], [ -66.441905, -17.127255 ], [ -66.440506, -17.127267 ], [ -66.440167, -17.127244 ], [ -66.439867, -17.127221 ], [ -66.439727, -17.12718 ], [ -66.439587, -17.127121 ], [ -66.439528, -17.127023 ], [ -66.439463, -17.12678 ], [ -66.439474, -17.126637 ], [ -66.439578, -17.12633 ], [ -66.439786, -17.126025 ], [ -66.439833, -17.125929 ], [ -66.439926, -17.125827 ], [ -66.440019, -17.125722 ], [ -66.440135, -17.125547 ], [ -66.440194, -17.125489 ], [ -66.440309, -17.125384 ], [ -66.440389, -17.125324 ], [ -66.440523, -17.12523 ], [ -66.440675, -17.125055 ], [ -66.440804, -17.12495 ], [ -66.440815, -17.124915 ], [ -66.440886, -17.124856 ], [ -66.440764, -17.124766 ], [ -66.440656, -17.124722 ], [ -66.440607, -17.124677 ], [ -66.44058, -17.124551 ], [ -66.44058, -17.124511 ], [ -66.440625, -17.1244 ], [ -66.440689, -17.124285 ], [ -66.440871, -17.124143 ], [ -66.441, -17.124037 ], [ -66.441011, -17.123991 ], [ -66.440986, -17.123934 ], [ -66.440935, -17.123874 ], [ -66.440791, -17.123776 ], [ -66.440705, -17.123663 ], [ -66.44068, -17.123605 ], [ -66.440619, -17.12356 ], [ -66.440549, -17.123473 ], [ -66.440509, -17.123424 ], [ -66.440471, -17.123356 ], [ -66.440188, -17.122981 ], [ -66.439964, -17.122547 ], [ -66.43989, -17.122457 ], [ -66.439829, -17.122412 ], [ -66.439658, -17.122219 ], [ -66.439657, -17.122184 ], [ -66.43968, -17.122138 ], [ -66.43969, -17.122057 ], [ -66.439886, -17.121686 ], [ -66.439876, -17.121214 ], [ -66.439863, -17.12118 ], [ -66.43986, -17.121019 ], [ -66.439848, -17.121008 ], [ -66.439841, -17.120709 ], [ -66.439803, -17.120583 ], [ -66.439704, -17.120423 ], [ -66.439461, -17.120278 ], [ -66.439461, -17.120266 ], [ -66.439437, -17.120267 ], [ -66.439389, -17.120233 ], [ -66.43929, -17.120108 ], [ -66.439267, -17.120108 ], [ -66.439263, -17.119947 ], [ -66.439224, -17.11981 ], [ -66.439223, -17.119729 ], [ -66.43916, -17.119615 ], [ -66.439063, -17.119525 ], [ -66.438999, -17.119353 ], [ -66.438993, -17.119054 ], [ -66.439016, -17.119031 ], [ -66.439038, -17.118904 ], [ -66.439035, -17.118778 ], [ -66.438987, -17.118755 ], [ -66.438889, -17.118653 ], [ -66.438865, -17.118654 ], [ -66.438865, -17.118631 ], [ -66.438817, -17.118632 ], [ -66.438792, -17.118609 ], [ -66.438685, -17.118611 ], [ -66.438552, -17.118567 ], [ -66.438475, -17.118304 ], [ -66.438471, -17.11812 ], [ -66.43842, -17.117948 ], [ -66.438359, -17.117891 ], [ -66.438321, -17.117823 ], [ -66.43815, -17.117665 ], [ -66.438051, -17.117494 ], [ -66.438084, -17.117344 ], [ -66.438142, -17.117251 ], [ -66.438166, -17.11725 ], [ -66.438248, -17.117168 ], [ -66.438282, -17.117099 ], [ -66.438279, -17.116972 ], [ -66.438169, -17.116836 ], [ -66.438024, -17.116781 ], [ -66.437915, -17.116714 ], [ -66.437891, -17.116714 ], [ -66.43778, -17.116555 ], [ -66.437778, -17.11644 ], [ -66.437865, -17.116024 ], [ -66.438075, -17.115791 ], [ -66.438192, -17.115674 ], [ -66.438228, -17.115661 ], [ -66.438251, -17.115615 ], [ -66.438309, -17.115557 ], [ -66.438308, -17.115522 ], [ -66.4384, -17.115313 ], [ -66.438395, -17.115072 ], [ -66.438416, -17.114968 ], [ -66.438473, -17.11484 ], [ -66.438567, -17.114735 ], [ -66.438684, -17.114641 ], [ -66.438719, -17.114595 ], [ -66.438884, -17.114454 ], [ -66.438953, -17.114361 ], [ -66.439034, -17.114198 ], [ -66.439022, -17.113635 ], [ -66.439089, -17.113427 ], [ -66.439088, -17.113369 ], [ -66.4391, -17.113369 ], [ -66.439098, -17.113265 ], [ -66.439147, -17.112758 ], [ -66.439146, -17.11216 ], [ -66.439177, -17.111906 ], [ -66.439161, -17.111159 ], [ -66.439134, -17.111021 ], [ -66.439088, -17.110527 ], [ -66.439082, -17.110274 ], [ -66.439045, -17.110217 ], [ -66.439044, -17.110148 ], [ -66.438992, -17.109953 ], [ -66.438924, -17.109563 ], [ -66.438921, -17.109414 ], [ -66.438836, -17.108817 ], [ -66.438551, -17.107763 ], [ -66.438256, -17.107389 ], [ -66.438097, -17.107242 ], [ -66.437724, -17.106534 ], [ -66.434877, -17.098362 ], [ -66.433857, -17.095434 ], [ -66.431504, -17.093268 ], [ -66.430038, -17.089387 ], [ -66.429051, -17.087462 ], [ -66.428836, -17.086109 ], [ -66.426393, -17.085215 ], [ -66.425092, -17.083473 ], [ -66.424521, -17.082491 ], [ -66.424495, -17.081515 ], [ -66.422951, -17.080483 ], [ -66.420046, -17.079171 ], [ -66.419781, -17.078621 ], [ -66.419464, -17.078252 ], [ -66.419359, -17.077738 ], [ -66.419083, -17.077369 ], [ -66.418429, -17.076956 ], [ -66.417596, -17.076533 ], [ -66.416301, -17.076154 ], [ -66.415691, -17.075815 ], [ -66.414517, -17.075156 ], [ -66.414197, -17.074883 ], [ -66.413645, -17.073695 ], [ -66.412194, -17.072053 ], [ -66.409672, -17.070369 ], [ -66.407973, -17.069141 ], [ -66.406918, -17.068754 ], [ -66.40606, -17.068647 ], [ -66.404973, -17.068347 ], [ -66.404187, -17.067807 ], [ -66.402765, -17.066272 ], [ -66.401904, -17.065331 ], [ -66.401323, -17.0644 ], [ -66.400192, -17.063615 ], [ -66.398302, -17.063129 ], [ -66.39767, -17.063052 ], [ -66.397049, -17.062849 ], [ -66.396443, -17.06205 ], [ -66.395928, -17.061339 ], [ -66.39576, -17.060561 ], [ -66.395275, -17.059715 ], [ -66.39464, -17.0591 ], [ -66.394173, -17.05894 ], [ -66.393045, -17.058964 ], [ -66.391437, -17.058904 ], [ -66.390701, -17.058766 ], [ -66.390115, -17.05841 ], [ -66.389679, -17.057952 ], [ -66.389469, -17.057614 ], [ -66.389096, -17.057428 ], [ -66.387985, -17.057591 ], [ -66.3875, -17.057422 ], [ -66.386781, -17.056773 ], [ -66.386452, -17.056248 ], [ -66.385605, -17.055264 ], [ -66.385079, -17.054787 ], [ -66.382834, -17.053748 ], [ -66.382165, -17.053018 ], [ -66.380951, -17.050134 ], [ -66.380698, -17.049653 ], [ -66.379994, -17.04755 ], [ -66.380119, -17.047096 ], [ -66.380431, -17.046759 ], [ -66.380106, -17.046299 ], [ -66.379588, -17.046156 ], [ -66.377673, -17.046131 ], [ -66.375025, -17.046074 ], [ -66.37271, -17.045908 ], [ -66.370913, -17.04593 ], [ -66.369396, -17.045886 ], [ -66.367988, -17.045991 ], [ -66.36743, -17.046257 ], [ -66.366734, -17.046262 ], [ -66.365837, -17.046428 ], [ -66.365309, -17.046599 ], [ -66.36474, -17.04666 ], [ -66.363981, -17.047142 ], [ -66.363459, -17.047847 ], [ -66.363107, -17.048662 ], [ -66.362718, -17.049081 ], [ -66.361921, -17.049523 ], [ -66.361319, -17.050009 ], [ -66.360324, -17.0503 ], [ -66.359153, -17.050588 ], [ -66.358938, -17.050877 ], [ -66.358738, -17.052717 ], [ -66.358618, -17.052951 ], [ -66.357508, -17.053576 ], [ -66.356728, -17.054032 ], [ -66.355938, -17.055163 ], [ -66.355606, -17.056346 ], [ -66.354783, -17.05658 ], [ -66.353851, -17.056627 ], [ -66.352981, -17.056616 ], [ -66.352053, -17.056425 ], [ -66.350712, -17.055121 ], [ -66.350641, -17.059632 ], [ -66.350495, -17.061183 ], [ -66.350599, -17.062619 ], [ -66.350405, -17.064216 ], [ -66.349477, -17.066186 ], [ -66.34802, -17.067662 ], [ -66.346512, -17.067932 ], [ -66.346168, -17.068362 ], [ -66.345731, -17.069967 ], [ -66.345321, -17.072387 ], [ -66.344678, -17.074063 ], [ -66.344101, -17.074629 ], [ -66.343218, -17.075817 ], [ -66.341632, -17.076865 ], [ -66.340776, -17.076129 ], [ -66.340024, -17.073216 ], [ -66.337732, -17.075015 ], [ -66.336444, -17.07419 ], [ -66.334493, -17.072314 ], [ -66.333337, -17.071725 ], [ -66.33078, -17.071584 ], [ -66.328339, -17.072092 ], [ -66.326146, -17.071658 ], [ -66.325157, -17.072095 ], [ -66.323525, -17.068718 ], [ -66.318316, -17.052772 ], [ -66.301906, -17.041573 ], [ -66.282913, -17.059289 ], [ -66.273632, -17.063763 ] ] ] ] } }
]
}
