{
"type": "FeatureCollection",
"name": "SACABA",
"crs": { "type": "name", "properties": { "name": "urn:ogc:def:crs:OGC:1.3:CRS84" } },
"bbox": [ -66.190334, -17.507163, -65.778030, -17.061316 ],                                                                        
"features": [
{ "type": "Feature", "properties": { "NOMBRE": "Sacaba", "NIVEL": "Municipios", "PROVINCIA": "Chapare", "REGION": "Metropolitana", "DEPARTAMENTO": "Cochabamba" }, "bbox": [ -66.190334, -17.507163, -65.77803, -17.061316 ], "geometry": { "type": "MultiPolygon", "coordinates": [ [ [ [ -65.77803, -17.356492 ], [ -65.778402, -17.356528 ], [ -65.778909, -17.356686 ], [ -65.779223, -17.356822 ], [ -65.779513, -17.35697 ], [ -65.77973, -17.357049 ], [ -65.780043, -17.357105 ], [ -65.780562, -17.357263 ], [ -65.780792, -17.357377 ], [ -65.781082, -17.357583 ], [ -65.781241, -17.357812 ], [ -65.781427, -17.358248 ], [ -65.78149, -17.358558 ], [ -65.781556, -17.359018 ], [ -65.781668, -17.359329 ], [ -65.781865, -17.359742 ], [ -65.782109, -17.360109 ], [ -65.782389, -17.360406 ], [ -65.782583, -17.360543 ], [ -65.782825, -17.360645 ], [ -65.783138, -17.36069 ], [ -65.78327, -17.360689 ], [ -65.783486, -17.360653 ], [ -65.783893, -17.360559 ], [ -65.784299, -17.360303 ], [ -65.784465, -17.360164 ], [ -65.784797, -17.359748 ], [ -65.78495, -17.359505 ], [ -65.785266, -17.358836 ], [ -65.785337, -17.35872 ], [ -65.785479, -17.358547 ], [ -65.785646, -17.358396 ], [ -65.785908, -17.358222 ], [ -65.7861, -17.358198 ], [ -65.786281, -17.358266 ], [ -65.786342, -17.358369 ], [ -65.78637, -17.358634 ], [ -65.786298, -17.359069 ], [ -65.786147, -17.359518 ], [ -65.786007, -17.359853 ], [ -65.785807, -17.360188 ], [ -65.785535, -17.360523 ], [ -65.785298, -17.360766 ], [ -65.784988, -17.36101 ], [ -65.784107, -17.361625 ], [ -65.783799, -17.361961 ], [ -65.783622, -17.362261 ], [ -65.783532, -17.362511 ], [ -65.783532, -17.362529 ], [ -65.783844, -17.362504 ], [ -65.784597, -17.3622 ], [ -65.785266, -17.36184 ], [ -65.785564, -17.361631 ], [ -65.785874, -17.361445 ], [ -65.78616, -17.361248 ], [ -65.786602, -17.360992 ], [ -65.787487, -17.360653 ], [ -65.788493, -17.360371 ], [ -65.788781, -17.360346 ], [ -65.789094, -17.360391 ], [ -65.789311, -17.36047 ], [ -65.789445, -17.36063 ], [ -65.789446, -17.360734 ], [ -65.789429, -17.360763 ], [ -65.78943, -17.360832 ], [ -65.789324, -17.361017 ], [ -65.789136, -17.361283 ], [ -65.788863, -17.361607 ], [ -65.788484, -17.362 ], [ -65.787866, -17.36251 ], [ -65.787651, -17.36265 ], [ -65.787307, -17.362997 ], [ -65.787178, -17.363228 ], [ -65.787026, -17.363562 ], [ -65.786922, -17.363943 ], [ -65.78676, -17.364438 ], [ -65.78655, -17.3649 ], [ -65.786432, -17.365085 ], [ -65.786127, -17.36565 ], [ -65.786034, -17.365939 ], [ -65.786016, -17.366 ], [ -65.785966, -17.366163 ], [ -65.785946, -17.366508 ], [ -65.786103, -17.366576 ], [ -65.786429, -17.366667 ], [ -65.786933, -17.366687 ], [ -65.787197, -17.366639 ], [ -65.787413, -17.366569 ], [ -65.787808, -17.366474 ], [ -65.788312, -17.366426 ], [ -65.78883, -17.366515 ], [ -65.789108, -17.366686 ], [ -65.789351, -17.366926 ], [ -65.789609, -17.36735 ], [ -65.78973, -17.367476 ], [ -65.79007, -17.367762 ], [ -65.79036, -17.367898 ], [ -65.790721, -17.367919 ], [ -65.7909, -17.367815 ], [ -65.791019, -17.367676 ], [ -65.791148, -17.367445 ], [ -65.791217, -17.367214 ], [ -65.791262, -17.366949 ], [ -65.79132, -17.366765 ], [ -65.791474, -17.366545 ], [ -65.791616, -17.366383 ], [ -65.791796, -17.366325 ], [ -65.792024, -17.366323 ], [ -65.792253, -17.366357 ], [ -65.792554, -17.366447 ], [ -65.792734, -17.366446 ], [ -65.792902, -17.366422 ], [ -65.793489, -17.366292 ], [ -65.793801, -17.366198 ], [ -65.794065, -17.366162 ], [ -65.79433, -17.36623 ], [ -65.794366, -17.366275 ], [ -65.794392, -17.366402 ], [ -65.794333, -17.366517 ], [ -65.794061, -17.366853 ], [ -65.793859, -17.367038 ], [ -65.793586, -17.367339 ], [ -65.793468, -17.367547 ], [ -65.793435, -17.367777 ], [ -65.793438, -17.368065 ], [ -65.793463, -17.368133 ], [ -65.793548, -17.368202 ], [ -65.795585, -17.367741 ], [ -65.79592, -17.367567 ], [ -65.796, -17.367244 ], [ -65.798496, -17.366491 ], [ -65.801053, -17.369352 ], [ -65.807706, -17.379332 ], [ -65.810101, -17.381022 ], [ -65.829937, -17.390444 ], [ -65.830421, -17.390771 ], [ -65.830868, -17.390952 ], [ -65.8314, -17.39119 ], [ -65.831931, -17.391371 ], [ -65.832171, -17.391416 ], [ -65.832616, -17.39139 ], [ -65.833097, -17.391399 ], [ -65.833733, -17.391384 ], [ -65.83437, -17.391403 ], [ -65.835235, -17.391351 ], [ -65.83598, -17.39137 ], [ -65.836665, -17.391343 ], [ -65.837506, -17.391338 ], [ -65.838288, -17.391437 ], [ -65.838988, -17.391674 ], [ -65.839448, -17.39189 ], [ -65.840315, -17.392069 ], [ -65.842081, -17.392058 ], [ -65.843067, -17.39211 ], [ -65.843971, -17.392288 ], [ -65.844802, -17.392421 ], [ -65.845368, -17.39259 ], [ -65.845719, -17.392761 ], [ -65.846298, -17.392976 ], [ -65.847202, -17.393178 ], [ -65.848154, -17.393345 ], [ -65.849188, -17.393419 ], [ -65.850016, -17.393345 ], [ -65.850772, -17.393259 ], [ -65.851746, -17.393254 ], [ -65.852721, -17.39342 ], [ -65.853699, -17.393771 ], [ -65.854665, -17.394191 ], [ -65.856008, -17.394885 ], [ -65.856672, -17.395157 ], [ -65.857444, -17.395405 ], [ -65.859192, -17.39582 ], [ -65.86077, -17.396133 ], [ -65.862058, -17.396366 ], [ -65.863312, -17.396669 ], [ -65.864049, -17.397021 ], [ -65.86491, -17.397592 ], [ -65.866244, -17.398619 ], [ -65.866995, -17.399109 ], [ -65.867672, -17.39945 ], [ -65.868325, -17.399757 ], [ -65.869134, -17.400074 ], [ -65.869832, -17.400185 ], [ -65.87147, -17.400405 ], [ -65.871975, -17.400494 ], [ -65.872457, -17.400548 ], [ -65.872914, -17.400568 ], [ -65.873431, -17.400611 ], [ -65.874153, -17.40071 ], [ -65.875081, -17.400935 ], [ -65.875722, -17.401207 ], [ -65.877123, -17.401807 ], [ -65.878538, -17.402717 ], [ -65.879348, -17.404015 ], [ -65.879309, -17.404026 ], [ -65.879329, -17.40406 ], [ -65.864177, -17.408351 ], [ -65.853879, -17.409455 ], [ -65.861112, -17.42009 ], [ -65.861074, -17.420093 ], [ -65.861104, -17.420138 ], [ -65.848235, -17.421068 ], [ -65.845026, -17.430926 ], [ -65.855378, -17.439316 ], [ -65.859466, -17.457565 ], [ -65.859496, -17.457537 ], [ -65.877181, -17.443799 ], [ -65.888091, -17.444618 ], [ -65.891071, -17.451169 ], [ -65.907477, -17.46131 ], [ -65.919648, -17.464504 ], [ -65.936954, -17.465324 ], [ -65.937852, -17.4657 ], [ -65.939482, -17.467026 ], [ -65.939645, -17.468323 ], [ -65.939317, -17.470215 ], [ -65.939386, -17.472112 ], [ -65.93978, -17.473013 ], [ -65.941445, -17.474326 ], [ -65.942913, -17.475931 ], [ -65.946071, -17.479416 ], [ -65.950186, -17.478004 ], [ -65.952816, -17.476504 ], [ -65.970677, -17.485693 ], [ -65.972463, -17.490738 ], [ -65.975365, -17.492376 ], [ -65.975999, -17.4932 ], [ -65.976332, -17.495233 ], [ -65.976286, -17.496602 ], [ -65.975772, -17.497964 ], [ -65.982217, -17.500407 ], [ -65.986102, -17.500464 ], [ -65.98706, -17.50001 ], [ -65.98798, -17.499412 ], [ -65.989567, -17.498411 ], [ -65.991128, -17.4982 ], [ -65.992797, -17.498917 ], [ -66.00161, -17.503599 ], [ -66.002394, -17.503967 ], [ -66.01844, -17.507163 ], [ -66.019952, -17.503639 ], [ -66.021614, -17.498793 ], [ -66.035215, -17.496128 ], [ -66.043811, -17.497383 ], [ -66.056622, -17.494574 ], [ -66.065415, -17.487496 ], [ -66.066991, -17.480786 ], [ -66.06833, -17.475008 ], [ -66.072544, -17.473556 ], [ -66.072679, -17.473511 ], [ -66.072625, -17.472995 ], [ -66.072266, -17.464504 ], [ -66.072248, -17.464096 ], [ -66.072379, -17.463948 ], [ -66.076577, -17.459161 ], [ -66.079492, -17.455837 ], [ -66.079563, -17.455602 ], [ -66.080185, -17.455139 ], [ -66.080994, -17.454502 ], [ -66.081921, -17.454221 ], [ -66.083034, -17.453824 ], [ -66.084063, -17.452865 ], [ -66.084258, -17.452219 ], [ -66.084332, -17.451453 ], [ -66.085146, -17.450521 ], [ -66.085905, -17.449175 ], [ -66.086404, -17.44871 ], [ -66.086794, -17.447359 ], [ -66.087241, -17.446303 ], [ -66.087699, -17.444599 ], [ -66.087663, -17.443005 ], [ -66.087734, -17.442357 ], [ -66.088241, -17.441421 ], [ -66.08905, -17.440784 ], [ -66.08986, -17.440146 ], [ -66.090821, -17.4396 ], [ -66.091199, -17.439015 ], [ -66.091404, -17.43772 ], [ -66.091725, -17.43684 ], [ -66.092234, -17.435785 ], [ -66.092617, -17.434906 ], [ -66.092695, -17.433845 ], [ -66.093501, -17.433384 ], [ -66.094364, -17.43322 ], [ -66.095231, -17.43282 ], [ -66.096276, -17.432835 ], [ -66.097406, -17.433294 ], [ -66.098328, -17.433307 ], [ -66.099067, -17.4332 ], [ -66.099524, -17.432989 ], [ -66.101588, -17.426613 ], [ -66.10181, -17.426403 ], [ -66.102237, -17.425999 ], [ -66.104728, -17.423643 ], [ -66.105038, -17.422932 ], [ -66.105118, -17.421753 ], [ -66.105688, -17.420699 ], [ -66.106635, -17.419061 ], [ -66.107386, -17.418245 ], [ -66.108627, -17.417496 ], [ -66.109625, -17.416567 ], [ -66.110251, -17.415868 ], [ -66.111433, -17.414941 ], [ -66.112184, -17.414067 ], [ -66.113245, -17.413079 ], [ -66.114052, -17.412559 ], [ -66.114788, -17.412629 ], [ -66.116561, -17.412412 ], [ -66.117871, -17.40906 ], [ -66.119528, -17.40482 ], [ -66.126984, -17.389773 ], [ -66.127401, -17.389486 ], [ -66.129669, -17.387922 ], [ -66.135104, -17.384176 ], [ -66.134981, -17.38398 ], [ -66.131896, -17.379058 ], [ -66.131825, -17.374891 ], [ -66.133077, -17.373665 ], [ -66.133541, -17.37321 ], [ -66.13039, -17.358202 ], [ -66.130369, -17.357993 ], [ -66.128275, -17.337095 ], [ -66.127255, -17.331354 ], [ -66.122095, -17.316148 ], [ -66.12273, -17.313876 ], [ -66.122803, -17.313616 ], [ -66.123007, -17.313286 ], [ -66.125079, -17.309941 ], [ -66.125538, -17.307858 ], [ -66.125809, -17.30663 ], [ -66.125795, -17.306327 ], [ -66.125736, -17.305057 ], [ -66.125952, -17.303857 ], [ -66.12604, -17.303372 ], [ -66.126281, -17.302031 ], [ -66.12708, -17.300802 ], [ -66.127276, -17.298894 ], [ -66.127221, -17.298561 ], [ -66.126697, -17.295397 ], [ -66.126791, -17.294944 ], [ -66.127297, -17.2925 ], [ -66.126978, -17.291209 ], [ -66.12676, -17.290326 ], [ -66.126837, -17.289888 ], [ -66.127025, -17.288818 ], [ -66.127112, -17.288326 ], [ -66.127836, -17.286499 ], [ -66.128803, -17.28542 ], [ -66.129256, -17.28523 ], [ -66.129868, -17.284973 ], [ -66.137755, -17.283813 ], [ -66.15611, -17.278166 ], [ -66.143698, -17.260243 ], [ -66.138264, -17.251367 ], [ -66.147122, -17.246187 ], [ -66.147612, -17.245864 ], [ -66.159312, -17.239775 ], [ -66.179528, -17.229656 ], [ -66.190334, -17.225564 ], [ -66.169187, -17.211925 ], [ -66.16023, -17.206065 ], [ -66.149531, -17.192537 ], [ -66.151986, -17.171811 ], [ -66.152405, -17.167949 ], [ -66.125163, -17.156694 ], [ -66.105687, -17.156722 ], [ -66.106049, -17.156553 ], [ -66.106216, -17.156415 ], [ -66.106847, -17.155979 ], [ -66.106847, -17.155956 ], [ -66.107489, -17.155474 ], [ -66.10787, -17.155107 ], [ -66.108286, -17.154648 ], [ -66.10862, -17.154338 ], [ -66.109738, -17.153466 ], [ -66.110345, -17.153053 ], [ -66.111237, -17.152284 ], [ -66.112701, -17.150918 ], [ -66.112998, -17.150677 ], [ -66.113831, -17.149885 ], [ -66.114593, -17.149012 ], [ -66.114652, -17.148874 ], [ -66.114938, -17.148403 ], [ -66.115163, -17.14784 ], [ -66.115484, -17.146932 ], [ -66.115996, -17.145943 ], [ -66.116555, -17.145335 ], [ -66.116817, -17.145128 ], [ -66.117186, -17.144887 ], [ -66.118042, -17.144452 ], [ -66.11834, -17.144246 ], [ -66.118542, -17.143981 ], [ -66.118542, -17.143935 ], [ -66.118661, -17.143705 ], [ -66.118768, -17.143383 ], [ -66.118911, -17.143131 ], [ -66.119172, -17.142878 ], [ -66.119446, -17.142695 ], [ -66.119648, -17.142592 ], [ -66.120267, -17.142409 ], [ -66.12066, -17.14226 ], [ -66.121778, -17.140928 ], [ -66.122194, -17.140561 ], [ -66.123265, -17.139734 ], [ -66.124253, -17.139035 ], [ -66.124431, -17.138863 ], [ -66.124598, -17.138472 ], [ -66.125109, -17.136919 ], [ -66.125228, -17.136678 ], [ -66.125299, -17.136586 ], [ -66.125453, -17.136299 ], [ -66.126, -17.135425 ], [ -66.126297, -17.134367 ], [ -66.126404, -17.133781 ], [ -66.126594, -17.13316 ], [ -66.126666, -17.133033 ], [ -66.126701, -17.132895 ], [ -66.126773, -17.132792 ], [ -66.12682, -17.132642 ], [ -66.127117, -17.132079 ], [ -66.127438, -17.131332 ], [ -66.127474, -17.131171 ], [ -66.127498, -17.13086 ], [ -66.127474, -17.130515 ], [ -66.127426, -17.130285 ], [ -66.127223, -17.129651 ], [ -66.126937, -17.128949 ], [ -66.126842, -17.12858 ], [ -66.126841, -17.128039 ], [ -66.12696, -17.12774 ], [ -66.127745, -17.126833 ], [ -66.128174, -17.126397 ], [ -66.128352, -17.126075 ], [ -66.128411, -17.125695 ], [ -66.128411, -17.125166 ], [ -66.128351, -17.12474 ], [ -66.128172, -17.124164 ], [ -66.128172, -17.123854 ], [ -66.128279, -17.123497 ], [ -66.128303, -17.123497 ], [ -66.128505, -17.123152 ], [ -66.128552, -17.123003 ], [ -66.128576, -17.122807 ], [ -66.128504, -17.12237 ], [ -66.128445, -17.122255 ], [ -66.128171, -17.121932 ], [ -66.128123, -17.121805 ], [ -66.128123, -17.121552 ], [ -66.128147, -17.121402 ], [ -66.128218, -17.12123 ], [ -66.128194, -17.120781 ], [ -66.128075, -17.120643 ], [ -66.128063, -17.120585 ], [ -66.127694, -17.12032 ], [ -66.127492, -17.120112 ], [ -66.127408, -17.119939 ], [ -66.127396, -17.119732 ], [ -66.127491, -17.118927 ], [ -66.127491, -17.118443 ], [ -66.127443, -17.117949 ], [ -66.1273, -17.11743 ], [ -66.126954, -17.116498 ], [ -66.126835, -17.116002 ], [ -66.126253, -17.114988 ], [ -66.12584, -17.114492 ], [ -66.124072, -17.11233 ], [ -66.123023, -17.110781 ], [ -66.122618, -17.110239 ], [ -66.122487, -17.109997 ], [ -66.122059, -17.109628 ], [ -66.121511, -17.109051 ], [ -66.121321, -17.10889 ], [ -66.120594, -17.108474 ], [ -66.120047, -17.108116 ], [ -66.119856, -17.108023 ], [ -66.119452, -17.107884 ], [ -66.119261, -17.107861 ], [ -66.118916, -17.10786 ], [ -66.118654, -17.107917 ], [ -66.118178, -17.108089 ], [ -66.118012, -17.108088 ], [ -66.117738, -17.10803 ], [ -66.117464, -17.107926 ], [ -66.117226, -17.107753 ], [ -66.117, -17.107522 ], [ -66.116809, -17.10728 ], [ -66.116559, -17.106773 ], [ -66.116499, -17.106554 ], [ -66.116345, -17.106174 ], [ -66.116202, -17.105737 ], [ -66.116106, -17.105518 ], [ -66.11582, -17.105206 ], [ -66.113975, -17.103706 ], [ -66.113797, -17.103487 ], [ -66.113058, -17.102714 ], [ -66.112796, -17.10261 ], [ -66.11213, -17.102424 ], [ -66.11144, -17.102262 ], [ -66.110583, -17.101892 ], [ -66.110225, -17.101396 ], [ -66.109856, -17.10082 ], [ -66.109642, -17.100543 ], [ -66.109404, -17.100301 ], [ -66.108892, -17.1 ], [ -66.108582, -17.09977 ], [ -66.108035, -17.099124 ], [ -66.107844, -17.098836 ], [ -66.107808, -17.098709 ], [ -66.107558, -17.098214 ], [ -66.107391, -17.097695 ], [ -66.10732, -17.097212 ], [ -66.107189, -17.096556 ], [ -66.107081, -17.096337 ], [ -66.106927, -17.096175 ], [ -66.106224, -17.095736 ], [ -66.105998, -17.09554 ], [ -66.105748, -17.095275 ], [ -66.105391, -17.094768 ], [ -66.105284, -17.094526 ], [ -66.105283, -17.09402 ], [ -66.105343, -17.093709 ], [ -66.105366, -17.093122 ], [ -66.105247, -17.09288 ], [ -66.105116, -17.092696 ], [ -66.104985, -17.092661 ], [ -66.104783, -17.092661 ], [ -66.104485, -17.092706 ], [ -66.104176, -17.092797 ], [ -66.103938, -17.092774 ], [ -66.103772, -17.092716 ], [ -66.103605, -17.0926 ], [ -66.103426, -17.092266 ], [ -66.103307, -17.091921 ], [ -66.103259, -17.091564 ], [ -66.103235, -17.091138 ], [ -66.103068, -17.090677 ], [ -66.102866, -17.09047 ], [ -66.102033, -17.0898 ], [ -66.101985, -17.0898 ], [ -66.101902, -17.08965 ], [ -66.101878, -17.08965 ], [ -66.101866, -17.089098 ], [ -66.101902, -17.088925 ], [ -66.101925, -17.088431 ], [ -66.101877, -17.088235 ], [ -66.10177, -17.08797 ], [ -66.101603, -17.087705 ], [ -66.101449, -17.087509 ], [ -66.101425, -17.087509 ], [ -66.101092, -17.087174 ], [ -66.100604, -17.086759 ], [ -66.100092, -17.086447 ], [ -66.099271, -17.086111 ], [ -66.099009, -17.08595 ], [ -66.098104, -17.085487 ], [ -66.097985, -17.085395 ], [ -66.097902, -17.085372 ], [ -66.097497, -17.085026 ], [ -66.097295, -17.084795 ], [ -66.096866, -17.084196 ], [ -66.096402, -17.083596 ], [ -66.096009, -17.083146 ], [ -66.095509, -17.082478 ], [ -66.095259, -17.081936 ], [ -66.095068, -17.081706 ], [ -66.094405, -17.080791 ], [ -66.094324, -17.080177 ], [ -66.094452, -17.079741 ], [ -66.094805, -17.079185 ], [ -66.09496, -17.07899 ], [ -66.095424, -17.078669 ], [ -66.095686, -17.078623 ], [ -66.095828, -17.078623 ], [ -66.096376, -17.078533 ], [ -66.096542, -17.078476 ], [ -66.097006, -17.078419 ], [ -66.097768, -17.078409 ], [ -66.098018, -17.078352 ], [ -66.098148, -17.078169 ], [ -66.098255, -17.077939 ], [ -66.098457, -17.077329 ], [ -66.098778, -17.076778 ], [ -66.099004, -17.076525 ], [ -66.099278, -17.076365 ], [ -66.099671, -17.076239 ], [ -66.100063, -17.075814 ], [ -66.100622, -17.074883 ], [ -66.100883, -17.074366 ], [ -66.101073, -17.073814 ], [ -66.101394, -17.072434 ], [ -66.101584, -17.071813 ], [ -66.101584, -17.070778 ], [ -66.101524, -17.070075 ], [ -66.101464, -17.06988 ], [ -66.10144, -17.069546 ], [ -66.101452, -17.068971 ], [ -66.101416, -17.068844 ], [ -66.10138, -17.068533 ], [ -66.101333, -17.068337 ], [ -66.101166, -17.06798 ], [ -66.100999, -17.06775 ], [ -66.100821, -17.067439 ], [ -66.100142, -17.066666 ], [ -66.100142, -17.06662 ], [ -66.099987, -17.066366 ], [ -66.09994, -17.066194 ], [ -66.099832, -17.06594 ], [ -66.099832, -17.065664 ], [ -66.099796, -17.065445 ], [ -66.099665, -17.065215 ], [ -66.099689, -17.064559 ], [ -66.099974, -17.063616 ], [ -66.099974, -17.063455 ], [ -66.099855, -17.063029 ], [ -66.099866, -17.062603 ], [ -66.099352, -17.061316 ], [ -66.084358, -17.085641 ], [ -66.082344, -17.08965 ], [ -66.0768, -17.10437 ], [ -66.076522, -17.104759 ], [ -66.069256, -17.112429 ], [ -66.069161, -17.112403 ], [ -66.05878, -17.125971 ], [ -66.054111, -17.134934 ], [ -66.039779, -17.141568 ], [ -66.032574, -17.148589 ], [ -66.032354, -17.14887 ], [ -66.028382, -17.155217 ], [ -66.028136, -17.155472 ], [ -66.011924, -17.170283 ], [ -66.006852, -17.17395 ], [ -66.006083, -17.17441 ], [ -66.001615, -17.175609 ], [ -65.988252, -17.180865 ], [ -65.987472, -17.181551 ], [ -65.983471, -17.185886 ], [ -66.001386, -17.220487 ], [ -66.001907, -17.22134 ], [ -66.003072, -17.223246 ], [ -66.001355, -17.227273 ], [ -65.988483, -17.260371 ], [ -65.986587, -17.293593 ], [ -65.977676, -17.312239 ], [ -65.955254, -17.337251 ], [ -65.948488, -17.34363 ], [ -65.947789, -17.343777 ], [ -65.935832, -17.347359 ], [ -65.919461, -17.357585 ], [ -65.904439, -17.374935 ], [ -65.904392, -17.374911 ], [ -65.894226, -17.375241 ], [ -65.873555, -17.379938 ], [ -65.863427, -17.378744 ], [ -65.830632, -17.366093 ], [ -65.79217, -17.338656 ], [ -65.77803, -17.356492 ] ] ] ] } }
]
}
