{
"type": "FeatureCollection",
"name": "SACABAMBA",
"crs": { "type": "name", "properties": { "name": "urn:ogc:def:crs:OGC:1.3:CRS84" } },
"bbox": [ -65.876677, -17.863844, -65.700134, -17.678056 ],                                                                        
"features": [
{ "type": "Feature", "properties": { "NOMBRE": "Sacabamba", "NIVEL": "Municipios", "PROVINCIA": "Esteban Arze", "REGION": "Valles", "DEPARTAMENTO": "Cochabamba" }, "bbox": [ -65.876677, -17.863844, -65.700134, -17.678056 ], "geometry": { "type": "MultiPolygon", "coordinates": [ [ [ [ -65.779531, -17.725298 ], [ -65.779692, -17.726175 ], [ -65.782148, -17.739534 ], [ -65.780507, -17.739393 ], [ -65.765599, -17.738107 ], [ -65.755192, -17.730334 ], [ -65.741104, -17.746418 ], [ -65.724071, -17.738572 ], [ -65.723777, -17.738456 ], [ -65.72595, -17.748057 ], [ -65.726016, -17.748347 ], [ -65.723927, -17.748822 ], [ -65.700134, -17.757443 ], [ -65.718855, -17.775355 ], [ -65.721574, -17.792822 ], [ -65.72267, -17.823328 ], [ -65.719672, -17.837051 ], [ -65.715941, -17.852302 ], [ -65.716134, -17.85232 ], [ -65.71639, -17.852337 ], [ -65.751772, -17.853537 ], [ -65.780847, -17.854743 ], [ -65.789809, -17.863844 ], [ -65.798398, -17.857775 ], [ -65.822054, -17.848281 ], [ -65.821625, -17.847824 ], [ -65.820989, -17.846503 ], [ -65.820773, -17.845817 ], [ -65.820574, -17.845441 ], [ -65.819989, -17.844876 ], [ -65.819792, -17.844592 ], [ -65.819703, -17.844284 ], [ -65.819468, -17.843897 ], [ -65.819218, -17.843362 ], [ -65.819097, -17.842675 ], [ -65.819101, -17.842261 ], [ -65.819193, -17.841457 ], [ -65.819323, -17.840743 ], [ -65.819357, -17.840019 ], [ -65.819347, -17.838894 ], [ -65.819409, -17.838366 ], [ -65.819533, -17.838008 ], [ -65.81973, -17.837649 ], [ -65.820638, -17.83695 ], [ -65.82135, -17.836493 ], [ -65.821564, -17.836193 ], [ -65.822329, -17.835373 ], [ -65.822709, -17.834623 ], [ -65.823055, -17.834196 ], [ -65.823642, -17.83371 ], [ -65.823906, -17.833606 ], [ -65.824784, -17.833384 ], [ -65.825071, -17.833176 ], [ -65.825466, -17.832771 ], [ -65.826179, -17.83156 ], [ -65.826934, -17.830935 ], [ -65.827328, -17.830508 ], [ -65.827552, -17.829897 ], [ -65.827738, -17.82894 ], [ -65.827779, -17.82803 ], [ -65.827921, -17.827684 ], [ -65.828254, -17.827107 ], [ -65.829246, -17.826045 ], [ -65.829675, -17.825444 ], [ -65.829984, -17.824891 ], [ -65.830327, -17.824106 ], [ -65.830733, -17.823621 ], [ -65.84657, -17.825921 ], [ -65.852164, -17.820545 ], [ -65.852401, -17.82027 ], [ -65.870606, -17.80559 ], [ -65.87658, -17.796218 ], [ -65.876677, -17.79631 ], [ -65.863584, -17.776507 ], [ -65.863716, -17.775936 ], [ -65.868018, -17.753183 ], [ -65.860517, -17.73549 ], [ -65.876282, -17.708613 ], [ -65.876305, -17.708523 ], [ -65.860783, -17.709325 ], [ -65.844645, -17.710157 ], [ -65.839218, -17.708769 ], [ -65.825098, -17.695203 ], [ -65.815866, -17.682431 ], [ -65.807333, -17.678056 ], [ -65.796973, -17.680794 ], [ -65.787436, -17.679023 ], [ -65.772387, -17.681924 ], [ -65.761031, -17.688719 ], [ -65.766845, -17.696325 ], [ -65.7841, -17.714009 ], [ -65.779531, -17.725298 ] ] ] ] } }
]
}
