{
"type": "FeatureCollection",
"name": "SAN_BENITO",
"crs": { "type": "name", "properties": { "name": "urn:ogc:def:crs:OGC:1.3:CRS84" } },
"bbox": [ -65.960521, -17.570212, -65.815081, -17.443799 ],                                                                        
"features": [
{ "type": "Feature", "properties": { "NOMBRE": "San Benito", "NIVEL": "Municipios", "PROVINCIA": "Punata", "REGION": "Valles", "DEPARTAMENTO": "Cochabamba" }, "bbox": [ -65.960521, -17.570212, -65.815081, -17.443799 ], "geometry": { "type": "MultiPolygon", "coordinates": [ [ [ [ -65.859466, -17.457565 ], [ -65.859465, -17.457566 ], [ -65.859304, -17.457714 ], [ -65.838787, -17.453298 ], [ -65.827628, -17.449511 ], [ -65.840042, -17.469623 ], [ -65.815081, -17.487303 ], [ -65.817495, -17.513146 ], [ -65.819764, -17.514913 ], [ -65.821686, -17.516425 ], [ -65.822449, -17.517025 ], [ -65.829035, -17.521825 ], [ -65.833557, -17.524216 ], [ -65.835419, -17.524921 ], [ -65.841017, -17.525197 ], [ -65.843442, -17.526456 ], [ -65.844846, -17.526547 ], [ -65.845857, -17.52616 ], [ -65.846979, -17.526101 ], [ -65.849751, -17.526834 ], [ -65.850712, -17.526654 ], [ -65.85168, -17.526108 ], [ -65.853044, -17.525846 ], [ -65.856605, -17.526554 ], [ -65.8579, -17.526374 ], [ -65.860477, -17.527011 ], [ -65.865701, -17.530667 ], [ -65.867452, -17.532579 ], [ -65.867918, -17.532808 ], [ -65.86985, -17.533758 ], [ -65.872419, -17.534211 ], [ -65.876943, -17.537687 ], [ -65.878753, -17.537751 ], [ -65.879313, -17.537743 ], [ -65.879878, -17.537979 ], [ -65.87843, -17.539331 ], [ -65.875284, -17.541059 ], [ -65.873365, -17.542114 ], [ -65.870806, -17.544684 ], [ -65.870298, -17.545194 ], [ -65.870001, -17.545493 ], [ -65.868783, -17.548454 ], [ -65.871944, -17.548246 ], [ -65.874534, -17.548077 ], [ -65.874497, -17.550624 ], [ -65.874387, -17.558099 ], [ -65.886173, -17.559003 ], [ -65.885087, -17.554766 ], [ -65.898294, -17.555404 ], [ -65.89863, -17.556284 ], [ -65.897659, -17.55695 ], [ -65.897632, -17.556969 ], [ -65.897551, -17.557632 ], [ -65.897545, -17.55768 ], [ -65.897882, -17.558767 ], [ -65.897641, -17.559437 ], [ -65.897478, -17.559889 ], [ -65.896878, -17.56059 ], [ -65.896683, -17.560818 ], [ -65.895876, -17.562877 ], [ -65.895644, -17.563469 ], [ -65.895484, -17.564686 ], [ -65.895129, -17.565276 ], [ -65.894383, -17.566517 ], [ -65.894103, -17.567485 ], [ -65.894403, -17.567731 ], [ -65.894624, -17.567937 ], [ -65.895145, -17.568065 ], [ -65.895457, -17.568202 ], [ -65.896007, -17.56809 ], [ -65.897008, -17.568036 ], [ -65.897293, -17.568043 ], [ -65.897974, -17.567957 ], [ -65.899032, -17.567984 ], [ -65.899198, -17.568023 ], [ -65.899875, -17.568063 ], [ -65.900183, -17.568116 ], [ -65.901289, -17.568122 ], [ -65.902372, -17.568149 ], [ -65.902668, -17.568191 ], [ -65.903037, -17.568212 ], [ -65.903545, -17.568362 ], [ -65.904219, -17.568516 ], [ -65.904786, -17.568701 ], [ -65.90547, -17.568947 ], [ -65.905931, -17.569085 ], [ -65.906403, -17.569256 ], [ -65.906663, -17.56932 ], [ -65.906828, -17.569381 ], [ -65.906981, -17.569465 ], [ -65.907099, -17.569502 ], [ -65.907463, -17.569706 ], [ -65.908036, -17.570017 ], [ -65.908332, -17.570163 ], [ -65.908438, -17.570212 ], [ -65.908511, -17.570171 ], [ -65.922585, -17.567487 ], [ -65.926046, -17.569281 ], [ -65.925833, -17.568985 ], [ -65.925829, -17.568736 ], [ -65.925772, -17.568437 ], [ -65.925769, -17.568238 ], [ -65.925765, -17.567989 ], [ -65.925637, -17.567574 ], [ -65.925657, -17.567209 ], [ -65.925697, -17.567039 ], [ -65.925703, -17.566788 ], [ -65.925731, -17.566629 ], [ -65.925762, -17.565819 ], [ -65.925798, -17.565797 ], [ -65.925809, -17.565363 ], [ -65.925797, -17.565363 ], [ -65.925797, -17.56534 ], [ -65.925751, -17.56527 ], [ -65.925751, -17.564814 ], [ -65.925697, -17.564573 ], [ -65.925657, -17.56424 ], [ -65.925523, -17.563883 ], [ -65.925284, -17.56342 ], [ -65.925206, -17.563201 ], [ -65.925232, -17.56262 ], [ -65.925271, -17.562484 ], [ -65.925275, -17.562324 ], [ -65.925288, -17.562301 ], [ -65.925293, -17.561559 ], [ -65.925264, -17.561319 ], [ -65.925257, -17.561102 ], [ -65.925225, -17.560941 ], [ -65.925171, -17.560243 ], [ -65.925077, -17.55967 ], [ -65.925043, -17.559612 ], [ -65.924954, -17.55937 ], [ -65.924671, -17.558757 ], [ -65.924317, -17.55812 ], [ -65.924145, -17.557853 ], [ -65.923883, -17.55739 ], [ -65.923802, -17.557285 ], [ -65.923734, -17.557135 ], [ -65.923714, -17.556986 ], [ -65.923687, -17.556899 ], [ -65.923682, -17.556637 ], [ -65.923693, -17.556463 ], [ -65.923688, -17.556164 ], [ -65.923699, -17.556076 ], [ -65.923696, -17.555852 ], [ -65.923665, -17.555565 ], [ -65.923686, -17.555229 ], [ -65.923683, -17.554804 ], [ -65.923685, -17.554725 ], [ -65.923739, -17.554463 ], [ -65.923784, -17.554076 ], [ -65.923822, -17.554009 ], [ -65.923823, -17.553963 ], [ -65.923925, -17.553669 ], [ -65.924035, -17.553043 ], [ -65.924419, -17.551911 ], [ -65.924597, -17.551459 ], [ -65.924598, -17.551402 ], [ -65.92461, -17.551402 ], [ -65.924676, -17.551153 ], [ -65.924678, -17.551062 ], [ -65.924715, -17.550983 ], [ -65.924724, -17.550606 ], [ -65.924703, -17.550023 ], [ -65.924665, -17.549634 ], [ -65.92467, -17.549428 ], [ -65.924722, -17.549247 ], [ -65.924726, -17.549053 ], [ -65.924803, -17.548827 ], [ -65.924952, -17.548568 ], [ -65.924978, -17.548477 ], [ -65.925091, -17.548229 ], [ -65.925272, -17.547628 ], [ -65.925314, -17.547355 ], [ -65.925406, -17.547004 ], [ -65.925612, -17.546358 ], [ -65.9257, -17.546177 ], [ -65.925751, -17.546019 ], [ -65.925864, -17.545782 ], [ -65.925953, -17.545533 ], [ -65.925955, -17.545453 ], [ -65.926044, -17.545216 ], [ -65.926219, -17.544855 ], [ -65.9267, -17.543679 ], [ -65.926959, -17.542795 ], [ -65.926984, -17.542761 ], [ -65.92701, -17.542659 ], [ -65.927206, -17.542402 ], [ -65.927352, -17.542303 ], [ -65.927967, -17.541941 ], [ -65.928256, -17.541789 ], [ -65.928414, -17.541679 ], [ -65.928876, -17.541268 ], [ -65.928962, -17.541144 ], [ -65.929133, -17.540955 ], [ -65.929269, -17.540753 ], [ -65.929404, -17.540585 ], [ -65.929405, -17.540539 ], [ -65.929365, -17.539902 ], [ -65.929414, -17.539702 ], [ -65.929513, -17.539401 ], [ -65.929709, -17.538579 ], [ -65.929834, -17.538241 ], [ -65.93004, -17.538113 ], [ -65.930182, -17.538074 ], [ -65.93043, -17.53812 ], [ -65.930603, -17.538367 ], [ -65.930725, -17.538689 ], [ -65.930812, -17.538919 ], [ -65.930836, -17.53892 ], [ -65.931045, -17.539119 ], [ -65.931244, -17.53925 ], [ -65.931446, -17.539255 ], [ -65.931624, -17.539293 ], [ -65.931783, -17.539617 ], [ -65.931841, -17.539676 ], [ -65.932051, -17.539818 ], [ -65.932376, -17.539678 ], [ -65.932471, -17.53968 ], [ -65.932516, -17.539696 ], [ -65.932659, -17.539776 ], [ -65.93275, -17.539736 ], [ -65.932814, -17.539673 ], [ -65.932878, -17.539603 ], [ -65.932914, -17.539566 ], [ -65.933085, -17.539376 ], [ -65.933347, -17.539371 ], [ -65.933387, -17.539365 ], [ -65.933452, -17.539314 ], [ -65.933481, -17.539249 ], [ -65.933533, -17.539056 ], [ -65.933647, -17.538762 ], [ -65.933827, -17.538687 ], [ -65.933946, -17.53869 ], [ -65.934194, -17.538765 ], [ -65.934288, -17.538813 ], [ -65.934486, -17.539 ], [ -65.934693, -17.539303 ], [ -65.934764, -17.539304 ], [ -65.934944, -17.539252 ], [ -65.935029, -17.539197 ], [ -65.935346, -17.538885 ], [ -65.935468, -17.53874 ], [ -65.935492, -17.53874 ], [ -65.935805, -17.538577 ], [ -65.935817, -17.538554 ], [ -65.935972, -17.538558 ], [ -65.936078, -17.538584 ], [ -65.936161, -17.538632 ], [ -65.936214, -17.538896 ], [ -65.936226, -17.538896 ], [ -65.936221, -17.539101 ], [ -65.93624, -17.539285 ], [ -65.936383, -17.539288 ], [ -65.936383, -17.539277 ], [ -65.936597, -17.539271 ], [ -65.936597, -17.539282 ], [ -65.93668, -17.539284 ], [ -65.936834, -17.539322 ], [ -65.936892, -17.539392 ], [ -65.93702, -17.539498 ], [ -65.937147, -17.53965 ], [ -65.937546, -17.539888 ], [ -65.937641, -17.539891 ], [ -65.938114, -17.540006 ], [ -65.938246, -17.539986 ], [ -65.938365, -17.539989 ], [ -65.938636, -17.540076 ], [ -65.938717, -17.540158 ], [ -65.938835, -17.540229 ], [ -65.938857, -17.540276 ], [ -65.938893, -17.540276 ], [ -65.939022, -17.540348 ], [ -65.93926, -17.540354 ], [ -65.939322, -17.540344 ], [ -65.939392, -17.5403 ], [ -65.939527, -17.540191 ], [ -65.939562, -17.540168 ], [ -65.939866, -17.53989 ], [ -65.939938, -17.539846 ], [ -65.939986, -17.539859 ], [ -65.940009, -17.53986 ], [ -65.940023, -17.539885 ], [ -65.940044, -17.539917 ], [ -65.940071, -17.540034 ], [ -65.940076, -17.540055 ], [ -65.940092, -17.540183 ], [ -65.940119, -17.540273 ], [ -65.940229, -17.540588 ], [ -65.95177, -17.5356 ], [ -65.956323, -17.534077 ], [ -65.956534, -17.534003 ], [ -65.956642, -17.533994 ], [ -65.956822, -17.533942 ], [ -65.956919, -17.533888 ], [ -65.956991, -17.533867 ], [ -65.957137, -17.533768 ], [ -65.957245, -17.533714 ], [ -65.957403, -17.533604 ], [ -65.957584, -17.533518 ], [ -65.958057, -17.533223 ], [ -65.958229, -17.533176 ], [ -65.958412, -17.533134 ], [ -65.958614, -17.533034 ], [ -65.958781, -17.532954 ], [ -65.958958, -17.532852 ], [ -65.959098, -17.532733 ], [ -65.959345, -17.532539 ], [ -65.959484, -17.532474 ], [ -65.959557, -17.532431 ], [ -65.959572, -17.532431 ], [ -65.959581, -17.532431 ], [ -65.959581, -17.532431 ], [ -65.959955, -17.532248 ], [ -65.960232, -17.532141 ], [ -65.960233, -17.53213 ], [ -65.960366, -17.532054 ], [ -65.960515, -17.531841 ], [ -65.960521, -17.531612 ], [ -65.960351, -17.531299 ], [ -65.960172, -17.530883 ], [ -65.960162, -17.530814 ], [ -65.959866, -17.53028 ], [ -65.959671, -17.53 ], [ -65.959558, -17.529803 ], [ -65.959534, -17.529791 ], [ -65.959495, -17.529499 ], [ -65.959388, -17.529246 ], [ -65.95924, -17.528896 ], [ -65.959195, -17.528642 ], [ -65.959125, -17.528214 ], [ -65.958822, -17.52757 ], [ -65.94895, -17.510716 ], [ -65.948801, -17.510326 ], [ -65.948805, -17.509981 ], [ -65.948778, -17.509656 ], [ -65.948805, -17.509542 ], [ -65.94884, -17.508698 ], [ -65.948895, -17.508436 ], [ -65.948922, -17.507478 ], [ -65.948881, -17.507236 ], [ -65.948883, -17.507157 ], [ -65.948829, -17.506949 ], [ -65.948752, -17.50673 ], [ -65.948615, -17.506509 ], [ -65.948419, -17.506264 ], [ -65.948141, -17.505982 ], [ -65.947779, -17.505697 ], [ -65.94716, -17.505257 ], [ -65.947047, -17.505014 ], [ -65.947167, -17.504114 ], [ -65.947164, -17.503917 ], [ -65.947218, -17.503504 ], [ -65.946763, -17.499842 ], [ -65.9456, -17.497733 ], [ -65.94455, -17.494696 ], [ -65.944548, -17.494691 ], [ -65.943268, -17.494158 ], [ -65.942368, -17.494266 ], [ -65.942032, -17.494052 ], [ -65.942029, -17.49405 ], [ -65.941382, -17.492845 ], [ -65.943647, -17.489717 ], [ -65.945667, -17.48713 ], [ -65.946433, -17.485481 ], [ -65.946614, -17.484366 ], [ -65.946614, -17.484364 ], [ -65.945551, -17.482407 ], [ -65.945549, -17.482404 ], [ -65.945492, -17.481473 ], [ -65.945506, -17.481439 ], [ -65.945994, -17.480206 ], [ -65.946019, -17.480016 ], [ -65.946093, -17.479441 ], [ -65.946071, -17.479416 ], [ -65.942913, -17.475931 ], [ -65.941445, -17.474326 ], [ -65.93978, -17.473013 ], [ -65.939386, -17.472112 ], [ -65.939317, -17.470215 ], [ -65.939645, -17.468323 ], [ -65.939482, -17.467026 ], [ -65.937852, -17.4657 ], [ -65.936954, -17.465324 ], [ -65.919648, -17.464504 ], [ -65.907477, -17.46131 ], [ -65.891071, -17.451169 ], [ -65.888091, -17.444618 ], [ -65.877181, -17.443799 ], [ -65.859496, -17.457537 ], [ -65.859466, -17.457565 ] ] ] ] } }
]
}
