{
"type": "FeatureCollection",
"name": "SANTIVAÑEZ",
"crs": { "type": "name", "properties": { "name": "urn:ogc:def:crs:OGC:1.3:CRS84" } },
"bbox": [ -66.325533, -17.656628, -66.116283, -17.467773 ],                                                                        
"features": [
{ "type": "Feature", "properties": { "NOMBRE": "Santivañez", "NIVEL": "Municipios", "PROVINCIA": "Capinota", "REGION": "Valles", "DEPARTAMENTO": "Cochabamba" }, "bbox": [ -66.325533, -17.656628, -66.116283, -17.467773 ], "geometry": { "type": "MultiPolygon", "coordinates": [ [ [ [ -66.275685, -17.467777 ], [ -66.274921, -17.470101 ], [ -66.27433, -17.470928 ], [ -66.273946, -17.471093 ], [ -66.273783, -17.471887 ], [ -66.273942, -17.472758 ], [ -66.273899, -17.472859 ], [ -66.27339, -17.472986 ], [ -66.273064, -17.473308 ], [ -66.272887, -17.473415 ], [ -66.272546, -17.473975 ], [ -66.271985, -17.473839 ], [ -66.270841, -17.474832 ], [ -66.270496, -17.474871 ], [ -66.269879, -17.475945 ], [ -66.269603, -17.47661 ], [ -66.269103, -17.47703 ], [ -66.26887, -17.477963 ], [ -66.268678, -17.478151 ], [ -66.268757, -17.478495 ], [ -66.268506, -17.478658 ], [ -66.268185, -17.479109 ], [ -66.267907, -17.47932 ], [ -66.267656, -17.48002 ], [ -66.267433, -17.479971 ], [ -66.266936, -17.480162 ], [ -66.26564, -17.483243 ], [ -66.26533, -17.484294 ], [ -66.264924, -17.484587 ], [ -66.264203, -17.485016 ], [ -66.263359, -17.485325 ], [ -66.262377, -17.485961 ], [ -66.259548, -17.487971 ], [ -66.257605, -17.489083 ], [ -66.257273, -17.489321 ], [ -66.257096, -17.489819 ], [ -66.256942, -17.49006 ], [ -66.256609, -17.489901 ], [ -66.256013, -17.490686 ], [ -66.255826, -17.491405 ], [ -66.255636, -17.492312 ], [ -66.255329, -17.493336 ], [ -66.254913, -17.49437 ], [ -66.254344, -17.495814 ], [ -66.253631, -17.497287 ], [ -66.253082, -17.497691 ], [ -66.252214, -17.497636 ], [ -66.251105, -17.49971 ], [ -66.25041, -17.500472 ], [ -66.249302, -17.500836 ], [ -66.247468, -17.501893 ], [ -66.247046, -17.501895 ], [ -66.246296, -17.502291 ], [ -66.245725, -17.502358 ], [ -66.242909, -17.504111 ], [ -66.24174, -17.504069 ], [ -66.240922, -17.504186 ], [ -66.239664, -17.504825 ], [ -66.238824, -17.504886 ], [ -66.237908, -17.505269 ], [ -66.235603, -17.504546 ], [ -66.235625, -17.504439 ], [ -66.232806, -17.504417 ], [ -66.222644, -17.503694 ], [ -66.20834, -17.509451 ], [ -66.198326, -17.50474 ], [ -66.175372, -17.525793 ], [ -66.164485, -17.53407 ], [ -66.162306, -17.525799 ], [ -66.149395, -17.519532 ], [ -66.142248, -17.524392 ], [ -66.137896, -17.523863 ], [ -66.136877, -17.52433 ], [ -66.135776, -17.526961 ], [ -66.134447, -17.527929 ], [ -66.13285, -17.528388 ], [ -66.131973, -17.528995 ], [ -66.129826, -17.532411 ], [ -66.129598, -17.533503 ], [ -66.129596, -17.533506 ], [ -66.129589, -17.533539 ], [ -66.116283, -17.546332 ], [ -66.12958, -17.581783 ], [ -66.139381, -17.596272 ], [ -66.137127, -17.599403 ], [ -66.133817, -17.603126 ], [ -66.129709, -17.614892 ], [ -66.145418, -17.645653 ], [ -66.150619, -17.647396 ], [ -66.168425, -17.656628 ], [ -66.171352, -17.656471 ], [ -66.173523, -17.655844 ], [ -66.181505, -17.651976 ], [ -66.182821, -17.650687 ], [ -66.183214, -17.650842 ], [ -66.184858, -17.649906 ], [ -66.185683, -17.649458 ], [ -66.189067, -17.649617 ], [ -66.191954, -17.650048 ], [ -66.193165, -17.650219 ], [ -66.193725, -17.650307 ], [ -66.194527, -17.649749 ], [ -66.19434, -17.647614 ], [ -66.193241, -17.646685 ], [ -66.193769, -17.64608 ], [ -66.194884, -17.645619 ], [ -66.195636, -17.644649 ], [ -66.19581, -17.642548 ], [ -66.196878, -17.641567 ], [ -66.197334, -17.641327 ], [ -66.197864, -17.640918 ], [ -66.198955, -17.640633 ], [ -66.199332, -17.639723 ], [ -66.199846, -17.638941 ], [ -66.201253, -17.637386 ], [ -66.202561, -17.635565 ], [ -66.203989, -17.634013 ], [ -66.205237, -17.632507 ], [ -66.206551, -17.630797 ], [ -66.207572, -17.629392 ], [ -66.208288, -17.627834 ], [ -66.20907, -17.626346 ], [ -66.209525, -17.624414 ], [ -66.2099, -17.622548 ], [ -66.210388, -17.620985 ], [ -66.211743, -17.619476 ], [ -66.21285, -17.618642 ], [ -66.213486, -17.617861 ], [ -66.214322, -17.617106 ], [ -66.215012, -17.616104 ], [ -66.21616, -17.614398 ], [ -66.217736, -17.613026 ], [ -66.219304, -17.611255 ], [ -66.220349, -17.6099 ], [ -66.22079, -17.608651 ], [ -66.221267, -17.608854 ], [ -66.222098, -17.608924 ], [ -66.222416, -17.608728 ], [ -66.224176, -17.610157 ], [ -66.22514, -17.610476 ], [ -66.226393, -17.610657 ], [ -66.228633, -17.612068 ], [ -66.228888, -17.612442 ], [ -66.231251, -17.613881 ], [ -66.233066, -17.614369 ], [ -66.233937, -17.613762 ], [ -66.234239, -17.613559 ], [ -66.235563, -17.613519 ], [ -66.240653, -17.615958 ], [ -66.240099, -17.617692 ], [ -66.241763, -17.618072 ], [ -66.245065, -17.616889 ], [ -66.247844, -17.618212 ], [ -66.250919, -17.618737 ], [ -66.255784, -17.618762 ], [ -66.255857, -17.620263 ], [ -66.256169, -17.620798 ], [ -66.256712, -17.621158 ], [ -66.25971, -17.623671 ], [ -66.261198, -17.624712 ], [ -66.265425, -17.623625 ], [ -66.267519, -17.622622 ], [ -66.270559, -17.621204 ], [ -66.27226, -17.620195 ], [ -66.275208, -17.616729 ], [ -66.276917, -17.614485 ], [ -66.279023, -17.612034 ], [ -66.280059, -17.610343 ], [ -66.282652, -17.607743 ], [ -66.288148, -17.601389 ], [ -66.289344, -17.592463 ], [ -66.289518, -17.59147 ], [ -66.289495, -17.591114 ], [ -66.289766, -17.583925 ], [ -66.28992, -17.579848 ], [ -66.308636, -17.559635 ], [ -66.307388, -17.552933 ], [ -66.305853, -17.541416 ], [ -66.314354, -17.531888 ], [ -66.307814, -17.52097 ], [ -66.311949, -17.513198 ], [ -66.311169, -17.504224 ], [ -66.325533, -17.483888 ], [ -66.31381, -17.479244 ], [ -66.304936, -17.47742 ], [ -66.298305, -17.477021 ], [ -66.290609, -17.474472 ], [ -66.275703, -17.467773 ], [ -66.275685, -17.467777 ] ] ] ] } }
]
}
