{
"type": "FeatureCollection",
"name": "SHINAOTHA",
"crs": { "type": "name", "properties": { "name": "urn:ogc:def:crs:OGC:1.3:CRS84" } },
"bbox": [ -65.539969, -17.229363, -65.172727, -16.858803 ],                                                                        
"features": [
{ "type": "Feature", "properties": { "NOMBRE": "Shinaotha", "NIVEL": "Municipios", "PROVINCIA": "Tiraque", "REGION": "Tropico", "DEPARTAMENTO": "Cochabamba" }, "bbox": [ -65.539969, -17.229363, -65.172727, -16.858803 ], "geometry": { "type": "MultiPolygon", "coordinates": [ [ [ [ -65.182177, -17.139423 ], [ -65.208837, -17.208828 ], [ -65.237357, -17.229363 ], [ -65.23465, -17.219212 ], [ -65.238362, -17.216045 ], [ -65.245283, -17.214713 ], [ -65.24924, -17.210025 ], [ -65.252643, -17.207747 ], [ -65.25655, -17.205942 ], [ -65.263309, -17.204475 ], [ -65.270481, -17.199914 ], [ -65.281802, -17.195007 ], [ -65.28662, -17.1932 ], [ -65.287223, -17.181107 ], [ -65.292221, -17.168765 ], [ -65.304259, -17.158908 ], [ -65.321916, -17.156005 ], [ -65.344745, -17.149075 ], [ -65.351137, -17.14629 ], [ -65.371311, -17.148006 ], [ -65.397548, -17.144733 ], [ -65.408477, -17.136962 ], [ -65.421135, -17.132168 ], [ -65.4402, -17.118823 ], [ -65.443363, -17.113574 ], [ -65.455757, -17.114625 ], [ -65.468415, -17.172621 ], [ -65.512353, -17.163092 ], [ -65.524389, -17.16389 ], [ -65.524436, -17.162947 ], [ -65.524113, -17.161221 ], [ -65.524095, -17.160286 ], [ -65.524081, -17.160198 ], [ -65.524171, -17.160183 ], [ -65.524581, -17.159306 ], [ -65.524808, -17.158999 ], [ -65.52537, -17.157917 ], [ -65.525446, -17.157814 ], [ -65.525431, -17.157726 ], [ -65.525582, -17.157522 ], [ -65.525643, -17.157332 ], [ -65.525516, -17.156001 ], [ -65.525501, -17.155913 ], [ -65.525854, -17.154685 ], [ -65.525839, -17.154597 ], [ -65.526715, -17.153734 ], [ -65.526692, -17.152476 ], [ -65.526782, -17.152462 ], [ -65.52682, -17.151014 ], [ -65.526777, -17.150751 ], [ -65.526672, -17.150678 ], [ -65.526614, -17.150327 ], [ -65.526524, -17.150341 ], [ -65.526393, -17.149552 ], [ -65.526288, -17.149479 ], [ -65.526259, -17.149303 ], [ -65.525814, -17.148294 ], [ -65.52612, -17.147343 ], [ -65.526106, -17.147256 ], [ -65.526743, -17.146071 ], [ -65.527514, -17.145135 ], [ -65.527784, -17.145091 ], [ -65.527668, -17.144389 ], [ -65.527563, -17.144316 ], [ -65.527029, -17.143322 ], [ -65.526543, -17.141509 ], [ -65.526619, -17.141406 ], [ -65.526575, -17.141143 ], [ -65.527, -17.140353 ], [ -65.528896, -17.137435 ], [ -65.528986, -17.137421 ], [ -65.528972, -17.137333 ], [ -65.529047, -17.137231 ], [ -65.529702, -17.135593 ], [ -65.529792, -17.135578 ], [ -65.530772, -17.134788 ], [ -65.530848, -17.134686 ], [ -65.530898, -17.133867 ], [ -65.531352, -17.133253 ], [ -65.531296, -17.132361 ], [ -65.531541, -17.1316 ], [ -65.531512, -17.131425 ], [ -65.531093, -17.131132 ], [ -65.531079, -17.131045 ], [ -65.530721, -17.130562 ], [ -65.530788, -17.12929 ], [ -65.531004, -17.128354 ], [ -65.531321, -17.128032 ], [ -65.532315, -17.12733 ], [ -65.532697, -17.126277 ], [ -65.532682, -17.126189 ], [ -65.532761, -17.125546 ], [ -65.533529, -17.125151 ], [ -65.533619, -17.125136 ], [ -65.5343, -17.124215 ], [ -65.534285, -17.124127 ], [ -65.534361, -17.124025 ], [ -65.534544, -17.123454 ], [ -65.534454, -17.123469 ], [ -65.534439, -17.123381 ], [ -65.534335, -17.123308 ], [ -65.534306, -17.123133 ], [ -65.533843, -17.122577 ], [ -65.533933, -17.122562 ], [ -65.534009, -17.12246 ], [ -65.534221, -17.122065 ], [ -65.534312, -17.122051 ], [ -65.534661, -17.121363 ], [ -65.535961, -17.11971 ], [ -65.536037, -17.119608 ], [ -65.536075, -17.11816 ], [ -65.536017, -17.117809 ], [ -65.536354, -17.116493 ], [ -65.536444, -17.116479 ], [ -65.53652, -17.116376 ], [ -65.536505, -17.116288 ], [ -65.536381, -17.114417 ], [ -65.536337, -17.114153 ], [ -65.536628, -17.113115 ], [ -65.537969, -17.112267 ], [ -65.538591, -17.111632 ], [ -65.539969, -17.111389 ], [ -65.53958, -17.11075 ], [ -65.538671, -17.10756 ], [ -65.538029, -17.107034 ], [ -65.537162, -17.106273 ], [ -65.536386, -17.105498 ], [ -65.535171, -17.105425 ], [ -65.533388, -17.104724 ], [ -65.531812, -17.104709 ], [ -65.530734, -17.104344 ], [ -65.530719, -17.104256 ], [ -65.530629, -17.104271 ], [ -65.530614, -17.104183 ], [ -65.53051, -17.10411 ], [ -65.5296, -17.103086 ], [ -65.528574, -17.101361 ], [ -65.527859, -17.100395 ], [ -65.527475, -17.100162 ], [ -65.52659, -17.100142 ], [ -65.525311, -17.099811 ], [ -65.523201, -17.101334 ], [ -65.521665, -17.102124 ], [ -65.519726, -17.102709 ], [ -65.518103, -17.102972 ], [ -65.516873, -17.102811 ], [ -65.515646, -17.10211 ], [ -65.513698, -17.101525 ], [ -65.512937, -17.100837 ], [ -65.512019, -17.100716 ], [ -65.511223, -17.100935 ], [ -65.510199, -17.101462 ], [ -65.509543, -17.101959 ], [ -65.508562, -17.102561 ], [ -65.508367, -17.10204 ], [ -65.507969, -17.100713 ], [ -65.507454, -17.100209 ], [ -65.506137, -17.100409 ], [ -65.505512, -17.099429 ], [ -65.504477, -17.099326 ], [ -65.50314, -17.099633 ], [ -65.501866, -17.099209 ], [ -65.501361, -17.09839 ], [ -65.501346, -17.098302 ], [ -65.500837, -17.098025 ], [ -65.500747, -17.098039 ], [ -65.500718, -17.097864 ], [ -65.500628, -17.097878 ], [ -65.500256, -17.097308 ], [ -65.500242, -17.09722 ], [ -65.499721, -17.096314 ], [ -65.499707, -17.096226 ], [ -65.498736, -17.095392 ], [ -65.497553, -17.094953 ], [ -65.495843, -17.09469 ], [ -65.495172, -17.093988 ], [ -65.495157, -17.0939 ], [ -65.495103, -17.093008 ], [ -65.495304, -17.091984 ], [ -65.494784, -17.091078 ], [ -65.494769, -17.09099 ], [ -65.493866, -17.090502 ], [ -65.492662, -17.090162 ], [ -65.491857, -17.090416 ], [ -65.490719, -17.091591 ], [ -65.489107, -17.092377 ], [ -65.488476, -17.091219 ], [ -65.487133, -17.089978 ], [ -65.486418, -17.089013 ], [ -65.485882, -17.085766 ], [ -65.485426, -17.084128 ], [ -65.485412, -17.084041 ], [ -65.484953, -17.082944 ], [ -65.48425, -17.082607 ], [ -65.483308, -17.081949 ], [ -65.481962, -17.081086 ], [ -65.48089, -17.079638 ], [ -65.479393, -17.07898 ], [ -65.477402, -17.078131 ], [ -65.475126, -17.077239 ], [ -65.473795, -17.076463 ], [ -65.473704, -17.076478 ], [ -65.471187, -17.075805 ], [ -65.47008, -17.075264 ], [ -65.469441, -17.074196 ], [ -65.469119, -17.072806 ], [ -65.469111, -17.071637 ], [ -65.468468, -17.07111 ], [ -65.467693, -17.070337 ], [ -65.467563, -17.069548 ], [ -65.468092, -17.068831 ], [ -65.468156, -17.0681 ], [ -65.468491, -17.067325 ], [ -65.468617, -17.066403 ], [ -65.469265, -17.065848 ], [ -65.470769, -17.065424 ], [ -65.472763, -17.065732 ], [ -65.473815, -17.065381 ], [ -65.474406, -17.064474 ], [ -65.475083, -17.06379 ], [ -65.47555, -17.061316 ], [ -65.475917, -17.060175 ], [ -65.476324, -17.059839 ], [ -65.478115, -17.058918 ], [ -65.481032, -17.058084 ], [ -65.481183, -17.05788 ], [ -65.481024, -17.056914 ], [ -65.480158, -17.056154 ], [ -65.478318, -17.055101 ], [ -65.478228, -17.055115 ], [ -65.478199, -17.05494 ], [ -65.476464, -17.05396 ], [ -65.474513, -17.053915 ], [ -65.472345, -17.052555 ], [ -65.470849, -17.051897 ], [ -65.468826, -17.051414 ], [ -65.465311, -17.051983 ], [ -65.463753, -17.051515 ], [ -65.46293, -17.051017 ], [ -65.460659, -17.051836 ], [ -65.460569, -17.05185 ], [ -65.460555, -17.051763 ], [ -65.460375, -17.051792 ], [ -65.459206, -17.051441 ], [ -65.459102, -17.051367 ], [ -65.45789, -17.050753 ], [ -65.456887, -17.050825 ], [ -65.454948, -17.051462 ], [ -65.4545, -17.049944 ], [ -65.453906, -17.048619 ], [ -65.452284, -17.047066 ], [ -65.450221, -17.045779 ], [ -65.449172, -17.045588 ], [ -65.448224, -17.046012 ], [ -65.447918, -17.046962 ], [ -65.447212, -17.049577 ], [ -65.446042, -17.050101 ], [ -65.445336, -17.050508 ], [ -65.444381, -17.051032 ], [ -65.443398, -17.052574 ], [ -65.443135, -17.05362 ], [ -65.442724, -17.054427 ], [ -65.442496, -17.054182 ], [ -65.441613, -17.053638 ], [ -65.440476, -17.053119 ], [ -65.439903, -17.052587 ], [ -65.438387, -17.052003 ], [ -65.437862, -17.051694 ], [ -65.437837, -17.05168 ], [ -65.436809, -17.05112 ], [ -65.436228, -17.050616 ], [ -65.435884, -17.050252 ], [ -65.435407, -17.049542 ], [ -65.434864, -17.048628 ], [ -65.434771, -17.048057 ], [ -65.434915, -17.047687 ], [ -65.434915, -17.047646 ], [ -65.43527, -17.047151 ], [ -65.435329, -17.046843 ], [ -65.435304, -17.046537 ], [ -65.435131, -17.046273 ], [ -65.435064, -17.04609 ], [ -65.434882, -17.045924 ], [ -65.43463, -17.045763 ], [ -65.434788, -17.04445 ], [ -65.434783, -17.044061 ], [ -65.434685, -17.043081 ], [ -65.434611, -17.042264 ], [ -65.43454, -17.041733 ], [ -65.433927, -17.037022 ], [ -65.433241, -17.034594 ], [ -65.433108, -17.034146 ], [ -65.433091, -17.032878 ], [ -65.43309, -17.032797 ], [ -65.4332, -17.031446 ], [ -65.432372, -17.02982 ], [ -65.432015, -17.028515 ], [ -65.431565, -17.02664 ], [ -65.430438, -17.024961 ], [ -65.429657, -17.023702 ], [ -65.429223, -17.023053 ], [ -65.428704, -17.022323 ], [ -65.428733, -17.021259 ], [ -65.428769, -17.020768 ], [ -65.429099, -17.019987 ], [ -65.429098, -17.019905 ], [ -65.429097, -17.019865 ], [ -65.429132, -17.019251 ], [ -65.429248, -17.01839 ], [ -65.429099, -17.017376 ], [ -65.428815, -17.014843 ], [ -65.428849, -17.010835 ], [ -65.427947, -17.006838 ], [ -65.427117, -17.001776 ], [ -65.426471, -16.997858 ], [ -65.42647, -16.997776 ], [ -65.426666, -16.99467 ], [ -65.425944, -16.989876 ], [ -65.425568, -16.9871 ], [ -65.424496, -16.983105 ], [ -65.420937, -16.977339 ], [ -65.419901, -16.976043 ], [ -65.419127, -16.975316 ], [ -65.417758, -16.974678 ], [ -65.416569, -16.974692 ], [ -65.416484, -16.974693 ], [ -65.415046, -16.975283 ], [ -65.413604, -16.97601 ], [ -65.411921, -16.976262 ], [ -65.409972, -16.976694 ], [ -65.408951, -16.976624 ], [ -65.408356, -16.976632 ], [ -65.407071, -16.975829 ], [ -65.407063, -16.975174 ], [ -65.40705, -16.974193 ], [ -65.406616, -16.973462 ], [ -65.406018, -16.973224 ], [ -65.40423, -16.972999 ], [ -65.402785, -16.973016 ], [ -65.40177, -16.973356 ], [ -65.400243, -16.973619 ], [ -65.399613, -16.973596 ], [ -65.399293, -16.973477 ], [ -65.39912, -16.973275 ], [ -65.399024, -16.972822 ], [ -65.399176, -16.972661 ], [ -65.399172, -16.972313 ], [ -65.39897, -16.971518 ], [ -65.398224, -16.970831 ], [ -65.397917, -16.970549 ], [ -65.396189, -16.969069 ], [ -65.394735, -16.96835 ], [ -65.392934, -16.967104 ], [ -65.391395, -16.9663 ], [ -65.390512, -16.965623 ], [ -65.388853, -16.965479 ], [ -65.387918, -16.96549 ], [ -65.386767, -16.965135 ], [ -65.3854, -16.964619 ], [ -65.385358, -16.96462 ], [ -65.384755, -16.964013 ], [ -65.382178, -16.961876 ], [ -65.381108, -16.961234 ], [ -65.379535, -16.960648 ], [ -65.378501, -16.960078 ], [ -65.377396, -16.96005 ], [ -65.375016, -16.960078 ], [ -65.371953, -16.959787 ], [ -65.36879, -16.958351 ], [ -65.367683, -16.9582 ], [ -65.36639, -16.958046 ], [ -65.364652, -16.957566 ], [ -65.360556, -16.956304 ], [ -65.357568, -16.955234 ], [ -65.357483, -16.955235 ], [ -65.355355, -16.954974 ], [ -65.353999, -16.955276 ], [ -65.353914, -16.955277 ], [ -65.3509, -16.954969 ], [ -65.348957, -16.954489 ], [ -65.347986, -16.954249 ], [ -65.347096, -16.953752 ], [ -65.344578, -16.952819 ], [ -65.342522, -16.951845 ], [ -65.339443, -16.950326 ], [ -65.336637, -16.950195 ], [ -65.33407, -16.948752 ], [ -65.331241, -16.946821 ], [ -65.329712, -16.946839 ], [ -65.327152, -16.94605 ], [ -65.326982, -16.946052 ], [ -65.323903, -16.944451 ], [ -65.3216, -16.941172 ], [ -65.319724, -16.939374 ], [ -65.317498, -16.938009 ], [ -65.311939, -16.935127 ], [ -65.310127, -16.932939 ], [ -65.309353, -16.93213 ], [ -65.307733, -16.931739 ], [ -65.307731, -16.931575 ], [ -65.306876, -16.931094 ], [ -65.304921, -16.931116 ], [ -65.302963, -16.930811 ], [ -65.301852, -16.930333 ], [ -65.300807, -16.929212 ], [ -65.299829, -16.927581 ], [ -65.297356, -16.926873 ], [ -65.294962, -16.925673 ], [ -65.292743, -16.92488 ], [ -65.290438, -16.924006 ], [ -65.289065, -16.922957 ], [ -65.288896, -16.922959 ], [ -65.28758, -16.921908 ], [ -65.285726, -16.920868 ], [ -65.285556, -16.92087 ], [ -65.280698, -16.919697 ], [ -65.27806, -16.919399 ], [ -65.27398, -16.919281 ], [ -65.269811, -16.918837 ], [ -65.267833, -16.918605 ], [ -65.265378, -16.917659 ], [ -65.262729, -16.916461 ], [ -65.261028, -16.916316 ], [ -65.259501, -16.916579 ], [ -65.258059, -16.916758 ], [ -65.255058, -16.914501 ], [ -65.255052, -16.91401 ], [ -65.254531, -16.913116 ], [ -65.254527, -16.912789 ], [ -65.255114, -16.912128 ], [ -65.255103, -16.911146 ], [ -65.255069, -16.910615 ], [ -65.254679, -16.909534 ], [ -65.254576, -16.908062 ], [ -65.253542, -16.906847 ], [ -65.252262, -16.90637 ], [ -65.250142, -16.90672 ], [ -65.249812, -16.907542 ], [ -65.249133, -16.907631 ], [ -65.247603, -16.907566 ], [ -65.247, -16.906919 ], [ -65.246994, -16.906428 ], [ -65.246048, -16.905457 ], [ -65.245275, -16.904729 ], [ -65.244586, -16.904 ], [ -65.244659, -16.902936 ], [ -65.245415, -16.902191 ], [ -65.245914, -16.901286 ], [ -65.245802, -16.90069 ], [ -65.245726, -16.899816 ], [ -65.243921, -16.898036 ], [ -65.242109, -16.895683 ], [ -65.239803, -16.894727 ], [ -65.237765, -16.894831 ], [ -65.234545, -16.895602 ], [ -65.232254, -16.895873 ], [ -65.229607, -16.894756 ], [ -65.228573, -16.893541 ], [ -65.227283, -16.892164 ], [ -65.226598, -16.89179 ], [ -65.226114, -16.891781 ], [ -65.226246, -16.890731 ], [ -65.226906, -16.889006 ], [ -65.227319, -16.888019 ], [ -65.227222, -16.887039 ], [ -65.225253, -16.885751 ], [ -65.223119, -16.884875 ], [ -65.220649, -16.884411 ], [ -65.219624, -16.883931 ], [ -65.21876, -16.882713 ], [ -65.218324, -16.881736 ], [ -65.217712, -16.88027 ], [ -65.217531, -16.879291 ], [ -65.217853, -16.877815 ], [ -65.219116, -16.876819 ], [ -65.220296, -16.875989 ], [ -65.220366, -16.874761 ], [ -65.219684, -16.874523 ], [ -65.217813, -16.874379 ], [ -65.213924, -16.875976 ], [ -65.211808, -16.876735 ], [ -65.210846, -16.877176 ], [ -65.207851, -16.878172 ], [ -65.205214, -16.877955 ], [ -65.203501, -16.876746 ], [ -65.202977, -16.875525 ], [ -65.202255, -16.871851 ], [ -65.202136, -16.868908 ], [ -65.202011, -16.865473 ], [ -65.20098, -16.864502 ], [ -65.19953, -16.864027 ], [ -65.197753, -16.864619 ], [ -65.197005, -16.866018 ], [ -65.19583, -16.867257 ], [ -65.194057, -16.868258 ], [ -65.192524, -16.867947 ], [ -65.191916, -16.866808 ], [ -65.192496, -16.865493 ], [ -65.194002, -16.863514 ], [ -65.194498, -16.862281 ], [ -65.194824, -16.861133 ], [ -65.194299, -16.859747 ], [ -65.194207, -16.859176 ], [ -65.193821, -16.858894 ], [ -65.193004, -16.858803 ], [ -65.190649, -16.860032 ], [ -65.188896, -16.86275 ], [ -65.188154, -16.864722 ], [ -65.187842, -16.867179 ], [ -65.187864, -16.86906 ], [ -65.188236, -16.871838 ], [ -65.189875, -16.874029 ], [ -65.19167, -16.87491 ], [ -65.19754, -16.875583 ], [ -65.198562, -16.875818 ], [ -65.200863, -16.876366 ], [ -65.20215, -16.877497 ], [ -65.202252, -16.878968 ], [ -65.201509, -16.880776 ], [ -65.201124, -16.881837 ], [ -65.201132, -16.882492 ], [ -65.202341, -16.884196 ], [ -65.203464, -16.88582 ], [ -65.203824, -16.887535 ], [ -65.204938, -16.888341 ], [ -65.206397, -16.889552 ], [ -65.207019, -16.891918 ], [ -65.207031, -16.892981 ], [ -65.206459, -16.894869 ], [ -65.204866, -16.896767 ], [ -65.203174, -16.897358 ], [ -65.201576, -16.898848 ], [ -65.196244, -16.900623 ], [ -65.194336, -16.900964 ], [ -65.192977, -16.90106 ], [ -65.192935, -16.901061 ], [ -65.191106, -16.900917 ], [ -65.189874, -16.90093 ], [ -65.188351, -16.901519 ], [ -65.187724, -16.902385 ], [ -65.187146, -16.903863 ], [ -65.187327, -16.904802 ], [ -65.18785, -16.905901 ], [ -65.188877, -16.906544 ], [ -65.190281, -16.906734 ], [ -65.191721, -16.90635 ], [ -65.192337, -16.905895 ], [ -65.194293, -16.906113 ], [ -65.195086, -16.906982 ], [ -65.195528, -16.908543 ], [ -65.195839, -16.909308 ], [ -65.195853, -16.909396 ], [ -65.195944, -16.909382 ], [ -65.195958, -16.90947 ], [ -65.196049, -16.909456 ], [ -65.196064, -16.909544 ], [ -65.196698, -16.909442 ], [ -65.197732, -16.908369 ], [ -65.198319, -16.908547 ], [ -65.198333, -16.908635 ], [ -65.198615, -16.909224 ], [ -65.198644, -16.909401 ], [ -65.198321, -16.910268 ], [ -65.198231, -16.910283 ], [ -65.197759, -16.910812 ], [ -65.197668, -16.910826 ], [ -65.195613, -16.911338 ], [ -65.195232, -16.911853 ], [ -65.195261, -16.912029 ], [ -65.195587, -16.912883 ], [ -65.196355, -16.913031 ], [ -65.196446, -16.913017 ], [ -65.198062, -16.912666 ], [ -65.198921, -16.9128 ], [ -65.199012, -16.912785 ], [ -65.19937, -16.913271 ], [ -65.199385, -16.913359 ], [ -65.199591, -16.914051 ], [ -65.199355, -16.915449 ], [ -65.1996, -16.91695 ], [ -65.199984, -16.918157 ], [ -65.199813, -16.918819 ], [ -65.199313, -16.919171 ], [ -65.199222, -16.919186 ], [ -65.198334, -16.918875 ], [ -65.19832, -16.918787 ], [ -65.197345, -16.917947 ], [ -65.196998, -16.915828 ], [ -65.1959, -16.91537 ], [ -65.195009, -16.915604 ], [ -65.194465, -16.915692 ], [ -65.194356, -16.916162 ], [ -65.194772, -16.917002 ], [ -65.194863, -16.916987 ], [ -65.195413, -16.918077 ], [ -65.195304, -16.918547 ], [ -65.194981, -16.919415 ], [ -65.195249, -16.919915 ], [ -65.196518, -16.919711 ], [ -65.196833, -16.919933 ], [ -65.197115, -16.920521 ], [ -65.197021, -16.92108 ], [ -65.197093, -16.921522 ], [ -65.197017, -16.921625 ], [ -65.197045, -16.921801 ], [ -65.198006, -16.922553 ], [ -65.19918, -16.922908 ], [ -65.199926, -16.924057 ], [ -65.199469, -16.924674 ], [ -65.198577, -16.924908 ], [ -65.198486, -16.924923 ], [ -65.198167, -16.925246 ], [ -65.198326, -16.926217 ], [ -65.198293, -16.926585 ], [ -65.197959, -16.92682 ], [ -65.197869, -16.926835 ], [ -65.195245, -16.926454 ], [ -65.194653, -16.926622 ], [ -65.194232, -16.926979 ], [ -65.193997, -16.927124 ], [ -65.193623, -16.927299 ], [ -65.193377, -16.927611 ], [ -65.193677, -16.92766 ], [ -65.193947, -16.927953 ], [ -65.194503, -16.928156 ], [ -65.195649, -16.929185 ], [ -65.195754, -16.929259 ], [ -65.196272, -16.930716 ], [ -65.196377, -16.93079 ], [ -65.197022, -16.931321 ], [ -65.196937, -16.932512 ], [ -65.197346, -16.93444 ], [ -65.197433, -16.93497 ], [ -65.197186, -16.935735 ], [ -65.196671, -16.935999 ], [ -65.196022, -16.936013 ], [ -65.1955, -16.9351 ], [ -65.195486, -16.935011 ], [ -65.195381, -16.934938 ], [ -65.195218, -16.934511 ], [ -65.195603, -16.933452 ], [ -65.195588, -16.933364 ], [ -65.19523, -16.932878 ], [ -65.194165, -16.932052 ], [ -65.194074, -16.932067 ], [ -65.193516, -16.932066 ], [ -65.193425, -16.932081 ], [ -65.193106, -16.932404 ], [ -65.19303, -16.932507 ], [ -65.192692, -16.933286 ], [ -65.192707, -16.933374 ], [ -65.19255, -16.934124 ], [ -65.192956, -16.934331 ], [ -65.193137, -16.934302 ], [ -65.193152, -16.93439 ], [ -65.193242, -16.934376 ], [ -65.19413, -16.934686 ], [ -65.194623, -16.935422 ], [ -65.194637, -16.93551 ], [ -65.194376, -16.936187 ], [ -65.194195, -16.936216 ], [ -65.192983, -16.936773 ], [ -65.192802, -16.936803 ], [ -65.192226, -16.937258 ], [ -65.192046, -16.937716 ], [ -65.192205, -16.938688 ], [ -65.192893, -16.939483 ], [ -65.193658, -16.940176 ], [ -65.193578, -16.940823 ], [ -65.193592, -16.940911 ], [ -65.193501, -16.940926 ], [ -65.192715, -16.941234 ], [ -65.191224, -16.942923 ], [ -65.191339, -16.94363 ], [ -65.192303, -16.943837 ], [ -65.193978, -16.94384 ], [ -65.194069, -16.943825 ], [ -65.194594, -16.944194 ], [ -65.194609, -16.944282 ], [ -65.194829, -16.945062 ], [ -65.194887, -16.945415 ], [ -65.194865, -16.946416 ], [ -65.194879, -16.946504 ], [ -65.194603, -16.947092 ], [ -65.193188, -16.948679 ], [ -65.192698, -16.949664 ], [ -65.192404, -16.950708 ], [ -65.192686, -16.951297 ], [ -65.193785, -16.951755 ], [ -65.194895, -16.95058 ], [ -65.195591, -16.950286 ], [ -65.196573, -16.950038 ], [ -65.197307, -16.948832 ], [ -65.197869, -16.948289 ], [ -65.197854, -16.9482 ], [ -65.198322, -16.948216 ], [ -65.198336, -16.948304 ], [ -65.198442, -16.948378 ], [ -65.198615, -16.949437 ], [ -65.198741, -16.950777 ], [ -65.199262, -16.951689 ], [ -65.200107, -16.951735 ], [ -65.201572, -16.95159 ], [ -65.202427, -16.952268 ], [ -65.202441, -16.952356 ], [ -65.202582, -16.953784 ], [ -65.202346, -16.955181 ], [ -65.20236, -16.955269 ], [ -65.20241, -16.956711 ], [ -65.202054, -16.957947 ], [ -65.202068, -16.958035 ], [ -65.201234, -16.958622 ], [ -65.199842, -16.959209 ], [ -65.198898, -16.960082 ], [ -65.198084, -16.961184 ], [ -65.198473, -16.962782 ], [ -65.198566, -16.964489 ], [ -65.198424, -16.965327 ], [ -65.197274, -16.965693 ], [ -65.196263, -16.965765 ], [ -65.196172, -16.96578 ], [ -65.196096, -16.965883 ], [ -65.195548, -16.966515 ], [ -65.195472, -16.966618 ], [ -65.195482, -16.96725 ], [ -65.195551, -16.967669 ], [ -65.196707, -16.96848 ], [ -65.197051, -16.968877 ], [ -65.197066, -16.968966 ], [ -65.196985, -16.969613 ], [ -65.197, -16.969701 ], [ -65.196924, -16.969804 ], [ -65.19692, -16.970349 ], [ -65.196992, -16.97079 ], [ -65.197895, -16.971189 ], [ -65.200929, -16.970972 ], [ -65.201469, -16.971429 ], [ -65.201484, -16.971518 ], [ -65.201523, -16.972327 ], [ -65.201432, -16.972341 ], [ -65.201447, -16.97243 ], [ -65.201371, -16.972533 ], [ -65.201037, -16.972767 ], [ -65.199315, -16.973045 ], [ -65.198829, -16.973485 ], [ -65.198843, -16.973573 ], [ -65.198831, -16.975207 ], [ -65.198871, -16.976016 ], [ -65.198899, -16.976192 ], [ -65.198747, -16.976398 ], [ -65.198261, -16.976839 ], [ -65.196357, -16.977145 ], [ -65.195748, -16.977968 ], [ -65.196044, -16.978645 ], [ -65.196737, -16.978896 ], [ -65.197425, -16.979692 ], [ -65.198091, -16.981488 ], [ -65.199033, -16.982696 ], [ -65.199827, -16.983565 ], [ -65.200468, -16.98464 ], [ -65.200825, -16.987392 ], [ -65.201122, -16.988069 ], [ -65.202311, -16.988512 ], [ -65.204396, -16.988177 ], [ -65.206213, -16.987341 ], [ -65.207163, -16.98746 ], [ -65.207254, -16.987445 ], [ -65.208109, -16.988123 ], [ -65.208254, -16.989006 ], [ -65.207706, -16.989638 ], [ -65.205631, -16.990606 ], [ -65.204558, -16.990869 ], [ -65.204467, -16.990884 ], [ -65.204006, -16.992046 ], [ -65.201735, -16.994905 ], [ -65.201799, -16.996183 ], [ -65.201708, -16.996198 ], [ -65.199611, -16.998166 ], [ -65.199383, -16.998475 ], [ -65.199331, -16.999299 ], [ -65.199457, -17.000638 ], [ -65.199, -17.001255 ], [ -65.197861, -17.002254 ], [ -65.19777, -17.002268 ], [ -65.196823, -17.003871 ], [ -65.196634, -17.004989 ], [ -65.19697, -17.006475 ], [ -65.196233, -17.007657 ], [ -65.195398, -17.008245 ], [ -65.195308, -17.008259 ], [ -65.195322, -17.008348 ], [ -65.195141, -17.008377 ], [ -65.194292, -17.008876 ], [ -65.194306, -17.008964 ], [ -65.193911, -17.00939 ], [ -65.194222, -17.010156 ], [ -65.195321, -17.010613 ], [ -65.195411, -17.010599 ], [ -65.196347, -17.01063 ], [ -65.196601, -17.011042 ], [ -65.19663, -17.011219 ], [ -65.19664, -17.011851 ], [ -65.196564, -17.011954 ], [ -65.196578, -17.012042 ], [ -65.195863, -17.012792 ], [ -65.195773, -17.012806 ], [ -65.195769, -17.013351 ], [ -65.195783, -17.013439 ], [ -65.195693, -17.013453 ], [ -65.196004, -17.014219 ], [ -65.196095, -17.014204 ], [ -65.197618, -17.014413 ], [ -65.197708, -17.014398 ], [ -65.19918, -17.01543 ], [ -65.200108, -17.01655 ], [ -65.200133, -17.01727 ], [ -65.199533, -17.01777 ], [ -65.199114, -17.018096 ], [ -65.199886, -17.018035 ], [ -65.200535, -17.018021 ], [ -65.201213, -17.018184 ], [ -65.201648, -17.018567 ], [ -65.201887, -17.018891 ], [ -65.201955, -17.019877 ], [ -65.202205, -17.020834 ], [ -65.20256, -17.021864 ], [ -65.203009, -17.022336 ], [ -65.203226, -17.02366 ], [ -65.204049, -17.024706 ], [ -65.204632, -17.025428 ], [ -65.205346, -17.026944 ], [ -65.206163, -17.02697 ], [ -65.206253, -17.026956 ], [ -65.206268, -17.027044 ], [ -65.207037, -17.027192 ], [ -65.207472, -17.027575 ], [ -65.207577, -17.027649 ], [ -65.207823, -17.02915 ], [ -65.209022, -17.030226 ], [ -65.209892, -17.030992 ], [ -65.209907, -17.03108 ], [ -65.209998, -17.031066 ], [ -65.212075, -17.031819 ], [ -65.213112, -17.032468 ], [ -65.213696, -17.03319 ], [ -65.213945, -17.034146 ], [ -65.21471, -17.034839 ], [ -65.215127, -17.035678 ], [ -65.215424, -17.036355 ], [ -65.216566, -17.037078 ], [ -65.216581, -17.037166 ], [ -65.216671, -17.037151 ], [ -65.216762, -17.037171 ], [ -65.216749, -17.039901 ], [ -65.216614, -17.041916 ], [ -65.216153, -17.043078 ], [ -65.216304, -17.045138 ], [ -65.216198, -17.04733 ], [ -65.215965, -17.048183 ], [ -65.216534, -17.048817 ], [ -65.217928, -17.048592 ], [ -65.218076, -17.048568 ], [ -65.21809, -17.048657 ], [ -65.218573, -17.04876 ], [ -65.219037, -17.04932 ], [ -65.219189, -17.049682 ], [ -65.218313, -17.051357 ], [ -65.218382, -17.052711 ], [ -65.217663, -17.054005 ], [ -65.217336, -17.055417 ], [ -65.216784, -17.056593 ], [ -65.216799, -17.056681 ], [ -65.216152, -17.058417 ], [ -65.215129, -17.060122 ], [ -65.214896, -17.060975 ], [ -65.21491, -17.061063 ], [ -65.215338, -17.061968 ], [ -65.216585, -17.062764 ], [ -65.21669, -17.062838 ], [ -65.218595, -17.062531 ], [ -65.219893, -17.062504 ], [ -65.219984, -17.062489 ], [ -65.221446, -17.062888 ], [ -65.221536, -17.062874 ], [ -65.223056, -17.063626 ], [ -65.223147, -17.063611 ], [ -65.224194, -17.064893 ], [ -65.224339, -17.065776 ], [ -65.224248, -17.06579 ], [ -65.223667, -17.06679 ], [ -65.22292, -17.067907 ], [ -65.222829, -17.067922 ], [ -65.222843, -17.06801 ], [ -65.222749, -17.068569 ], [ -65.223246, -17.068761 ], [ -65.223833, -17.068938 ], [ -65.224072, -17.069262 ], [ -65.224347, -17.07094 ], [ -65.223981, -17.071542 ], [ -65.22389, -17.071557 ], [ -65.222903, -17.07235 ], [ -65.222177, -17.072467 ], [ -65.221796, -17.072981 ], [ -65.221215, -17.073981 ], [ -65.220892, -17.074849 ], [ -65.221204, -17.075614 ], [ -65.221591, -17.076277 ], [ -65.22145, -17.077115 ], [ -65.221081, -17.077494 ], [ -65.220341, -17.078301 ], [ -65.21948, -17.07773 ], [ -65.218925, -17.077612 ], [ -65.218181, -17.078185 ], [ -65.217636, -17.078272 ], [ -65.216758, -17.078595 ], [ -65.216577, -17.078624 ], [ -65.216148, -17.079418 ], [ -65.214933, -17.080519 ], [ -65.214842, -17.080534 ], [ -65.214609, -17.081387 ], [ -65.214812, -17.082056 ], [ -65.214826, -17.082144 ], [ -65.216037, -17.083852 ], [ -65.216794, -17.085634 ], [ -65.21798, -17.086621 ], [ -65.218009, -17.086797 ], [ -65.2181, -17.086783 ], [ -65.218713, -17.087681 ], [ -65.218818, -17.087755 ], [ -65.218832, -17.087843 ], [ -65.218923, -17.087829 ], [ -65.21996, -17.088477 ], [ -65.220667, -17.088817 ], [ -65.220682, -17.088905 ], [ -65.221012, -17.089214 ], [ -65.221026, -17.089303 ], [ -65.221294, -17.089803 ], [ -65.221352, -17.090156 ], [ -65.221225, -17.091083 ], [ -65.221431, -17.091775 ], [ -65.221446, -17.091863 ], [ -65.222135, -17.092659 ], [ -65.222149, -17.092747 ], [ -65.222254, -17.09282 ], [ -65.22376, -17.093485 ], [ -65.225718, -17.094076 ], [ -65.229542, -17.093551 ], [ -65.230101, -17.093552 ], [ -65.230536, -17.093935 ], [ -65.230198, -17.094714 ], [ -65.230213, -17.094802 ], [ -65.229951, -17.095479 ], [ -65.22915, -17.095699 ], [ -65.229059, -17.095713 ], [ -65.227775, -17.095829 ], [ -65.226156, -17.09618 ], [ -65.224912, -17.097105 ], [ -65.223533, -17.09778 ], [ -65.222331, -17.09897 ], [ -65.221272, -17.099322 ], [ -65.220781, -17.100307 ], [ -65.220691, -17.100322 ], [ -65.220679, -17.101955 ], [ -65.22084, -17.10377 ], [ -65.183551, -17.104176 ], [ -65.172727, -17.130717 ], [ -65.182177, -17.139423 ] ] ] ] } }
]
}
