{
"type": "FeatureCollection",
"name": "SICAYA",
"crs": { "type": "name", "properties": { "name": "urn:ogc:def:crs:OGC:1.3:CRS84" } },
"bbox": [ -66.429616, -17.871325, -66.276309, -17.682834 ],                                                                        
"features": [
{ "type": "Feature", "properties": { "NOMBRE": "Sicaya", "NIVEL": "Municipios", "PROVINCIA": "Capinota", "REGION": "Andina", "DEPARTAMENTO": "Cochabamba" }, "bbox": [ -66.429616, -17.871325, -66.276309, -17.682834 ], "geometry": { "type": "MultiPolygon", "coordinates": [ [ [ [ -66.350092, -17.695517 ], [ -66.347958, -17.696356 ], [ -66.347155, -17.696993 ], [ -66.345601, -17.698022 ], [ -66.344894, -17.698572 ], [ -66.344234, -17.699032 ], [ -66.343765, -17.699721 ], [ -66.343917, -17.703647 ], [ -66.344031, -17.705308 ], [ -66.343268, -17.708543 ], [ -66.342864, -17.709344 ], [ -66.34163, -17.710875 ], [ -66.340179, -17.712495 ], [ -66.338878, -17.714519 ], [ -66.337301, -17.716538 ], [ -66.337002, -17.717302 ], [ -66.336925, -17.718368 ], [ -66.336799, -17.718802 ], [ -66.336243, -17.719896 ], [ -66.33539, -17.720801 ], [ -66.334901, -17.721448 ], [ -66.334366, -17.722725 ], [ -66.33425, -17.723217 ], [ -66.334342, -17.725327 ], [ -66.335051, -17.727099 ], [ -66.33505, -17.727101 ], [ -66.335052, -17.727105 ], [ -66.334715, -17.727846 ], [ -66.334613, -17.728487 ], [ -66.334733, -17.729661 ], [ -66.334898, -17.731208 ], [ -66.334881, -17.731644 ], [ -66.334734, -17.731998 ], [ -66.334776, -17.732556 ], [ -66.334962, -17.732799 ], [ -66.335351, -17.733466 ], [ -66.335351, -17.73347 ], [ -66.335352, -17.733472 ], [ -66.335259, -17.734727 ], [ -66.33512, -17.735432 ], [ -66.334874, -17.737504 ], [ -66.334505, -17.739434 ], [ -66.334092, -17.741092 ], [ -66.333826, -17.74233 ], [ -66.3334, -17.744033 ], [ -66.332143, -17.745965 ], [ -66.331169, -17.747039 ], [ -66.32963, -17.748521 ], [ -66.328094, -17.749734 ], [ -66.327132, -17.750039 ], [ -66.326057, -17.750188 ], [ -66.325881, -17.751685 ], [ -66.325353, -17.752295 ], [ -66.324658, -17.752905 ], [ -66.32376, -17.753133 ], [ -66.322406, -17.753709 ], [ -66.321571, -17.754337 ], [ -66.320937, -17.755233 ], [ -66.319986, -17.756403 ], [ -66.319434, -17.75699 ], [ -66.319243, -17.757632 ], [ -66.319013, -17.759216 ], [ -66.318976, -17.760567 ], [ -66.318785, -17.761205 ], [ -66.31702, -17.76204 ], [ -66.315907, -17.762743 ], [ -66.315421, -17.763409 ], [ -66.315131, -17.764467 ], [ -66.314207, -17.765449 ], [ -66.313463, -17.766813 ], [ -66.312469, -17.767532 ], [ -66.311279, -17.767835 ], [ -66.308065, -17.769218 ], [ -66.306431, -17.769239 ], [ -66.304003, -17.769166 ], [ -66.303168, -17.769566 ], [ -66.301399, -17.770881 ], [ -66.300613, -17.772403 ], [ -66.300277, -17.773775 ], [ -66.299783, -17.775131 ], [ -66.299416, -17.777241 ], [ -66.299054, -17.77858 ], [ -66.299123, -17.780919 ], [ -66.298854, -17.782716 ], [ -66.298018, -17.783424 ], [ -66.295962, -17.78598 ], [ -66.294283, -17.788718 ], [ -66.293792, -17.789879 ], [ -66.292717, -17.793167 ], [ -66.292461, -17.794051 ], [ -66.291509, -17.795352 ], [ -66.291111, -17.796267 ], [ -66.291002, -17.797762 ], [ -66.290422, -17.798633 ], [ -66.289292, -17.800245 ], [ -66.289008, -17.801197 ], [ -66.288473, -17.802637 ], [ -66.287511, -17.803299 ], [ -66.286791, -17.805041 ], [ -66.28638, -17.806037 ], [ -66.286553, -17.807653 ], [ -66.286035, -17.810478 ], [ -66.285537, -17.812862 ], [ -66.284928, -17.815176 ], [ -66.283973, -17.818001 ], [ -66.28392, -17.819459 ], [ -66.283824, -17.821138 ], [ -66.282858, -17.82155 ], [ -66.282156, -17.822603 ], [ -66.281317, -17.824914 ], [ -66.280353, -17.827573 ], [ -66.280166, -17.829303 ], [ -66.278927, -17.830511 ], [ -66.278436, -17.832928 ], [ -66.277953, -17.835013 ], [ -66.277697, -17.839361 ], [ -66.277378, -17.841297 ], [ -66.276834, -17.843739 ], [ -66.276309, -17.846596 ], [ -66.276462, -17.849163 ], [ -66.276858, -17.85171 ], [ -66.276861, -17.854685 ], [ -66.276975, -17.856711 ], [ -66.276976, -17.856713 ], [ -66.278198, -17.858761 ], [ -66.27994, -17.860033 ], [ -66.282355, -17.861476 ], [ -66.285293, -17.862598 ], [ -66.286005, -17.863022 ], [ -66.286444, -17.863367 ], [ -66.286862, -17.863387 ], [ -66.286863, -17.863386 ], [ -66.287267, -17.863269 ], [ -66.287269, -17.863269 ], [ -66.287977, -17.863408 ], [ -66.287979, -17.863408 ], [ -66.288457, -17.863414 ], [ -66.28886, -17.863494 ], [ -66.289474, -17.863676 ], [ -66.289817, -17.863789 ], [ -66.290076, -17.863883 ], [ -66.291107, -17.864124 ], [ -66.291667, -17.864298 ], [ -66.292318, -17.864339 ], [ -66.292966, -17.864548 ], [ -66.293313, -17.864637 ], [ -66.294058, -17.864971 ], [ -66.29478, -17.865891 ], [ -66.295209, -17.866601 ], [ -66.295748, -17.866645 ], [ -66.295749, -17.866645 ], [ -66.296005, -17.866613 ], [ -66.296006, -17.866614 ], [ -66.296542, -17.866712 ], [ -66.297142, -17.866739 ], [ -66.29749, -17.866799 ], [ -66.297491, -17.866799 ], [ -66.29815, -17.866716 ], [ -66.298152, -17.866716 ], [ -66.298847, -17.866762 ], [ -66.299412, -17.866863 ], [ -66.299967, -17.866982 ], [ -66.299967, -17.866982 ], [ -66.300051, -17.866909 ], [ -66.300053, -17.866909 ], [ -66.300374, -17.866929 ], [ -66.300787, -17.866956 ], [ -66.30095, -17.866993 ], [ -66.300952, -17.866993 ], [ -66.301212, -17.866928 ], [ -66.30177, -17.866896 ], [ -66.302113, -17.86678 ], [ -66.302115, -17.86678 ], [ -66.302647, -17.866838 ], [ -66.302648, -17.866838 ], [ -66.303129, -17.86671 ], [ -66.303132, -17.86671 ], [ -66.303539, -17.866716 ], [ -66.303767, -17.866831 ], [ -66.303769, -17.866831 ], [ -66.304672, -17.866815 ], [ -66.304672, -17.866815 ], [ -66.30498, -17.866968 ], [ -66.305662, -17.867079 ], [ -66.306358, -17.867145 ], [ -66.306359, -17.867145 ], [ -66.307153, -17.8671 ], [ -66.307154, -17.8671 ], [ -66.307787, -17.867307 ], [ -66.307789, -17.867307 ], [ -66.308642, -17.867213 ], [ -66.309562, -17.866914 ], [ -66.309564, -17.866914 ], [ -66.310016, -17.867016 ], [ -66.310323, -17.867196 ], [ -66.310632, -17.86733 ], [ -66.310934, -17.867389 ], [ -66.311482, -17.867476 ], [ -66.312137, -17.867777 ], [ -66.313677, -17.86805 ], [ -66.314953, -17.868152 ], [ -66.316592, -17.868464 ], [ -66.31796, -17.868722 ], [ -66.319352, -17.868979 ], [ -66.320718, -17.869285 ], [ -66.322112, -17.869916 ], [ -66.323802, -17.870238 ], [ -66.326186, -17.87057 ], [ -66.328401, -17.870877 ], [ -66.329967, -17.871325 ], [ -66.329968, -17.871325 ], [ -66.330625, -17.871106 ], [ -66.331284, -17.870818 ], [ -66.331286, -17.870818 ], [ -66.332664, -17.870854 ], [ -66.332664, -17.870854 ], [ -66.333941, -17.870644 ], [ -66.335566, -17.870323 ], [ -66.336829, -17.870214 ], [ -66.337849, -17.870095 ], [ -66.33791, -17.869377 ], [ -66.338101, -17.868968 ], [ -66.338304, -17.86764 ], [ -66.33859, -17.866989 ], [ -66.338772, -17.866535 ], [ -66.338905, -17.866252 ], [ -66.339181, -17.865777 ], [ -66.339272, -17.865527 ], [ -66.339483, -17.865245 ], [ -66.339717, -17.865009 ], [ -66.340023, -17.864798 ], [ -66.340223, -17.864493 ], [ -66.340256, -17.864172 ], [ -66.340694, -17.863011 ], [ -66.340963, -17.862822 ], [ -66.341165, -17.862467 ], [ -66.34159, -17.862233 ], [ -66.341861, -17.862189 ], [ -66.342084, -17.862038 ], [ -66.342349, -17.861801 ], [ -66.342441, -17.861658 ], [ -66.342808, -17.861143 ], [ -66.343342, -17.86049 ], [ -66.343556, -17.860081 ], [ -66.343737, -17.859615 ], [ -66.343925, -17.858856 ], [ -66.344063, -17.858339 ], [ -66.344256, -17.85814 ], [ -66.344453, -17.857748 ], [ -66.344555, -17.857596 ], [ -66.344716, -17.857065 ], [ -66.344787, -17.85663 ], [ -66.344798, -17.856383 ], [ -66.344881, -17.855938 ], [ -66.345026, -17.855303 ], [ -66.345, -17.854889 ], [ -66.345074, -17.854374 ], [ -66.345113, -17.854272 ], [ -66.345157, -17.853963 ], [ -66.345166, -17.853618 ], [ -66.345125, -17.853319 ], [ -66.345016, -17.852891 ], [ -66.344965, -17.852545 ], [ -66.345129, -17.85132 ], [ -66.345091, -17.850963 ], [ -66.345001, -17.85072 ], [ -66.344893, -17.850257 ], [ -66.345265, -17.849795 ], [ -66.345489, -17.849491 ], [ -66.345675, -17.848849 ], [ -66.346041, -17.848181 ], [ -66.346106, -17.847874 ], [ -66.346157, -17.847359 ], [ -66.346056, -17.84708 ], [ -66.346015, -17.846827 ], [ -66.346142, -17.846108 ], [ -66.346643, -17.845751 ], [ -66.346855, -17.845445 ], [ -66.346996, -17.845093 ], [ -66.347053, -17.84475 ], [ -66.347053, -17.844302 ], [ -66.346924, -17.84303 ], [ -66.346953, -17.842588 ], [ -66.347045, -17.84228 ], [ -66.347398, -17.841645 ], [ -66.347617, -17.840628 ], [ -66.347777, -17.840459 ], [ -66.347986, -17.840269 ], [ -66.348321, -17.839863 ], [ -66.348582, -17.839525 ], [ -66.348791, -17.839312 ], [ -66.349057, -17.83894 ], [ -66.349466, -17.83854 ], [ -66.349789, -17.838158 ], [ -66.35039, -17.837659 ], [ -66.350756, -17.837237 ], [ -66.351019, -17.837005 ], [ -66.351557, -17.836701 ], [ -66.35205, -17.836604 ], [ -66.352785, -17.836339 ], [ -66.353249, -17.83583 ], [ -66.353671, -17.834872 ], [ -66.353954, -17.833649 ], [ -66.35393, -17.832921 ], [ -66.354358, -17.832511 ], [ -66.355267, -17.831706 ], [ -66.356175, -17.831168 ], [ -66.357139, -17.830803 ], [ -66.358054, -17.830575 ], [ -66.359146, -17.830499 ], [ -66.359147, -17.830499 ], [ -66.360152, -17.830559 ], [ -66.360153, -17.830559 ], [ -66.360979, -17.830548 ], [ -66.361473, -17.830383 ], [ -66.362321, -17.829844 ], [ -66.363117, -17.828742 ], [ -66.363627, -17.827545 ], [ -66.363904, -17.825909 ], [ -66.364368, -17.824763 ], [ -66.364525, -17.824209 ], [ -66.364888, -17.822618 ], [ -66.365211, -17.821223 ], [ -66.365993, -17.820204 ], [ -66.367178, -17.819744 ], [ -66.367179, -17.819745 ], [ -66.36823, -17.82 ], [ -66.368996, -17.820273 ], [ -66.369162, -17.820382 ], [ -66.370214, -17.82047 ], [ -66.370443, -17.820489 ], [ -66.370444, -17.820489 ], [ -66.372456, -17.8203 ], [ -66.37205, -17.81926 ], [ -66.37209, -17.817724 ], [ -66.37299, -17.816619 ], [ -66.373915, -17.815737 ], [ -66.374691, -17.815186 ], [ -66.376419, -17.812698 ], [ -66.378609, -17.810572 ], [ -66.379457, -17.810011 ], [ -66.381835, -17.808965 ], [ -66.382455, -17.808531 ], [ -66.383062, -17.80787 ], [ -66.384293, -17.805161 ], [ -66.384964, -17.804249 ], [ -66.385558, -17.803775 ], [ -66.386035, -17.803197 ], [ -66.386396, -17.802273 ], [ -66.387164, -17.800793 ], [ -66.388868, -17.799136 ], [ -66.390794, -17.796405 ], [ -66.392056, -17.796125 ], [ -66.392542, -17.795704 ], [ -66.392477, -17.794124 ], [ -66.393199, -17.791833 ], [ -66.393099, -17.790333 ], [ -66.393554, -17.788959 ], [ -66.394183, -17.787764 ], [ -66.395345, -17.787337 ], [ -66.395657, -17.786616 ], [ -66.395872, -17.785419 ], [ -66.395871, -17.784373 ], [ -66.395607, -17.783581 ], [ -66.396068, -17.782522 ], [ -66.396924, -17.781558 ], [ -66.397691, -17.780677 ], [ -66.398285, -17.780193 ], [ -66.398589, -17.77886 ], [ -66.399133, -17.777426 ], [ -66.3992, -17.775848 ], [ -66.399319, -17.774481 ], [ -66.399401, -17.773355 ], [ -66.398568, -17.771411 ], [ -66.39929, -17.77038 ], [ -66.401242, -17.769856 ], [ -66.402662, -17.768558 ], [ -66.403923, -17.766939 ], [ -66.405375, -17.76584 ], [ -66.405731, -17.765249 ], [ -66.406238, -17.7642 ], [ -66.406444, -17.763263 ], [ -66.406659, -17.761751 ], [ -66.407277, -17.760295 ], [ -66.408839, -17.757858 ], [ -66.409633, -17.756917 ], [ -66.411209, -17.754129 ], [ -66.411447, -17.753432 ], [ -66.411343, -17.752387 ], [ -66.410988, -17.751315 ], [ -66.410187, -17.750421 ], [ -66.409617, -17.750069 ], [ -66.409401, -17.750022 ], [ -66.409277, -17.749738 ], [ -66.409395, -17.749052 ], [ -66.408076, -17.747496 ], [ -66.40828, -17.746719 ], [ -66.408891, -17.745902 ], [ -66.409154, -17.745148 ], [ -66.409207, -17.743291 ], [ -66.409807, -17.742416 ], [ -66.410967, -17.741779 ], [ -66.413653, -17.740864 ], [ -66.413668, -17.740623 ], [ -66.413351, -17.740194 ], [ -66.413536, -17.739853 ], [ -66.413539, -17.739853 ], [ -66.414147, -17.739861 ], [ -66.414835, -17.739516 ], [ -66.414837, -17.739516 ], [ -66.415443, -17.739719 ], [ -66.416137, -17.739809 ], [ -66.416137, -17.739809 ], [ -66.41644, -17.739549 ], [ -66.416113, -17.739006 ], [ -66.415283, -17.738421 ], [ -66.415118, -17.737478 ], [ -66.415552, -17.736474 ], [ -66.415912, -17.73576 ], [ -66.416352, -17.735109 ], [ -66.417303, -17.734813 ], [ -66.417304, -17.734813 ], [ -66.418445, -17.734959 ], [ -66.418446, -17.734959 ], [ -66.418559, -17.734945 ], [ -66.419221, -17.73469 ], [ -66.419876, -17.734206 ], [ -66.420299, -17.73396 ], [ -66.420676, -17.733799 ], [ -66.420768, -17.733607 ], [ -66.420791, -17.733355 ], [ -66.42056, -17.731715 ], [ -66.420537, -17.730086 ], [ -66.420654, -17.729491 ], [ -66.420962, -17.728899 ], [ -66.421488, -17.728161 ], [ -66.421943, -17.727444 ], [ -66.422204, -17.726817 ], [ -66.422485, -17.726408 ], [ -66.422791, -17.725874 ], [ -66.423392, -17.725044 ], [ -66.424164, -17.723896 ], [ -66.42502, -17.722715 ], [ -66.425293, -17.722088 ], [ -66.425406, -17.721011 ], [ -66.425298, -17.720184 ], [ -66.42531, -17.719404 ], [ -66.425974, -17.718667 ], [ -66.426805, -17.717956 ], [ -66.429008, -17.716483 ], [ -66.429402, -17.71641 ], [ -66.429616, -17.715908 ], [ -66.428484, -17.71549 ], [ -66.427004, -17.715125 ], [ -66.42547, -17.71448 ], [ -66.423896, -17.713878 ], [ -66.422607, -17.713539 ], [ -66.421129, -17.71306 ], [ -66.419784, -17.712468 ], [ -66.418751, -17.711846 ], [ -66.418333, -17.711634 ], [ -66.41607, -17.711688 ], [ -66.41607, -17.711688 ], [ -66.416068, -17.711688 ], [ -66.416191, -17.710626 ], [ -66.416534, -17.707207 ], [ -66.416901, -17.704188 ], [ -66.416428, -17.703328 ], [ -66.413973, -17.701623 ], [ -66.412664, -17.701005 ], [ -66.411295, -17.700359 ], [ -66.410539, -17.699507 ], [ -66.409674, -17.698132 ], [ -66.408455, -17.697786 ], [ -66.407532, -17.697863 ], [ -66.406604, -17.697273 ], [ -66.404444, -17.694797 ], [ -66.403793, -17.693533 ], [ -66.402756, -17.692986 ], [ -66.402155, -17.692876 ], [ -66.401073, -17.6922 ], [ -66.399289, -17.69162 ], [ -66.397907, -17.690261 ], [ -66.396298, -17.68924 ], [ -66.394653, -17.688404 ], [ -66.392678, -17.687344 ], [ -66.390722, -17.687481 ], [ -66.390053, -17.687143 ], [ -66.38897, -17.686241 ], [ -66.38739, -17.685322 ], [ -66.38571, -17.684851 ], [ -66.3844, -17.684743 ], [ -66.383682, -17.684583 ], [ -66.382743, -17.68404 ], [ -66.382099, -17.683266 ], [ -66.380423, -17.682834 ], [ -66.379623, -17.68459 ], [ -66.377776, -17.686542 ], [ -66.376411, -17.686278 ], [ -66.374666, -17.686719 ], [ -66.373715, -17.685477 ], [ -66.372668, -17.685073 ], [ -66.37162, -17.685387 ], [ -66.369436, -17.686475 ], [ -66.367981, -17.687126 ], [ -66.366896, -17.687961 ], [ -66.36596, -17.689634 ], [ -66.364906, -17.691779 ], [ -66.364075, -17.692796 ], [ -66.363055, -17.693989 ], [ -66.36279, -17.694566 ], [ -66.361749, -17.696343 ], [ -66.361094, -17.697019 ], [ -66.360091, -17.697368 ], [ -66.358209, -17.696874 ], [ -66.356773, -17.696251 ], [ -66.354634, -17.69582 ], [ -66.353538, -17.695828 ], [ -66.351538, -17.695488 ], [ -66.350812, -17.695679 ], [ -66.350092, -17.695517 ] ] ] ] } }
]
}
