{
"type": "FeatureCollection",
"name": "SIPESIPE",
"crs": { "type": "name", "properties": { "name": "urn:ogc:def:crs:OGC:1.3:CRS84" } },
"bbox": [ -66.517434, -17.703328, -66.275703, -17.317934 ],                                                                        
"features": [
{ "type": "Feature", "properties": { "NOMBRE": "Sipesipe", "NIVEL": "Municipios", "PROVINCIA": "Quillacollo", "REGION": "Metropolitana", "DEPARTAMENTO": "Cochabamba" }, "bbox": [ -66.517434, -17.703328, -66.275703, -17.317934 ], "geometry": { "type": "MultiPolygon", "coordinates": [ [ [ [ -66.316648, -17.414398 ], [ -66.315514, -17.416454 ], [ -66.306419, -17.424858 ], [ -66.305979, -17.42538 ], [ -66.302066, -17.432348 ], [ -66.294881, -17.445143 ], [ -66.279139, -17.450629 ], [ -66.280267, -17.459617 ], [ -66.275715, -17.467752 ], [ -66.275703, -17.467773 ], [ -66.290609, -17.474472 ], [ -66.298305, -17.477021 ], [ -66.304936, -17.47742 ], [ -66.31381, -17.479244 ], [ -66.325533, -17.483888 ], [ -66.311169, -17.504224 ], [ -66.311949, -17.513198 ], [ -66.307814, -17.52097 ], [ -66.314354, -17.531888 ], [ -66.305853, -17.541416 ], [ -66.307388, -17.552933 ], [ -66.308636, -17.559635 ], [ -66.28992, -17.579848 ], [ -66.289766, -17.583925 ], [ -66.289495, -17.591114 ], [ -66.289518, -17.59147 ], [ -66.289344, -17.592463 ], [ -66.288148, -17.601389 ], [ -66.293088, -17.599445 ], [ -66.293524, -17.599533 ], [ -66.293937, -17.599678 ], [ -66.294471, -17.599984 ], [ -66.295126, -17.600242 ], [ -66.295284, -17.60024 ], [ -66.295587, -17.600318 ], [ -66.296555, -17.600434 ], [ -66.296834, -17.600512 ], [ -66.297052, -17.600636 ], [ -66.297212, -17.600888 ], [ -66.297348, -17.601256 ], [ -66.297448, -17.601739 ], [ -66.297572, -17.602071 ], [ -66.29784, -17.602322 ], [ -66.298024, -17.602655 ], [ -66.298055, -17.603438 ], [ -66.298312, -17.603792 ], [ -66.298883, -17.604178 ], [ -66.299405, -17.604461 ], [ -66.299527, -17.604598 ], [ -66.299676, -17.605057 ], [ -66.299909, -17.605458 ], [ -66.300104, -17.605537 ], [ -66.300688, -17.606003 ], [ -66.301161, -17.606229 ], [ -66.301344, -17.606377 ], [ -66.301659, -17.606477 ], [ -66.30195, -17.606497 ], [ -66.302156, -17.606587 ], [ -66.302412, -17.606884 ], [ -66.302473, -17.606883 ], [ -66.302497, -17.606918 ], [ -66.302957, -17.606982 ], [ -66.303261, -17.607163 ], [ -66.303552, -17.607206 ], [ -66.303771, -17.607377 ], [ -66.30404, -17.607708 ], [ -66.304126, -17.607938 ], [ -66.304416, -17.607935 ], [ -66.304598, -17.60799 ], [ -66.304744, -17.608093 ], [ -66.304905, -17.608517 ], [ -66.305113, -17.608826 ], [ -66.305406, -17.609123 ], [ -66.306169, -17.609242 ], [ -66.306592, -17.609237 ], [ -66.307054, -17.609497 ], [ -66.3072, -17.609622 ], [ -66.307385, -17.610116 ], [ -66.307569, -17.610391 ], [ -66.307915, -17.611263 ], [ -66.308062, -17.611515 ], [ -66.308269, -17.611755 ], [ -66.308671, -17.61205 ], [ -66.308865, -17.612152 ], [ -66.30962, -17.612789 ], [ -66.310343, -17.6139 ], [ -66.310636, -17.614196 ], [ -66.31122, -17.614616 ], [ -66.312019, -17.6147 ], [ -66.312811, -17.615441 ], [ -66.31292, -17.615474 ], [ -66.313367, -17.615481 ], [ -66.31349, -17.615664 ], [ -66.313651, -17.6161 ], [ -66.313858, -17.616317 ], [ -66.314137, -17.61636 ], [ -66.314534, -17.616172 ], [ -66.314752, -17.616123 ], [ -66.314861, -17.616168 ], [ -66.315788, -17.617196 ], [ -66.316056, -17.617366 ], [ -66.316879, -17.617472 ], [ -66.317791, -17.61805 ], [ -66.318203, -17.61808 ], [ -66.319064, -17.618452 ], [ -66.31973, -17.618525 ], [ -66.320483, -17.618886 ], [ -66.321246, -17.619028 ], [ -66.322008, -17.618996 ], [ -66.322553, -17.619037 ], [ -66.322842, -17.618907 ], [ -66.323094, -17.618662 ], [ -66.323127, -17.618635 ], [ -66.323382, -17.618463 ], [ -66.323673, -17.618495 ], [ -66.323916, -17.618688 ], [ -66.324256, -17.618753 ], [ -66.324655, -17.618761 ], [ -66.325596, -17.61852 ], [ -66.326382, -17.618443 ], [ -66.326564, -17.618464 ], [ -66.326807, -17.618692 ], [ -66.326894, -17.618898 ], [ -66.326814, -17.619544 ], [ -66.327012, -17.620015 ], [ -66.327325, -17.621395 ], [ -66.327659, -17.622255 ], [ -66.328163, -17.623195 ], [ -66.328469, -17.623618 ], [ -66.328808, -17.623718 ], [ -66.329195, -17.623749 ], [ -66.329863, -17.623984 ], [ -66.33008, -17.623993 ], [ -66.330372, -17.624105 ], [ -66.330871, -17.624549 ], [ -66.331396, -17.625131 ], [ -66.332284, -17.625675 ], [ -66.332845, -17.62628 ], [ -66.333494, -17.627276 ], [ -66.333739, -17.62755 ], [ -66.334299, -17.628051 ], [ -66.33452, -17.628371 ], [ -66.334898, -17.628736 ], [ -66.335166, -17.629056 ], [ -66.33567, -17.629949 ], [ -66.335993, -17.631029 ], [ -66.336062, -17.632043 ], [ -66.336086, -17.633552 ], [ -66.335945, -17.633992 ], [ -66.335731, -17.634398 ], [ -66.335229, -17.635141 ], [ -66.33519, -17.636294 ], [ -66.33527, -17.63718 ], [ -66.335283, -17.638828 ], [ -66.335213, -17.639094 ], [ -66.335242, -17.639636 ], [ -66.335278, -17.639647 ], [ -66.337822, -17.640522 ], [ -66.339593, -17.64214 ], [ -66.347822, -17.647604 ], [ -66.351279, -17.656709 ], [ -66.352468, -17.670299 ], [ -66.353172, -17.67674 ], [ -66.341663, -17.68694 ], [ -66.350091, -17.695511 ], [ -66.350088, -17.695512 ], [ -66.350092, -17.695517 ], [ -66.350812, -17.695679 ], [ -66.351538, -17.695488 ], [ -66.353538, -17.695828 ], [ -66.354634, -17.69582 ], [ -66.356773, -17.696251 ], [ -66.358209, -17.696874 ], [ -66.360091, -17.697368 ], [ -66.361094, -17.697019 ], [ -66.361749, -17.696343 ], [ -66.36279, -17.694566 ], [ -66.363055, -17.693989 ], [ -66.364075, -17.692796 ], [ -66.364906, -17.691779 ], [ -66.36596, -17.689634 ], [ -66.366896, -17.687961 ], [ -66.367981, -17.687126 ], [ -66.369436, -17.686475 ], [ -66.37162, -17.685387 ], [ -66.372668, -17.685073 ], [ -66.373715, -17.685477 ], [ -66.374666, -17.686719 ], [ -66.376411, -17.686278 ], [ -66.377776, -17.686542 ], [ -66.379623, -17.68459 ], [ -66.380423, -17.682834 ], [ -66.382099, -17.683266 ], [ -66.382743, -17.68404 ], [ -66.383682, -17.684583 ], [ -66.3844, -17.684743 ], [ -66.38571, -17.684851 ], [ -66.38739, -17.685322 ], [ -66.38897, -17.686241 ], [ -66.390053, -17.687143 ], [ -66.390722, -17.687481 ], [ -66.392678, -17.687344 ], [ -66.394653, -17.688404 ], [ -66.396298, -17.68924 ], [ -66.397907, -17.690261 ], [ -66.399289, -17.69162 ], [ -66.401073, -17.6922 ], [ -66.402155, -17.692876 ], [ -66.402756, -17.692986 ], [ -66.403793, -17.693533 ], [ -66.404444, -17.694797 ], [ -66.406604, -17.697273 ], [ -66.407532, -17.697863 ], [ -66.408455, -17.697786 ], [ -66.409674, -17.698132 ], [ -66.410539, -17.699507 ], [ -66.411295, -17.700359 ], [ -66.412664, -17.701005 ], [ -66.413973, -17.701623 ], [ -66.416428, -17.703328 ], [ -66.42145, -17.698268 ], [ -66.392256, -17.670486 ], [ -66.392634, -17.657862 ], [ -66.381192, -17.657359 ], [ -66.39781, -17.63794 ], [ -66.397179, -17.634163 ], [ -66.401439, -17.623375 ], [ -66.400431, -17.620251 ], [ -66.401574, -17.619585 ], [ -66.403901, -17.616846 ], [ -66.404111, -17.615072 ], [ -66.40478, -17.614186 ], [ -66.409792, -17.612108 ], [ -66.411428, -17.61286 ], [ -66.412469, -17.611928 ], [ -66.414175, -17.611942 ], [ -66.416989, -17.613179 ], [ -66.421471, -17.616918 ], [ -66.423691, -17.619802 ], [ -66.422899, -17.623657 ], [ -66.426379, -17.625774 ], [ -66.432036, -17.61255 ], [ -66.431848, -17.604572 ], [ -66.428615, -17.599341 ], [ -66.437908, -17.585103 ], [ -66.425007, -17.583494 ], [ -66.416892, -17.576469 ], [ -66.404768, -17.569584 ], [ -66.417894, -17.562578 ], [ -66.423007, -17.56202 ], [ -66.428005, -17.555647 ], [ -66.439561, -17.567328 ], [ -66.454733, -17.572142 ], [ -66.469773, -17.560665 ], [ -66.471236, -17.55986 ], [ -66.471846, -17.556559 ], [ -66.471892, -17.556309 ], [ -66.471568, -17.555398 ], [ -66.469368, -17.555434 ], [ -66.461397, -17.558708 ], [ -66.457362, -17.561318 ], [ -66.45513, -17.561581 ], [ -66.449928, -17.560745 ], [ -66.446596, -17.559047 ], [ -66.438483, -17.550361 ], [ -66.430505, -17.545442 ], [ -66.426253, -17.544958 ], [ -66.422757, -17.544314 ], [ -66.41585, -17.546125 ], [ -66.404438, -17.547341 ], [ -66.397078, -17.550037 ], [ -66.390584, -17.55346 ], [ -66.387975, -17.555749 ], [ -66.385877, -17.556541 ], [ -66.381185, -17.560485 ], [ -66.375482, -17.563747 ], [ -66.371585, -17.568464 ], [ -66.368122, -17.570429 ], [ -66.362942, -17.57216 ], [ -66.360899, -17.571684 ], [ -66.358727, -17.571807 ], [ -66.355728, -17.571491 ], [ -66.352232, -17.570602 ], [ -66.357844, -17.562819 ], [ -66.366176, -17.557256 ], [ -66.38079, -17.551184 ], [ -66.388622, -17.542832 ], [ -66.3894, -17.51648 ], [ -66.401852, -17.507035 ], [ -66.402074, -17.495678 ], [ -66.398098, -17.490575 ], [ -66.409079, -17.486989 ], [ -66.412, -17.480889 ], [ -66.42405, -17.488119 ], [ -66.437754, -17.482051 ], [ -66.47428, -17.461968 ], [ -66.479799, -17.457998 ], [ -66.488594, -17.457401 ], [ -66.49521, -17.454153 ], [ -66.49667, -17.444604 ], [ -66.491242, -17.425792 ], [ -66.490365, -17.41174 ], [ -66.501454, -17.404628 ], [ -66.50852, -17.410137 ], [ -66.517434, -17.400187 ], [ -66.502101, -17.365643 ], [ -66.490231, -17.341523 ], [ -66.493034, -17.337131 ], [ -66.498944, -17.324722 ], [ -66.493166, -17.317934 ], [ -66.492814, -17.318157 ], [ -66.492643, -17.318217 ], [ -66.492444, -17.318373 ], [ -66.492266, -17.318497 ], [ -66.491999, -17.318633 ], [ -66.49176, -17.318752 ], [ -66.491521, -17.318905 ], [ -66.491324, -17.319032 ], [ -66.491081, -17.319114 ], [ -66.491036, -17.319174 ], [ -66.490965, -17.319268 ], [ -66.490879, -17.319385 ], [ -66.490783, -17.319477 ], [ -66.490725, -17.319543 ], [ -66.490639, -17.319567 ], [ -66.490556, -17.319635 ], [ -66.490431, -17.319729 ], [ -66.490377, -17.319809 ], [ -66.490268, -17.319902 ], [ -66.490217, -17.320027 ], [ -66.490228, -17.320125 ], [ -66.490162, -17.320256 ], [ -66.490078, -17.320408 ], [ -66.490038, -17.320432 ], [ -66.489939, -17.320555 ], [ -66.489859, -17.320656 ], [ -66.489815, -17.320765 ], [ -66.48972, -17.320892 ], [ -66.489677, -17.320975 ], [ -66.489628, -17.321057 ], [ -66.489577, -17.321113 ], [ -66.489483, -17.321193 ], [ -66.489383, -17.321343 ], [ -66.489235, -17.321415 ], [ -66.489113, -17.321497 ], [ -66.488931, -17.321538 ], [ -66.488826, -17.321604 ], [ -66.488744, -17.321653 ], [ -66.488649, -17.321711 ], [ -66.488586, -17.321822 ], [ -66.488548, -17.321943 ], [ -66.488504, -17.322093 ], [ -66.488474, -17.32219 ], [ -66.488456, -17.322235 ], [ -66.488419, -17.322315 ], [ -66.488454, -17.322345 ], [ -66.488464, -17.322404 ], [ -66.488413, -17.322443 ], [ -66.488379, -17.322472 ], [ -66.488358, -17.322543 ], [ -66.4883, -17.322622 ], [ -66.488257, -17.322761 ], [ -66.488201, -17.322878 ], [ -66.488125, -17.323012 ], [ -66.488028, -17.323113 ], [ -66.487958, -17.32327 ], [ -66.48797, -17.323356 ], [ -66.487952, -17.323469 ], [ -66.487945, -17.323565 ], [ -66.487888, -17.323641 ], [ -66.487815, -17.323696 ], [ -66.487766, -17.323766 ], [ -66.487793, -17.323829 ], [ -66.487791, -17.323893 ], [ -66.487805, -17.323982 ], [ -66.487825, -17.324095 ], [ -66.487802, -17.324223 ], [ -66.487846, -17.324361 ], [ -66.487812, -17.324447 ], [ -66.487762, -17.324582 ], [ -66.48772, -17.324723 ], [ -66.487729, -17.324811 ], [ -66.487716, -17.324897 ], [ -66.487737, -17.325029 ], [ -66.48777, -17.325173 ], [ -66.487792, -17.325269 ], [ -66.487638, -17.325389 ], [ -66.487598, -17.325391 ], [ -66.487541, -17.325435 ], [ -66.487476, -17.325465 ], [ -66.487365, -17.32549 ], [ -66.487265, -17.325539 ], [ -66.48715, -17.32558 ], [ -66.487064, -17.325674 ], [ -66.486969, -17.325741 ], [ -66.486889, -17.325795 ], [ -66.486767, -17.325853 ], [ -66.486688, -17.32595 ], [ -66.486534, -17.326103 ], [ -66.486328, -17.326195 ], [ -66.486191, -17.326423 ], [ -66.486037, -17.326555 ], [ -66.485997, -17.326668 ], [ -66.485952, -17.326759 ], [ -66.485939, -17.326886 ], [ -66.485846, -17.326955 ], [ -66.485721, -17.327122 ], [ -66.485581, -17.327088 ], [ -66.485503, -17.327105 ], [ -66.485497, -17.327213 ], [ -66.485453, -17.327233 ], [ -66.48535, -17.327163 ], [ -66.48525, -17.327233 ], [ -66.485129, -17.327228 ], [ -66.48505, -17.327314 ], [ -66.484925, -17.327318 ], [ -66.484875, -17.327386 ], [ -66.484835, -17.327478 ], [ -66.484811, -17.327584 ], [ -66.484707, -17.327693 ], [ -66.484812, -17.3278 ], [ -66.484869, -17.327947 ], [ -66.484839, -17.328111 ], [ -66.484705, -17.328362 ], [ -66.484685, -17.328442 ], [ -66.484738, -17.328533 ], [ -66.484702, -17.328593 ], [ -66.484616, -17.328763 ], [ -66.48458, -17.328875 ], [ -66.484521, -17.328997 ], [ -66.484497, -17.329116 ], [ -66.48446, -17.329209 ], [ -66.484444, -17.329337 ], [ -66.484413, -17.32941 ], [ -66.484342, -17.329488 ], [ -66.484376, -17.329537 ], [ -66.484468, -17.329569 ], [ -66.484539, -17.329628 ], [ -66.484523, -17.329706 ], [ -66.484424, -17.329831 ], [ -66.484327, -17.329887 ], [ -66.484252, -17.329921 ], [ -66.484194, -17.329966 ], [ -66.484152, -17.330061 ], [ -66.484117, -17.330121 ], [ -66.484072, -17.330212 ], [ -66.484058, -17.330297 ], [ -66.484012, -17.330391 ], [ -66.483906, -17.330488 ], [ -66.483832, -17.330512 ], [ -66.483765, -17.330543 ], [ -66.48368, -17.330594 ], [ -66.483627, -17.330655 ], [ -66.483576, -17.330715 ], [ -66.48355, -17.330759 ], [ -66.483492, -17.330788 ], [ -66.483433, -17.330839 ], [ -66.48337, -17.330868 ], [ -66.483334, -17.330906 ], [ -66.483239, -17.330971 ], [ -66.483186, -17.331003 ], [ -66.483082, -17.331029 ], [ -66.482991, -17.331039 ], [ -66.482899, -17.331078 ], [ -66.482816, -17.331098 ], [ -66.482771, -17.331129 ], [ -66.48275, -17.331198 ], [ -66.482701, -17.331238 ], [ -66.482677, -17.331285 ], [ -66.482659, -17.33132 ], [ -66.482635, -17.331387 ], [ -66.482609, -17.331447 ], [ -66.482554, -17.331475 ], [ -66.48252, -17.331508 ], [ -66.482483, -17.331539 ], [ -66.482438, -17.331575 ], [ -66.482402, -17.331604 ], [ -66.482359, -17.331631 ], [ -66.482306, -17.331652 ], [ -66.482266, -17.33167 ], [ -66.48225, -17.331748 ], [ -66.482224, -17.331817 ], [ -66.482161, -17.331876 ], [ -66.482105, -17.331895 ], [ -66.482054, -17.331885 ], [ -66.481982, -17.331916 ], [ -66.48195, -17.331922 ], [ -66.481896, -17.331916 ], [ -66.481837, -17.331929 ], [ -66.481796, -17.33194 ], [ -66.481763, -17.331971 ], [ -66.48171, -17.331999 ], [ -66.481645, -17.332028 ], [ -66.481569, -17.33204 ], [ -66.481521, -17.332037 ], [ -66.481475, -17.332044 ], [ -66.481431, -17.33206 ], [ -66.481415, -17.332083 ], [ -66.481406, -17.332119 ], [ -66.481393, -17.332163 ], [ -66.481393, -17.332205 ], [ -66.481376, -17.332244 ], [ -66.481331, -17.332266 ], [ -66.481258, -17.332284 ], [ -66.481236, -17.332284 ], [ -66.481224, -17.332285 ], [ -66.481188, -17.332294 ], [ -66.481172, -17.33232 ], [ -66.481154, -17.332356 ], [ -66.481136, -17.332393 ], [ -66.481118, -17.332419 ], [ -66.481105, -17.332449 ], [ -66.481088, -17.332475 ], [ -66.481062, -17.332489 ], [ -66.481039, -17.332531 ], [ -66.481015, -17.332567 ], [ -66.480977, -17.332592 ], [ -66.480937, -17.332633 ], [ -66.480921, -17.332649 ], [ -66.480895, -17.332679 ], [ -66.480868, -17.332701 ], [ -66.480838, -17.332728 ], [ -66.480819, -17.332768 ], [ -66.480812, -17.332789 ], [ -66.480778, -17.332793 ], [ -66.480749, -17.332781 ], [ -66.480721, -17.332762 ], [ -66.480705, -17.332741 ], [ -66.480682, -17.332716 ], [ -66.480662, -17.33271 ], [ -66.480643, -17.33271 ], [ -66.480596, -17.332715 ], [ -66.480576, -17.332718 ], [ -66.480553, -17.332726 ], [ -66.480526, -17.332739 ], [ -66.480503, -17.332775 ], [ -66.480482, -17.332805 ], [ -66.48045, -17.332831 ], [ -66.480417, -17.332836 ], [ -66.480397, -17.332852 ], [ -66.480284, -17.332897 ], [ -66.480248, -17.332922 ], [ -66.480082, -17.333121 ], [ -66.480052, -17.333182 ], [ -66.48001, -17.333253 ], [ -66.479989, -17.333315 ], [ -66.479983, -17.333357 ], [ -66.479965, -17.333393 ], [ -66.479923, -17.333437 ], [ -66.479881, -17.333466 ], [ -66.47984, -17.333476 ], [ -66.479783, -17.33349 ], [ -66.479737, -17.33354 ], [ -66.479709, -17.333575 ], [ -66.479633, -17.333612 ], [ -66.479614, -17.333618 ], [ -66.479372, -17.333637 ], [ -66.479251, -17.333691 ], [ -66.47922, -17.333706 ], [ -66.479098, -17.333737 ], [ -66.478998, -17.333798 ], [ -66.478875, -17.333879 ], [ -66.478769, -17.334005 ], [ -66.47874, -17.334026 ], [ -66.478592, -17.334125 ], [ -66.478501, -17.334201 ], [ -66.478404, -17.334287 ], [ -66.478307, -17.334444 ], [ -66.478157, -17.334465 ], [ -66.477955, -17.334489 ], [ -66.477845, -17.334531 ], [ -66.47774, -17.334497 ], [ -66.477668, -17.334475 ], [ -66.477656, -17.334473 ], [ -66.477568, -17.334468 ], [ -66.477461, -17.334503 ], [ -66.477261, -17.334608 ], [ -66.477249, -17.334621 ], [ -66.477039, -17.334607 ], [ -66.476944, -17.334606 ], [ -66.476878, -17.334609 ], [ -66.476802, -17.334597 ], [ -66.476737, -17.334584 ], [ -66.476667, -17.334573 ], [ -66.476588, -17.334534 ], [ -66.476511, -17.334493 ], [ -66.476434, -17.334493 ], [ -66.476312, -17.334443 ], [ -66.476236, -17.334386 ], [ -66.476069, -17.334344 ], [ -66.475994, -17.334309 ], [ -66.475948, -17.334318 ], [ -66.475849, -17.334346 ], [ -66.475596, -17.33436 ], [ -66.475481, -17.334377 ], [ -66.47534, -17.334371 ], [ -66.475183, -17.334389 ], [ -66.475063, -17.334424 ], [ -66.474985, -17.334437 ], [ -66.474834, -17.334442 ], [ -66.474708, -17.334452 ], [ -66.47461, -17.334432 ], [ -66.47451, -17.334406 ], [ -66.474372, -17.334388 ], [ -66.474287, -17.334394 ], [ -66.47417, -17.334405 ], [ -66.474097, -17.334362 ], [ -66.474005, -17.334255 ], [ -66.473966, -17.334188 ], [ -66.473834, -17.33407 ], [ -66.473761, -17.334013 ], [ -66.473725, -17.33404 ], [ -66.473646, -17.33407 ], [ -66.473576, -17.334084 ], [ -66.473419, -17.334081 ], [ -66.47328, -17.334053 ], [ -66.47321, -17.334059 ], [ -66.473012, -17.334145 ], [ -66.472851, -17.334187 ], [ -66.472782, -17.334196 ], [ -66.472676, -17.33419 ], [ -66.472586, -17.334167 ], [ -66.472555, -17.334165 ], [ -66.47252, -17.334177 ], [ -66.472449, -17.334217 ], [ -66.472437, -17.334223 ], [ -66.472275, -17.334311 ], [ -66.472255, -17.334322 ], [ -66.472201, -17.334356 ], [ -66.472049, -17.334375 ], [ -66.471947, -17.334458 ], [ -66.471866, -17.334591 ], [ -66.471831, -17.334664 ], [ -66.4717, -17.334774 ], [ -66.471672, -17.334791 ], [ -66.471483, -17.334828 ], [ -66.471379, -17.334878 ], [ -66.471018, -17.335055 ], [ -66.470933, -17.335111 ], [ -66.470832, -17.335145 ], [ -66.470701, -17.335165 ], [ -66.470497, -17.335067 ], [ -66.470372, -17.334981 ], [ -66.470291, -17.334943 ], [ -66.470138, -17.334886 ], [ -66.46991, -17.334845 ], [ -66.469801, -17.334743 ], [ -66.469866, -17.334632 ], [ -66.469885, -17.334456 ], [ -66.469798, -17.334384 ], [ -66.469708, -17.334365 ], [ -66.46961, -17.334363 ], [ -66.469501, -17.33439 ], [ -66.469385, -17.334353 ], [ -66.469218, -17.334295 ], [ -66.469038, -17.334313 ], [ -66.469015, -17.334346 ], [ -66.469013, -17.33442 ], [ -66.468972, -17.334501 ], [ -66.46889, -17.334839 ], [ -66.468851, -17.335124 ], [ -66.468807, -17.33524 ], [ -66.46869, -17.335404 ], [ -66.468539, -17.335544 ], [ -66.468329, -17.335851 ], [ -66.468324, -17.336085 ], [ -66.468278, -17.336418 ], [ -66.468186, -17.336714 ], [ -66.467943, -17.336849 ], [ -66.467834, -17.336951 ], [ -66.467696, -17.337104 ], [ -66.467646, -17.337283 ], [ -66.467697, -17.337474 ], [ -66.467626, -17.337617 ], [ -66.467489, -17.337791 ], [ -66.467332, -17.337913 ], [ -66.467208, -17.338194 ], [ -66.467065, -17.338584 ], [ -66.466935, -17.338771 ], [ -66.466725, -17.338986 ], [ -66.466402, -17.339331 ], [ -66.466299, -17.339528 ], [ -66.466274, -17.339611 ], [ -66.466251, -17.339716 ], [ -66.466226, -17.339847 ], [ -66.466156, -17.339927 ], [ -66.466068, -17.339973 ], [ -66.466057, -17.340063 ], [ -66.466034, -17.340145 ], [ -66.465928, -17.34023 ], [ -66.465778, -17.340294 ], [ -66.465471, -17.340392 ], [ -66.465237, -17.340581 ], [ -66.465213, -17.340745 ], [ -66.465132, -17.340854 ], [ -66.465028, -17.340948 ], [ -66.464956, -17.340983 ], [ -66.464794, -17.341131 ], [ -66.464724, -17.341228 ], [ -66.464612, -17.341259 ], [ -66.46453, -17.341305 ], [ -66.464227, -17.341522 ], [ -66.464152, -17.341745 ], [ -66.464154, -17.341891 ], [ -66.464143, -17.342028 ], [ -66.464043, -17.342101 ], [ -66.463918, -17.342221 ], [ -66.463755, -17.342281 ], [ -66.463665, -17.342334 ], [ -66.46356, -17.342428 ], [ -66.463485, -17.342489 ], [ -66.463469, -17.342583 ], [ -66.463421, -17.342696 ], [ -66.463341, -17.342846 ], [ -66.463214, -17.342949 ], [ -66.46314, -17.343059 ], [ -66.463058, -17.343152 ], [ -66.46296, -17.343179 ], [ -66.462892, -17.343256 ], [ -66.462799, -17.343279 ], [ -66.462593, -17.34336 ], [ -66.462544, -17.343431 ], [ -66.462517, -17.343526 ], [ -66.462579, -17.343675 ], [ -66.46258, -17.343803 ], [ -66.46251, -17.343903 ], [ -66.462368, -17.344073 ], [ -66.462173, -17.344088 ], [ -66.461979, -17.344209 ], [ -66.461863, -17.344511 ], [ -66.461735, -17.344727 ], [ -66.461438, -17.344974 ], [ -66.461221, -17.345137 ], [ -66.461134, -17.345377 ], [ -66.461027, -17.345588 ], [ -66.460783, -17.345772 ], [ -66.46059, -17.346036 ], [ -66.460565, -17.346381 ], [ -66.460507, -17.346643 ], [ -66.46049, -17.346926 ], [ -66.460539, -17.347329 ], [ -66.460406, -17.347594 ], [ -66.460164, -17.347773 ], [ -66.459898, -17.34796 ], [ -66.459714, -17.348357 ], [ -66.459604, -17.348713 ], [ -66.459583, -17.348875 ], [ -66.459669, -17.349055 ], [ -66.459716, -17.349255 ], [ -66.459609, -17.349414 ], [ -66.45937, -17.349544 ], [ -66.459245, -17.349709 ], [ -66.459147, -17.349877 ], [ -66.459209, -17.350106 ], [ -66.459193, -17.350264 ], [ -66.459005, -17.350302 ], [ -66.458896, -17.350439 ], [ -66.458844, -17.35058 ], [ -66.458694, -17.350682 ], [ -66.458476, -17.350719 ], [ -66.45837, -17.350947 ], [ -66.458432, -17.35117 ], [ -66.458472, -17.351381 ], [ -66.458394, -17.351687 ], [ -66.458156, -17.351787 ], [ -66.457875, -17.35188 ], [ -66.457683, -17.352126 ], [ -66.457297, -17.352268 ], [ -66.456828, -17.352338 ], [ -66.456469, -17.352579 ], [ -66.456152, -17.352689 ], [ -66.455836, -17.352783 ], [ -66.455342, -17.35267 ], [ -66.454981, -17.352649 ], [ -66.454663, -17.352685 ], [ -66.454393, -17.352875 ], [ -66.453872, -17.352873 ], [ -66.453238, -17.353186 ], [ -66.452987, -17.353153 ], [ -66.452655, -17.352907 ], [ -66.452224, -17.352976 ], [ -66.451733, -17.353135 ], [ -66.451492, -17.353059 ], [ -66.451238, -17.353182 ], [ -66.451002, -17.353314 ], [ -66.450611, -17.353588 ], [ -66.449985, -17.35397 ], [ -66.44952, -17.354387 ], [ -66.449387, -17.354802 ], [ -66.449324, -17.354972 ], [ -66.449207, -17.3551 ], [ -66.448999, -17.355212 ], [ -66.448886, -17.355259 ], [ -66.448807, -17.355288 ], [ -66.448432, -17.355437 ], [ -66.448262, -17.355859 ], [ -66.448228, -17.356007 ], [ -66.448194, -17.356097 ], [ -66.447945, -17.356154 ], [ -66.447775, -17.356326 ], [ -66.447599, -17.356511 ], [ -66.447462, -17.356813 ], [ -66.447361, -17.356942 ], [ -66.447204, -17.357007 ], [ -66.447031, -17.356949 ], [ -66.446938, -17.356922 ], [ -66.446607, -17.357003 ], [ -66.446464, -17.35732 ], [ -66.446348, -17.357631 ], [ -66.446261, -17.357783 ], [ -66.446092, -17.357979 ], [ -66.446061, -17.358 ], [ -66.446029, -17.358016 ], [ -66.445943, -17.358047 ], [ -66.445741, -17.358115 ], [ -66.445655, -17.35819 ], [ -66.445623, -17.358371 ], [ -66.445713, -17.35849 ], [ -66.445676, -17.358603 ], [ -66.445557, -17.358721 ], [ -66.445554, -17.358874 ], [ -66.445538, -17.358937 ], [ -66.445514, -17.35897 ], [ -66.445502, -17.358983 ], [ -66.445427, -17.359035 ], [ -66.4454, -17.35905 ], [ -66.44534, -17.35907 ], [ -66.44526, -17.359084 ], [ -66.444928, -17.359153 ], [ -66.444785, -17.359379 ], [ -66.444768, -17.359572 ], [ -66.44489, -17.359672 ], [ -66.444891, -17.359799 ], [ -66.444873, -17.359953 ], [ -66.444872, -17.360027 ], [ -66.444446, -17.360006 ], [ -66.444318, -17.360001 ], [ -66.444006, -17.360081 ], [ -66.443879, -17.360126 ], [ -66.443756, -17.360315 ], [ -66.443714, -17.36049 ], [ -66.443709, -17.360649 ], [ -66.443733, -17.360891 ], [ -66.4437, -17.361104 ], [ -66.443696, -17.361208 ], [ -66.443666, -17.361264 ], [ -66.443636, -17.36134 ], [ -66.443478, -17.361338 ], [ -66.443173, -17.361495 ], [ -66.442982, -17.361593 ], [ -66.442798, -17.36174 ], [ -66.442774, -17.361998 ], [ -66.442874, -17.362291 ], [ -66.442819, -17.362446 ], [ -66.442747, -17.362659 ], [ -66.442718, -17.362681 ], [ -66.442919, -17.362966 ], [ -66.443153, -17.36312 ], [ -66.443354, -17.363322 ], [ -66.443302, -17.363518 ], [ -66.443122, -17.363609 ], [ -66.442952, -17.363623 ], [ -66.442742, -17.36359 ], [ -66.442549, -17.36358 ], [ -66.442657, -17.363684 ], [ -66.442693, -17.363728 ], [ -66.442709, -17.363758 ], [ -66.442684, -17.363799 ], [ -66.442618, -17.363853 ], [ -66.442589, -17.363874 ], [ -66.442551, -17.363897 ], [ -66.442357, -17.363898 ], [ -66.442248, -17.363941 ], [ -66.442193, -17.364158 ], [ -66.442295, -17.364294 ], [ -66.442318, -17.364461 ], [ -66.442247, -17.364551 ], [ -66.442073, -17.36459 ], [ -66.441918, -17.364682 ], [ -66.441803, -17.364824 ], [ -66.441801, -17.364952 ], [ -66.441836, -17.365069 ], [ -66.441897, -17.365183 ], [ -66.441949, -17.365353 ], [ -66.441989, -17.365471 ], [ -66.441985, -17.365563 ], [ -66.441965, -17.365698 ], [ -66.441933, -17.365813 ], [ -66.44188, -17.36587 ], [ -66.441749, -17.36598 ], [ -66.441615, -17.366028 ], [ -66.441455, -17.366046 ], [ -66.441354, -17.366132 ], [ -66.441285, -17.366155 ], [ -66.441197, -17.366155 ], [ -66.441043, -17.366195 ], [ -66.440873, -17.366274 ], [ -66.440729, -17.366357 ], [ -66.440659, -17.366441 ], [ -66.440575, -17.366604 ], [ -66.440487, -17.366688 ], [ -66.440296, -17.366825 ], [ -66.440255, -17.366857 ], [ -66.440152, -17.366999 ], [ -66.440064, -17.367168 ], [ -66.440101, -17.367262 ], [ -66.440116, -17.367376 ], [ -66.440046, -17.36749 ], [ -66.439923, -17.367582 ], [ -66.439734, -17.367701 ], [ -66.439594, -17.36782 ], [ -66.439519, -17.367913 ], [ -66.439438, -17.367996 ], [ -66.43925, -17.368127 ], [ -66.439091, -17.368254 ], [ -66.439007, -17.368355 ], [ -66.43896, -17.368568 ], [ -66.438892, -17.368756 ], [ -66.4388, -17.368881 ], [ -66.438697, -17.368998 ], [ -66.438575, -17.369108 ], [ -66.438435, -17.369167 ], [ -66.438329, -17.369284 ], [ -66.438247, -17.369434 ], [ -66.43818, -17.36964 ], [ -66.438075, -17.369734 ], [ -66.437999, -17.36981 ], [ -66.437911, -17.369896 ], [ -66.437842, -17.369981 ], [ -66.437816, -17.370055 ], [ -66.437782, -17.370196 ], [ -66.437792, -17.370299 ], [ -66.437794, -17.370422 ], [ -66.43782, -17.370538 ], [ -66.437816, -17.370631 ], [ -66.437787, -17.370736 ], [ -66.437758, -17.370863 ], [ -66.43769, -17.370992 ], [ -66.437637, -17.371104 ], [ -66.437619, -17.371238 ], [ -66.437568, -17.371338 ], [ -66.437544, -17.371446 ], [ -66.437492, -17.371604 ], [ -66.437501, -17.371698 ], [ -66.437474, -17.37182 ], [ -66.437437, -17.371905 ], [ -66.437362, -17.371941 ], [ -66.437306, -17.371986 ], [ -66.437215, -17.371974 ], [ -66.437091, -17.371959 ], [ -66.437002, -17.371956 ], [ -66.436939, -17.372001 ], [ -66.436921, -17.372006 ], [ -66.436778, -17.372009 ], [ -66.436721, -17.372032 ], [ -66.436627, -17.372036 ], [ -66.436518, -17.372063 ], [ -66.436437, -17.372103 ], [ -66.436336, -17.372207 ], [ -66.436277, -17.372367 ], [ -66.436223, -17.372443 ], [ -66.436197, -17.372515 ], [ -66.436223, -17.372578 ], [ -66.436219, -17.372655 ], [ -66.436219, -17.372717 ], [ -66.436276, -17.372741 ], [ -66.436281, -17.372795 ], [ -66.436258, -17.372894 ], [ -66.43622, -17.37301 ], [ -66.436176, -17.373119 ], [ -66.436169, -17.373188 ], [ -66.436141, -17.373339 ], [ -66.436102, -17.373395 ], [ -66.436049, -17.373421 ], [ -66.435967, -17.373441 ], [ -66.435943, -17.373538 ], [ -66.43597, -17.373638 ], [ -66.435937, -17.373831 ], [ -66.435863, -17.37395 ], [ -66.435744, -17.37403 ], [ -66.435586, -17.374083 ], [ -66.435428, -17.374201 ], [ -66.435269, -17.374176 ], [ -66.435161, -17.374167 ], [ -66.435096, -17.374222 ], [ -66.435067, -17.374302 ], [ -66.435075, -17.374441 ], [ -66.435089, -17.374528 ], [ -66.435128, -17.37466 ], [ -66.435098, -17.374746 ], [ -66.434995, -17.374882 ], [ -66.434931, -17.374984 ], [ -66.434907, -17.37509 ], [ -66.434864, -17.375251 ], [ -66.434837, -17.37538 ], [ -66.434804, -17.375459 ], [ -66.43474, -17.375491 ], [ -66.434676, -17.375524 ], [ -66.434627, -17.375593 ], [ -66.434546, -17.375688 ], [ -66.434393, -17.375831 ], [ -66.434313, -17.375985 ], [ -66.434243, -17.376099 ], [ -66.434214, -17.376172 ], [ -66.434163, -17.37626 ], [ -66.434148, -17.37637 ], [ -66.434142, -17.376448 ], [ -66.434118, -17.376586 ], [ -66.434144, -17.376635 ], [ -66.434179, -17.376703 ], [ -66.434193, -17.376776 ], [ -66.434231, -17.376868 ], [ -66.434219, -17.376956 ], [ -66.434193, -17.377107 ], [ -66.434125, -17.377259 ], [ -66.434056, -17.377456 ], [ -66.433974, -17.377567 ], [ -66.433887, -17.377617 ], [ -66.433876, -17.377671 ], [ -66.433822, -17.377853 ], [ -66.433777, -17.378002 ], [ -66.433802, -17.378146 ], [ -66.433772, -17.378305 ], [ -66.433744, -17.378451 ], [ -66.433774, -17.378624 ], [ -66.4338, -17.378733 ], [ -66.433839, -17.378896 ], [ -66.433907, -17.379226 ], [ -66.433912, -17.379519 ], [ -66.433876, -17.379825 ], [ -66.433786, -17.380003 ], [ -66.433784, -17.380188 ], [ -66.433823, -17.380424 ], [ -66.433825, -17.380571 ], [ -66.433748, -17.380732 ], [ -66.433631, -17.380889 ], [ -66.433476, -17.380973 ], [ -66.433182, -17.381231 ], [ -66.43306, -17.381337 ], [ -66.432968, -17.381468 ], [ -66.432873, -17.381654 ], [ -66.432853, -17.381803 ], [ -66.432865, -17.381987 ], [ -66.432815, -17.382127 ], [ -66.432741, -17.38227 ], [ -66.432667, -17.382435 ], [ -66.432648, -17.382571 ], [ -66.432646, -17.382741 ], [ -66.432494, -17.382906 ], [ -66.432302, -17.383257 ], [ -66.431771, -17.383329 ], [ -66.431264, -17.383397 ], [ -66.430962, -17.383741 ], [ -66.43061, -17.383975 ], [ -66.430355, -17.384402 ], [ -66.430262, -17.384795 ], [ -66.430334, -17.385023 ], [ -66.430366, -17.38537 ], [ -66.430038, -17.385736 ], [ -66.42976, -17.386055 ], [ -66.429544, -17.386327 ], [ -66.429066, -17.386739 ], [ -66.428913, -17.386941 ], [ -66.428473, -17.387293 ], [ -66.428271, -17.387494 ], [ -66.428206, -17.387732 ], [ -66.427845, -17.387883 ], [ -66.427583, -17.388071 ], [ -66.427619, -17.388396 ], [ -66.427136, -17.388734 ], [ -66.426556, -17.388956 ], [ -66.426216, -17.389028 ], [ -66.425709, -17.388954 ], [ -66.425479, -17.389014 ], [ -66.425323, -17.389096 ], [ -66.42507, -17.389128 ], [ -66.424917, -17.389355 ], [ -66.424765, -17.389602 ], [ -66.424477, -17.38967 ], [ -66.424272, -17.389706 ], [ -66.423964, -17.389711 ], [ -66.423784, -17.389774 ], [ -66.423722, -17.390244 ], [ -66.423782, -17.390518 ], [ -66.423872, -17.390816 ], [ -66.424024, -17.39113 ], [ -66.423836, -17.391088 ], [ -66.423158, -17.390825 ], [ -66.422655, -17.390352 ], [ -66.422115, -17.38982 ], [ -66.421686, -17.389336 ], [ -66.421398, -17.388556 ], [ -66.421265, -17.388267 ], [ -66.421004, -17.387873 ], [ -66.42093, -17.387741 ], [ -66.420865, -17.387152 ], [ -66.42084, -17.387023 ], [ -66.420814, -17.386805 ], [ -66.420579, -17.386586 ], [ -66.420382, -17.386391 ], [ -66.420232, -17.385894 ], [ -66.419996, -17.38568 ], [ -66.419916, -17.385332 ], [ -66.419763, -17.385199 ], [ -66.419534, -17.384971 ], [ -66.419241, -17.384783 ], [ -66.418514, -17.38427 ], [ -66.418322, -17.383699 ], [ -66.417983, -17.383465 ], [ -66.416916, -17.382288 ], [ -66.415827, -17.381089 ], [ -66.415053, -17.380235 ], [ -66.414038, -17.380197 ], [ -66.413111, -17.38007 ], [ -66.412485, -17.379959 ], [ -66.408127, -17.380184 ], [ -66.407191, -17.380581 ], [ -66.407059, -17.380596 ], [ -66.406591, -17.380587 ], [ -66.406216, -17.380758 ], [ -66.406004, -17.381088 ], [ -66.405951, -17.381152 ], [ -66.405263, -17.38183 ], [ -66.405253, -17.38184 ], [ -66.405162, -17.381904 ], [ -66.404202, -17.382409 ], [ -66.40352, -17.383298 ], [ -66.403476, -17.38335 ], [ -66.40327, -17.383482 ], [ -66.403212, -17.383518 ], [ -66.402909, -17.383679 ], [ -66.402474, -17.383793 ], [ -66.40184, -17.383917 ], [ -66.401912, -17.384336 ], [ -66.401752, -17.384475 ], [ -66.40162, -17.384577 ], [ -66.401413, -17.384711 ], [ -66.401346, -17.384756 ], [ -66.401187, -17.384833 ], [ -66.401043, -17.384825 ], [ -66.40091, -17.384812 ], [ -66.400756, -17.384786 ], [ -66.400641, -17.384748 ], [ -66.400141, -17.384358 ], [ -66.399858, -17.384285 ], [ -66.399849, -17.384284 ], [ -66.39984, -17.384284 ], [ -66.399581, -17.38428 ], [ -66.39947, -17.383914 ], [ -66.399484, -17.383783 ], [ -66.399827, -17.383637 ], [ -66.399907, -17.383502 ], [ -66.399292, -17.383262 ], [ -66.398922, -17.383236 ], [ -66.39807, -17.383624 ], [ -66.398048, -17.384031 ], [ -66.398197, -17.384587 ], [ -66.398013, -17.385253 ], [ -66.39716, -17.385768 ], [ -66.395995, -17.385442 ], [ -66.395074, -17.385406 ], [ -66.394695, -17.385807 ], [ -66.393997, -17.385942 ], [ -66.393125, -17.385978 ], [ -66.392352, -17.386064 ], [ -66.391372, -17.38672 ], [ -66.390568, -17.387283 ], [ -66.389719, -17.387487 ], [ -66.388567, -17.387997 ], [ -66.38735, -17.389285 ], [ -66.38645, -17.391653 ], [ -66.386026, -17.392615 ], [ -66.385076, -17.39375 ], [ -66.384093, -17.394633 ], [ -66.383264, -17.395196 ], [ -66.382803, -17.396122 ], [ -66.382345, -17.396833 ], [ -66.382076, -17.397367 ], [ -66.381697, -17.397756 ], [ -66.381541, -17.398184 ], [ -66.381012, -17.398679 ], [ -66.380965, -17.399359 ], [ -66.38036, -17.399853 ], [ -66.38002, -17.400171 ], [ -66.379297, -17.401094 ], [ -66.378924, -17.401692 ], [ -66.378012, -17.402188 ], [ -66.377637, -17.402678 ], [ -66.376916, -17.403141 ], [ -66.376906, -17.403858 ], [ -66.376655, -17.404225 ], [ -66.376639, -17.404249 ], [ -66.375832, -17.404979 ], [ -66.375129, -17.405424 ], [ -66.374978, -17.405481 ], [ -66.374453, -17.405678 ], [ -66.373852, -17.405909 ], [ -66.373622, -17.406336 ], [ -66.373144, -17.406688 ], [ -66.372718, -17.407079 ], [ -66.372375, -17.407563 ], [ -66.372074, -17.40798 ], [ -66.371875, -17.408253 ], [ -66.371711, -17.408809 ], [ -66.371637, -17.40909 ], [ -66.371575, -17.409154 ], [ -66.370686, -17.409934 ], [ -66.37006, -17.410236 ], [ -66.369155, -17.410822 ], [ -66.368276, -17.411384 ], [ -66.3675, -17.411684 ], [ -66.366725, -17.411913 ], [ -66.366217, -17.412229 ], [ -66.365472, -17.412518 ], [ -66.365092, -17.413014 ], [ -66.364611, -17.413558 ], [ -66.364455, -17.41401 ], [ -66.364357, -17.414496 ], [ -66.363857, -17.41436 ], [ -66.363411, -17.414407 ], [ -66.363169, -17.414275 ], [ -66.362815, -17.41425 ], [ -66.36239, -17.413955 ], [ -66.361891, -17.413565 ], [ -66.361338, -17.413522 ], [ -66.361213, -17.413389 ], [ -66.360902, -17.413371 ], [ -66.360603, -17.413183 ], [ -66.360202, -17.412686 ], [ -66.359813, -17.412548 ], [ -66.359533, -17.41245 ], [ -66.358995, -17.412429 ], [ -66.358907, -17.412326 ], [ -66.358858, -17.412187 ], [ -66.35877, -17.412154 ], [ -66.358661, -17.412165 ], [ -66.358507, -17.412173 ], [ -66.358396, -17.412153 ], [ -66.358268, -17.412129 ], [ -66.358095, -17.412096 ], [ -66.35802, -17.412047 ], [ -66.357879, -17.411894 ], [ -66.357753, -17.411844 ], [ -66.357613, -17.411772 ], [ -66.357423, -17.411672 ], [ -66.35723, -17.411571 ], [ -66.357062, -17.4115 ], [ -66.357002, -17.411453 ], [ -66.35685, -17.41143 ], [ -66.356677, -17.411368 ], [ -66.356557, -17.411199 ], [ -66.356338, -17.410964 ], [ -66.355727, -17.410796 ], [ -66.355528, -17.410757 ], [ -66.355124, -17.410632 ], [ -66.354827, -17.410568 ], [ -66.354736, -17.410533 ], [ -66.354354, -17.410414 ], [ -66.354159, -17.410453 ], [ -66.354057, -17.410465 ], [ -66.353814, -17.410374 ], [ -66.353633, -17.410307 ], [ -66.353418, -17.410198 ], [ -66.353197, -17.410094 ], [ -66.352846, -17.410288 ], [ -66.352818, -17.410288 ], [ -66.352743, -17.41026 ], [ -66.352631, -17.410195 ], [ -66.352603, -17.410195 ], [ -66.352519, -17.410194 ], [ -66.352387, -17.410156 ], [ -66.351946, -17.410132 ], [ -66.351688, -17.410278 ], [ -66.35168, -17.4103 ], [ -66.351648, -17.410571 ], [ -66.351554, -17.410641 ], [ -66.351344, -17.410817 ], [ -66.351362, -17.410838 ], [ -66.351001, -17.411023 ], [ -66.350712, -17.410973 ], [ -66.350654, -17.410991 ], [ -66.350435, -17.411151 ], [ -66.350237, -17.411211 ], [ -66.350154, -17.411226 ], [ -66.349963, -17.411262 ], [ -66.349803, -17.411314 ], [ -66.349606, -17.411275 ], [ -66.349316, -17.411336 ], [ -66.348973, -17.411465 ], [ -66.348635, -17.411407 ], [ -66.348229, -17.411482 ], [ -66.348484, -17.41062 ], [ -66.348595, -17.410241 ], [ -66.348754, -17.410288 ], [ -66.349, -17.410246 ], [ -66.34963, -17.410246 ], [ -66.349993, -17.409862 ], [ -66.349655, -17.409776 ], [ -66.349971, -17.409419 ], [ -66.349267, -17.409293 ], [ -66.348742, -17.409159 ], [ -66.347893, -17.410015 ], [ -66.346664, -17.409773 ], [ -66.3474, -17.408943 ], [ -66.347812, -17.409111 ], [ -66.348881, -17.408023 ], [ -66.347736, -17.407818 ], [ -66.347671, -17.407808 ], [ -66.342997, -17.407069 ], [ -66.340586, -17.406612 ], [ -66.339143, -17.406214 ], [ -66.339194, -17.405961 ], [ -66.338847, -17.405899 ], [ -66.338486, -17.405857 ], [ -66.338128, -17.405783 ], [ -66.337795, -17.405744 ], [ -66.337479, -17.405634 ], [ -66.337242, -17.405628 ], [ -66.336995, -17.40565 ], [ -66.336481, -17.405576 ], [ -66.335898, -17.405459 ], [ -66.335578, -17.405377 ], [ -66.334895, -17.40529 ], [ -66.334492, -17.405158 ], [ -66.334437, -17.405147 ], [ -66.334047, -17.40536 ], [ -66.333888, -17.405413 ], [ -66.333578, -17.405728 ], [ -66.333516, -17.40578 ], [ -66.333286, -17.405973 ], [ -66.333105, -17.406083 ], [ -66.333055, -17.406094 ], [ -66.332709, -17.406173 ], [ -66.331942, -17.406451 ], [ -66.331085, -17.406612 ], [ -66.330408, -17.406834 ], [ -66.329452, -17.407238 ], [ -66.328878, -17.407481 ], [ -66.32858, -17.407562 ], [ -66.327697, -17.407803 ], [ -66.32747, -17.408071 ], [ -66.327322, -17.408356 ], [ -66.327018, -17.408552 ], [ -66.326935, -17.409338 ], [ -66.326642, -17.410329 ], [ -66.326578, -17.410543 ], [ -66.326452, -17.410576 ], [ -66.325769, -17.410756 ], [ -66.325028, -17.4111 ], [ -66.323824, -17.411716 ], [ -66.323731, -17.41148 ], [ -66.32309, -17.409792 ], [ -66.322812, -17.409602 ], [ -66.322645, -17.408374 ], [ -66.322122, -17.407115 ], [ -66.321913, -17.407292 ], [ -66.32159, -17.408155 ], [ -66.321494, -17.408253 ], [ -66.321741, -17.408789 ], [ -66.321522, -17.408949 ], [ -66.321246, -17.40853 ], [ -66.320755, -17.40864 ], [ -66.32078, -17.40884 ], [ -66.320335, -17.40905 ], [ -66.320163, -17.409229 ], [ -66.320247, -17.40932 ], [ -66.319671, -17.410071 ], [ -66.319363, -17.409922 ], [ -66.319295, -17.410084 ], [ -66.318292, -17.4111 ], [ -66.318095, -17.411775 ], [ -66.318075, -17.411844 ], [ -66.317391, -17.414194 ], [ -66.317194, -17.414138 ], [ -66.317123, -17.414489 ], [ -66.316648, -17.414398 ] ] ] ] } }
]
}
