{
"type": "FeatureCollection",
"name": "TACACHI",
"crs": { "type": "name", "properties": { "name": "urn:ogc:def:crs:OGC:1.3:CRS84" } },
"bbox": [ -65.817601, -17.662967, -65.766314, -17.610908 ],                                                                        
"features": [
{ "type": "Feature", "properties": { "NOMBRE": "Tacachi", "NIVEL": "Municipios", "PROVINCIA": "Punata", "REGION": "Valles", "DEPARTAMENTO": "Cochabamba" }, "bbox": [ -65.817601, -17.662967, -65.766314, -17.610908 ], "geometry": { "type": "MultiPolygon", "coordinates": [ [ [ [ -65.77649, -17.629584 ], [ -65.776466, -17.629659 ], [ -65.766343, -17.631913 ], [ -65.766314, -17.631924 ], [ -65.768061, -17.635492 ], [ -65.767921, -17.635629 ], [ -65.767921, -17.63588 ], [ -65.767309, -17.636717 ], [ -65.767133, -17.63747 ], [ -65.767394, -17.638392 ], [ -65.76748, -17.638978 ], [ -65.76748, -17.639397 ], [ -65.767829, -17.6399 ], [ -65.767916, -17.639983 ], [ -65.767915, -17.640737 ], [ -65.768089, -17.641407 ], [ -65.768875, -17.641408 ], [ -65.769224, -17.641827 ], [ -65.769135, -17.642497 ], [ -65.768873, -17.642999 ], [ -65.768784, -17.643753 ], [ -65.769046, -17.644423 ], [ -65.769045, -17.644926 ], [ -65.768608, -17.645344 ], [ -65.767996, -17.645595 ], [ -65.767908, -17.646348 ], [ -65.768256, -17.647102 ], [ -65.769303, -17.64836 ], [ -65.769389, -17.649114 ], [ -65.769651, -17.649449 ], [ -65.769651, -17.649533 ], [ -65.770087, -17.650203 ], [ -65.770174, -17.650203 ], [ -65.770261, -17.650203 ], [ -65.77096, -17.650204 ], [ -65.772008, -17.650205 ], [ -65.772619, -17.650876 ], [ -65.773318, -17.650877 ], [ -65.773929, -17.65138 ], [ -65.774278, -17.65138 ], [ -65.774453, -17.650962 ], [ -65.774978, -17.65046 ], [ -65.774891, -17.649874 ], [ -65.775066, -17.649539 ], [ -65.775503, -17.649456 ], [ -65.775766, -17.649121 ], [ -65.775854, -17.648619 ], [ -65.776378, -17.648619 ], [ -65.776728, -17.648033 ], [ -65.777339, -17.648285 ], [ -65.777251, -17.648955 ], [ -65.777424, -17.650128 ], [ -65.777074, -17.650546 ], [ -65.777336, -17.651049 ], [ -65.777859, -17.651552 ], [ -65.777946, -17.652222 ], [ -65.777858, -17.652222 ], [ -65.777596, -17.652724 ], [ -65.777595, -17.652808 ], [ -65.778032, -17.653311 ], [ -65.778556, -17.653311 ], [ -65.778643, -17.653312 ], [ -65.779255, -17.652726 ], [ -65.780216, -17.652643 ], [ -65.781177, -17.652644 ], [ -65.781438, -17.653482 ], [ -65.782049, -17.653734 ], [ -65.782661, -17.653651 ], [ -65.78336, -17.653484 ], [ -65.783884, -17.653066 ], [ -65.784234, -17.652564 ], [ -65.784584, -17.652229 ], [ -65.785283, -17.651895 ], [ -65.786157, -17.65198 ], [ -65.786419, -17.651561 ], [ -65.787206, -17.65106 ], [ -65.788429, -17.65081 ], [ -65.789391, -17.650057 ], [ -65.789828, -17.649806 ], [ -65.790964, -17.649473 ], [ -65.79175, -17.649473 ], [ -65.792361, -17.649641 ], [ -65.792885, -17.650061 ], [ -65.793409, -17.650145 ], [ -65.793666, -17.650899 ], [ -65.794102, -17.651486 ], [ -65.794538, -17.65224 ], [ -65.794538, -17.652324 ], [ -65.795324, -17.652827 ], [ -65.795497, -17.653664 ], [ -65.796545, -17.654335 ], [ -65.796981, -17.655006 ], [ -65.797067, -17.656178 ], [ -65.797852, -17.656765 ], [ -65.798201, -17.657687 ], [ -65.7982, -17.658524 ], [ -65.798985, -17.65953 ], [ -65.799072, -17.65953 ], [ -65.799072, -17.659614 ], [ -65.79916, -17.659614 ], [ -65.799159, -17.659698 ], [ -65.799158, -17.660786 ], [ -65.800032, -17.660955 ], [ -65.800905, -17.661374 ], [ -65.800992, -17.661374 ], [ -65.801166, -17.662463 ], [ -65.801689, -17.662799 ], [ -65.802737, -17.662967 ], [ -65.803786, -17.662466 ], [ -65.805097, -17.66163 ], [ -65.807019, -17.661883 ], [ -65.807543, -17.661297 ], [ -65.807631, -17.660627 ], [ -65.807894, -17.660125 ], [ -65.807982, -17.659455 ], [ -65.807895, -17.658869 ], [ -65.808594, -17.658534 ], [ -65.809032, -17.657949 ], [ -65.80912, -17.657446 ], [ -65.809383, -17.656358 ], [ -65.809209, -17.655604 ], [ -65.808948, -17.65485 ], [ -65.809035, -17.654515 ], [ -65.809385, -17.654264 ], [ -65.809909, -17.654349 ], [ -65.810432, -17.654935 ], [ -65.811044, -17.654768 ], [ -65.811568, -17.654936 ], [ -65.812092, -17.655272 ], [ -65.812615, -17.655524 ], [ -65.813227, -17.655524 ], [ -65.814188, -17.655274 ], [ -65.814799, -17.655274 ], [ -65.815585, -17.655359 ], [ -65.816546, -17.655611 ], [ -65.816633, -17.655611 ], [ -65.817245, -17.655193 ], [ -65.817421, -17.653937 ], [ -65.817249, -17.651759 ], [ -65.816987, -17.651089 ], [ -65.817337, -17.65042 ], [ -65.817534, -17.649354 ], [ -65.817601, -17.648996 ], [ -65.817339, -17.648242 ], [ -65.817253, -17.647405 ], [ -65.817079, -17.646316 ], [ -65.816469, -17.645646 ], [ -65.816207, -17.644892 ], [ -65.815772, -17.644054 ], [ -65.814986, -17.643132 ], [ -65.814987, -17.643048 ], [ -65.814114, -17.642545 ], [ -65.813416, -17.641874 ], [ -65.812718, -17.64112 ], [ -65.81167, -17.640533 ], [ -65.810797, -17.640197 ], [ -65.810711, -17.639276 ], [ -65.81045, -17.638522 ], [ -65.810451, -17.637601 ], [ -65.810452, -17.63668 ], [ -65.810453, -17.635675 ], [ -65.810803, -17.634586 ], [ -65.810804, -17.633916 ], [ -65.810368, -17.633079 ], [ -65.81002, -17.632241 ], [ -65.809933, -17.631487 ], [ -65.810022, -17.630315 ], [ -65.810109, -17.630231 ], [ -65.81046, -17.629059 ], [ -65.809674, -17.628556 ], [ -65.808364, -17.628554 ], [ -65.807666, -17.627884 ], [ -65.80723, -17.627381 ], [ -65.806095, -17.626961 ], [ -65.805048, -17.625955 ], [ -65.804264, -17.624949 ], [ -65.803304, -17.623608 ], [ -65.802083, -17.622519 ], [ -65.8006, -17.620842 ], [ -65.799553, -17.620255 ], [ -65.797983, -17.618494 ], [ -65.796936, -17.617572 ], [ -65.796675, -17.616734 ], [ -65.796676, -17.615897 ], [ -65.79659, -17.615143 ], [ -65.796154, -17.614473 ], [ -65.795456, -17.613886 ], [ -65.795195, -17.612797 ], [ -65.794236, -17.611121 ], [ -65.793408, -17.610908 ], [ -65.783982, -17.61715 ], [ -65.779635, -17.620019 ], [ -65.776671, -17.629544 ], [ -65.77649, -17.629584 ] ] ] ] } }
]
}
