{
"type": "FeatureCollection",
"name": "TACOPAYA",
"crs": { "type": "name", "properties": { "name": "urn:ogc:def:crs:OGC:1.3:CRS84" } },
"bbox": [ -66.772415, -17.951575, -66.465766, -17.682739 ],                                                                        
"features": [
{ "type": "Feature", "properties": { "NOMBRE": "Tacopaya", "NIVEL": "Municipios", "PROVINCIA": "Arque", "REGION": "Andina", "DEPARTAMENTO": "Cochabamba" }, "bbox": [ -66.772415, -17.951575, -66.465766, -17.682739 ], "geometry": { "type": "MultiPolygon", "coordinates": [ [ [ [ -66.613461, -17.746312 ], [ -66.611039, -17.741415 ], [ -66.611039, -17.741415 ], [ -66.606432, -17.73987 ], [ -66.606432, -17.73987 ], [ -66.600216, -17.734874 ], [ -66.597876, -17.725454 ], [ -66.597875, -17.725454 ], [ -66.59402, -17.723336 ], [ -66.582941, -17.723685 ], [ -66.577182, -17.727498 ], [ -66.577182, -17.727498 ], [ -66.571144, -17.723175 ], [ -66.57089, -17.722994 ], [ -66.531387, -17.757741 ], [ -66.530951, -17.758192 ], [ -66.530603, -17.758373 ], [ -66.530411, -17.758387 ], [ -66.529928, -17.758372 ], [ -66.529262, -17.758278 ], [ -66.528811, -17.758584 ], [ -66.528726, -17.758798 ], [ -66.527898, -17.759721 ], [ -66.525565, -17.760969 ], [ -66.524188, -17.761235 ], [ -66.523143, -17.761056 ], [ -66.522379, -17.76144 ], [ -66.521489, -17.761561 ], [ -66.520263, -17.762073 ], [ -66.519141, -17.762223 ], [ -66.517739, -17.762897 ], [ -66.516791, -17.764541 ], [ -66.516173, -17.765069 ], [ -66.514081, -17.765598 ], [ -66.513621, -17.766219 ], [ -66.512491, -17.766878 ], [ -66.511756, -17.768287 ], [ -66.511158, -17.768893 ], [ -66.510254, -17.770463 ], [ -66.509855, -17.771215 ], [ -66.509577, -17.772205 ], [ -66.509681, -17.773463 ], [ -66.509293, -17.775046 ], [ -66.509088, -17.776337 ], [ -66.509098, -17.778387 ], [ -66.5085, -17.77944 ], [ -66.507905, -17.780269 ], [ -66.507845, -17.781215 ], [ -66.506813, -17.782322 ], [ -66.506321, -17.7833 ], [ -66.505538, -17.78479 ], [ -66.505516, -17.785628 ], [ -66.50585, -17.78647 ], [ -66.505642, -17.787539 ], [ -66.504209, -17.788447 ], [ -66.502676, -17.789378 ], [ -66.501765, -17.791173 ], [ -66.500084, -17.793012 ], [ -66.499678, -17.794409 ], [ -66.499481, -17.796882 ], [ -66.499096, -17.79828 ], [ -66.497991, -17.800185 ], [ -66.497927, -17.800716 ], [ -66.497276, -17.801675 ], [ -66.496246, -17.802908 ], [ -66.496085, -17.804531 ], [ -66.495063, -17.805739 ], [ -66.494804, -17.807571 ], [ -66.493499, -17.80984 ], [ -66.492486, -17.812197 ], [ -66.492066, -17.814017 ], [ -66.491501, -17.817029 ], [ -66.491152, -17.819966 ], [ -66.490039, -17.82239 ], [ -66.489536, -17.824235 ], [ -66.488157, -17.824377 ], [ -66.487442, -17.824451 ], [ -66.486413, -17.824557 ], [ -66.485795, -17.824558 ], [ -66.483445, -17.824939 ], [ -66.481949, -17.825779 ], [ -66.481949, -17.825899 ], [ -66.481949, -17.826019 ], [ -66.481452, -17.826737 ], [ -66.480705, -17.827576 ], [ -66.480705, -17.827696 ], [ -66.479957, -17.828295 ], [ -66.479833, -17.828296 ], [ -66.479833, -17.828415 ], [ -66.479085, -17.828895 ], [ -66.479085, -17.829015 ], [ -66.47896, -17.829015 ], [ -66.478462, -17.829614 ], [ -66.477715, -17.830094 ], [ -66.476605, -17.830363 ], [ -66.477395, -17.831235 ], [ -66.477779, -17.832026 ], [ -66.477781, -17.832381 ], [ -66.479035, -17.833054 ], [ -66.479501, -17.833526 ], [ -66.480826, -17.834491 ], [ -66.482119, -17.835703 ], [ -66.482982, -17.836455 ], [ -66.48311, -17.837544 ], [ -66.482886, -17.838291 ], [ -66.482971, -17.839026 ], [ -66.482678, -17.839238 ], [ -66.482364, -17.839483 ], [ -66.482377, -17.839494 ], [ -66.482366, -17.839544 ], [ -66.482423, -17.841373 ], [ -66.482475, -17.841407 ], [ -66.482425, -17.841417 ], [ -66.481037, -17.84379 ], [ -66.479613, -17.845241 ], [ -66.479614, -17.845253 ], [ -66.479605, -17.845249 ], [ -66.478426, -17.845645 ], [ -66.478362, -17.845595 ], [ -66.478365, -17.845665 ], [ -66.478001, -17.847652 ], [ -66.477966, -17.847841 ], [ -66.478017, -17.84792 ], [ -66.477976, -17.847957 ], [ -66.477997, -17.848199 ], [ -66.478188, -17.850381 ], [ -66.47801, -17.850578 ], [ -66.478101, -17.850789 ], [ -66.477885, -17.850717 ], [ -66.477609, -17.851023 ], [ -66.47725, -17.851107 ], [ -66.477067, -17.85115 ], [ -66.476683, -17.85124 ], [ -66.47467, -17.851808 ], [ -66.474656, -17.85182 ], [ -66.473938, -17.852343 ], [ -66.473899, -17.852407 ], [ -66.473866, -17.852396 ], [ -66.473879, -17.852456 ], [ -66.474228, -17.853999 ], [ -66.474825, -17.856082 ], [ -66.474845, -17.856124 ], [ -66.474846, -17.856156 ], [ -66.476068, -17.858444 ], [ -66.476059, -17.858469 ], [ -66.476163, -17.858622 ], [ -66.476815, -17.859842 ], [ -66.476724, -17.859971 ], [ -66.476452, -17.859916 ], [ -66.476321, -17.85995 ], [ -66.475257, -17.858539 ], [ -66.474254, -17.857952 ], [ -66.47366, -17.857204 ], [ -66.473205, -17.85672 ], [ -66.472348, -17.856155 ], [ -66.472013, -17.856085 ], [ -66.471634, -17.856005 ], [ -66.471371, -17.855722 ], [ -66.471076, -17.855591 ], [ -66.470584, -17.855423 ], [ -66.470281, -17.855543 ], [ -66.469937, -17.85555 ], [ -66.468931, -17.854658 ], [ -66.468157, -17.854313 ], [ -66.467381, -17.854184 ], [ -66.467265, -17.853937 ], [ -66.467076, -17.853922 ], [ -66.467052, -17.853691 ], [ -66.466649, -17.853389 ], [ -66.466542, -17.853316 ], [ -66.465766, -17.854034 ], [ -66.466348, -17.854174 ], [ -66.466685, -17.854596 ], [ -66.46667, -17.854899 ], [ -66.466752, -17.854943 ], [ -66.466903, -17.854974 ], [ -66.46692, -17.855097 ], [ -66.466782, -17.855374 ], [ -66.46654, -17.855794 ], [ -66.46636, -17.856133 ], [ -66.466884, -17.856553 ], [ -66.46666, -17.856909 ], [ -66.466893, -17.857304 ], [ -66.466722, -17.857775 ], [ -66.466516, -17.858525 ], [ -66.466859, -17.859196 ], [ -66.466955, -17.860167 ], [ -66.467578, -17.860238 ], [ -66.468322, -17.86052 ], [ -66.46883, -17.860617 ], [ -66.469427, -17.860778 ], [ -66.469834, -17.861126 ], [ -66.470493, -17.86206 ], [ -66.471679, -17.862766 ], [ -66.472076, -17.863084 ], [ -66.473971, -17.864604 ], [ -66.475243, -17.866988 ], [ -66.476664, -17.869889 ], [ -66.47746, -17.871576 ], [ -66.478518, -17.874358 ], [ -66.47907, -17.876013 ], [ -66.479646, -17.878221 ], [ -66.478455, -17.878282 ], [ -66.478615, -17.880784 ], [ -66.481111, -17.880764 ], [ -66.488788, -17.888045 ], [ -66.491852, -17.890475 ], [ -66.492738, -17.891434 ], [ -66.495276, -17.893171 ], [ -66.496158, -17.894007 ], [ -66.497181, -17.894847 ], [ -66.497683, -17.894326 ], [ -66.498263, -17.894868 ], [ -66.498411, -17.895181 ], [ -66.498793, -17.895735 ], [ -66.499396, -17.895906 ], [ -66.499679, -17.896485 ], [ -66.499681, -17.896516 ], [ -66.499724, -17.89654 ], [ -66.500501, -17.896898 ], [ -66.501541, -17.897253 ], [ -66.506924, -17.898729 ], [ -66.508894, -17.898503 ], [ -66.510384, -17.898761 ], [ -66.511176, -17.899016 ], [ -66.511397, -17.899247 ], [ -66.511616, -17.899344 ], [ -66.511848, -17.899119 ], [ -66.512082, -17.899242 ], [ -66.513421, -17.899429 ], [ -66.51359, -17.898931 ], [ -66.513608, -17.896406 ], [ -66.517065, -17.895276 ], [ -66.519832, -17.894286 ], [ -66.520176, -17.894471 ], [ -66.522508, -17.898742 ], [ -66.5241, -17.90053 ], [ -66.524949, -17.900948 ], [ -66.525419, -17.901402 ], [ -66.525896, -17.901711 ], [ -66.526012, -17.901254 ], [ -66.526158, -17.901028 ], [ -66.526111, -17.900819 ], [ -66.526163, -17.900694 ], [ -66.526395, -17.900589 ], [ -66.526842, -17.900201 ], [ -66.527184, -17.900089 ], [ -66.527811, -17.899789 ], [ -66.529311, -17.899393 ], [ -66.529377, -17.898945 ], [ -66.529984, -17.898516 ], [ -66.530949, -17.897045 ], [ -66.531801, -17.896149 ], [ -66.532527, -17.895932 ], [ -66.532567, -17.895296 ], [ -66.533099, -17.89437 ], [ -66.533802, -17.894275 ], [ -66.533721, -17.893759 ], [ -66.53445, -17.89327 ], [ -66.534415, -17.892965 ], [ -66.534584, -17.892125 ], [ -66.534812, -17.892197 ], [ -66.535083, -17.892141 ], [ -66.53534, -17.891936 ], [ -66.535259, -17.891358 ], [ -66.53502, -17.890504 ], [ -66.535035, -17.890438 ], [ -66.535303, -17.890657 ], [ -66.536197, -17.891137 ], [ -66.537086, -17.892585 ], [ -66.539552, -17.895112 ], [ -66.5449, -17.894713 ], [ -66.545209, -17.891862 ], [ -66.546174, -17.890292 ], [ -66.548729, -17.888765 ], [ -66.551718, -17.888659 ], [ -66.553945, -17.889153 ], [ -66.555166, -17.889074 ], [ -66.559351, -17.889968 ], [ -66.558864, -17.89021 ], [ -66.558026, -17.893317 ], [ -66.560109, -17.896504 ], [ -66.559715, -17.89686 ], [ -66.562751, -17.898574 ], [ -66.571826, -17.902281 ], [ -66.583771, -17.906795 ], [ -66.59685, -17.911594 ], [ -66.604355, -17.914402 ], [ -66.604933, -17.914399 ], [ -66.609695, -17.915546 ], [ -66.614497, -17.915252 ], [ -66.617882, -17.918459 ], [ -66.618182, -17.918453 ], [ -66.626402, -17.917879 ], [ -66.630521, -17.921879 ], [ -66.633783, -17.924483 ], [ -66.635977, -17.926036 ], [ -66.637316, -17.925397 ], [ -66.639125, -17.926943 ], [ -66.640607, -17.926285 ], [ -66.642174, -17.92779 ], [ -66.646428, -17.929295 ], [ -66.65148, -17.928338 ], [ -66.658143, -17.927467 ], [ -66.663018, -17.928894 ], [ -66.667822, -17.929838 ], [ -66.674485, -17.934983 ], [ -66.679619, -17.938625 ], [ -66.686816, -17.942481 ], [ -66.693686, -17.946101 ], [ -66.696707, -17.947179 ], [ -66.701174, -17.948772 ], [ -66.714277, -17.951575 ], [ -66.730433, -17.951349 ], [ -66.741326, -17.946232 ], [ -66.742792, -17.945384 ], [ -66.73757, -17.939575 ], [ -66.730764, -17.931592 ], [ -66.72758, -17.925232 ], [ -66.721656, -17.911867 ], [ -66.716568, -17.902422 ], [ -66.715126, -17.900075 ], [ -66.714145, -17.897895 ], [ -66.71484, -17.890804 ], [ -66.713845, -17.884505 ], [ -66.714833, -17.881735 ], [ -66.712781, -17.8806 ], [ -66.711889, -17.880336 ], [ -66.713451, -17.877681 ], [ -66.714172, -17.872225 ], [ -66.716326, -17.86749 ], [ -66.718057, -17.858983 ], [ -66.718128, -17.857864 ], [ -66.717423, -17.854017 ], [ -66.719223, -17.851897 ], [ -66.719225, -17.850253 ], [ -66.721537, -17.844273 ], [ -66.721066, -17.842678 ], [ -66.721743, -17.83994 ], [ -66.722938, -17.834922 ], [ -66.7239, -17.823019 ], [ -66.731856, -17.809156 ], [ -66.737004, -17.803959 ], [ -66.74403, -17.797157 ], [ -66.752223, -17.791199 ], [ -66.75844, -17.792445 ], [ -66.761379, -17.79041 ], [ -66.76737, -17.789421 ], [ -66.772415, -17.781791 ], [ -66.762591, -17.769851 ], [ -66.758661, -17.7552 ], [ -66.758164, -17.752079 ], [ -66.757557, -17.751051 ], [ -66.75801, -17.746 ], [ -66.757144, -17.744008 ], [ -66.757305, -17.742416 ], [ -66.756572, -17.739853 ], [ -66.75573, -17.738208 ], [ -66.751557, -17.724543 ], [ -66.755474, -17.718024 ], [ -66.759611, -17.711339 ], [ -66.746421, -17.69686 ], [ -66.746421, -17.696859 ], [ -66.728252, -17.686085 ], [ -66.724444, -17.682739 ], [ -66.713498, -17.689734 ], [ -66.707856, -17.691255 ], [ -66.700396, -17.70429 ], [ -66.675929, -17.73392 ], [ -66.655716, -17.734651 ], [ -66.645142, -17.742579 ], [ -66.623442, -17.74352 ], [ -66.613461, -17.746312 ], [ -66.613461, -17.746312 ] ] ] ] } }
]
}
