{
"type": "FeatureCollection",
"name": "TARATA",
"crs": { "type": "name", "properties": { "name": "urn:ogc:def:crs:OGC:1.3:CRS84" } },
"bbox": [ -66.168425, -17.856260, -65.949001, -17.598006 ],                                                                        
"features": [
{ "type": "Feature", "properties": { "NOMBRE": "Tarata", "NIVEL": "Municipios", "PROVINCIA": "Esteban Arze", "REGION": "Valles", "DEPARTAMENTO": "Cochabamba" }, "bbox": [ -66.168425, -17.85626, -65.949001, -17.598006 ], "geometry": { "type": "MultiPolygon", "coordinates": [ [ [ [ -65.961549, -17.599422 ], [ -65.961662, -17.599676 ], [ -65.96189, -17.600093 ], [ -65.96206, -17.60044 ], [ -65.962127, -17.600613 ], [ -65.962201, -17.600991 ], [ -65.962201, -17.600996 ], [ -65.962201, -17.600996 ], [ -65.962197, -17.601179 ], [ -65.962133, -17.60136 ], [ -65.96201, -17.601528 ], [ -65.961802, -17.601762 ], [ -65.961401, -17.602129 ], [ -65.961182, -17.602306 ], [ -65.961001, -17.602416 ], [ -65.960761, -17.602501 ], [ -65.960426, -17.602561 ], [ -65.960308, -17.602558 ], [ -65.959841, -17.60265 ], [ -65.959745, -17.602681 ], [ -65.959516, -17.602801 ], [ -65.959382, -17.602935 ], [ -65.959358, -17.602934 ], [ -65.959126, -17.603705 ], [ -65.959124, -17.603769 ], [ -65.959311, -17.604904 ], [ -65.959316, -17.605189 ], [ -65.959316, -17.60519 ], [ -65.959316, -17.605194 ], [ -65.959288, -17.605399 ], [ -65.959122, -17.60584 ], [ -65.958955, -17.606097 ], [ -65.958707, -17.60633 ], [ -65.958425, -17.606569 ], [ -65.957743, -17.606623 ], [ -65.957834, -17.606744 ], [ -65.957979, -17.606899 ], [ -65.958103, -17.607024 ], [ -65.95842, -17.607359 ], [ -65.958584, -17.607466 ], [ -65.959038, -17.607877 ], [ -65.959282, -17.608146 ], [ -65.959468, -17.608322 ], [ -65.959678, -17.608475 ], [ -65.959992, -17.608814 ], [ -65.960095, -17.608954 ], [ -65.960244, -17.609209 ], [ -65.96038, -17.609498 ], [ -65.960725, -17.610488 ], [ -65.960886, -17.610721 ], [ -65.961066, -17.611171 ], [ -65.961157, -17.611344 ], [ -65.961224, -17.611517 ], [ -65.961373, -17.611761 ], [ -65.961466, -17.611877 ], [ -65.961727, -17.61242 ], [ -65.96183, -17.612594 ], [ -65.961863, -17.612698 ], [ -65.962208, -17.613209 ], [ -65.962381, -17.61343 ], [ -65.962731, -17.613724 ], [ -65.96314, -17.613826 ], [ -65.963405, -17.613917 ], [ -65.963688, -17.614087 ], [ -65.963917, -17.614406 ], [ -65.963954, -17.614666 ], [ -65.963966, -17.614879 ], [ -65.963966, -17.614881 ], [ -65.963966, -17.614884 ], [ -65.963938, -17.615184 ], [ -65.963906, -17.615368 ], [ -65.963893, -17.615912 ], [ -65.963974, -17.616496 ], [ -65.96403, -17.616634 ], [ -65.965354, -17.618026 ], [ -65.965759, -17.618516 ], [ -65.96616, -17.619154 ], [ -65.966403, -17.619457 ], [ -65.966632, -17.619839 ], [ -65.966802, -17.620209 ], [ -65.966896, -17.620725 ], [ -65.966888, -17.62157 ], [ -65.966888, -17.62157 ], [ -65.966888, -17.621575 ], [ -65.966861, -17.621699 ], [ -65.966838, -17.622198 ], [ -65.966875, -17.622643 ], [ -65.966907, -17.622769 ], [ -65.966967, -17.623262 ], [ -65.966967, -17.623266 ], [ -65.966967, -17.623266 ], [ -65.966965, -17.623342 ], [ -65.967031, -17.623583 ], [ -65.967083, -17.62387 ], [ -65.96732, -17.624446 ], [ -65.967445, -17.624689 ], [ -65.967732, -17.625119 ], [ -65.967766, -17.625211 ], [ -65.968065, -17.625653 ], [ -65.968155, -17.625838 ], [ -65.968396, -17.626232 ], [ -65.968651, -17.626524 ], [ -65.969163, -17.627005 ], [ -65.969383, -17.627261 ], [ -65.969544, -17.627505 ], [ -65.969649, -17.62761 ], [ -65.969857, -17.627867 ], [ -65.970006, -17.628099 ], [ -65.970226, -17.628344 ], [ -65.970409, -17.62868 ], [ -65.970531, -17.629037 ], [ -65.970552, -17.629163 ], [ -65.970585, -17.629255 ], [ -65.970627, -17.62953 ], [ -65.970666, -17.630825 ], [ -65.970666, -17.630829 ], [ -65.970666, -17.63083 ], [ -65.970656, -17.631306 ], [ -65.97061, -17.631494 ], [ -65.970574, -17.631686 ], [ -65.970523, -17.631827 ], [ -65.970472, -17.631968 ], [ -65.970433, -17.632058 ], [ -65.970395, -17.632148 ], [ -65.970304, -17.632277 ], [ -65.970239, -17.632406 ], [ -65.960673, -17.644951 ], [ -65.960477, -17.645209 ], [ -65.952625, -17.65533 ], [ -65.953956, -17.661178 ], [ -65.953955, -17.661179 ], [ -65.953956, -17.661183 ], [ -65.95355, -17.661499 ], [ -65.952953, -17.661775 ], [ -65.952457, -17.662193 ], [ -65.952216, -17.662324 ], [ -65.951561, -17.662844 ], [ -65.951105, -17.663472 ], [ -65.951104, -17.663506 ], [ -65.95088, -17.663946 ], [ -65.950718, -17.664216 ], [ -65.950681, -17.664306 ], [ -65.950594, -17.664429 ], [ -65.950445, -17.6647 ], [ -65.950407, -17.664813 ], [ -65.950206, -17.665253 ], [ -65.95018, -17.665344 ], [ -65.950156, -17.665343 ], [ -65.950079, -17.665547 ], [ -65.950014, -17.665785 ], [ -65.949926, -17.665977 ], [ -65.949759, -17.666509 ], [ -65.949677, -17.666953 ], [ -65.949644, -17.667815 ], [ -65.949736, -17.668479 ], [ -65.949893, -17.668883 ], [ -65.949984, -17.669045 ], [ -65.950006, -17.669137 ], [ -65.950063, -17.669218 ], [ -65.950131, -17.669391 ], [ -65.950216, -17.669782 ], [ -65.950272, -17.669932 ], [ -65.950358, -17.670345 ], [ -65.950358, -17.670349 ], [ -65.950358, -17.67035 ], [ -65.950356, -17.670413 ], [ -65.950401, -17.67054 ], [ -65.9504, -17.670543 ], [ -65.950401, -17.670545 ], [ -65.950376, -17.670705 ], [ -65.950291, -17.670904 ], [ -65.94998, -17.671069 ], [ -65.949816, -17.671146 ], [ -65.949707, -17.671204 ], [ -65.949656, -17.671268 ], [ -65.949581, -17.671406 ], [ -65.949486, -17.671643 ], [ -65.94946, -17.671757 ], [ -65.949386, -17.671894 ], [ -65.94921, -17.672455 ], [ -65.949001, -17.673294 ], [ -65.949067, -17.673769 ], [ -65.949085, -17.673951 ], [ -65.949147, -17.674176 ], [ -65.949165, -17.674344 ], [ -65.949167, -17.674485 ], [ -65.949243, -17.674666 ], [ -65.94929, -17.67482 ], [ -65.949395, -17.67496 ], [ -65.949456, -17.675113 ], [ -65.949547, -17.675295 ], [ -65.949668, -17.675485 ], [ -65.949744, -17.67568 ], [ -65.949903, -17.675932 ], [ -65.950018, -17.676266 ], [ -65.950098, -17.676555 ], [ -65.950309, -17.676914 ], [ -65.950391, -17.677007 ], [ -65.95045, -17.6771 ], [ -65.950533, -17.677182 ], [ -65.950556, -17.677228 ], [ -65.950709, -17.677403 ], [ -65.950946, -17.677613 ], [ -65.950946, -17.677618 ], [ -65.950946, -17.677659 ], [ -65.951041, -17.677706 ], [ -65.951195, -17.677823 ], [ -65.954851, -17.679198 ], [ -65.964818, -17.682842 ], [ -65.964848, -17.682898 ], [ -65.964893, -17.682968 ], [ -65.964939, -17.683094 ], [ -65.965075, -17.683345 ], [ -65.965124, -17.683438 ], [ -65.965246, -17.683717 ], [ -65.965409, -17.684117 ], [ -65.96549, -17.68429 ], [ -65.96583, -17.684893 ], [ -65.966395, -17.685648 ], [ -65.967184, -17.686659 ], [ -65.967665, -17.687413 ], [ -65.96777, -17.687633 ], [ -65.968157, -17.688282 ], [ -65.968746, -17.689049 ], [ -65.969348, -17.689724 ], [ -65.969853, -17.690444 ], [ -65.970463, -17.691452 ], [ -65.970913, -17.692066 ], [ -65.971202, -17.692601 ], [ -65.971484, -17.69303 ], [ -65.971484, -17.693035 ], [ -65.971483, -17.693076 ], [ -65.971744, -17.693321 ], [ -65.972183, -17.693638 ], [ -65.972553, -17.693838 ], [ -65.972875, -17.693969 ], [ -65.973197, -17.694123 ], [ -65.974232, -17.694747 ], [ -65.974314, -17.69484 ], [ -65.974386, -17.694875 ], [ -65.974504, -17.694992 ], [ -65.975033, -17.695747 ], [ -65.975139, -17.69592 ], [ -65.975778, -17.696504 ], [ -65.976016, -17.696645 ], [ -65.976422, -17.696847 ], [ -65.97659, -17.696849 ], [ -65.976697, -17.696873 ], [ -65.976985, -17.696889 ], [ -65.977165, -17.696914 ], [ -65.977272, -17.69695 ], [ -65.977503, -17.696937 ], [ -65.977685, -17.696934 ], [ -65.977997, -17.696796 ], [ -65.978651, -17.69652 ], [ -65.979118, -17.696264 ], [ -65.979589, -17.696098 ], [ -65.979806, -17.695998 ], [ -65.980192, -17.695865 ], [ -65.981169, -17.69558 ], [ -65.981433, -17.695526 ], [ -65.982241, -17.695262 ], [ -65.98299, -17.694985 ], [ -65.984929, -17.694483 ], [ -65.985581, -17.694228 ], [ -65.986064, -17.694016 ], [ -65.986363, -17.693729 ], [ -65.986537, -17.693698 ], [ -65.986769, -17.693582 ], [ -65.98686, -17.693777 ], [ -65.986869, -17.693959 ], [ -65.986878, -17.694177 ], [ -65.986878, -17.694179 ], [ -65.986878, -17.694182 ], [ -65.986798, -17.694721 ], [ -65.986794, -17.694957 ], [ -65.986794, -17.694958 ], [ -65.986794, -17.694962 ], [ -65.986729, -17.695352 ], [ -65.986673, -17.696719 ], [ -65.986593, -17.697258 ], [ -65.986564, -17.697591 ], [ -65.98656, -17.697931 ], [ -65.98664, -17.699013 ], [ -65.98664, -17.699018 ], [ -65.986637, -17.699254 ], [ -65.986636, -17.699254 ], [ -65.986636, -17.699259 ], [ -65.986521, -17.699812 ], [ -65.986388, -17.700598 ], [ -65.986136, -17.702309 ], [ -65.98595, -17.702766 ], [ -65.985874, -17.703018 ], [ -65.985774, -17.703281 ], [ -65.985636, -17.703716 ], [ -65.985597, -17.703911 ], [ -65.985276, -17.704403 ], [ -65.985005, -17.704855 ], [ -65.984734, -17.705238 ], [ -65.984535, -17.705563 ], [ -65.984292, -17.705889 ], [ -65.984192, -17.706058 ], [ -65.984048, -17.706201 ], [ -65.983819, -17.706484 ], [ -65.98366, -17.706711 ], [ -65.983479, -17.706801 ], [ -65.983322, -17.706845 ], [ -65.983044, -17.707002 ], [ -65.982911, -17.707057 ], [ -65.982608, -17.707306 ], [ -65.982424, -17.707522 ], [ -65.982264, -17.707807 ], [ -65.982189, -17.708059 ], [ -65.982188, -17.7081 ], [ -65.982188, -17.7081 ], [ -65.982188, -17.708105 ], [ -65.982151, -17.708196 ], [ -65.982106, -17.708451 ], [ -65.981935, -17.708635 ], [ -65.981818, -17.708651 ], [ -65.98169, -17.708612 ], [ -65.986677, -17.71721 ], [ -65.986676, -17.717213 ], [ -65.986677, -17.717214 ], [ -65.985454, -17.721369 ], [ -65.98858, -17.723588 ], [ -65.99521, -17.724091 ], [ -65.998587, -17.729502 ], [ -65.998585, -17.729505 ], [ -65.998587, -17.729507 ], [ -65.99404, -17.735111 ], [ -65.991317, -17.751579 ], [ -66.000286, -17.764135 ], [ -66.000289, -17.76414 ], [ -66.001617, -17.764008 ], [ -66.00181, -17.763931 ], [ -66.001804, -17.763931 ], [ -66.001816, -17.763926 ], [ -66.001804, -17.763926 ], [ -66.002068, -17.763821 ], [ -66.018543, -17.757544 ], [ -66.018543, -17.757741 ], [ -66.018543, -17.757742 ], [ -66.018543, -17.757745 ], [ -66.018526, -17.758083 ], [ -66.01857, -17.758401 ], [ -66.01878, -17.758757 ], [ -66.019159, -17.75907 ], [ -66.019455, -17.759393 ], [ -66.020055, -17.760164 ], [ -66.020189, -17.760872 ], [ -66.020305, -17.761146 ], [ -66.020481, -17.761433 ], [ -66.021429, -17.762209 ], [ -66.022114, -17.762925 ], [ -66.023151, -17.764192 ], [ -66.023671, -17.764734 ], [ -66.024094, -17.765286 ], [ -66.025146, -17.766405 ], [ -66.025386, -17.766618 ], [ -66.025385, -17.766622 ], [ -66.025386, -17.766622 ], [ -66.023418, -17.77575 ], [ -66.023227, -17.776368 ], [ -66.024589, -17.790784 ], [ -66.035953, -17.793505 ], [ -66.035953, -17.793661 ], [ -66.035962, -17.793877 ], [ -66.035962, -17.793878 ], [ -66.035962, -17.793882 ], [ -66.035862, -17.794188 ], [ -66.03475, -17.795721 ], [ -66.034407, -17.796297 ], [ -66.03397, -17.796723 ], [ -66.032528, -17.797876 ], [ -66.032161, -17.798372 ], [ -66.032157, -17.798697 ], [ -66.032157, -17.798697 ], [ -66.032157, -17.798702 ], [ -66.031894, -17.799541 ], [ -66.031574, -17.800117 ], [ -66.031208, -17.800624 ], [ -66.030637, -17.801208 ], [ -66.030343, -17.801659 ], [ -66.030081, -17.80243 ], [ -66.029873, -17.803622 ], [ -66.029735, -17.804064 ], [ -66.029215, -17.804353 ], [ -66.029119, -17.804363 ], [ -66.028914, -17.804486 ], [ -66.027977, -17.80552 ], [ -66.027538, -17.806083 ], [ -66.027301, -17.80674 ], [ -66.027237, -17.807058 ], [ -66.027087, -17.807477 ], [ -66.026622, -17.808211 ], [ -66.025781, -17.809246 ], [ -66.025545, -17.809824 ], [ -66.025493, -17.810108 ], [ -66.02548, -17.811059 ], [ -66.02548, -17.811059 ], [ -66.02548, -17.811064 ], [ -66.025078, -17.81157 ], [ -66.022741, -17.814134 ], [ -66.022291, -17.814674 ], [ -66.021757, -17.815167 ], [ -66.020316, -17.816217 ], [ -66.020023, -17.8166 ], [ -66.0199, -17.816849 ], [ -66.019624, -17.817688 ], [ -66.019218, -17.818479 ], [ -66.01852, -17.819562 ], [ -66.01842, -17.819857 ], [ -66.018404, -17.821024 ], [ -66.018404, -17.821024 ], [ -66.018404, -17.821029 ], [ -66.018184, -17.822221 ], [ -66.018109, -17.822471 ], [ -66.017936, -17.822833 ], [ -66.017642, -17.82325 ], [ -66.017517, -17.823681 ], [ -66.017461, -17.824215 ], [ -66.017348, -17.8246 ], [ -66.016846, -17.825413 ], [ -66.016517, -17.825784 ], [ -66.016124, -17.826485 ], [ -66.015417, -17.827306 ], [ -66.015282, -17.827566 ], [ -66.014983, -17.828404 ], [ -66.014726, -17.828788 ], [ -66.014092, -17.829553 ], [ -66.013761, -17.830049 ], [ -66.013511, -17.830797 ], [ -66.012304, -17.832646 ], [ -66.011945, -17.833224 ], [ -66.011641, -17.834093 ], [ -66.011649, -17.834556 ], [ -66.012068, -17.834999 ], [ -66.012431, -17.835285 ], [ -66.012883, -17.835519 ], [ -66.014019, -17.835751 ], [ -66.014966, -17.835765 ], [ -66.015491, -17.835874 ], [ -66.015908, -17.836074 ], [ -66.016288, -17.83633 ], [ -66.016489, -17.836583 ], [ -66.016732, -17.836842 ], [ -66.016923, -17.837003 ], [ -66.016928, -17.837006 ], [ -66.017398, -17.837402 ], [ -66.018223, -17.837508 ], [ -66.018893, -17.837511 ], [ -66.019359, -17.837592 ], [ -66.019681, -17.837742 ], [ -66.020026, -17.83803 ], [ -66.020144, -17.838225 ], [ -66.020505, -17.839668 ], [ -66.020766, -17.840047 ], [ -66.021219, -17.840323 ], [ -66.021887, -17.840589 ], [ -66.022542, -17.841072 ], [ -66.023541, -17.842014 ], [ -66.023825, -17.842381 ], [ -66.023919, -17.84269 ], [ -66.023918, -17.842695 ], [ -66.023919, -17.842695 ], [ -66.023905, -17.842901 ], [ -66.023844, -17.843061 ], [ -66.0237, -17.843233 ], [ -66.023423, -17.843438 ], [ -66.023099, -17.843608 ], [ -66.022763, -17.843699 ], [ -66.022163, -17.843949 ], [ -66.021658, -17.844245 ], [ -66.021298, -17.844507 ], [ -66.021032, -17.844826 ], [ -66.020983, -17.845008 ], [ -66.021029, -17.845337 ], [ -66.021145, -17.845738 ], [ -66.02143, -17.846185 ], [ -66.021822, -17.846496 ], [ -66.022108, -17.846668 ], [ -66.022848, -17.846946 ], [ -66.023685, -17.847131 ], [ -66.024747, -17.847559 ], [ -66.025188, -17.847858 ], [ -66.025997, -17.848547 ], [ -66.027553, -17.850167 ], [ -66.028181, -17.851153 ], [ -66.029251, -17.852118 ], [ -66.02925, -17.852187 ], [ -66.030035, -17.852922 ], [ -66.031154, -17.853796 ], [ -66.031582, -17.85421 ], [ -66.032826, -17.855385 ], [ -66.03377, -17.855946 ], [ -66.034385, -17.856255 ], [ -66.034384, -17.856259 ], [ -66.034385, -17.85626 ], [ -66.034587, -17.855524 ], [ -66.036759, -17.8533 ], [ -66.040505, -17.852079 ], [ -66.042753, -17.8505 ], [ -66.043052, -17.847845 ], [ -66.04485, -17.846482 ], [ -66.045449, -17.845405 ], [ -66.045223, -17.842679 ], [ -66.047096, -17.840526 ], [ -66.047596, -17.83928 ], [ -66.050893, -17.839494 ], [ -66.052466, -17.840068 ], [ -66.055312, -17.837986 ], [ -66.057484, -17.832963 ], [ -66.058532, -17.831241 ], [ -66.061079, -17.830738 ], [ -66.06415, -17.829876 ], [ -66.066472, -17.828727 ], [ -66.067745, -17.827363 ], [ -66.070292, -17.826717 ], [ -66.073063, -17.824635 ], [ -66.077932, -17.821978 ], [ -66.081603, -17.822264 ], [ -66.0834, -17.820541 ], [ -66.084222, -17.816738 ], [ -66.086918, -17.814369 ], [ -66.08939, -17.81322 ], [ -66.091037, -17.811712 ], [ -66.096879, -17.810776 ], [ -66.101257, -17.808354 ], [ -66.105169, -17.807619 ], [ -66.108956, -17.806039 ], [ -66.111262, -17.806354 ], [ -66.120975, -17.800038 ], [ -66.124762, -17.798774 ], [ -66.126902, -17.797353 ], [ -66.128191, -17.796376 ], [ -66.130029, -17.794984 ], [ -66.134474, -17.793877 ], [ -66.137947, -17.793197 ], [ -66.137953, -17.793197 ], [ -66.137946, -17.793186 ], [ -66.13906, -17.793266 ], [ -66.139536, -17.792937 ], [ -66.140118, -17.792542 ], [ -66.140473, -17.792042 ], [ -66.140536, -17.791776 ], [ -66.14058, -17.791589 ], [ -66.140499, -17.790953 ], [ -66.140244, -17.790352 ], [ -66.140004, -17.78999 ], [ -66.139401, -17.789368 ], [ -66.138689, -17.788812 ], [ -66.138059, -17.788496 ], [ -66.137497, -17.788352 ], [ -66.136445, -17.788213 ], [ -66.135668, -17.788054 ], [ -66.135167, -17.787831 ], [ -66.134085, -17.787214 ], [ -66.133575, -17.78682 ], [ -66.133327, -17.786543 ], [ -66.132986, -17.786049 ], [ -66.132308, -17.784765 ], [ -66.131738, -17.783437 ], [ -66.131126, -17.782632 ], [ -66.130809, -17.78215 ], [ -66.130465, -17.781827 ], [ -66.130025, -17.78157 ], [ -66.129729, -17.781339 ], [ -66.129364, -17.780867 ], [ -66.129106, -17.78042 ], [ -66.128862, -17.779847 ], [ -66.128631, -17.779138 ], [ -66.12845, -17.77744 ], [ -66.127959, -17.776477 ], [ -66.127846, -17.775986 ], [ -66.127827, -17.7747 ], [ -66.128093, -17.7727 ], [ -66.128181, -17.772394 ], [ -66.128649, -17.771398 ], [ -66.128826, -17.770706 ], [ -66.128858, -17.770092 ], [ -66.128804, -17.769681 ], [ -66.128689, -17.769293 ], [ -66.128736, -17.768462 ], [ -66.129443, -17.766594 ], [ -66.129474, -17.766048 ], [ -66.129419, -17.765705 ], [ -66.129062, -17.764631 ], [ -66.128962, -17.764026 ], [ -66.128988, -17.762956 ], [ -66.129104, -17.762343 ], [ -66.129149, -17.761627 ], [ -66.128995, -17.760623 ], [ -66.128999, -17.760281 ], [ -66.129421, -17.758261 ], [ -66.13002, -17.756448 ], [ -66.130403, -17.755576 ], [ -66.130556, -17.754838 ], [ -66.130564, -17.754258 ], [ -66.130332, -17.752718 ], [ -66.130422, -17.751399 ], [ -66.130778, -17.750721 ], [ -66.130833, -17.750164 ], [ -66.13046, -17.749373 ], [ -66.129981, -17.74849 ], [ -66.129789, -17.747554 ], [ -66.129748, -17.747076 ], [ -66.129779, -17.746518 ], [ -66.129891, -17.746212 ], [ -66.13027, -17.745648 ], [ -66.130423, -17.744922 ], [ -66.13057, -17.744662 ], [ -66.130741, -17.744459 ], [ -66.131092, -17.744179 ], [ -66.131493, -17.743752 ], [ -66.131591, -17.743594 ], [ -66.131717, -17.743095 ], [ -66.131725, -17.74248 ], [ -66.131624, -17.741033 ], [ -66.131408, -17.740143 ], [ -66.131434, -17.739995 ], [ -66.131532, -17.739871 ], [ -66.131773, -17.739715 ], [ -66.132134, -17.739629 ], [ -66.132166, -17.739626 ], [ -66.132167, -17.739626 ], [ -66.133093, -17.739562 ], [ -66.134355, -17.738338 ], [ -66.135157, -17.737472 ], [ -66.135681, -17.736796 ], [ -66.136033, -17.736448 ], [ -66.136348, -17.736202 ], [ -66.136603, -17.735909 ], [ -66.136946, -17.735368 ], [ -66.137587, -17.733965 ], [ -66.138137, -17.733107 ], [ -66.138738, -17.731146 ], [ -66.139044, -17.730672 ], [ -66.139299, -17.730356 ], [ -66.140715, -17.729271 ], [ -66.141311, -17.728573 ], [ -66.141557, -17.72811 ], [ -66.141695, -17.727588 ], [ -66.141737, -17.727111 ], [ -66.141732, -17.726632 ], [ -66.141562, -17.725879 ], [ -66.14152, -17.725389 ], [ -66.14155, -17.724957 ], [ -66.141662, -17.724651 ], [ -66.141812, -17.723219 ], [ -66.141998, -17.722789 ], [ -66.142304, -17.722303 ], [ -66.14244, -17.721952 ], [ -66.142486, -17.721179 ], [ -66.142659, -17.720794 ], [ -66.142913, -17.720581 ], [ -66.143202, -17.720482 ], [ -66.143235, -17.720477 ], [ -66.143239, -17.720476 ], [ -66.143687, -17.720408 ], [ -66.144451, -17.720192 ], [ -66.144482, -17.720187 ], [ -66.144489, -17.720185 ], [ -66.145368, -17.720054 ], [ -66.14564, -17.719969 ], [ -66.145921, -17.719574 ], [ -66.146066, -17.719439 ], [ -66.14667, -17.719072 ], [ -66.147045, -17.718792 ], [ -66.14798, -17.717803 ], [ -66.148416, -17.717422 ], [ -66.149205, -17.716624 ], [ -66.150411, -17.715126 ], [ -66.151478, -17.714127 ], [ -66.152658, -17.712697 ], [ -66.152891, -17.712325 ], [ -66.153041, -17.711826 ], [ -66.153047, -17.711337 ], [ -66.153106, -17.711252 ], [ -66.15311, -17.711232 ], [ -66.153533, -17.710615 ], [ -66.153528, -17.710518 ], [ -66.153484, -17.709685 ], [ -66.153485, -17.709683 ], [ -66.153478, -17.709555 ], [ -66.153484, -17.709043 ], [ -66.15343, -17.708655 ], [ -66.153255, -17.708277 ], [ -66.152564, -17.707107 ], [ -66.152439, -17.706536 ], [ -66.152101, -17.70586 ], [ -66.151892, -17.705322 ], [ -66.151792, -17.704706 ], [ -66.151527, -17.703917 ], [ -66.151293, -17.703527 ], [ -66.15048, -17.702526 ], [ -66.149056, -17.700572 ], [ -66.148811, -17.700045 ], [ -66.148779, -17.699749 ], [ -66.148787, -17.699168 ], [ -66.148885, -17.698043 ], [ -66.149209, -17.697136 ], [ -66.149404, -17.696854 ], [ -66.150772, -17.695734 ], [ -66.151525, -17.694936 ], [ -66.15177, -17.69453 ], [ -66.152004, -17.694043 ], [ -66.152358, -17.693524 ], [ -66.153073, -17.692897 ], [ -66.154716, -17.690892 ], [ -66.155661, -17.690017 ], [ -66.156205, -17.689626 ], [ -66.156446, -17.689504 ], [ -66.156475, -17.689496 ], [ -66.156487, -17.68949 ], [ -66.156953, -17.68936 ], [ -66.157657, -17.689316 ], [ -66.157661, -17.689315 ], [ -66.157699, -17.689312 ], [ -66.157891, -17.689267 ], [ -66.158239, -17.688822 ], [ -66.158778, -17.687919 ], [ -66.159466, -17.686607 ], [ -66.159938, -17.686192 ], [ -66.159977, -17.68618 ], [ -66.15998, -17.686177 ], [ -66.160418, -17.686038 ], [ -66.152853, -17.678937 ], [ -66.152415, -17.67846 ], [ -66.158252, -17.670473 ], [ -66.163467, -17.662822 ], [ -66.163454, -17.662807 ], [ -66.168425, -17.656628 ], [ -66.150582, -17.6474 ], [ -66.145382, -17.645657 ], [ -66.129681, -17.614901 ], [ -66.13379, -17.603138 ], [ -66.119588, -17.60764 ], [ -66.093133, -17.603356 ], [ -66.065977, -17.601152 ], [ -66.053513, -17.600516 ], [ -66.044954, -17.604958 ], [ -66.019521, -17.600551 ], [ -66.001783, -17.605596 ], [ -66.001797, -17.605596 ], [ -66.001785, -17.6056 ], [ -66.000814, -17.605795 ], [ -66.00023, -17.605801 ], [ -65.999646, -17.605713 ], [ -65.99916, -17.605811 ], [ -65.998674, -17.605816 ], [ -65.997894, -17.605637 ], [ -65.996582, -17.605349 ], [ -65.995814, -17.605082 ], [ -65.992719, -17.60422 ], [ -65.991903, -17.603896 ], [ -65.990848, -17.60357 ], [ -65.989685, -17.603601 ], [ -65.988822, -17.603414 ], [ -65.988271, -17.603354 ], [ -65.985103, -17.602182 ], [ -65.98436, -17.601949 ], [ -65.983664, -17.601797 ], [ -65.982549, -17.60169 ], [ -65.981555, -17.601744 ], [ -65.979745, -17.601761 ], [ -65.978247, -17.601825 ], [ -65.977816, -17.6018 ], [ -65.975153, -17.601101 ], [ -65.973942, -17.60097 ], [ -65.969853, -17.600174 ], [ -65.968138, -17.599673 ], [ -65.967047, -17.599451 ], [ -65.963833, -17.598508 ], [ -65.962181, -17.598006 ], [ -65.961964, -17.598204 ], [ -65.961845, -17.598372 ], [ -65.961737, -17.598627 ], [ -65.961628, -17.598844 ], [ -65.961571, -17.598982 ], [ -65.961568, -17.599047 ], [ -65.961549, -17.599422 ] ] ] ] } }
]
}
