{
"type": "FeatureCollection",
"name": "TIQUIPAYA",
"crs": { "type": "name", "properties": { "name": "urn:ogc:def:crs:OGC:1.3:CRS84" } },
"bbox": [ -66.350068, -17.374534, -66.094324, -16.919571 ],                                                                        
"features": [
{ "type": "Feature", "properties": { "NOMBRE": "Tiquipaya", "NIVEL": "Municipios", "PROVINCIA": "Quillacollo", "REGION": "Metropolitana", "DEPARTAMENTO": "Cochabamba" }, "bbox": [ -66.350068, -17.374534, -66.094324, -16.919571 ], "geometry": { "type": "MultiPolygon", "coordinates": [ [ [ [ -66.217835, -16.920003 ], [ -66.217787, -16.920087 ], [ -66.21777, -16.920166 ], [ -66.217736, -16.920213 ], [ -66.217693, -16.920341 ], [ -66.217657, -16.920354 ], [ -66.217624, -16.920435 ], [ -66.217591, -16.920493 ], [ -66.217579, -16.920494 ], [ -66.217522, -16.920576 ], [ -66.217485, -16.920614 ], [ -66.217483, -16.920618 ], [ -66.217476, -16.920623 ], [ -66.217429, -16.920625 ], [ -66.217323, -16.920674 ], [ -66.217228, -16.920689 ], [ -66.216897, -16.920769 ], [ -66.216754, -16.920773 ], [ -66.216589, -16.920824 ], [ -66.216365, -16.920912 ], [ -66.216282, -16.920938 ], [ -66.216143, -16.921034 ], [ -66.216085, -16.921093 ], [ -66.215981, -16.921177 ], [ -66.215899, -16.921226 ], [ -66.215842, -16.921296 ], [ -66.215795, -16.921321 ], [ -66.215785, -16.921356 ], [ -66.215668, -16.921428 ], [ -66.215669, -16.921451 ], [ -66.21552, -16.921577 ], [ -66.215333, -16.921738 ], [ -66.215263, -16.921774 ], [ -66.215109, -16.921814 ], [ -66.214919, -16.92182 ], [ -66.214847, -16.921834 ], [ -66.214669, -16.921839 ], [ -66.214393, -16.921802 ], [ -66.214226, -16.921808 ], [ -66.214094, -16.921778 ], [ -66.2137, -16.92179 ], [ -66.213629, -16.921804 ], [ -66.213559, -16.921829 ], [ -66.213535, -16.92183 ], [ -66.213476, -16.921855 ], [ -66.213452, -16.921856 ], [ -66.21337, -16.921904 ], [ -66.213301, -16.921964 ], [ -66.213208, -16.922025 ], [ -66.212931, -16.922286 ], [ -66.212669, -16.922627 ], [ -66.212543, -16.922769 ], [ -66.212283, -16.92318 ], [ -66.212195, -16.923366 ], [ -66.212104, -16.923495 ], [ -66.212037, -16.923612 ], [ -66.212038, -16.923647 ], [ -66.211958, -16.923741 ], [ -66.211925, -16.923811 ], [ -66.211901, -16.923823 ], [ -66.211902, -16.923835 ], [ -66.211745, -16.924115 ], [ -66.211563, -16.924351 ], [ -66.211009, -16.924885 ], [ -66.210928, -16.924934 ], [ -66.210857, -16.924959 ], [ -66.210799, -16.924996 ], [ -66.210681, -16.925045 ], [ -66.210587, -16.925094 ], [ -66.210423, -16.925157 ], [ -66.210211, -16.925256 ], [ -66.210153, -16.925292 ], [ -66.210082, -16.925317 ], [ -66.210024, -16.925354 ], [ -66.209908, -16.925449 ], [ -66.209666, -16.925675 ], [ -66.209609, -16.925746 ], [ -66.209474, -16.925968 ], [ -66.209374, -16.926167 ], [ -66.209342, -16.926271 ], [ -66.209243, -16.926515 ], [ -66.209201, -16.926678 ], [ -66.209147, -16.926817 ], [ -66.209116, -16.926967 ], [ -66.209073, -16.927072 ], [ -66.209033, -16.927303 ], [ -66.208991, -16.927442 ], [ -66.2089, -16.927893 ], [ -66.208902, -16.92795 ], [ -66.208881, -16.92802 ], [ -66.208883, -16.928088 ], [ -66.208841, -16.928239 ], [ -66.208822, -16.928377 ], [ -66.208746, -16.928587 ], [ -66.20868, -16.928726 ], [ -66.2086, -16.928844 ], [ -66.208534, -16.928972 ], [ -66.20842, -16.929137 ], [ -66.208329, -16.929243 ], [ -66.208192, -16.929431 ], [ -66.208023, -16.929701 ], [ -66.207849, -16.930165 ], [ -66.207851, -16.9302 ], [ -66.20783, -16.930292 ], [ -66.207823, -16.930419 ], [ -66.207801, -16.930477 ], [ -66.207781, -16.930592 ], [ -66.207739, -16.930732 ], [ -66.207619, -16.931057 ], [ -66.207552, -16.931185 ], [ -66.20752, -16.93129 ], [ -66.207409, -16.931511 ], [ -66.207128, -16.931968 ], [ -66.206967, -16.932157 ], [ -66.206783, -16.932335 ], [ -66.206644, -16.932443 ], [ -66.206551, -16.932526 ], [ -66.20611, -16.932851 ], [ -66.205655, -16.933141 ], [ -66.205562, -16.933213 ], [ -66.205434, -16.933297 ], [ -66.205028, -16.933632 ], [ -66.204949, -16.933738 ], [ -66.204868, -16.933821 ], [ -66.204573, -16.934244 ], [ -66.204348, -16.934595 ], [ -66.204245, -16.934725 ], [ -66.203996, -16.9351 ], [ -66.203964, -16.935205 ], [ -66.203884, -16.935299 ], [ -66.203625, -16.935721 ], [ -66.203581, -16.935814 ], [ -66.203535, -16.935884 ], [ -66.203147, -16.936678 ], [ -66.203148, -16.936701 ], [ -66.203136, -16.936701 ], [ -66.202973, -16.937143 ], [ -66.202839, -16.937399 ], [ -66.20276, -16.937528 ], [ -66.202669, -16.937635 ], [ -66.202623, -16.937705 ], [ -66.202256, -16.938096 ], [ -66.202209, -16.938132 ], [ -66.20221, -16.938143 ], [ -66.201711, -16.938538 ], [ -66.201595, -16.938622 ], [ -66.201478, -16.938683 ], [ -66.201373, -16.938756 ], [ -66.201279, -16.938793 ], [ -66.201197, -16.938842 ], [ -66.201126, -16.938855 ], [ -66.200902, -16.938943 ], [ -66.200784, -16.93897 ], [ -66.200655, -16.93902 ], [ -66.200536, -16.939047 ], [ -66.200029, -16.939212 ], [ -66.199876, -16.939275 ], [ -66.199782, -16.939301 ], [ -66.199653, -16.939374 ], [ -66.199571, -16.939411 ], [ -66.199441, -16.939449 ], [ -66.199289, -16.939535 ], [ -66.198999, -16.939751 ], [ -66.198838, -16.939928 ], [ -66.19877, -16.940034 ], [ -66.198657, -16.940186 ], [ -66.198589, -16.940292 ], [ -66.198475, -16.940445 ], [ -66.198408, -16.940562 ], [ -66.198352, -16.940678 ], [ -66.198273, -16.940796 ], [ -66.198218, -16.940924 ], [ -66.19814, -16.941064 ], [ -66.198096, -16.941169 ], [ -66.19805, -16.941228 ], [ -66.197941, -16.941518 ], [ -66.197908, -16.941577 ], [ -66.197909, -16.941611 ], [ -66.197886, -16.941646 ], [ -66.197888, -16.941692 ], [ -66.197813, -16.941913 ], [ -66.197813, -16.941936 ], [ -66.19778, -16.941994 ], [ -66.197781, -16.942017 ], [ -66.197704, -16.942215 ], [ -66.197682, -16.94225 ], [ -66.197683, -16.942284 ], [ -66.197616, -16.942413 ], [ -66.197409, -16.942626 ], [ -66.197074, -16.942924 ], [ -66.197062, -16.942924 ], [ -66.196914, -16.943124 ], [ -66.196845, -16.943184 ], [ -66.196744, -16.943382 ], [ -66.196646, -16.943615 ], [ -66.196625, -16.943708 ], [ -66.196495, -16.944068 ], [ -66.196461, -16.944126 ], [ -66.196441, -16.944219 ], [ -66.196407, -16.944277 ], [ -66.196375, -16.944382 ], [ -66.196365, -16.944439 ], [ -66.19632, -16.944498 ], [ -66.19631, -16.944544 ], [ -66.196232, -16.944696 ], [ -66.196163, -16.94479 ], [ -66.196119, -16.944872 ], [ -66.196073, -16.944931 ], [ -66.19604, -16.945001 ], [ -66.195948, -16.945096 ], [ -66.195858, -16.945248 ], [ -66.1958, -16.945296 ], [ -66.195665, -16.94553 ], [ -66.195563, -16.945682 ], [ -66.195519, -16.945787 ], [ -66.195397, -16.946032 ], [ -66.195331, -16.946183 ], [ -66.19523, -16.946359 ], [ -66.195162, -16.946453 ], [ -66.195004, -16.946699 ], [ -66.194901, -16.946829 ], [ -66.194845, -16.946922 ], [ -66.194741, -16.947029 ], [ -66.194684, -16.9471 ], [ -66.194316, -16.947467 ], [ -66.194235, -16.947539 ], [ -66.194131, -16.947646 ], [ -66.194063, -16.947728 ], [ -66.193602, -16.948179 ], [ -66.193405, -16.948335 ], [ -66.193323, -16.948383 ], [ -66.1933, -16.948407 ], [ -66.193195, -16.948479 ], [ -66.193089, -16.948517 ], [ -66.193018, -16.948531 ], [ -66.192924, -16.948568 ], [ -66.19244, -16.94871 ], [ -66.192274, -16.94875 ], [ -66.191921, -16.948888 ], [ -66.19177, -16.949007 ], [ -66.191759, -16.949031 ], [ -66.19169, -16.949102 ], [ -66.191691, -16.949113 ], [ -66.191667, -16.949114 ], [ -66.191633, -16.949184 ], [ -66.191599, -16.94922 ], [ -66.191568, -16.949358 ], [ -66.191525, -16.949475 ], [ -66.191526, -16.949498 ], [ -66.191504, -16.949556 ], [ -66.191456, -16.949879 ], [ -66.191413, -16.950006 ], [ -66.191404, -16.950087 ], [ -66.191339, -16.950284 ], [ -66.191257, -16.950643 ], [ -66.191158, -16.950864 ], [ -66.191136, -16.950934 ], [ -66.191023, -16.951087 ], [ -66.190711, -16.951384 ], [ -66.190618, -16.951444 ], [ -66.190524, -16.951493 ], [ -66.190431, -16.951553 ], [ -66.190255, -16.951628 ], [ -66.190114, -16.951701 ], [ -66.189879, -16.951789 ], [ -66.189748, -16.951816 ], [ -66.18969, -16.951841 ], [ -66.189583, -16.951868 ], [ -66.189523, -16.95187 ], [ -66.189323, -16.951933 ], [ -66.189239, -16.951936 ], [ -66.189169, -16.951961 ], [ -66.189133, -16.951963 ], [ -66.189062, -16.951988 ], [ -66.188899, -16.952096 ], [ -66.188875, -16.952097 ], [ -66.188818, -16.952156 ], [ -66.188725, -16.952228 ], [ -66.18869, -16.952264 ], [ -66.188691, -16.952275 ], [ -66.188655, -16.952276 ], [ -66.188509, -16.952534 ], [ -66.18844, -16.952605 ], [ -66.188442, -16.952651 ], [ -66.188397, -16.952721 ], [ -66.188399, -16.952767 ], [ -66.188308, -16.952908 ], [ -66.188264, -16.953001 ], [ -66.188207, -16.953072 ], [ -66.187971, -16.953469 ], [ -66.187938, -16.953562 ], [ -66.187857, -16.953634 ], [ -66.187815, -16.953773 ], [ -66.187723, -16.953891 ], [ -66.187645, -16.954031 ], [ -66.187577, -16.954125 ], [ -66.187533, -16.95423 ], [ -66.187419, -16.954383 ], [ -66.18742, -16.954394 ], [ -66.187385, -16.95443 ], [ -66.18734, -16.954512 ], [ -66.187295, -16.95457 ], [ -66.187261, -16.95464 ], [ -66.187135, -16.954771 ], [ -66.186872, -16.955078 ], [ -66.186781, -16.955207 ], [ -66.186746, -16.955231 ], [ -66.1867, -16.95529 ], [ -66.186701, -16.955313 ], [ -66.186622, -16.95543 ], [ -66.186578, -16.955523 ], [ -66.186487, -16.955653 ], [ -66.186465, -16.955722 ], [ -66.18641, -16.95585 ], [ -66.186349, -16.956116 ], [ -66.18633, -16.956255 ], [ -66.186323, -16.956404 ], [ -66.186305, -16.956565 ], [ -66.186312, -16.956749 ], [ -66.186293, -16.956876 ], [ -66.186302, -16.957128 ], [ -66.186315, -16.957151 ], [ -66.186346, -16.957356 ], [ -66.186363, -16.957815 ], [ -66.186325, -16.95808 ], [ -66.186227, -16.958347 ], [ -66.186184, -16.958487 ], [ -66.186076, -16.958789 ], [ -66.186032, -16.958882 ], [ -66.185975, -16.958964 ], [ -66.185931, -16.959057 ], [ -66.185714, -16.959328 ], [ -66.185529, -16.959506 ], [ -66.185356, -16.959661 ], [ -66.185216, -16.959758 ], [ -66.185065, -16.959877 ], [ -66.184949, -16.95995 ], [ -66.184891, -16.959998 ], [ -66.184844, -16.960022 ], [ -66.184682, -16.960154 ], [ -66.184613, -16.960236 ], [ -66.184569, -16.960352 ], [ -66.184525, -16.960434 ], [ -66.184481, -16.96055 ], [ -66.184462, -16.960677 ], [ -66.184418, -16.960782 ], [ -66.184386, -16.960898 ], [ -66.18438, -16.961059 ], [ -66.184326, -16.961198 ], [ -66.184285, -16.961395 ], [ -66.184166, -16.96172 ], [ -66.184109, -16.961814 ], [ -66.184077, -16.961895 ], [ -66.184032, -16.961977 ], [ -66.18402, -16.961977 ], [ -66.184021, -16.962 ], [ -66.183975, -16.962048 ], [ -66.183874, -16.962235 ], [ -66.183828, -16.962271 ], [ -66.183678, -16.962425 ], [ -66.183447, -16.962627 ], [ -66.183295, -16.962713 ], [ -66.18313, -16.962787 ], [ -66.18286, -16.962887 ], [ -66.182421, -16.962959 ], [ -66.182268, -16.963021 ], [ -66.181724, -16.963176 ], [ -66.18157, -16.963204 ], [ -66.181416, -16.963244 ], [ -66.180812, -16.963355 ], [ -66.180185, -16.963501 ], [ -66.18009, -16.963539 ], [ -66.17996, -16.963566 ], [ -66.179831, -16.963628 ], [ -66.179595, -16.963704 ], [ -66.17942, -16.963801 ], [ -66.179302, -16.963851 ], [ -66.179209, -16.963912 ], [ -66.179103, -16.963949 ], [ -66.17908, -16.963973 ], [ -66.179068, -16.963974 ], [ -66.179068, -16.963985 ], [ -66.178999, -16.964056 ], [ -66.179, -16.96409 ], [ -66.178989, -16.964091 ], [ -66.178817, -16.964303 ], [ -66.178772, -16.964385 ], [ -66.178726, -16.964421 ], [ -66.178703, -16.964456 ], [ -66.178684, -16.964583 ], [ -66.178629, -16.964711 ], [ -66.178633, -16.964814 ], [ -66.178601, -16.96493 ], [ -66.178579, -16.964977 ], [ -66.178548, -16.965115 ], [ -66.178527, -16.965173 ], [ -66.178493, -16.965232 ], [ -66.17844, -16.965406 ], [ -66.178338, -16.96557 ], [ -66.178247, -16.965699 ], [ -66.178041, -16.965935 ], [ -66.177695, -16.966268 ], [ -66.177242, -16.966615 ], [ -66.177149, -16.966676 ], [ -66.177137, -16.966676 ], [ -66.176787, -16.966905 ], [ -66.176471, -16.967065 ], [ -66.176156, -16.96727 ], [ -66.175993, -16.967367 ], [ -66.175795, -16.9675 ], [ -66.175409, -16.96773 ], [ -66.175304, -16.967803 ], [ -66.175211, -16.967852 ], [ -66.175094, -16.967936 ], [ -66.174978, -16.968008 ], [ -66.174385, -16.968464 ], [ -66.174339, -16.968511 ], [ -66.174316, -16.968523 ], [ -66.174292, -16.968524 ], [ -66.174095, -16.968691 ], [ -66.174025, -16.968739 ], [ -66.174014, -16.96874 ], [ -66.173944, -16.968799 ], [ -66.173792, -16.968896 ], [ -66.173676, -16.96898 ], [ -66.173547, -16.969053 ], [ -66.173432, -16.969149 ], [ -66.17328, -16.969245 ], [ -66.173164, -16.969341 ], [ -66.173047, -16.969413 ], [ -66.1727, -16.969712 ], [ -66.172655, -16.96977 ], [ -66.172598, -16.969864 ], [ -66.17253, -16.969947 ], [ -66.172485, -16.97004 ], [ -66.172488, -16.970109 ], [ -66.172439, -16.970397 ], [ -66.172416, -16.970421 ], [ -66.172423, -16.970616 ], [ -66.172389, -16.970686 ], [ -66.172398, -16.970927 ], [ -66.172367, -16.971066 ], [ -66.172369, -16.9711 ], [ -66.172304, -16.971297 ], [ -66.172294, -16.971355 ], [ -66.172261, -16.971413 ], [ -66.172206, -16.971553 ], [ -66.172116, -16.971705 ], [ -66.172014, -16.971846 ], [ -66.171922, -16.971952 ], [ -66.171829, -16.972024 ], [ -66.171668, -16.972179 ], [ -66.171563, -16.972251 ], [ -66.171446, -16.972312 ], [ -66.171365, -16.972372 ], [ -66.171213, -16.972457 ], [ -66.17113, -16.972494 ], [ -66.171002, -16.972567 ], [ -66.170955, -16.972603 ], [ -66.170663, -16.972785 ], [ -66.170641, -16.97282 ], [ -66.170594, -16.972856 ], [ -66.170553, -16.973018 ], [ -66.170517, -16.973341 ], [ -66.170513, -16.97357 ], [ -66.170472, -16.973767 ], [ -66.170474, -16.973824 ], [ -66.17041, -16.97401 ], [ -66.170241, -16.974302 ], [ -66.170196, -16.974361 ], [ -66.170127, -16.974432 ], [ -66.170081, -16.974503 ], [ -66.169783, -16.974822 ], [ -66.169772, -16.974845 ], [ -66.169461, -16.975177 ], [ -66.169288, -16.975332 ], [ -66.169265, -16.975367 ], [ -66.169196, -16.975426 ], [ -66.169163, -16.975496 ], [ -66.169038, -16.975673 ], [ -66.169005, -16.975766 ], [ -66.168997, -16.975858 ], [ -66.168977, -16.975962 ], [ -66.168985, -16.976179 ], [ -66.168976, -16.976283 ], [ -66.168979, -16.976363 ], [ -66.168945, -16.97641 ], [ -66.16894, -16.976583 ], [ -66.168908, -16.976699 ], [ -66.168852, -16.976815 ], [ -66.168784, -16.976898 ], [ -66.168564, -16.9771 ], [ -66.168494, -16.977137 ], [ -66.168471, -16.97716 ], [ -66.168412, -16.977185 ], [ -66.168377, -16.977209 ], [ -66.168307, -16.977234 ], [ -66.168237, -16.977294 ], [ -66.168015, -16.977405 ], [ -66.167862, -16.97749 ], [ -66.167758, -16.977562 ], [ -66.167607, -16.977693 ], [ -66.167505, -16.977823 ], [ -66.167458, -16.97787 ], [ -66.167415, -16.977998 ], [ -66.167348, -16.978126 ], [ -66.167317, -16.978242 ], [ -66.16725, -16.978382 ], [ -66.167218, -16.978475 ], [ -66.167151, -16.978615 ], [ -66.16712, -16.978731 ], [ -66.167076, -16.978847 ], [ -66.167043, -16.978905 ], [ -66.167031, -16.978906 ], [ -66.167041, -16.979181 ], [ -66.167029, -16.979181 ], [ -66.167, -16.979366 ], [ -66.166913, -16.97961 ], [ -66.166858, -16.979738 ], [ -66.166802, -16.979843 ], [ -66.166769, -16.979924 ], [ -66.166713, -16.980029 ], [ -66.166651, -16.980284 ], [ -66.166643, -16.980387 ], [ -66.166612, -16.980538 ], [ -66.166588, -16.98086 ], [ -66.166547, -16.981033 ], [ -66.16651, -16.981333 ], [ -66.166458, -16.981541 ], [ -66.166347, -16.981763 ], [ -66.166324, -16.981787 ], [ -66.166324, -16.98181 ], [ -66.166141, -16.982011 ], [ -66.166001, -16.982119 ], [ -66.165605, -16.982384 ], [ -66.165477, -16.982457 ], [ -66.16529, -16.982578 ], [ -66.165116, -16.98271 ], [ -66.165022, -16.982758 ], [ -66.164988, -16.982805 ], [ -66.164929, -16.98283 ], [ -66.16493, -16.982842 ], [ -66.164872, -16.982901 ], [ -66.164747, -16.983077 ], [ -66.164701, -16.983125 ], [ -66.164679, -16.983171 ], [ -66.164644, -16.983195 ], [ -66.164524, -16.983498 ], [ -66.164479, -16.983579 ], [ -66.164456, -16.983603 ], [ -66.164402, -16.983754 ], [ -66.164357, -16.983836 ], [ -66.164358, -16.98387 ], [ -66.164302, -16.983953 ], [ -66.164281, -16.984045 ], [ -66.164203, -16.984197 ], [ -66.164169, -16.984244 ], [ -66.164171, -16.98429 ], [ -66.164127, -16.984394 ], [ -66.164004, -16.984639 ], [ -66.163958, -16.984687 ], [ -66.163902, -16.98478 ], [ -66.163765, -16.984957 ], [ -66.163661, -16.985052 ], [ -66.163568, -16.985124 ], [ -66.163218, -16.985353 ], [ -66.163078, -16.985427 ], [ -66.162962, -16.985511 ], [ -66.162739, -16.985621 ], [ -66.162657, -16.985681 ], [ -66.162622, -16.985694 ], [ -66.162483, -16.985802 ], [ -66.162424, -16.985827 ], [ -66.162342, -16.985875 ], [ -66.16218, -16.986007 ], [ -66.162017, -16.986127 ], [ -66.161855, -16.98627 ], [ -66.161634, -16.986426 ], [ -66.161269, -16.986788 ], [ -66.161242, -16.986806 ], [ -66.161136, -16.986855 ], [ -66.161101, -16.986879 ], [ -66.161043, -16.986904 ], [ -66.16102, -16.986928 ], [ -66.16096, -16.98693 ], [ -66.160925, -16.986942 ], [ -66.160746, -16.986948 ], [ -66.16065, -16.986928 ], [ -66.16059, -16.98693 ], [ -66.160493, -16.986899 ], [ -66.160422, -16.986901 ], [ -66.160314, -16.986881 ], [ -66.160016, -16.986892 ], [ -66.159921, -16.986928 ], [ -66.159804, -16.986978 ], [ -66.159746, -16.987026 ], [ -66.159687, -16.987051 ], [ -66.159536, -16.98717 ], [ -66.159491, -16.987229 ], [ -66.15926, -16.987443 ], [ -66.159214, -16.987502 ], [ -66.159202, -16.987503 ], [ -66.159054, -16.987702 ], [ -66.159021, -16.987772 ], [ -66.158987, -16.987819 ], [ -66.158932, -16.987947 ], [ -66.158841, -16.988065 ], [ -66.158807, -16.988135 ], [ -66.158762, -16.988205 ], [ -66.158407, -16.98863 ], [ -66.158351, -16.988724 ], [ -66.158282, -16.988783 ], [ -66.158156, -16.988948 ], [ -66.158144, -16.988949 ], [ -66.158134, -16.988983 ], [ -66.157965, -16.989276 ], [ -66.15792, -16.989335 ], [ -66.157654, -16.989917 ], [ -66.157594, -16.990217 ], [ -66.157555, -16.990471 ], [ -66.157568, -16.990815 ], [ -66.157595, -16.990918 ], [ -66.157621, -16.990963 ], [ -66.157624, -16.991066 ], [ -66.157668, -16.991283 ], [ -66.157672, -16.991397 ], [ -66.157631, -16.991582 ], [ -66.157534, -16.991873 ], [ -66.157503, -16.992 ], [ -66.157428, -16.99222 ], [ -66.157429, -16.992266 ], [ -66.157417, -16.992267 ], [ -66.157388, -16.99244 ], [ -66.157367, -16.992521 ], [ -66.157368, -16.992544 ], [ -66.157313, -16.992672 ], [ -66.157315, -16.992729 ], [ -66.157258, -16.992823 ], [ -66.157218, -16.993019 ], [ -66.157195, -16.993043 ], [ -66.157151, -16.993148 ], [ -66.156961, -16.993165 ], [ -66.15689, -16.99319 ], [ -66.156712, -16.993231 ], [ -66.156618, -16.993268 ], [ -66.156372, -16.993402 ], [ -66.156199, -16.993557 ], [ -66.156085, -16.993721 ], [ -66.155903, -16.993957 ], [ -66.155858, -16.994038 ], [ -66.15584, -16.9942 ], [ -66.155807, -16.994281 ], [ -66.155809, -16.994339 ], [ -66.155713, -16.994629 ], [ -66.155623, -16.994792 ], [ -66.155486, -16.994969 ], [ -66.15543, -16.995062 ], [ -66.155383, -16.995098 ], [ -66.15535, -16.995157 ], [ -66.155351, -16.995203 ], [ -66.155261, -16.995343 ], [ -66.155169, -16.99545 ], [ -66.155101, -16.995555 ], [ -66.154885, -16.995826 ], [ -66.154723, -16.995992 ], [ -66.154587, -16.996169 ], [ -66.154403, -16.99637 ], [ -66.154277, -16.996523 ], [ -66.154093, -16.996712 ], [ -66.153968, -16.996889 ], [ -66.153899, -16.99696 ], [ -66.153743, -16.997263 ], [ -66.153675, -16.997369 ], [ -66.153574, -16.997556 ], [ -66.153517, -16.997626 ], [ -66.153496, -16.997696 ], [ -66.153153, -16.998109 ], [ -66.1529, -16.998381 ], [ -66.152773, -16.9985 ], [ -66.152669, -16.998583 ], [ -66.152589, -16.998678 ], [ -66.152404, -16.998844 ], [ -66.152021, -16.999167 ], [ -66.15186, -16.999321 ], [ -66.151848, -16.999321 ], [ -66.15172, -16.999417 ], [ -66.151626, -16.999455 ], [ -66.151556, -16.999514 ], [ -66.151475, -16.999563 ], [ -66.151393, -16.999623 ], [ -66.151288, -16.999684 ], [ -66.1511, -16.999863 ], [ -66.151058, -16.999932 ], [ -66.151014, -17.000025 ], [ -66.15098, -17.000072 ], [ -66.150913, -17.000201 ], [ -66.150869, -17.000305 ], [ -66.150824, -17.000387 ], [ -66.15079, -17.000468 ], [ -66.150679, -17.000667 ], [ -66.15041, -17.000814 ], [ -66.150257, -17.000876 ], [ -66.150127, -17.000915 ], [ -66.14996, -17.00092 ], [ -66.149915, -17.000923 ], [ -66.149702, -17.000962 ], [ -66.149616, -17.000977 ], [ -66.149521, -17.001003 ], [ -66.14945, -17.001005 ], [ -66.149119, -17.001108 ], [ -66.149072, -17.001132 ], [ -66.149037, -17.001133 ], [ -66.14899, -17.001158 ], [ -66.148863, -17.001288 ], [ -66.148771, -17.001394 ], [ -66.148633, -17.001513 ], [ -66.148437, -17.001715 ], [ -66.148402, -17.001739 ], [ -66.148368, -17.001786 ], [ -66.148344, -17.001798 ], [ -66.14824, -17.001893 ], [ -66.148147, -17.001954 ], [ -66.148105, -17.00199 ], [ -66.148043, -17.002037 ], [ -66.147984, -17.002081 ], [ -66.147902, -17.002111 ], [ -66.147863, -17.002135 ], [ -66.147817, -17.002153 ], [ -66.147704, -17.002232 ], [ -66.147599, -17.002316 ], [ -66.147541, -17.002352 ], [ -66.147504, -17.002383 ], [ -66.147442, -17.002441 ], [ -66.147414, -17.002471 ], [ -66.147334, -17.002577 ], [ -66.14723, -17.002683 ], [ -66.147208, -17.00273 ], [ -66.14706, -17.002907 ], [ -66.147009, -17.002959 ], [ -66.146991, -17.002989 ], [ -66.146958, -17.003059 ], [ -66.146912, -17.003118 ], [ -66.146878, -17.003177 ], [ -66.146857, -17.003235 ], [ -66.146788, -17.003317 ], [ -66.14673, -17.003517 ], [ -66.146528, -17.003809 ], [ -66.146308, -17.004166 ], [ -66.146141, -17.004269 ], [ -66.145261, -17.004302 ], [ -66.144904, -17.00437 ], [ -66.144417, -17.0046 ], [ -66.143822, -17.004828 ], [ -66.143228, -17.005161 ], [ -66.14299, -17.005229 ], [ -66.142907, -17.005275 ], [ -66.142645, -17.005344 ], [ -66.142169, -17.005538 ], [ -66.140624, -17.006318 ], [ -66.139827, -17.006546 ], [ -66.138828, -17.006717 ], [ -66.138495, -17.006889 ], [ -66.138103, -17.007199 ], [ -66.137449, -17.007819 ], [ -66.137199, -17.00814 ], [ -66.136926, -17.008543 ], [ -66.136772, -17.008899 ], [ -66.136736, -17.00906 ], [ -66.136558, -17.009577 ], [ -66.136428, -17.010371 ], [ -66.136428, -17.010544 ], [ -66.136297, -17.010912 ], [ -66.135965, -17.011417 ], [ -66.135085, -17.012325 ], [ -66.134824, -17.012566 ], [ -66.133385, -17.014047 ], [ -66.133076, -17.014265 ], [ -66.132506, -17.014563 ], [ -66.13222, -17.014758 ], [ -66.132006, -17.014999 ], [ -66.131757, -17.015344 ], [ -66.131424, -17.015723 ], [ -66.131008, -17.016091 ], [ -66.130734, -17.016274 ], [ -66.130104, -17.016595 ], [ -66.129462, -17.017008 ], [ -66.128998, -17.01749 ], [ -66.128796, -17.017766 ], [ -66.128464, -17.018341 ], [ -66.128226, -17.018651 ], [ -66.127786, -17.01911 ], [ -66.127347, -17.019673 ], [ -66.126098, -17.021097 ], [ -66.125231, -17.022235 ], [ -66.124506, -17.0229 ], [ -66.124161, -17.023256 ], [ -66.124078, -17.023406 ], [ -66.123947, -17.023831 ], [ -66.123947, -17.024004 ], [ -66.123829, -17.024499 ], [ -66.123662, -17.024947 ], [ -66.123484, -17.025246 ], [ -66.123175, -17.025521 ], [ -66.122604, -17.025773 ], [ -66.122426, -17.025888 ], [ -66.122164, -17.026348 ], [ -66.121784, -17.027405 ], [ -66.121654, -17.027704 ], [ -66.121464, -17.028061 ], [ -66.120881, -17.028796 ], [ -66.120632, -17.029348 ], [ -66.120454, -17.029612 ], [ -66.12018, -17.029876 ], [ -66.119978, -17.030163 ], [ -66.119931, -17.030278 ], [ -66.119574, -17.03083 ], [ -66.119443, -17.030979 ], [ -66.118753, -17.031277 ], [ -66.118349, -17.031403 ], [ -66.117992, -17.031586 ], [ -66.11779, -17.031735 ], [ -66.117552, -17.032149 ], [ -66.117434, -17.032701 ], [ -66.117244, -17.033425 ], [ -66.117137, -17.033724 ], [ -66.117054, -17.034115 ], [ -66.116935, -17.034426 ], [ -66.116769, -17.035081 ], [ -66.116555, -17.035668 ], [ -66.116306, -17.036001 ], [ -66.115854, -17.036391 ], [ -66.115545, -17.036724 ], [ -66.115378, -17.036989 ], [ -66.115141, -17.037448 ], [ -66.115046, -17.03769 ], [ -66.115046, -17.037943 ], [ -66.115141, -17.038242 ], [ -66.115713, -17.038877 ], [ -66.11582, -17.039049 ], [ -66.115915, -17.039326 ], [ -66.115903, -17.039637 ], [ -66.115594, -17.040361 ], [ -66.115595, -17.040994 ], [ -66.115678, -17.041638 ], [ -66.115667, -17.041914 ], [ -66.115536, -17.042133 ], [ -66.115334, -17.042282 ], [ -66.11487, -17.042523 ], [ -66.114608, -17.042695 ], [ -66.114418, -17.042867 ], [ -66.11424, -17.043108 ], [ -66.114038, -17.043441 ], [ -66.113693, -17.0442 ], [ -66.113325, -17.045246 ], [ -66.113182, -17.045534 ], [ -66.112945, -17.046235 ], [ -66.112262, -17.047314 ], [ -66.11184, -17.048097 ], [ -66.111423, -17.048533 ], [ -66.111007, -17.048866 ], [ -66.110567, -17.049164 ], [ -66.110472, -17.049199 ], [ -66.11027, -17.049325 ], [ -66.109092, -17.049886 ], [ -66.108593, -17.05008 ], [ -66.106582, -17.050697 ], [ -66.106226, -17.050834 ], [ -66.105869, -17.051006 ], [ -66.105595, -17.051167 ], [ -66.10531, -17.051396 ], [ -66.105048, -17.051729 ], [ -66.104846, -17.052212 ], [ -66.104894, -17.052765 ], [ -66.105097, -17.053214 ], [ -66.105252, -17.053686 ], [ -66.105276, -17.05425 ], [ -66.105228, -17.054641 ], [ -66.10505, -17.055377 ], [ -66.104836, -17.055998 ], [ -66.10467, -17.056308 ], [ -66.104444, -17.056595 ], [ -66.10423, -17.056825 ], [ -66.103731, -17.05725 ], [ -66.103445, -17.057456 ], [ -66.10316, -17.05772 ], [ -66.102553, -17.058444 ], [ -66.102434, -17.058513 ], [ -66.102399, -17.058512 ], [ -66.101495, -17.059442 ], [ -66.10115, -17.059706 ], [ -66.100912, -17.059855 ], [ -66.100698, -17.059855 ], [ -66.100424, -17.059889 ], [ -66.099949, -17.060083 ], [ -66.099604, -17.060313 ], [ -66.099426, -17.060466 ], [ -66.099239, -17.060727 ], [ -66.099233, -17.061109 ], [ -66.099352, -17.061316 ], [ -66.099866, -17.062603 ], [ -66.099855, -17.063029 ], [ -66.099974, -17.063455 ], [ -66.099974, -17.063616 ], [ -66.099689, -17.064559 ], [ -66.099665, -17.065215 ], [ -66.099796, -17.065445 ], [ -66.099832, -17.065664 ], [ -66.099832, -17.06594 ], [ -66.09994, -17.066194 ], [ -66.099987, -17.066366 ], [ -66.100142, -17.06662 ], [ -66.100142, -17.066666 ], [ -66.100821, -17.067439 ], [ -66.100999, -17.06775 ], [ -66.101166, -17.06798 ], [ -66.101333, -17.068337 ], [ -66.10138, -17.068533 ], [ -66.101416, -17.068844 ], [ -66.101452, -17.068971 ], [ -66.10144, -17.069546 ], [ -66.101464, -17.06988 ], [ -66.101524, -17.070075 ], [ -66.101584, -17.070778 ], [ -66.101584, -17.071813 ], [ -66.101394, -17.072434 ], [ -66.101073, -17.073814 ], [ -66.100883, -17.074366 ], [ -66.100622, -17.074883 ], [ -66.100063, -17.075814 ], [ -66.099671, -17.076239 ], [ -66.099278, -17.076365 ], [ -66.099004, -17.076525 ], [ -66.098778, -17.076778 ], [ -66.098457, -17.077329 ], [ -66.098255, -17.077939 ], [ -66.098148, -17.078169 ], [ -66.098018, -17.078352 ], [ -66.097768, -17.078409 ], [ -66.097006, -17.078419 ], [ -66.096542, -17.078476 ], [ -66.096376, -17.078533 ], [ -66.095828, -17.078623 ], [ -66.095686, -17.078623 ], [ -66.095424, -17.078669 ], [ -66.09496, -17.07899 ], [ -66.094805, -17.079185 ], [ -66.094452, -17.079741 ], [ -66.094324, -17.080177 ], [ -66.094405, -17.080791 ], [ -66.095068, -17.081706 ], [ -66.095259, -17.081936 ], [ -66.095509, -17.082478 ], [ -66.096009, -17.083146 ], [ -66.096402, -17.083596 ], [ -66.096866, -17.084196 ], [ -66.097295, -17.084795 ], [ -66.097497, -17.085026 ], [ -66.097902, -17.085372 ], [ -66.097985, -17.085395 ], [ -66.098104, -17.085487 ], [ -66.099009, -17.08595 ], [ -66.099271, -17.086111 ], [ -66.100092, -17.086447 ], [ -66.100604, -17.086759 ], [ -66.101092, -17.087174 ], [ -66.101425, -17.087509 ], [ -66.101449, -17.087509 ], [ -66.101603, -17.087705 ], [ -66.10177, -17.08797 ], [ -66.101877, -17.088235 ], [ -66.101925, -17.088431 ], [ -66.101902, -17.088925 ], [ -66.101866, -17.089098 ], [ -66.101878, -17.08965 ], [ -66.101902, -17.08965 ], [ -66.101985, -17.0898 ], [ -66.102033, -17.0898 ], [ -66.102866, -17.09047 ], [ -66.103068, -17.090677 ], [ -66.103235, -17.091138 ], [ -66.103259, -17.091564 ], [ -66.103307, -17.091921 ], [ -66.103426, -17.092266 ], [ -66.103605, -17.0926 ], [ -66.103772, -17.092716 ], [ -66.103938, -17.092774 ], [ -66.104176, -17.092797 ], [ -66.104485, -17.092706 ], [ -66.104783, -17.092661 ], [ -66.104985, -17.092661 ], [ -66.105116, -17.092696 ], [ -66.105247, -17.09288 ], [ -66.105366, -17.093122 ], [ -66.105343, -17.093709 ], [ -66.105283, -17.09402 ], [ -66.105284, -17.094526 ], [ -66.105391, -17.094768 ], [ -66.105748, -17.095275 ], [ -66.105998, -17.09554 ], [ -66.106224, -17.095736 ], [ -66.106927, -17.096175 ], [ -66.107081, -17.096337 ], [ -66.107189, -17.096556 ], [ -66.10732, -17.097212 ], [ -66.107391, -17.097695 ], [ -66.107558, -17.098214 ], [ -66.107808, -17.098709 ], [ -66.107844, -17.098836 ], [ -66.108035, -17.099124 ], [ -66.108582, -17.09977 ], [ -66.108892, -17.1 ], [ -66.109404, -17.100301 ], [ -66.109642, -17.100543 ], [ -66.109856, -17.10082 ], [ -66.110225, -17.101396 ], [ -66.110583, -17.101892 ], [ -66.11144, -17.102262 ], [ -66.11213, -17.102424 ], [ -66.112796, -17.10261 ], [ -66.113058, -17.102714 ], [ -66.113797, -17.103487 ], [ -66.113975, -17.103706 ], [ -66.11582, -17.105206 ], [ -66.116106, -17.105518 ], [ -66.116202, -17.105737 ], [ -66.116345, -17.106174 ], [ -66.116499, -17.106554 ], [ -66.116559, -17.106773 ], [ -66.116809, -17.10728 ], [ -66.117, -17.107522 ], [ -66.117226, -17.107753 ], [ -66.117464, -17.107926 ], [ -66.117738, -17.10803 ], [ -66.118012, -17.108088 ], [ -66.118178, -17.108089 ], [ -66.118654, -17.107917 ], [ -66.118916, -17.10786 ], [ -66.119261, -17.107861 ], [ -66.119452, -17.107884 ], [ -66.119856, -17.108023 ], [ -66.120047, -17.108116 ], [ -66.120594, -17.108474 ], [ -66.121321, -17.10889 ], [ -66.121511, -17.109051 ], [ -66.122059, -17.109628 ], [ -66.122487, -17.109997 ], [ -66.122618, -17.110239 ], [ -66.123023, -17.110781 ], [ -66.124072, -17.11233 ], [ -66.12584, -17.114492 ], [ -66.126253, -17.114988 ], [ -66.126835, -17.116002 ], [ -66.126954, -17.116498 ], [ -66.1273, -17.11743 ], [ -66.127443, -17.117949 ], [ -66.127491, -17.118443 ], [ -66.127491, -17.118927 ], [ -66.127396, -17.119732 ], [ -66.127408, -17.119939 ], [ -66.127492, -17.120112 ], [ -66.127694, -17.12032 ], [ -66.128063, -17.120585 ], [ -66.128075, -17.120643 ], [ -66.128194, -17.120781 ], [ -66.128218, -17.12123 ], [ -66.128147, -17.121402 ], [ -66.128123, -17.121552 ], [ -66.128123, -17.121805 ], [ -66.128171, -17.121932 ], [ -66.128445, -17.122255 ], [ -66.128504, -17.12237 ], [ -66.128576, -17.122807 ], [ -66.128552, -17.123003 ], [ -66.128505, -17.123152 ], [ -66.128303, -17.123497 ], [ -66.128279, -17.123497 ], [ -66.128172, -17.123854 ], [ -66.128172, -17.124164 ], [ -66.128351, -17.12474 ], [ -66.128411, -17.125166 ], [ -66.128411, -17.125695 ], [ -66.128352, -17.126075 ], [ -66.128174, -17.126397 ], [ -66.127745, -17.126833 ], [ -66.12696, -17.12774 ], [ -66.126841, -17.128039 ], [ -66.126842, -17.12858 ], [ -66.126937, -17.128949 ], [ -66.127223, -17.129651 ], [ -66.127426, -17.130285 ], [ -66.127474, -17.130515 ], [ -66.127498, -17.13086 ], [ -66.127474, -17.131171 ], [ -66.127438, -17.131332 ], [ -66.127117, -17.132079 ], [ -66.12682, -17.132642 ], [ -66.126773, -17.132792 ], [ -66.126701, -17.132895 ], [ -66.126666, -17.133033 ], [ -66.126594, -17.13316 ], [ -66.126404, -17.133781 ], [ -66.126297, -17.134367 ], [ -66.126, -17.135425 ], [ -66.125453, -17.136299 ], [ -66.125299, -17.136586 ], [ -66.125228, -17.136678 ], [ -66.125109, -17.136919 ], [ -66.124598, -17.138472 ], [ -66.124431, -17.138863 ], [ -66.124253, -17.139035 ], [ -66.123265, -17.139734 ], [ -66.122194, -17.140561 ], [ -66.121778, -17.140928 ], [ -66.12066, -17.14226 ], [ -66.120267, -17.142409 ], [ -66.119648, -17.142592 ], [ -66.119446, -17.142695 ], [ -66.119172, -17.142878 ], [ -66.118911, -17.143131 ], [ -66.118768, -17.143383 ], [ -66.118661, -17.143705 ], [ -66.118542, -17.143935 ], [ -66.118542, -17.143981 ], [ -66.11834, -17.144246 ], [ -66.118042, -17.144452 ], [ -66.117186, -17.144887 ], [ -66.116817, -17.145128 ], [ -66.116555, -17.145335 ], [ -66.115996, -17.145943 ], [ -66.115484, -17.146932 ], [ -66.115163, -17.14784 ], [ -66.114938, -17.148403 ], [ -66.114652, -17.148874 ], [ -66.114593, -17.149012 ], [ -66.113831, -17.149885 ], [ -66.112998, -17.150677 ], [ -66.112701, -17.150918 ], [ -66.111237, -17.152284 ], [ -66.110345, -17.153053 ], [ -66.109738, -17.153466 ], [ -66.10862, -17.154338 ], [ -66.108286, -17.154648 ], [ -66.10787, -17.155107 ], [ -66.107489, -17.155474 ], [ -66.106847, -17.155956 ], [ -66.106847, -17.155979 ], [ -66.106216, -17.156415 ], [ -66.106049, -17.156553 ], [ -66.105687, -17.156722 ], [ -66.125163, -17.156694 ], [ -66.152405, -17.167949 ], [ -66.151986, -17.171811 ], [ -66.149531, -17.192537 ], [ -66.16023, -17.206065 ], [ -66.169187, -17.211925 ], [ -66.190334, -17.225564 ], [ -66.179528, -17.229656 ], [ -66.159312, -17.239775 ], [ -66.147612, -17.245864 ], [ -66.147122, -17.246187 ], [ -66.138264, -17.251367 ], [ -66.143698, -17.260243 ], [ -66.156245, -17.278125 ], [ -66.15611, -17.278166 ], [ -66.156165, -17.278246 ], [ -66.162823, -17.288785 ], [ -66.174012, -17.305845 ], [ -66.17436, -17.306462 ], [ -66.174531, -17.306697 ], [ -66.174483, -17.306814 ], [ -66.174374, -17.307077 ], [ -66.174283, -17.307348 ], [ -66.174276, -17.307513 ], [ -66.174298, -17.307788 ], [ -66.17438, -17.308052 ], [ -66.174486, -17.308316 ], [ -66.1747, -17.308535 ], [ -66.174888, -17.308607 ], [ -66.174895, -17.308619 ], [ -66.175028, -17.308721 ], [ -66.175161, -17.308789 ], [ -66.175256, -17.30881 ], [ -66.175389, -17.309009 ], [ -66.175471, -17.309273 ], [ -66.175483, -17.309424 ], [ -66.175598, -17.309664 ], [ -66.17588, -17.310535 ], [ -66.176218, -17.311339 ], [ -66.176438, -17.311423 ], [ -66.176688, -17.31155 ], [ -66.176792, -17.311617 ], [ -66.176813, -17.311631 ], [ -66.176938, -17.311712 ], [ -66.177175, -17.311908 ], [ -66.177365, -17.31215 ], [ -66.177507, -17.312414 ], [ -66.177613, -17.312667 ], [ -66.17773, -17.312931 ], [ -66.177872, -17.313173 ], [ -66.178074, -17.313415 ], [ -66.178276, -17.313611 ], [ -66.178478, -17.313807 ], [ -66.178691, -17.314003 ], [ -66.178893, -17.314221 ], [ -66.179083, -17.314452 ], [ -66.179273, -17.314671 ], [ -66.179438, -17.314924 ], [ -66.179616, -17.315154 ], [ -66.179782, -17.315396 ], [ -66.179948, -17.315626 ], [ -66.18001, -17.315748 ], [ -66.180068, -17.315816 ], [ -66.180601, -17.316708 ], [ -66.180906, -17.317602 ], [ -66.181071, -17.318014 ], [ -66.181091, -17.318086 ], [ -66.181162, -17.31827 ], [ -66.181283, -17.318571 ], [ -66.18177, -17.319444 ], [ -66.182166, -17.320084 ], [ -66.183023, -17.32103 ], [ -66.183085, -17.321133 ], [ -66.183316, -17.321889 ], [ -66.183344, -17.322096 ], [ -66.183369, -17.322119 ], [ -66.183423, -17.322568 ], [ -66.1835, -17.322754 ], [ -66.18363, -17.323018 ], [ -66.18376, -17.323283 ], [ -66.183878, -17.323535 ], [ -66.183996, -17.323788 ], [ -66.184066, -17.324064 ], [ -66.184135, -17.324397 ], [ -66.184241, -17.324661 ], [ -66.184395, -17.324891 ], [ -66.184537, -17.325156 ], [ -66.184643, -17.325409 ], [ -66.184809, -17.325673 ], [ -66.184987, -17.325892 ], [ -66.185224, -17.326123 ], [ -66.185426, -17.326318 ], [ -66.185651, -17.326549 ], [ -66.185817, -17.326779 ], [ -66.185995, -17.327032 ], [ -66.1861, -17.327197 ], [ -66.186155, -17.327266 ], [ -66.186195, -17.327343 ], [ -66.186326, -17.327539 ], [ -66.18648, -17.32778 ], [ -66.186634, -17.328045 ], [ -66.186776, -17.328298 ], [ -66.186906, -17.328539 ], [ -66.187107, -17.328758 ], [ -66.187379, -17.328627 ], [ -66.187387, -17.328964 ], [ -66.187215, -17.336873 ], [ -66.187036, -17.343011 ], [ -66.187081, -17.343208 ], [ -66.190325, -17.352633 ], [ -66.193466, -17.360631 ], [ -66.198265, -17.374534 ], [ -66.198828, -17.374249 ], [ -66.20728, -17.369959 ], [ -66.21044, -17.368766 ], [ -66.211388, -17.36833 ], [ -66.212563, -17.367836 ], [ -66.213787, -17.367365 ], [ -66.214206, -17.367181 ], [ -66.218009, -17.365768 ], [ -66.218153, -17.365687 ], [ -66.218849, -17.365388 ], [ -66.219508, -17.365067 ], [ -66.219652, -17.365021 ], [ -66.220923, -17.364446 ], [ -66.221499, -17.364239 ], [ -66.221691, -17.364147 ], [ -66.222278, -17.363929 ], [ -66.223082, -17.363596 ], [ -66.224114, -17.363217 ], [ -66.225553, -17.362631 ], [ -66.226008, -17.362401 ], [ -66.22734, -17.361861 ], [ -66.228036, -17.361688 ], [ -66.231648, -17.360447 ], [ -66.231924, -17.360401 ], [ -66.232321, -17.360424 ], [ -66.232513, -17.360458 ], [ -66.233957, -17.360447 ], [ -66.234569, -17.360378 ], [ -66.235542, -17.360217 ], [ -66.235998, -17.360044 ], [ -66.236562, -17.359757 ], [ -66.237818, -17.358895 ], [ -66.238369, -17.358458 ], [ -66.23856, -17.358355 ], [ -66.23935, -17.357723 ], [ -66.239889, -17.357344 ], [ -66.240044, -17.357263 ], [ -66.241109, -17.356493 ], [ -66.241839, -17.35585 ], [ -66.242293, -17.355505 ], [ -66.243344, -17.354367 ], [ -66.243703, -17.354069 ], [ -66.244337, -17.353632 ], [ -66.244444, -17.353533 ], [ -66.244708, -17.353368 ], [ -66.244717, -17.353356 ], [ -66.244672, -17.353292 ], [ -66.244646, -17.353264 ], [ -66.24455, -17.353138 ], [ -66.244332, -17.352954 ], [ -66.244272, -17.352874 ], [ -66.244222, -17.352701 ], [ -66.244244, -17.352345 ], [ -66.24435, -17.352069 ], [ -66.244517, -17.351748 ], [ -66.238827, -17.337261 ], [ -66.234535, -17.322072 ], [ -66.232666, -17.312232 ], [ -66.232332, -17.311166 ], [ -66.232259, -17.311063 ], [ -66.231939, -17.310089 ], [ -66.231763, -17.309665 ], [ -66.231609, -17.309195 ], [ -66.231147, -17.308268 ], [ -66.230554, -17.307343 ], [ -66.230407, -17.307207 ], [ -66.230057, -17.30705 ], [ -66.229996, -17.306981 ], [ -66.22996, -17.306982 ], [ -66.229898, -17.306879 ], [ -66.229874, -17.306879 ], [ -66.229787, -17.306742 ], [ -66.229599, -17.306341 ], [ -66.229369, -17.305608 ], [ -66.229367, -17.305504 ], [ -66.229301, -17.305252 ], [ -66.229285, -17.305033 ], [ -66.229218, -17.3047 ], [ -66.229202, -17.304482 ], [ -66.229163, -17.304356 ], [ -66.229158, -17.304137 ], [ -66.229085, -17.303494 ], [ -66.22908, -17.303252 ], [ -66.229109, -17.302941 ], [ -66.229093, -17.302159 ], [ -66.229123, -17.301871 ], [ -66.229118, -17.301652 ], [ -66.229158, -17.301249 ], [ -66.229124, -17.300214 ], [ -66.229059, -17.29995 ], [ -66.228935, -17.299733 ], [ -66.228664, -17.299402 ], [ -66.22831, -17.299061 ], [ -66.227648, -17.298298 ], [ -66.227623, -17.298229 ], [ -66.227549, -17.298138 ], [ -66.227373, -17.297726 ], [ -66.227357, -17.29753 ], [ -66.227319, -17.297427 ], [ -66.227278, -17.296611 ], [ -66.227253, -17.296553 ], [ -66.227221, -17.296151 ], [ -66.227139, -17.295657 ], [ -66.227049, -17.295405 ], [ -66.226919, -17.294889 ], [ -66.226819, -17.29466 ], [ -66.226766, -17.294442 ], [ -66.226679, -17.29427 ], [ -66.226667, -17.293143 ], [ -66.226778, -17.292163 ], [ -66.226824, -17.292082 ], [ -66.226832, -17.291887 ], [ -66.227034, -17.291263 ], [ -66.227132, -17.290802 ], [ -66.22715, -17.290502 ], [ -66.227118, -17.2901 ], [ -66.226704, -17.288643 ], [ -66.226643, -17.288563 ], [ -66.226543, -17.288357 ], [ -66.225441, -17.286575 ], [ -66.225059, -17.28605 ], [ -66.224827, -17.285811 ], [ -66.224664, -17.285479 ], [ -66.224517, -17.285274 ], [ -66.22449, -17.285125 ], [ -66.224528, -17.284675 ], [ -66.224615, -17.28426 ], [ -66.224695, -17.284075 ], [ -66.224694, -17.284018 ], [ -66.224852, -17.283602 ], [ -66.224917, -17.283279 ], [ -66.224906, -17.282715 ], [ -66.224827, -17.282382 ], [ -66.22475, -17.282164 ], [ -66.223811, -17.280691 ], [ -66.223332, -17.280132 ], [ -66.22323, -17.279811 ], [ -66.223228, -17.279719 ], [ -66.223292, -17.279362 ], [ -66.223436, -17.27882 ], [ -66.223446, -17.278693 ], [ -66.223557, -17.278277 ], [ -66.223681, -17.277954 ], [ -66.22368, -17.277885 ], [ -66.223757, -17.277562 ], [ -66.224109, -17.277259 ], [ -66.224406, -17.277152 ], [ -66.224633, -17.277149 ], [ -66.225063, -17.277098 ], [ -66.225289, -17.277027 ], [ -66.225501, -17.276898 ], [ -66.226233, -17.275865 ], [ -66.226439, -17.275403 ], [ -66.226491, -17.275034 ], [ -66.226675, -17.274709 ], [ -66.227059, -17.274164 ], [ -66.227508, -17.273365 ], [ -66.227654, -17.272903 ], [ -66.227813, -17.272522 ], [ -66.227941, -17.272348 ], [ -66.22813, -17.272231 ], [ -66.228273, -17.272194 ], [ -66.228593, -17.272041 ], [ -66.228926, -17.27198 ], [ -66.232447, -17.269299 ], [ -66.230744, -17.263808 ], [ -66.24174, -17.263427 ], [ -66.248546, -17.253466 ], [ -66.228892, -17.231736 ], [ -66.228858, -17.231156 ], [ -66.228914, -17.230994 ], [ -66.229253, -17.230599 ], [ -66.229435, -17.230137 ], [ -66.229433, -17.230057 ], [ -66.229478, -17.229906 ], [ -66.229443, -17.229424 ], [ -66.229449, -17.229124 ], [ -66.229566, -17.228973 ], [ -66.229771, -17.229086 ], [ -66.230027, -17.22929 ], [ -66.230112, -17.229393 ], [ -66.230317, -17.22946 ], [ -66.230675, -17.229432 ], [ -66.230698, -17.229386 ], [ -66.230696, -17.22926 ], [ -66.230658, -17.22918 ], [ -66.230319, -17.228999 ], [ -66.230234, -17.228897 ], [ -66.230375, -17.228803 ], [ -66.230471, -17.228802 ], [ -66.230652, -17.22888 ], [ -66.230783, -17.228879 ], [ -66.230902, -17.228832 ], [ -66.231126, -17.228679 ], [ -66.231243, -17.228563 ], [ -66.231288, -17.228447 ], [ -66.231287, -17.228367 ], [ -66.231249, -17.228275 ], [ -66.231045, -17.228266 ], [ -66.230784, -17.228338 ], [ -66.230696, -17.228144 ], [ -66.230668, -17.22796 ], [ -66.230714, -17.227844 ], [ -66.230865, -17.227658 ], [ -66.231038, -17.227346 ], [ -66.231023, -17.227208 ], [ -66.230974, -17.227151 ], [ -66.230853, -17.227083 ], [ -66.230682, -17.226912 ], [ -66.230678, -17.226728 ], [ -66.230738, -17.226705 ], [ -66.230855, -17.226588 ], [ -66.23095, -17.226564 ], [ -66.231236, -17.226549 ], [ -66.231569, -17.226442 ], [ -66.231651, -17.226349 ], [ -66.231708, -17.226222 ], [ -66.231705, -17.226107 ], [ -66.231595, -17.225993 ], [ -66.231595, -17.22597 ], [ -66.231426, -17.225903 ], [ -66.231366, -17.225904 ], [ -66.231138, -17.225826 ], [ -66.231083, -17.225527 ], [ -66.231101, -17.225216 ], [ -66.231146, -17.225112 ], [ -66.231141, -17.224848 ], [ -66.231102, -17.224721 ], [ -66.231097, -17.224468 ], [ -66.231226, -17.223765 ], [ -66.231376, -17.223533 ], [ -66.231375, -17.223476 ], [ -66.231501, -17.223187 ], [ -66.23164, -17.223012 ], [ -66.231664, -17.223012 ], [ -66.231921, -17.22271 ], [ -66.232331, -17.222326 ], [ -66.232856, -17.221698 ], [ -66.233552, -17.220655 ], [ -66.233724, -17.220342 ], [ -66.234062, -17.219901 ], [ -66.234617, -17.21902 ], [ -66.234746, -17.21888 ], [ -66.235567, -17.218146 ], [ -66.235801, -17.217879 ], [ -66.236067, -17.21745 ], [ -66.236181, -17.217173 ], [ -66.236297, -17.21701 ], [ -66.236484, -17.216824 ], [ -66.236776, -17.216475 ], [ -66.23689, -17.216232 ], [ -66.23691, -17.216048 ], [ -66.236901, -17.215599 ], [ -66.23686, -17.215358 ], [ -66.236851, -17.214933 ], [ -66.236928, -17.21461 ], [ -66.237322, -17.214007 ], [ -66.237321, -17.213961 ], [ -66.23778, -17.213058 ], [ -66.237779, -17.213023 ], [ -66.237917, -17.21278 ], [ -66.238082, -17.212099 ], [ -66.238232, -17.211833 ], [ -66.238303, -17.211763 ], [ -66.238444, -17.211681 ], [ -66.238955, -17.211537 ], [ -66.239015, -17.211536 ], [ -66.239333, -17.211303 ], [ -66.239525, -17.210771 ], [ -66.239546, -17.210633 ], [ -66.239581, -17.210609 ], [ -66.239661, -17.21039 ], [ -66.239704, -17.210159 ], [ -66.239727, -17.210136 ], [ -66.239724, -17.209445 ], [ -66.239756, -17.209261 ], [ -66.23975, -17.208985 ], [ -66.239785, -17.208915 ], [ -66.239791, -17.208616 ], [ -66.239842, -17.208236 ], [ -66.240103, -17.207543 ], [ -66.240414, -17.206998 ], [ -66.240883, -17.20598 ], [ -66.241104, -17.205149 ], [ -66.241184, -17.204941 ], [ -66.241253, -17.204848 ], [ -66.241333, -17.20464 ], [ -66.241413, -17.204501 ], [ -66.241545, -17.203947 ], [ -66.241724, -17.203359 ], [ -66.241909, -17.203069 ], [ -66.242126, -17.20256 ], [ -66.242368, -17.202143 ], [ -66.242684, -17.20184 ], [ -66.243053, -17.201732 ], [ -66.243064, -17.201698 ], [ -66.243267, -17.201695 ], [ -66.243468, -17.201601 ], [ -66.243881, -17.201308 ], [ -66.243999, -17.201261 ], [ -66.244463, -17.201152 ], [ -66.244653, -17.201081 ], [ -66.24496, -17.200916 ], [ -66.245205, -17.200626 ], [ -66.245514, -17.199966 ], [ -66.245549, -17.199931 ], [ -66.245656, -17.199907 ], [ -66.245944, -17.199927 ], [ -66.246074, -17.199845 ], [ -66.246144, -17.199764 ], [ -66.246292, -17.199428 ], [ -66.246404, -17.199093 ], [ -66.246802, -17.198674 ], [ -66.246986, -17.198327 ], [ -66.247043, -17.198194 ], [ -66.24714, -17.198005 ], [ -66.247191, -17.197818 ], [ -66.247324, -17.197345 ], [ -66.247328, -17.196977 ], [ -66.247362, -17.196861 ], [ -66.247359, -17.196746 ], [ -66.247529, -17.19572 ], [ -66.247552, -17.195685 ], [ -66.24755, -17.195605 ], [ -66.247607, -17.195455 ], [ -66.247661, -17.195201 ], [ -66.247741, -17.195004 ], [ -66.247822, -17.194911 ], [ -66.248, -17.19484 ], [ -66.248632, -17.194729 ], [ -66.248786, -17.194659 ], [ -66.248938, -17.19453 ], [ -66.248962, -17.19453 ], [ -66.249148, -17.194275 ], [ -66.249309, -17.193951 ], [ -66.249581, -17.193257 ], [ -66.249616, -17.192651 ], [ -66.249613, -17.192532 ], [ -66.249371, -17.191833 ], [ -66.249318, -17.191557 ], [ -66.249311, -17.191224 ], [ -66.24933, -17.191028 ], [ -66.249398, -17.190831 ], [ -66.249524, -17.190577 ], [ -66.249548, -17.190576 ], [ -66.249653, -17.190437 ], [ -66.249637, -17.190276 ], [ -66.249613, -17.190276 ], [ -66.249575, -17.190139 ], [ -66.249708, -17.189643 ], [ -66.249811, -17.189423 ], [ -66.250135, -17.188936 ], [ -66.25015, -17.188498 ], [ -66.250244, -17.187853 ], [ -66.250344, -17.187495 ], [ -66.250364, -17.187334 ], [ -66.250413, -17.187218 ], [ -66.250469, -17.187073 ], [ -66.250586, -17.186993 ], [ -66.250896, -17.186927 ], [ -66.251387, -17.186981 ], [ -66.251484, -17.186953 ], [ -66.251557, -17.186942 ], [ -66.251608, -17.186917 ], [ -66.25198, -17.186701 ], [ -66.252245, -17.186404 ], [ -66.252269, -17.186404 ], [ -66.252342, -17.18599 ], [ -66.252344, -17.185691 ], [ -66.252368, -17.185519 ], [ -66.252392, -17.185508 ], [ -66.252767, -17.184889 ], [ -66.252852, -17.184522 ], [ -66.252902, -17.184039 ], [ -66.252988, -17.183649 ], [ -66.253084, -17.183477 ], [ -66.253385, -17.183295 ], [ -66.253493, -17.183261 ], [ -66.254081, -17.182978 ], [ -66.254261, -17.182807 ], [ -66.254634, -17.182522 ], [ -66.255197, -17.18232 ], [ -66.255544, -17.182391 ], [ -66.255688, -17.182473 ], [ -66.255795, -17.182577 ], [ -66.255819, -17.182577 ], [ -66.2562, -17.183109 ], [ -66.256451, -17.183169 ], [ -66.25681, -17.183126 ], [ -66.257002, -17.183047 ], [ -66.257242, -17.18291 ], [ -66.257375, -17.182796 ], [ -66.257602, -17.182706 ], [ -66.257866, -17.182662 ], [ -66.258237, -17.182642 ], [ -66.258357, -17.182677 ], [ -66.258453, -17.182678 ], [ -66.259111, -17.182856 ], [ -66.259482, -17.182858 ], [ -66.259614, -17.182836 ], [ -66.259973, -17.182839 ], [ -66.260871, -17.182765 ], [ -66.261123, -17.182675 ], [ -66.261579, -17.182449 ], [ -66.261711, -17.182404 ], [ -66.262825, -17.182401 ], [ -66.262993, -17.182344 ], [ -66.263089, -17.182345 ], [ -66.263268, -17.182301 ], [ -66.263472, -17.18221 ], [ -66.264302, -17.181538 ], [ -66.264302, -17.181515 ], [ -66.264482, -17.181309 ], [ -66.264783, -17.18107 ], [ -66.265083, -17.180968 ], [ -66.26537, -17.180959 ], [ -66.265754, -17.180893 ], [ -66.265982, -17.180814 ], [ -66.266343, -17.180437 ], [ -66.266535, -17.180301 ], [ -66.266762, -17.180256 ], [ -66.267194, -17.180064 ], [ -66.267567, -17.179791 ], [ -66.267963, -17.17961 ], [ -66.26849, -17.17951 ], [ -66.268958, -17.179387 ], [ -66.26951, -17.17915 ], [ -66.269787, -17.17868 ], [ -66.270088, -17.17828 ], [ -66.270341, -17.178109 ], [ -66.270987, -17.178057 ], [ -66.271371, -17.177899 ], [ -66.271468, -17.177819 ], [ -66.271576, -17.177774 ], [ -66.27196, -17.177431 ], [ -66.272189, -17.177261 ], [ -66.27262, -17.177149 ], [ -66.273279, -17.177016 ], [ -66.274657, -17.176992 ], [ -66.275185, -17.176719 ], [ -66.275365, -17.176525 ], [ -66.27581, -17.176114 ], [ -66.276074, -17.175921 ], [ -66.276434, -17.175797 ], [ -66.27665, -17.175753 ], [ -66.276746, -17.175753 ], [ -66.276902, -17.175709 ], [ -66.277225, -17.175665 ], [ -66.278626, -17.175664 ], [ -66.279237, -17.175577 ], [ -66.279513, -17.175487 ], [ -66.279813, -17.175351 ], [ -66.280005, -17.175295 ], [ -66.281157, -17.174728 ], [ -66.281769, -17.174307 ], [ -66.282226, -17.174069 ], [ -66.282226, -17.174046 ], [ -66.283533, -17.173504 ], [ -66.284061, -17.173231 ], [ -66.285297, -17.172827 ], [ -66.285501, -17.172587 ], [ -66.285646, -17.1723 ], [ -66.285768, -17.171737 ], [ -66.285889, -17.171497 ], [ -66.285985, -17.171394 ], [ -66.28613, -17.171291 ], [ -66.286705, -17.1711 ], [ -66.287125, -17.171046 ], [ -66.287568, -17.171026 ], [ -66.288645, -17.17108 ], [ -66.288645, -17.171103 ], [ -66.289052, -17.171106 ], [ -66.289255, -17.171165 ], [ -66.289506, -17.171282 ], [ -66.289816, -17.171664 ], [ -66.290329, -17.172024 ], [ -66.290545, -17.172049 ], [ -66.290868, -17.172005 ], [ -66.291084, -17.171915 ], [ -66.291108, -17.171881 ], [ -66.291312, -17.171813 ], [ -66.291899, -17.171898 ], [ -66.29227, -17.171878 ], [ -66.29275, -17.171674 ], [ -66.293132, -17.171781 ], [ -66.293743, -17.171843 ], [ -66.293911, -17.171787 ], [ -66.294163, -17.171604 ], [ -66.294404, -17.17133 ], [ -66.294584, -17.171285 ], [ -66.294655, -17.171309 ], [ -66.295099, -17.171243 ], [ -66.295326, -17.171176 ], [ -66.295963, -17.170801 ], [ -66.296191, -17.170619 ], [ -66.296662, -17.170255 ], [ -66.297025, -17.170009 ], [ -66.297155, -17.169938 ], [ -66.297283, -17.16974 ], [ -66.297431, -17.169404 ], [ -66.297561, -17.169299 ], [ -66.297703, -17.169251 ], [ -66.298168, -17.169174 ], [ -66.298491, -17.169157 ], [ -66.298704, -17.169074 ], [ -66.298871, -17.169036 ], [ -66.2992, -17.168755 ], [ -66.299375, -17.168522 ], [ -66.299536, -17.168209 ], [ -66.29955, -17.167585 ], [ -66.299556, -17.167201 ], [ -66.299594, -17.166848 ], [ -66.299809, -17.160284 ], [ -66.299099, -17.159093 ], [ -66.298928, -17.158935 ], [ -66.298437, -17.15831 ], [ -66.297859, -17.157514 ], [ -66.29755, -17.157047 ], [ -66.2974, -17.156704 ], [ -66.297301, -17.156556 ], [ -66.29715, -17.156214 ], [ -66.296442, -17.15489 ], [ -66.296331, -17.154731 ], [ -66.295299, -17.152815 ], [ -66.294807, -17.152121 ], [ -66.293752, -17.151096 ], [ -66.293536, -17.150784 ], [ -66.293018, -17.150021 ], [ -66.292843, -17.149667 ], [ -66.292416, -17.148662 ], [ -66.291971, -17.147944 ], [ -66.291577, -17.14741 ], [ -66.290798, -17.146122 ], [ -66.290762, -17.146123 ], [ -66.290552, -17.145815 ], [ -66.29051, -17.145517 ], [ -66.290307, -17.144945 ], [ -66.290147, -17.144119 ], [ -66.290129, -17.143797 ], [ -66.290142, -17.143291 ], [ -66.290227, -17.142737 ], [ -66.290349, -17.142264 ], [ -66.290542, -17.141778 ], [ -66.290643, -17.141442 ], [ -66.290636, -17.141097 ], [ -66.290537, -17.140351 ], [ -66.29054, -17.139902 ], [ -66.290772, -17.138967 ], [ -66.290829, -17.138851 ], [ -66.29085, -17.138724 ], [ -66.290896, -17.13862 ], [ -66.291218, -17.137384 ], [ -66.291346, -17.136657 ], [ -66.29177, -17.135718 ], [ -66.292557, -17.13444 ], [ -66.292614, -17.13429 ], [ -66.292695, -17.134162 ], [ -66.29297, -17.133582 ], [ -66.29306, -17.133316 ], [ -66.293072, -17.13273 ], [ -66.29297, -17.132386 ], [ -66.29272, -17.131872 ], [ -66.29256, -17.131633 ], [ -66.292388, -17.131429 ], [ -66.291955, -17.1307 ], [ -66.29193, -17.130688 ], [ -66.291867, -17.130517 ], [ -66.291819, -17.130483 ], [ -66.291793, -17.13038 ], [ -66.291312, -17.129686 ], [ -66.291055, -17.129379 ], [ -66.289993, -17.128315 ], [ -66.289806, -17.127973 ], [ -66.289828, -17.127869 ], [ -66.289862, -17.127201 ], [ -66.28994, -17.126901 ], [ -66.29, -17.126325 ], [ -66.289952, -17.125152 ], [ -66.289762, -17.124637 ], [ -66.289512, -17.124089 ], [ -66.289202, -17.123553 ], [ -66.288786, -17.123054 ], [ -66.288627, -17.122907 ], [ -66.288494, -17.122817 ], [ -66.293086, -17.117356 ], [ -66.28922, -17.107448 ], [ -66.288764, -17.107265 ], [ -66.287934, -17.107065 ], [ -66.287934, -17.107088 ], [ -66.285831, -17.107133 ], [ -66.285436, -17.107116 ], [ -66.285461, -17.107162 ], [ -66.285221, -17.10712 ], [ -66.284587, -17.107118 ], [ -66.284158, -17.107183 ], [ -66.283744, -17.107396 ], [ -66.283518, -17.107457 ], [ -66.283293, -17.107553 ], [ -66.28279, -17.107538 ], [ -66.28267, -17.107505 ], [ -66.282538, -17.107507 ], [ -66.282253, -17.107604 ], [ -66.282005, -17.107746 ], [ -66.281217, -17.107793 ], [ -66.281015, -17.107842 ], [ -66.279749, -17.107908 ], [ -66.279328, -17.107812 ], [ -66.278994, -17.107817 ], [ -66.278825, -17.107774 ], [ -66.278252, -17.107794 ], [ -66.27702, -17.107768 ], [ -66.27683, -17.107817 ], [ -66.276674, -17.107831 ], [ -66.276544, -17.107879 ], [ -66.275576, -17.107894 ], [ -66.275314, -17.107956 ], [ -66.274775, -17.107918 ], [ -66.274751, -17.107884 ], [ -66.274715, -17.107885 ], [ -66.274472, -17.107728 ], [ -66.274081, -17.107308 ], [ -66.274021, -17.107275 ], [ -66.273865, -17.107254 ], [ -66.273148, -17.107265 ], [ -66.273088, -17.107243 ], [ -66.272968, -17.107245 ], [ -66.272369, -17.107266 ], [ -66.271729, -17.107081 ], [ -66.271456, -17.1069 ], [ -66.271159, -17.10648 ], [ -66.27093, -17.10638 ], [ -66.27075, -17.10636 ], [ -66.270273, -17.106437 ], [ -66.270143, -17.106508 ], [ -66.269869, -17.106535 ], [ -66.269251, -17.106729 ], [ -66.268812, -17.106897 ], [ -66.268647, -17.107015 ], [ -66.26854, -17.107039 ], [ -66.268251, -17.106963 ], [ -66.267637, -17.106708 ], [ -66.267441, -17.106516 ], [ -66.267417, -17.106516 ], [ -66.267368, -17.106425 ], [ -66.267246, -17.106335 ], [ -66.267246, -17.1063 ], [ -66.267003, -17.106132 ], [ -66.259789, -17.089358 ], [ -66.265808, -17.077939 ], [ -66.267094, -17.075794 ], [ -66.272699, -17.064862 ], [ -66.273142, -17.063999 ], [ -66.273632, -17.063763 ], [ -66.301906, -17.041573 ], [ -66.300057, -17.026466 ], [ -66.312678, -17.011037 ], [ -66.350068, -16.995523 ], [ -66.31086, -16.971402 ], [ -66.29458, -16.985636 ], [ -66.282355, -16.982764 ], [ -66.280794, -16.981943 ], [ -66.280449, -16.981487 ], [ -66.279102, -16.980204 ], [ -66.27814, -16.979227 ], [ -66.27747, -16.978817 ], [ -66.276143, -16.977645 ], [ -66.275006, -16.976966 ], [ -66.27409, -16.976789 ], [ -66.272291, -16.97624 ], [ -66.270458, -16.976049 ], [ -66.269632, -16.975652 ], [ -66.269471, -16.974903 ], [ -66.269018, -16.974483 ], [ -66.268343, -16.973507 ], [ -66.267948, -16.973042 ], [ -66.264282, -16.970595 ], [ -66.263392, -16.970135 ], [ -66.262009, -16.969381 ], [ -66.261787, -16.968888 ], [ -66.262126, -16.967305 ], [ -66.263113, -16.966664 ], [ -66.263378, -16.965931 ], [ -66.262208, -16.964606 ], [ -66.261425, -16.962959 ], [ -66.260646, -16.960985 ], [ -66.259655, -16.959049 ], [ -66.258363, -16.957314 ], [ -66.257324, -16.955786 ], [ -66.256347, -16.955773 ], [ -66.254954, -16.955727 ], [ -66.253714, -16.954787 ], [ -66.252425, -16.953823 ], [ -66.251102, -16.951816 ], [ -66.250497, -16.951145 ], [ -66.250119, -16.950122 ], [ -66.249584, -16.949713 ], [ -66.247601, -16.949189 ], [ -66.246332, -16.94858 ], [ -66.244986, -16.948159 ], [ -66.243249, -16.948206 ], [ -66.241212, -16.947466 ], [ -66.240304, -16.947303 ], [ -66.238524, -16.946485 ], [ -66.236965, -16.946157 ], [ -66.235817, -16.94584 ], [ -66.234964, -16.945646 ], [ -66.234163, -16.945287 ], [ -66.233883, -16.944962 ], [ -66.233528, -16.944813 ], [ -66.232891, -16.944641 ], [ -66.232183, -16.94416 ], [ -66.231319, -16.94404 ], [ -66.229456, -16.942855 ], [ -66.228889, -16.94301 ], [ -66.228066, -16.942673 ], [ -66.227357, -16.942265 ], [ -66.226872, -16.941987 ], [ -66.226475, -16.940858 ], [ -66.226191, -16.940363 ], [ -66.225656, -16.939695 ], [ -66.225249, -16.939259 ], [ -66.224271, -16.937663 ], [ -66.223535, -16.936536 ], [ -66.223154, -16.936401 ], [ -66.222741, -16.936211 ], [ -66.222377, -16.935697 ], [ -66.221954, -16.934618 ], [ -66.221515, -16.933865 ], [ -66.221247, -16.93372 ], [ -66.220494, -16.933667 ], [ -66.220126, -16.933477 ], [ -66.219985, -16.933119 ], [ -66.219863, -16.933008 ], [ -66.219498, -16.932872 ], [ -66.219315, -16.932726 ], [ -66.219244, -16.932673 ], [ -66.21914, -16.932533 ], [ -66.219152, -16.931988 ], [ -66.219232, -16.931468 ], [ -66.219616, -16.930558 ], [ -66.219427, -16.92968 ], [ -66.218768, -16.92873 ], [ -66.218681, -16.925455 ], [ -66.218931, -16.924485 ], [ -66.219649, -16.923749 ], [ -66.219517, -16.921284 ], [ -66.217789, -16.919571 ], [ -66.217835, -16.920003 ] ] ] ] } }
]
}
