{
"type": "FeatureCollection",
"name": "TIRAQUE",
"crs": { "type": "name", "properties": { "name": "urn:ogc:def:crs:OGC:1.3:CRS84" } },
"bbox": [ -65.879309, -17.525201, -65.226773, -17.111389 ],                                                                        
"features": [
{ "type": "Feature", "properties": { "NOMBRE": "Tiraque", "NIVEL": "Municipios", "PROVINCIA": "Tiraque", "REGION": "Cono Sur", "DEPARTAMENTO": "Cochabamba" }, "bbox": [ -65.879309, -17.525201, -65.226773, -17.111389 ], "geometry": { "type": "MultiPolygon", "coordinates": [ [ [ [ -65.237357, -17.229363 ], [ -65.245283, -17.238114 ], [ -65.244506, -17.238916 ], [ -65.2444, -17.239002 ], [ -65.244018, -17.239485 ], [ -65.243804, -17.239992 ], [ -65.243662, -17.240521 ], [ -65.243652, -17.240759 ], [ -65.243643, -17.240994 ], [ -65.24364, -17.241073 ], [ -65.243522, -17.241648 ], [ -65.243499, -17.242223 ], [ -65.243501, -17.242797 ], [ -65.243447, -17.243221 ], [ -65.243431, -17.243349 ], [ -65.243361, -17.243897 ], [ -65.243361, -17.243901 ], [ -65.243554, -17.244453 ], [ -65.243634, -17.244605 ], [ -65.243819, -17.244959 ], [ -65.244018, -17.245424 ], [ -65.244036, -17.245464 ], [ -65.244181, -17.245993 ], [ -65.244214, -17.246242 ], [ -65.244254, -17.246545 ], [ -65.244136, -17.247097 ], [ -65.244066, -17.247649 ], [ -65.243924, -17.248201 ], [ -65.243638, -17.248753 ], [ -65.243527, -17.249039 ], [ -65.243424, -17.249305 ], [ -65.243314, -17.24952 ], [ -65.243139, -17.249857 ], [ -65.242853, -17.250341 ], [ -65.242711, -17.250893 ], [ -65.242785, -17.251491 ], [ -65.242931, -17.25191 ], [ -65.242978, -17.252042 ], [ -65.243171, -17.252571 ], [ -65.24334, -17.253099 ], [ -65.243247, -17.253643 ], [ -65.243246, -17.253651 ], [ -65.242816, -17.254112 ], [ -65.242339, -17.254526 ], [ -65.242008, -17.254864 ], [ -65.241204, -17.255614 ], [ -65.241049, -17.255747 ], [ -65.240995, -17.255812 ], [ -65.240644, -17.25623 ], [ -65.240406, -17.256737 ], [ -65.240192, -17.257312 ], [ -65.240122, -17.25791 ], [ -65.2401, -17.258462 ], [ -65.239958, -17.259037 ], [ -65.239816, -17.259589 ], [ -65.239722, -17.260141 ], [ -65.239699, -17.260693 ], [ -65.239653, -17.261245 ], [ -65.239689, -17.261662 ], [ -65.240807, -17.263259 ], [ -65.241216, -17.263519 ], [ -65.241664, -17.263773 ], [ -65.242252, -17.263762 ], [ -65.242366, -17.26377 ], [ -65.242964, -17.263793 ], [ -65.243587, -17.263792 ], [ -65.243604, -17.263795 ], [ -65.244162, -17.263883 ], [ -65.244394, -17.264242 ], [ -65.244474, -17.264366 ], [ -65.244452, -17.264917 ], [ -65.24419, -17.265401 ], [ -65.243856, -17.265861 ], [ -65.243451, -17.266321 ], [ -65.242997, -17.266644 ], [ -65.242834, -17.266733 ], [ -65.242597, -17.267179 ], [ -65.241399, -17.267656 ], [ -65.241395, -17.267658 ], [ -65.241002, -17.267813 ], [ -65.240294, -17.268095 ], [ -65.237993, -17.269098 ], [ -65.237991, -17.269104 ], [ -65.237736, -17.270918 ], [ -65.237767, -17.271273 ], [ -65.237919, -17.27177 ], [ -65.237936, -17.271825 ], [ -65.238057, -17.272399 ], [ -65.238131, -17.272951 ], [ -65.238133, -17.273526 ], [ -65.238038, -17.274078 ], [ -65.237968, -17.27463 ], [ -65.237682, -17.275136 ], [ -65.237205, -17.275551 ], [ -65.237058, -17.275754 ], [ -65.237038, -17.275893 ], [ -65.236814, -17.276374 ], [ -65.236777, -17.276609 ], [ -65.236803, -17.276818 ], [ -65.23685, -17.277207 ], [ -65.237044, -17.277759 ], [ -65.237332, -17.278287 ], [ -65.237621, -17.278816 ], [ -65.237838, -17.27939 ], [ -65.238008, -17.279965 ], [ -65.238033, -17.280517 ], [ -65.23791, -17.280804 ], [ -65.237795, -17.281069 ], [ -65.237582, -17.281644 ], [ -65.237512, -17.282219 ], [ -65.237513, -17.282817 ], [ -65.237707, -17.283392 ], [ -65.238019, -17.283874 ], [ -65.238356, -17.284357 ], [ -65.238669, -17.284885 ], [ -65.238884, -17.285295 ], [ -65.238958, -17.285436 ], [ -65.239151, -17.286011 ], [ -65.239201, -17.286331 ], [ -65.239248, -17.286632 ], [ -65.239346, -17.287207 ], [ -65.239348, -17.287804 ], [ -65.23923, -17.288379 ], [ -65.238992, -17.288932 ], [ -65.238929, -17.288996 ], [ -65.238901, -17.289024 ], [ -65.238764, -17.289738 ], [ -65.236298, -17.291439 ], [ -65.236415, -17.291994 ], [ -65.23644, -17.292568 ], [ -65.236418, -17.29312 ], [ -65.236252, -17.293672 ], [ -65.23611, -17.294224 ], [ -65.236093, -17.294653 ], [ -65.236461, -17.295712 ], [ -65.236284, -17.296294 ], [ -65.236332, -17.296524 ], [ -65.236382, -17.297098 ], [ -65.236455, -17.297696 ], [ -65.236361, -17.298271 ], [ -65.236171, -17.298823 ], [ -65.236137, -17.29889 ], [ -65.235886, -17.299376 ], [ -65.2356, -17.299859 ], [ -65.235218, -17.300273 ], [ -65.234716, -17.300642 ], [ -65.234214, -17.300919 ], [ -65.23364, -17.30108 ], [ -65.233066, -17.301288 ], [ -65.232564, -17.301634 ], [ -65.232254, -17.302117 ], [ -65.232231, -17.302669 ], [ -65.232353, -17.303244 ], [ -65.232402, -17.303795 ], [ -65.232452, -17.304347 ], [ -65.232453, -17.304922 ], [ -65.232264, -17.305497 ], [ -65.231978, -17.306026 ], [ -65.231716, -17.30651 ], [ -65.231406, -17.306993 ], [ -65.231339, -17.307103 ], [ -65.231096, -17.307499 ], [ -65.230714, -17.30796 ], [ -65.230704, -17.307985 ], [ -65.2305, -17.308466 ], [ -65.230238, -17.308972 ], [ -65.229928, -17.309455 ], [ -65.229778, -17.309652 ], [ -65.229594, -17.309893 ], [ -65.229212, -17.310307 ], [ -65.228129, -17.310989 ], [ -65.227813, -17.31135 ], [ -65.227746, -17.311433 ], [ -65.227638, -17.311834 ], [ -65.227578, -17.312058 ], [ -65.227496, -17.312703 ], [ -65.227674, -17.313351 ], [ -65.228021, -17.313886 ], [ -65.228401, -17.314418 ], [ -65.228872, -17.314919 ], [ -65.228897, -17.314937 ], [ -65.22938, -17.315303 ], [ -65.229899, -17.315563 ], [ -65.230387, -17.315866 ], [ -65.230979, -17.316125 ], [ -65.231514, -17.316393 ], [ -65.232105, -17.316534 ], [ -65.23257, -17.316719 ], [ -65.232852, -17.31704 ], [ -65.233034, -17.317521 ], [ -65.233116, -17.318021 ], [ -65.233032, -17.318429 ], [ -65.23305, -17.319945 ], [ -65.231216, -17.321478 ], [ -65.229253, -17.321151 ], [ -65.229241, -17.321156 ], [ -65.228711, -17.321695 ], [ -65.228455, -17.322266 ], [ -65.228159, -17.323656 ], [ -65.228185, -17.32422 ], [ -65.228421, -17.324867 ], [ -65.228852, -17.325331 ], [ -65.229242, -17.32577 ], [ -65.229549, -17.32622 ], [ -65.229899, -17.326666 ], [ -65.230114, -17.327058 ], [ -65.230155, -17.327515 ], [ -65.230133, -17.328105 ], [ -65.230161, -17.328728 ], [ -65.230326, -17.329406 ], [ -65.230676, -17.330023 ], [ -65.231032, -17.330485 ], [ -65.231409, -17.330935 ], [ -65.231722, -17.331405 ], [ -65.231976, -17.331911 ], [ -65.232206, -17.332394 ], [ -65.232395, -17.332957 ], [ -65.232594, -17.333463 ], [ -65.232617, -17.333965 ], [ -65.232597, -17.334465 ], [ -65.232466, -17.334975 ], [ -65.232289, -17.335563 ], [ -65.232262, -17.33625 ], [ -65.232502, -17.336907 ], [ -65.232992, -17.337458 ], [ -65.233506, -17.337777 ], [ -65.233958, -17.338107 ], [ -65.234277, -17.338506 ], [ -65.234435, -17.338929 ], [ -65.234352, -17.339334 ], [ -65.234119, -17.339739 ], [ -65.234281, -17.340125 ], [ -65.23402, -17.340535 ], [ -65.233924, -17.340684 ], [ -65.233689, -17.340988 ], [ -65.233638, -17.341054 ], [ -65.233462, -17.341474 ], [ -65.232941, -17.341933 ], [ -65.232658, -17.342243 ], [ -65.232084, -17.342382 ], [ -65.231558, -17.342589 ], [ -65.231055, -17.342843 ], [ -65.230602, -17.343257 ], [ -65.230436, -17.343856 ], [ -65.230413, -17.34443 ], [ -65.230271, -17.344983 ], [ -65.230201, -17.34558 ], [ -65.229874, -17.346091 ], [ -65.229822, -17.346359 ], [ -65.229772, -17.346615 ], [ -65.229561, -17.347175 ], [ -65.229256, -17.347545 ], [ -65.229042, -17.347861 ], [ -65.228869, -17.348825 ], [ -65.228655, -17.349331 ], [ -65.228565, -17.349497 ], [ -65.228393, -17.349814 ], [ -65.228131, -17.350366 ], [ -65.227893, -17.350941 ], [ -65.227703, -17.351471 ], [ -65.227552, -17.35193 ], [ -65.227513, -17.352046 ], [ -65.227324, -17.352621 ], [ -65.227181, -17.353173 ], [ -65.227087, -17.353725 ], [ -65.227137, -17.3543 ], [ -65.227402, -17.354851 ], [ -65.227739, -17.355334 ], [ -65.228123, -17.355816 ], [ -65.227803, -17.356422 ], [ -65.227555, -17.356895 ], [ -65.227199, -17.357245 ], [ -65.227106, -17.357336 ], [ -65.226985, -17.357878 ], [ -65.226773, -17.358316 ], [ -65.22703, -17.35883 ], [ -65.227071, -17.359146 ], [ -65.227104, -17.359405 ], [ -65.226865, -17.360605 ], [ -65.22826, -17.361205 ], [ -65.229056, -17.361489 ], [ -65.229208, -17.361543 ], [ -65.229961, -17.361815 ], [ -65.230536, -17.361884 ], [ -65.231112, -17.362136 ], [ -65.231569, -17.362595 ], [ -65.231857, -17.363077 ], [ -65.232075, -17.363583 ], [ -65.232364, -17.364112 ], [ -65.232481, -17.36441 ], [ -65.232581, -17.364663 ], [ -65.232846, -17.365215 ], [ -65.233111, -17.365743 ], [ -65.233376, -17.366272 ], [ -65.233665, -17.366777 ], [ -65.234026, -17.36726 ], [ -65.234434, -17.367673 ], [ -65.234866, -17.36804 ], [ -65.235394, -17.368339 ], [ -65.235994, -17.368637 ], [ -65.23657, -17.368866 ], [ -65.237121, -17.369072 ], [ -65.237721, -17.369232 ], [ -65.238296, -17.369392 ], [ -65.238847, -17.369529 ], [ -65.239446, -17.369598 ], [ -65.240046, -17.369758 ], [ -65.240502, -17.370148 ], [ -65.24103, -17.370515 ], [ -65.241582, -17.370836 ], [ -65.24211, -17.371066 ], [ -65.242709, -17.371134 ], [ -65.243308, -17.371156 ], [ -65.243907, -17.371109 ], [ -65.244506, -17.371223 ], [ -65.24501, -17.371498 ], [ -65.245538, -17.371819 ], [ -65.246018, -17.372233 ], [ -65.24645, -17.372623 ], [ -65.246955, -17.373059 ], [ -65.247387, -17.373449 ], [ -65.247844, -17.373863 ], [ -65.248324, -17.374276 ], [ -65.248757, -17.374735 ], [ -65.249189, -17.375194 ], [ -65.249622, -17.375608 ], [ -65.25003, -17.376067 ], [ -65.250463, -17.376503 ], [ -65.250943, -17.376939 ], [ -65.251376, -17.37733 ], [ -65.251856, -17.37772 ], [ -65.25236, -17.37811 ], [ -65.252888, -17.378362 ], [ -65.253463, -17.378407 ], [ -65.254038, -17.378407 ], [ -65.254588, -17.378176 ], [ -65.255163, -17.378014 ], [ -65.255689, -17.377806 ], [ -65.256288, -17.377621 ], [ -65.256502, -17.377561 ], [ -65.256812, -17.377408 ], [ -65.256872, -17.377457 ], [ -65.257437, -17.377321 ], [ -65.258011, -17.377297 ], [ -65.258324, -17.377779 ], [ -65.258062, -17.378263 ], [ -65.257728, -17.378769 ], [ -65.257466, -17.379252 ], [ -65.25742, -17.37985 ], [ -65.257446, -17.380425 ], [ -65.257663, -17.380954 ], [ -65.257691, -17.382039 ], [ -65.258746, -17.382401 ], [ -65.25925, -17.382653 ], [ -65.259801, -17.382813 ], [ -65.259869, -17.38283 ], [ -65.260425, -17.382973 ], [ -65.261024, -17.382995 ], [ -65.26141, -17.383009 ], [ -65.261623, -17.383017 ], [ -65.262221, -17.382947 ], [ -65.26282, -17.382854 ], [ -65.263443, -17.382784 ], [ -65.264065, -17.382783 ], [ -65.264689, -17.382874 ], [ -65.265312, -17.38308 ], [ -65.265816, -17.383379 ], [ -65.266225, -17.383815 ], [ -65.266466, -17.38432 ], [ -65.26632, -17.384525 ], [ -65.266567, -17.384766 ], [ -65.267092, -17.385019 ], [ -65.26748, -17.385452 ], [ -65.26763, -17.386003 ], [ -65.267636, -17.386555 ], [ -65.267752, -17.386831 ], [ -65.267857, -17.387081 ], [ -65.268411, -17.387352 ], [ -65.268454, -17.387362 ], [ -65.268963, -17.387485 ], [ -65.26941, -17.387751 ], [ -65.269618, -17.38791 ], [ -65.269707, -17.387977 ], [ -65.270388, -17.388506 ], [ -65.2706, -17.389032 ], [ -65.27061, -17.389056 ], [ -65.270758, -17.389679 ], [ -65.270835, -17.389983 ], [ -65.270874, -17.390137 ], [ -65.271426, -17.390643 ], [ -65.271466, -17.39068 ], [ -65.271735, -17.391207 ], [ -65.272053, -17.391733 ], [ -65.272441, -17.392235 ], [ -65.272829, -17.392645 ], [ -65.273336, -17.392985 ], [ -65.273866, -17.393256 ], [ -65.274489, -17.393296 ], [ -65.274812, -17.393185 ], [ -65.275038, -17.393107 ], [ -65.275513, -17.392735 ], [ -65.276012, -17.392362 ], [ -65.276584, -17.392104 ], [ -65.277084, -17.391846 ], [ -65.277502, -17.391667 ], [ -65.277633, -17.391611 ], [ -65.278205, -17.391353 ], [ -65.27868, -17.391003 ], [ -65.279155, -17.390677 ], [ -65.279703, -17.39035 ], [ -65.280275, -17.390115 ], [ -65.280847, -17.389833 ], [ -65.281102, -17.389749 ], [ -65.281509, -17.389402 ], [ -65.283073, -17.388447 ], [ -65.283248, -17.388178 ], [ -65.283554, -17.387715 ], [ -65.284052, -17.387297 ], [ -65.284551, -17.386901 ], [ -65.285125, -17.386827 ], [ -65.285656, -17.38719 ], [ -65.286036, -17.387453 ], [ -65.286115, -17.387507 ], [ -65.286381, -17.387525 ], [ -65.286714, -17.387548 ], [ -65.287312, -17.387473 ], [ -65.287886, -17.387353 ], [ -65.288415, -17.387554 ], [ -65.288804, -17.38808 ], [ -65.289073, -17.38856 ], [ -65.289342, -17.38904 ], [ -65.289777, -17.38945 ], [ -65.290378, -17.389582 ], [ -65.290838, -17.390015 ], [ -65.291274, -17.390471 ], [ -65.29162, -17.390836 ], [ -65.291662, -17.390881 ], [ -65.292121, -17.391244 ], [ -65.292437, -17.391479 ], [ -65.29258, -17.391585 ], [ -65.293015, -17.391972 ], [ -65.293102, -17.392068 ], [ -65.293404, -17.392405 ], [ -65.293565, -17.392813 ], [ -65.293872, -17.393163 ], [ -65.29408, -17.393541 ], [ -65.294282, -17.393832 ], [ -65.294306, -17.393868 ], [ -65.29437, -17.393974 ], [ -65.294624, -17.394394 ], [ -65.29494, -17.394873 ], [ -65.295012, -17.394958 ], [ -65.295329, -17.39533 ], [ -65.295657, -17.395782 ], [ -65.295694, -17.395832 ], [ -65.295735, -17.395875 ], [ -65.296081, -17.396242 ], [ -65.296357, -17.396488 ], [ -65.296541, -17.396652 ], [ -65.297024, -17.396946 ], [ -65.297052, -17.39696 ], [ -65.297578, -17.397217 ], [ -65.298132, -17.397487 ], [ -65.298662, -17.397804 ], [ -65.299241, -17.39812 ], [ -65.299724, -17.398461 ], [ -65.300207, -17.39887 ], [ -65.300738, -17.39921 ], [ -65.301222, -17.399619 ], [ -65.301776, -17.399913 ], [ -65.301992, -17.400042 ], [ -65.302307, -17.40023 ], [ -65.302766, -17.400593 ], [ -65.303273, -17.400956 ], [ -65.303755, -17.40125 ], [ -65.304168, -17.401729 ], [ -65.304485, -17.402186 ], [ -65.304587, -17.402737 ], [ -65.304617, -17.403312 ], [ -65.304623, -17.403863 ], [ -65.304627, -17.404179 ], [ -65.304629, -17.404415 ], [ -65.304626, -17.404527 ], [ -65.304612, -17.40499 ], [ -65.304643, -17.405588 ], [ -65.304888, -17.406114 ], [ -65.305091, -17.406477 ], [ -65.305157, -17.406594 ], [ -65.305359, -17.406703 ], [ -65.305663, -17.406865 ], [ -65.306262, -17.40686 ], [ -65.306425, -17.406887 ], [ -65.306616, -17.406919 ], [ -65.307437, -17.406963 ], [ -65.30827, -17.407059 ], [ -65.308897, -17.407567 ], [ -65.308917, -17.407589 ], [ -65.309127, -17.407822 ], [ -65.309374, -17.408125 ], [ -65.309463, -17.408235 ], [ -65.309852, -17.408711 ], [ -65.310021, -17.409025 ], [ -65.310122, -17.409214 ], [ -65.31055, -17.409717 ], [ -65.310577, -17.409749 ], [ -65.310875, -17.410126 ], [ -65.310936, -17.410203 ], [ -65.311247, -17.410604 ], [ -65.311461, -17.411155 ], [ -65.311507, -17.411283 ], [ -65.311659, -17.411705 ], [ -65.311665, -17.41228 ], [ -65.311696, -17.412878 ], [ -65.311696, -17.412883 ], [ -65.312389, -17.413952 ], [ -65.311337, -17.414643 ], [ -65.311244, -17.415051 ], [ -65.311219, -17.415159 ], [ -65.311149, -17.415283 ], [ -65.31117, -17.415471 ], [ -65.311164, -17.415514 ], [ -65.31116, -17.41554 ], [ -65.311138, -17.41568 ], [ -65.31113, -17.415734 ], [ -65.311113, -17.415962 ], [ -65.311093, -17.416237 ], [ -65.311088, -17.416309 ], [ -65.31109, -17.416629 ], [ -65.311092, -17.416928 ], [ -65.311093, -17.417085 ], [ -65.311108, -17.417201 ], [ -65.311154, -17.417579 ], [ -65.311163, -17.417649 ], [ -65.3112, -17.418154 ], [ -65.311093, -17.418651 ], [ -65.311021, -17.418964 ], [ -65.310995, -17.419079 ], [ -65.311031, -17.419736 ], [ -65.310797, -17.420244 ], [ -65.310491, -17.420753 ], [ -65.310407, -17.420852 ], [ -65.309914, -17.421436 ], [ -65.309889, -17.421466 ], [ -65.309712, -17.421747 ], [ -65.309606, -17.421915 ], [ -65.309355, -17.422214 ], [ -65.309271, -17.422315 ], [ -65.309101, -17.422783 ], [ -65.30885, -17.423371 ], [ -65.308657, -17.423782 ], [ -65.308183, -17.424201 ], [ -65.307732, -17.424619 ], [ -65.307664, -17.424664 ], [ -65.306372, -17.426253 ], [ -65.306315, -17.426426 ], [ -65.30634, -17.426887 ], [ -65.306345, -17.426978 ], [ -65.306571, -17.427088 ], [ -65.306899, -17.427248 ], [ -65.307501, -17.427518 ], [ -65.308055, -17.427789 ], [ -65.308746, -17.428369 ], [ -65.308761, -17.428381 ], [ -65.30889, -17.428816 ], [ -65.308936, -17.429056 ], [ -65.308983, -17.429298 ], [ -65.309465, -17.429592 ], [ -65.309851, -17.429693 ], [ -65.309976, -17.429725 ], [ -65.310092, -17.429815 ], [ -65.310216, -17.429911 ], [ -65.310335, -17.430002 ], [ -65.311014, -17.430523 ], [ -65.311547, -17.431062 ], [ -65.312119, -17.431343 ], [ -65.312669, -17.431565 ], [ -65.312938, -17.431659 ], [ -65.313105, -17.431718 ], [ -65.313509, -17.431793 ], [ -65.313967, -17.432095 ], [ -65.314037, -17.432719 ], [ -65.313578, -17.433116 ], [ -65.313527, -17.433412 ], [ -65.3135, -17.433568 ], [ -65.314069, -17.434169 ], [ -65.314004, -17.434722 ], [ -65.313722, -17.435207 ], [ -65.313416, -17.435693 ], [ -65.313027, -17.436203 ], [ -65.312733, -17.436613 ], [ -65.312546, -17.436906 ], [ -65.31249, -17.436993 ], [ -65.312322, -17.4376 ], [ -65.312174, -17.438211 ], [ -65.311755, -17.438789 ], [ -65.313175, -17.439262 ], [ -65.314316, -17.440608 ], [ -65.314705, -17.440991 ], [ -65.314801, -17.441086 ], [ -65.314975, -17.441684 ], [ -65.315148, -17.442307 ], [ -65.315218, -17.442931 ], [ -65.315203, -17.443357 ], [ -65.315204, -17.443391 ], [ -65.315216, -17.443819 ], [ -65.31514, -17.444328 ], [ -65.315127, -17.444417 ], [ -65.314989, -17.444971 ], [ -65.314925, -17.445592 ], [ -65.315033, -17.446022 ], [ -65.315075, -17.446188 ], [ -65.315653, -17.44639 ], [ -65.316192, -17.446385 ], [ -65.3163, -17.446384 ], [ -65.316922, -17.446355 ], [ -65.317569, -17.446349 ], [ -65.318168, -17.446343 ], [ -65.318769, -17.446521 ], [ -65.319086, -17.447024 ], [ -65.319021, -17.447576 ], [ -65.3191, -17.448194 ], [ -65.319122, -17.448346 ], [ -65.319146, -17.448521 ], [ -65.319295, -17.448702 ], [ -65.319613, -17.449088 ], [ -65.320163, -17.449146 ], [ -65.320213, -17.449152 ], [ -65.320836, -17.449146 ], [ -65.321437, -17.449278 ], [ -65.321967, -17.449595 ], [ -65.322028, -17.449649 ], [ -65.322427, -17.450004 ], [ -65.322588, -17.450627 ], [ -65.322622, -17.450734 ], [ -65.322733, -17.451082 ], [ -65.322771, -17.4512 ], [ -65.323297, -17.452538 ], [ -65.323806, -17.453187 ], [ -65.324123, -17.45369 ], [ -65.324683, -17.45433 ], [ -65.324825, -17.454491 ], [ -65.324996, -17.454556 ], [ -65.32548, -17.454942 ], [ -65.325875, -17.455499 ], [ -65.326281, -17.455974 ], [ -65.326337, -17.456039 ], [ -65.32692, -17.456379 ], [ -65.327216, -17.456665 ], [ -65.327275, -17.456722 ], [ -65.32759, -17.457105 ], [ -65.327838, -17.45733 ], [ -65.327945, -17.457428 ], [ -65.32805, -17.457635 ], [ -65.328198, -17.457928 ], [ -65.328207, -17.45799 ], [ -65.328805, -17.458579 ], [ -65.329623, -17.460326 ], [ -65.329587, -17.460799 ], [ -65.329735, -17.460984 ], [ -65.329743, -17.460994 ], [ -65.329996, -17.461239 ], [ -65.330196, -17.461432 ], [ -65.330457, -17.461924 ], [ -65.330577, -17.462151 ], [ -65.33069, -17.462236 ], [ -65.330861, -17.462363 ], [ -65.331297, -17.46275 ], [ -65.331613, -17.463279 ], [ -65.331652, -17.463345 ], [ -65.332153, -17.463785 ], [ -65.332305, -17.464025 ], [ -65.333742, -17.464938 ], [ -65.334134, -17.465339 ], [ -65.334323, -17.465411 ], [ -65.334796, -17.465528 ], [ -65.334948, -17.465566 ], [ -65.335088, -17.46569 ], [ -65.335384, -17.465953 ], [ -65.335724, -17.466386 ], [ -65.335767, -17.466587 ], [ -65.335824, -17.466853 ], [ -65.335851, -17.466983 ], [ -65.336121, -17.467486 ], [ -65.336674, -17.467665 ], [ -65.337296, -17.467613 ], [ -65.337886, -17.467516 ], [ -65.337894, -17.467515 ], [ -65.338377, -17.467809 ], [ -65.338444, -17.467934 ], [ -65.338646, -17.468313 ], [ -65.338844, -17.468697 ], [ -65.338854, -17.468717 ], [ -65.338941, -17.468885 ], [ -65.339007, -17.469116 ], [ -65.339054, -17.46928 ], [ -65.339552, -17.469936 ], [ -65.339678, -17.470487 ], [ -65.339733, -17.471084 ], [ -65.339764, -17.471659 ], [ -65.339814, -17.47225 ], [ -65.339758, -17.472486 ], [ -65.339736, -17.472578 ], [ -65.339705, -17.472748 ], [ -65.339572, -17.473479 ], [ -65.339426, -17.474244 ], [ -65.339311, -17.474683 ], [ -65.339298, -17.474731 ], [ -65.339086, -17.475106 ], [ -65.339015, -17.475231 ], [ -65.338788, -17.475408 ], [ -65.338042, -17.476631 ], [ -65.337864, -17.47729 ], [ -65.338334, -17.478002 ], [ -65.338384, -17.478452 ], [ -65.338581, -17.479489 ], [ -65.338604, -17.481585 ], [ -65.338634, -17.483916 ], [ -65.338286, -17.485952 ], [ -65.338688, -17.487061 ], [ -65.338511, -17.487787 ], [ -65.338465, -17.488352 ], [ -65.338467, -17.488824 ], [ -65.338542, -17.489366 ], [ -65.33858, -17.489885 ], [ -65.338558, -17.490219 ], [ -65.338464, -17.490703 ], [ -65.338202, -17.491325 ], [ -65.338218, -17.492109 ], [ -65.338268, -17.4925 ], [ -65.338451, -17.493169 ], [ -65.339095, -17.494887 ], [ -65.339194, -17.495417 ], [ -65.339146, -17.496804 ], [ -65.339269, -17.497142 ], [ -65.344011, -17.514838 ], [ -65.344013, -17.514843 ], [ -65.365093, -17.499016 ], [ -65.381183, -17.490964 ], [ -65.415452, -17.481711 ], [ -65.419281, -17.490781 ], [ -65.421567, -17.496594 ], [ -65.424095, -17.50154 ], [ -65.424922, -17.502845 ], [ -65.425575, -17.503827 ], [ -65.425818, -17.504055 ], [ -65.426134, -17.504421 ], [ -65.426378, -17.504753 ], [ -65.42655, -17.505039 ], [ -65.4267, -17.505453 ], [ -65.426866, -17.506165 ], [ -65.427106, -17.507026 ], [ -65.427331, -17.507714 ], [ -65.427638, -17.508241 ], [ -65.428147, -17.508663 ], [ -65.429148, -17.509277 ], [ -65.429593, -17.509412 ], [ -65.43049, -17.509428 ], [ -65.431089, -17.50947 ], [ -65.43201, -17.509463 ], [ -65.432346, -17.509518 ], [ -65.432706, -17.50963 ], [ -65.433248, -17.509868 ], [ -65.434927, -17.510491 ], [ -65.436552, -17.51089 ], [ -65.437849, -17.511157 ], [ -65.438231, -17.511154 ], [ -65.438483, -17.51121 ], [ -65.438773, -17.51138 ], [ -65.43928, -17.511721 ], [ -65.439886, -17.5122 ], [ -65.440494, -17.512276 ], [ -65.441059, -17.512568 ], [ -65.441407, -17.513144 ], [ -65.441731, -17.513222 ], [ -65.443214, -17.513222 ], [ -65.443633, -17.513196 ], [ -65.443823, -17.513125 ], [ -65.47191, -17.520493 ], [ -65.472535, -17.520657 ], [ -65.475013, -17.51929 ], [ -65.483892, -17.513005 ], [ -65.500678, -17.500622 ], [ -65.522197, -17.492036 ], [ -65.529551, -17.495516 ], [ -65.53305, -17.500985 ], [ -65.540025, -17.509664 ], [ -65.54604, -17.513352 ], [ -65.549332, -17.514374 ], [ -65.55451, -17.515082 ], [ -65.558344, -17.515107 ], [ -65.561708, -17.514379 ], [ -65.5637, -17.514569 ], [ -65.566233, -17.514232 ], [ -65.568853, -17.514643 ], [ -65.573905, -17.516563 ], [ -65.589827, -17.523362 ], [ -65.606837, -17.515435 ], [ -65.613179, -17.525201 ], [ -65.621852, -17.522393 ], [ -65.624934, -17.519896 ], [ -65.631311, -17.51431 ], [ -65.642077, -17.511098 ], [ -65.644296, -17.498853 ], [ -65.649293, -17.496902 ], [ -65.661837, -17.50018 ], [ -65.668218, -17.491204 ], [ -65.680049, -17.503642 ], [ -65.695005, -17.518633 ], [ -65.695197, -17.518582 ], [ -65.69521, -17.518518 ], [ -65.703515, -17.51631 ], [ -65.715565, -17.513324 ], [ -65.737651, -17.520449 ], [ -65.751612, -17.517221 ], [ -65.764693, -17.513839 ], [ -65.776272, -17.516137 ], [ -65.788415, -17.518546 ], [ -65.790832, -17.519256 ], [ -65.779994, -17.499469 ], [ -65.778365, -17.494012 ], [ -65.779472, -17.49345 ], [ -65.779854, -17.493229 ], [ -65.780464, -17.492949 ], [ -65.780954, -17.492693 ], [ -65.781144, -17.492573 ], [ -65.781467, -17.492368 ], [ -65.782996, -17.491519 ], [ -65.783642, -17.491204 ], [ -65.784287, -17.490867 ], [ -65.784583, -17.490664 ], [ -65.784656, -17.490549 ], [ -65.784921, -17.490297 ], [ -65.785344, -17.489736 ], [ -65.785584, -17.489548 ], [ -65.786053, -17.48943 ], [ -65.786195, -17.489365 ], [ -65.786217, -17.489348 ], [ -65.786645, -17.488954 ], [ -65.786883, -17.488757 ], [ -65.786919, -17.488742 ], [ -65.787182, -17.488629 ], [ -65.787258, -17.487938 ], [ -65.787255, -17.487639 ], [ -65.787154, -17.487282 ], [ -65.787032, -17.487076 ], [ -65.786834, -17.486674 ], [ -65.786708, -17.486203 ], [ -65.786581, -17.485582 ], [ -65.786538, -17.484996 ], [ -65.786556, -17.484478 ], [ -65.786669, -17.483902 ], [ -65.78668, -17.483873 ], [ -65.787147, -17.482679 ], [ -65.787286, -17.482241 ], [ -65.787388, -17.481699 ], [ -65.787417, -17.481135 ], [ -65.787325, -17.48048 ], [ -65.787089, -17.479791 ], [ -65.786795, -17.479305 ], [ -65.786441, -17.478851 ], [ -65.786039, -17.478462 ], [ -65.785602, -17.478097 ], [ -65.784682, -17.477527 ], [ -65.784124, -17.477163 ], [ -65.783737, -17.476958 ], [ -65.782914, -17.476434 ], [ -65.782309, -17.476127 ], [ -65.781994, -17.475933 ], [ -65.781484, -17.475522 ], [ -65.780975, -17.47518 ], [ -65.780041, -17.474427 ], [ -65.779161, -17.473502 ], [ -65.778439, -17.472942 ], [ -65.77846, -17.472926 ], [ -65.778401, -17.47288 ], [ -65.779459, -17.472066 ], [ -65.780092, -17.47181 ], [ -65.780578, -17.47122 ], [ -65.78079, -17.470851 ], [ -65.780965, -17.470413 ], [ -65.78127, -17.46972 ], [ -65.781716, -17.468866 ], [ -65.782282, -17.467873 ], [ -65.782801, -17.467099 ], [ -65.783477, -17.466266 ], [ -65.784711, -17.464867 ], [ -65.785328, -17.46423 ], [ -65.786174, -17.463581 ], [ -65.786985, -17.46307 ], [ -65.789662, -17.461708 ], [ -65.790533, -17.461127 ], [ -65.790961, -17.460779 ], [ -65.791152, -17.460652 ], [ -65.791487, -17.460465 ], [ -65.792371, -17.460046 ], [ -65.79286, -17.459744 ], [ -65.794398, -17.458619 ], [ -65.794981, -17.458143 ], [ -65.795635, -17.457541 ], [ -65.796323, -17.456708 ], [ -65.79689, -17.455934 ], [ -65.797667, -17.45456 ], [ -65.797901, -17.453983 ], [ -65.798074, -17.45343 ], [ -65.798235, -17.452807 ], [ -65.798631, -17.4517 ], [ -65.799006, -17.450892 ], [ -65.799231, -17.450592 ], [ -65.799811, -17.449909 ], [ -65.80412, -17.44833 ], [ -65.80412, -17.448353 ], [ -65.804217, -17.448387 ], [ -65.804588, -17.44827 ], [ -65.804983, -17.448095 ], [ -65.805411, -17.448083 ], [ -65.805758, -17.447596 ], [ -65.806199, -17.447294 ], [ -65.806653, -17.447015 ], [ -65.807046, -17.446713 ], [ -65.807129, -17.446632 ], [ -65.809216, -17.445559 ], [ -65.819578, -17.446779 ], [ -65.827628, -17.449511 ], [ -65.838787, -17.453298 ], [ -65.859304, -17.457714 ], [ -65.859465, -17.457566 ], [ -65.855378, -17.439316 ], [ -65.845013, -17.430967 ], [ -65.845026, -17.430926 ], [ -65.845012, -17.430915 ], [ -65.848235, -17.421068 ], [ -65.861074, -17.420093 ], [ -65.853879, -17.409455 ], [ -65.86419, -17.408302 ], [ -65.879309, -17.404026 ], [ -65.878538, -17.402717 ], [ -65.877123, -17.401807 ], [ -65.875722, -17.401207 ], [ -65.875081, -17.400935 ], [ -65.874153, -17.40071 ], [ -65.873431, -17.400611 ], [ -65.872914, -17.400568 ], [ -65.872457, -17.400548 ], [ -65.871975, -17.400494 ], [ -65.87147, -17.400405 ], [ -65.869832, -17.400185 ], [ -65.869134, -17.400074 ], [ -65.868325, -17.399757 ], [ -65.867672, -17.39945 ], [ -65.866995, -17.399109 ], [ -65.866244, -17.398619 ], [ -65.86491, -17.397592 ], [ -65.864049, -17.397021 ], [ -65.863312, -17.396669 ], [ -65.862058, -17.396366 ], [ -65.86077, -17.396133 ], [ -65.859192, -17.39582 ], [ -65.857444, -17.395405 ], [ -65.856672, -17.395157 ], [ -65.856008, -17.394885 ], [ -65.854665, -17.394191 ], [ -65.853699, -17.393771 ], [ -65.852721, -17.39342 ], [ -65.851746, -17.393254 ], [ -65.850772, -17.393259 ], [ -65.850016, -17.393345 ], [ -65.849188, -17.393419 ], [ -65.848154, -17.393345 ], [ -65.847202, -17.393178 ], [ -65.846298, -17.392976 ], [ -65.845719, -17.392761 ], [ -65.845368, -17.39259 ], [ -65.844802, -17.392421 ], [ -65.843971, -17.392288 ], [ -65.843067, -17.39211 ], [ -65.842081, -17.392058 ], [ -65.840315, -17.392069 ], [ -65.839448, -17.39189 ], [ -65.838988, -17.391674 ], [ -65.838288, -17.391437 ], [ -65.837506, -17.391338 ], [ -65.836665, -17.391343 ], [ -65.83598, -17.39137 ], [ -65.835235, -17.391351 ], [ -65.83437, -17.391403 ], [ -65.833733, -17.391384 ], [ -65.833097, -17.391399 ], [ -65.832616, -17.39139 ], [ -65.832171, -17.391416 ], [ -65.831931, -17.391371 ], [ -65.8314, -17.39119 ], [ -65.830868, -17.390952 ], [ -65.830421, -17.390771 ], [ -65.829937, -17.390444 ], [ -65.810101, -17.381022 ], [ -65.807706, -17.379332 ], [ -65.801053, -17.369352 ], [ -65.798496, -17.366491 ], [ -65.796, -17.367244 ], [ -65.79592, -17.367567 ], [ -65.795585, -17.367741 ], [ -65.793548, -17.368202 ], [ -65.793463, -17.368133 ], [ -65.793438, -17.368065 ], [ -65.793435, -17.367777 ], [ -65.793468, -17.367547 ], [ -65.793586, -17.367339 ], [ -65.793859, -17.367038 ], [ -65.794061, -17.366853 ], [ -65.794333, -17.366517 ], [ -65.794392, -17.366402 ], [ -65.794366, -17.366275 ], [ -65.79433, -17.36623 ], [ -65.794065, -17.366162 ], [ -65.793801, -17.366198 ], [ -65.793489, -17.366292 ], [ -65.792902, -17.366422 ], [ -65.792734, -17.366446 ], [ -65.792554, -17.366447 ], [ -65.792253, -17.366357 ], [ -65.792024, -17.366323 ], [ -65.791796, -17.366325 ], [ -65.791616, -17.366383 ], [ -65.791474, -17.366545 ], [ -65.79132, -17.366765 ], [ -65.791262, -17.366949 ], [ -65.791217, -17.367214 ], [ -65.791148, -17.367445 ], [ -65.791019, -17.367676 ], [ -65.7909, -17.367815 ], [ -65.790721, -17.367919 ], [ -65.79036, -17.367898 ], [ -65.79007, -17.367762 ], [ -65.78973, -17.367476 ], [ -65.789609, -17.36735 ], [ -65.789351, -17.366926 ], [ -65.789108, -17.366686 ], [ -65.78883, -17.366515 ], [ -65.788312, -17.366426 ], [ -65.787808, -17.366474 ], [ -65.787413, -17.366569 ], [ -65.787197, -17.366639 ], [ -65.786933, -17.366687 ], [ -65.786429, -17.366667 ], [ -65.786103, -17.366576 ], [ -65.785946, -17.366508 ], [ -65.785966, -17.366163 ], [ -65.786016, -17.366 ], [ -65.786034, -17.365939 ], [ -65.786127, -17.36565 ], [ -65.786432, -17.365085 ], [ -65.78655, -17.3649 ], [ -65.78676, -17.364438 ], [ -65.786922, -17.363943 ], [ -65.787026, -17.363562 ], [ -65.787178, -17.363228 ], [ -65.787307, -17.362997 ], [ -65.787651, -17.36265 ], [ -65.787866, -17.36251 ], [ -65.788484, -17.362 ], [ -65.788863, -17.361607 ], [ -65.789136, -17.361283 ], [ -65.789324, -17.361017 ], [ -65.78943, -17.360832 ], [ -65.789429, -17.360763 ], [ -65.789446, -17.360734 ], [ -65.789445, -17.36063 ], [ -65.789311, -17.36047 ], [ -65.789094, -17.360391 ], [ -65.788781, -17.360346 ], [ -65.788493, -17.360371 ], [ -65.787487, -17.360653 ], [ -65.786602, -17.360992 ], [ -65.78616, -17.361248 ], [ -65.785874, -17.361445 ], [ -65.785564, -17.361631 ], [ -65.785266, -17.36184 ], [ -65.784597, -17.3622 ], [ -65.783844, -17.362504 ], [ -65.783532, -17.362529 ], [ -65.783532, -17.362511 ], [ -65.783622, -17.362261 ], [ -65.783799, -17.361961 ], [ -65.784107, -17.361625 ], [ -65.784988, -17.36101 ], [ -65.785298, -17.360766 ], [ -65.785535, -17.360523 ], [ -65.785807, -17.360188 ], [ -65.786007, -17.359853 ], [ -65.786147, -17.359518 ], [ -65.786298, -17.359069 ], [ -65.78637, -17.358634 ], [ -65.786342, -17.358369 ], [ -65.786281, -17.358266 ], [ -65.7861, -17.358198 ], [ -65.785908, -17.358222 ], [ -65.785646, -17.358396 ], [ -65.785479, -17.358547 ], [ -65.785337, -17.35872 ], [ -65.785266, -17.358836 ], [ -65.78495, -17.359505 ], [ -65.784797, -17.359748 ], [ -65.784465, -17.360164 ], [ -65.784299, -17.360303 ], [ -65.783893, -17.360559 ], [ -65.783486, -17.360653 ], [ -65.78327, -17.360689 ], [ -65.783138, -17.36069 ], [ -65.782825, -17.360645 ], [ -65.782583, -17.360543 ], [ -65.782389, -17.360406 ], [ -65.782109, -17.360109 ], [ -65.781865, -17.359742 ], [ -65.781668, -17.359329 ], [ -65.781556, -17.359018 ], [ -65.78149, -17.358558 ], [ -65.781427, -17.358248 ], [ -65.781241, -17.357812 ], [ -65.781082, -17.357583 ], [ -65.780792, -17.357377 ], [ -65.780562, -17.357263 ], [ -65.780043, -17.357105 ], [ -65.77973, -17.357049 ], [ -65.779513, -17.35697 ], [ -65.779223, -17.356822 ], [ -65.778909, -17.356686 ], [ -65.778402, -17.356528 ], [ -65.77803, -17.356492 ], [ -65.777837, -17.356473 ], [ -65.777416, -17.356384 ], [ -65.77686, -17.356134 ], [ -65.77669, -17.356008 ], [ -65.776544, -17.355802 ], [ -65.776445, -17.355607 ], [ -65.776369, -17.355239 ], [ -65.776375, -17.354831 ], [ -65.77644, -17.354471 ], [ -65.776674, -17.354021 ], [ -65.777067, -17.353673 ], [ -65.777173, -17.353558 ], [ -65.777302, -17.353304 ], [ -65.777335, -17.353085 ], [ -65.777335, -17.353082 ], [ -65.777351, -17.352978 ], [ -65.77735, -17.352885 ], [ -65.777204, -17.352668 ], [ -65.777057, -17.352484 ], [ -65.776683, -17.352337 ], [ -65.776382, -17.352316 ], [ -65.775902, -17.352364 ], [ -65.775519, -17.352447 ], [ -65.775185, -17.352633 ], [ -65.774887, -17.3529 ], [ -65.774648, -17.353016 ], [ -65.77424, -17.353064 ], [ -65.773496, -17.353092 ], [ -65.772943, -17.353072 ], [ -65.772462, -17.353028 ], [ -65.772015, -17.35287 ], [ -65.771798, -17.352733 ], [ -65.771349, -17.352379 ], [ -65.770865, -17.352105 ], [ -65.770575, -17.352003 ], [ -65.770346, -17.351947 ], [ -65.769973, -17.351892 ], [ -65.769804, -17.351824 ], [ -65.769635, -17.351732 ], [ -65.769223, -17.351424 ], [ -65.76898, -17.351218 ], [ -65.768445, -17.35068 ], [ -65.767354, -17.349858 ], [ -65.767234, -17.349836 ], [ -65.767102, -17.349836 ], [ -65.766982, -17.349883 ], [ -65.766864, -17.350033 ], [ -65.766758, -17.35023 ], [ -65.766688, -17.350403 ], [ -65.766689, -17.350482 ], [ -65.766675, -17.350517 ], [ -65.766676, -17.350666 ], [ -65.766751, -17.350884 ], [ -65.767045, -17.351366 ], [ -65.767095, -17.351538 ], [ -65.767182, -17.35171 ], [ -65.767468, -17.35256 ], [ -65.767546, -17.352996 ], [ -65.767547, -17.353079 ], [ -65.767392, -17.35308 ], [ -65.767138, -17.352932 ], [ -65.766932, -17.352784 ], [ -65.766664, -17.352486 ], [ -65.766053, -17.351638 ], [ -65.765762, -17.35134 ], [ -65.764937, -17.350712 ], [ -65.76426, -17.350324 ], [ -65.763729, -17.35012 ], [ -65.76315, -17.349928 ], [ -65.762992, -17.349825 ], [ -65.762425, -17.349552 ], [ -65.76234, -17.349541 ], [ -65.762232, -17.349553 ], [ -65.762007, -17.349819 ], [ -65.762015, -17.349913 ], [ -65.761995, -17.349936 ], [ -65.762024, -17.350281 ], [ -65.76248, -17.35129 ], [ -65.762479, -17.351302 ], [ -65.762218, -17.351418 ], [ -65.761918, -17.351442 ], [ -65.761737, -17.351409 ], [ -65.761446, -17.351169 ], [ -65.761166, -17.35086 ], [ -65.760922, -17.350481 ], [ -65.760785, -17.350125 ], [ -65.760673, -17.349758 ], [ -65.760353, -17.349161 ], [ -65.760134, -17.348863 ], [ -65.759789, -17.348117 ], [ -65.759782, -17.348073 ], [ -65.759924, -17.347533 ], [ -65.759923, -17.347464 ], [ -65.759936, -17.347414 ], [ -65.759935, -17.347264 ], [ -65.759884, -17.347058 ], [ -65.759823, -17.346931 ], [ -65.759747, -17.346609 ], [ -65.759746, -17.346571 ], [ -65.759767, -17.346487 ], [ -65.759827, -17.346452 ], [ -65.76004, -17.346232 ], [ -65.760445, -17.345907 ], [ -65.760741, -17.345561 ], [ -65.760857, -17.345238 ], [ -65.760866, -17.345133 ], [ -65.760871, -17.345118 ], [ -65.760892, -17.344865 ], [ -65.760843, -17.344762 ], [ -65.760733, -17.34467 ], [ -65.760613, -17.344648 ], [ -65.760457, -17.344683 ], [ -65.76035, -17.344742 ], [ -65.760088, -17.344962 ], [ -65.759969, -17.345043 ], [ -65.75925, -17.345231 ], [ -65.759071, -17.345336 ], [ -65.759024, -17.345394 ], [ -65.758954, -17.345567 ], [ -65.758792, -17.346085 ], [ -65.758684, -17.346144 ], [ -65.758504, -17.346168 ], [ -65.758335, -17.346076 ], [ -65.758309, -17.345927 ], [ -65.758321, -17.34579 ], [ -65.758397, -17.345437 ], [ -65.758514, -17.345126 ], [ -65.758547, -17.344918 ], [ -65.758547, -17.344882 ], [ -65.75856, -17.344798 ], [ -65.758559, -17.34466 ], [ -65.758376, -17.34443 ], [ -65.758158, -17.344294 ], [ -65.757566, -17.344055 ], [ -65.757432, -17.343883 ], [ -65.757297, -17.343642 ], [ -65.757115, -17.343425 ], [ -65.756885, -17.343276 ], [ -65.756752, -17.343254 ], [ -65.756464, -17.343256 ], [ -65.756105, -17.343373 ], [ -65.755804, -17.343375 ], [ -65.755204, -17.343412 ], [ -65.754315, -17.343371 ], [ -65.754074, -17.343338 ], [ -65.753881, -17.343282 ], [ -65.753383, -17.342813 ], [ -65.753093, -17.342653 ], [ -65.752876, -17.342597 ], [ -65.752518, -17.342279 ], [ -65.752273, -17.341993 ], [ -65.751988, -17.341784 ], [ -65.751481, -17.341442 ], [ -65.751098, -17.341372 ], [ -65.750635, -17.34132 ], [ -65.74991, -17.341234 ], [ -65.749283, -17.340991 ], [ -65.748616, -17.34075 ], [ -65.74797, -17.340508 ], [ -65.747282, -17.340247 ], [ -65.746328, -17.33987 ], [ -65.74557, -17.339473 ], [ -65.745085, -17.339186 ], [ -65.744613, -17.338876 ], [ -65.743591, -17.337911 ], [ -65.743004, -17.337335 ], [ -65.742474, -17.336943 ], [ -65.741918, -17.336586 ], [ -65.741326, -17.336261 ], [ -65.740827, -17.336077 ], [ -65.740445, -17.335999 ], [ -65.73902, -17.335951 ], [ -65.738112, -17.335848 ], [ -65.737503, -17.335718 ], [ -65.736526, -17.335465 ], [ -65.73617, -17.335341 ], [ -65.735732, -17.335089 ], [ -65.735228, -17.33455 ], [ -65.734694, -17.333757 ], [ -65.734393, -17.333268 ], [ -65.733847, -17.332487 ], [ -65.733659, -17.332322 ], [ -65.733423, -17.332178 ], [ -65.73309, -17.332067 ], [ -65.732698, -17.331908 ], [ -65.732082, -17.33156 ], [ -65.73179, -17.331232 ], [ -65.731283, -17.330291 ], [ -65.731042, -17.329792 ], [ -65.730915, -17.329583 ], [ -65.730868, -17.329547 ], [ -65.730618, -17.329461 ], [ -65.730177, -17.329346 ], [ -65.729401, -17.329224 ], [ -65.72853, -17.329053 ], [ -65.728123, -17.32902 ], [ -65.727333, -17.329011 ], [ -65.72684, -17.329079 ], [ -65.726396, -17.329091 ], [ -65.725762, -17.329052 ], [ -65.72506, -17.328805 ], [ -65.724302, -17.328396 ], [ -65.723711, -17.328026 ], [ -65.723218, -17.32759 ], [ -65.722557, -17.327115 ], [ -65.722072, -17.326816 ], [ -65.721533, -17.326275 ], [ -65.721133, -17.325921 ], [ -65.72077, -17.325557 ], [ -65.720394, -17.325227 ], [ -65.720099, -17.325013 ], [ -65.719625, -17.32476 ], [ -65.718679, -17.324186 ], [ -65.718125, -17.323783 ], [ -65.717915, -17.323514 ], [ -65.717803, -17.323341 ], [ -65.717978, -17.323118 ], [ -65.718308, -17.322829 ], [ -65.718612, -17.322607 ], [ -65.718964, -17.32241 ], [ -65.719314, -17.322292 ], [ -65.719831, -17.322179 ], [ -65.720395, -17.322098 ], [ -65.721009, -17.321892 ], [ -65.721488, -17.321819 ], [ -65.722104, -17.321744 ], [ -65.722995, -17.321666 ], [ -65.723402, -17.321331 ], [ -65.723311, -17.321265 ], [ -65.723414, -17.32118 ], [ -65.708404, -17.310261 ], [ -65.709024, -17.309869 ], [ -65.709362, -17.309535 ], [ -65.709766, -17.309068 ], [ -65.71024, -17.3086 ], [ -65.710438, -17.308307 ], [ -65.710549, -17.308149 ], [ -65.710635, -17.30754 ], [ -65.710627, -17.307532 ], [ -65.71065, -17.307376 ], [ -65.709743, -17.306399 ], [ -65.703513, -17.303479 ], [ -65.705724, -17.299131 ], [ -65.706103, -17.297652 ], [ -65.706404, -17.297018 ], [ -65.706811, -17.296478 ], [ -65.713413, -17.290698 ], [ -65.713419, -17.290545 ], [ -65.71344, -17.290527 ], [ -65.713506, -17.289018 ], [ -65.713854, -17.28851 ], [ -65.714285, -17.287959 ], [ -65.714644, -17.287395 ], [ -65.714945, -17.286761 ], [ -65.715087, -17.286307 ], [ -65.715205, -17.285829 ], [ -65.715209, -17.285765 ], [ -65.715236, -17.285657 ], [ -65.715267, -17.285226 ], [ -65.715463, -17.284369 ], [ -65.71546, -17.284353 ], [ -65.715496, -17.284197 ], [ -65.715203, -17.282803 ], [ -65.714617, -17.280588 ], [ -65.71463, -17.280508 ], [ -65.714606, -17.280507 ], [ -65.713006, -17.276162 ], [ -65.712524, -17.274439 ], [ -65.712297, -17.273837 ], [ -65.712111, -17.273581 ], [ -65.711767, -17.273423 ], [ -65.711246, -17.273146 ], [ -65.710666, -17.272868 ], [ -65.709362, -17.2717 ], [ -65.707705, -17.27085 ], [ -65.706977, -17.270421 ], [ -65.706522, -17.27025 ], [ -65.705702, -17.269735 ], [ -65.704702, -17.269307 ], [ -65.702152, -17.268434 ], [ -65.702148, -17.268433 ], [ -65.672896, -17.229299 ], [ -65.665232, -17.21964 ], [ -65.661327, -17.213296 ], [ -65.65662, -17.204222 ], [ -65.64592, -17.194805 ], [ -65.644856, -17.194522 ], [ -65.644841, -17.194525 ], [ -65.644411, -17.19448 ], [ -65.64398, -17.194342 ], [ -65.643731, -17.194222 ], [ -65.638433, -17.192812 ], [ -65.632169, -17.18931 ], [ -65.627492, -17.188176 ], [ -65.625461, -17.187366 ], [ -65.625409, -17.187369 ], [ -65.624979, -17.1873 ], [ -65.624548, -17.187071 ], [ -65.624357, -17.186926 ], [ -65.622788, -17.186301 ], [ -65.620079, -17.183329 ], [ -65.615783, -17.183609 ], [ -65.615562, -17.183698 ], [ -65.615084, -17.183836 ], [ -65.614606, -17.183928 ], [ -65.614152, -17.183905 ], [ -65.613722, -17.183813 ], [ -65.613643, -17.183748 ], [ -65.613278, -17.183771 ], [ -65.611482, -17.181457 ], [ -65.611403, -17.181426 ], [ -65.611291, -17.181211 ], [ -65.610561, -17.18027 ], [ -65.606671, -17.178375 ], [ -65.604876, -17.175119 ], [ -65.604734, -17.175067 ], [ -65.60428, -17.175067 ], [ -65.603987, -17.175067 ], [ -65.602122, -17.175339 ], [ -65.597362, -17.173828 ], [ -65.597111, -17.173805 ], [ -65.596681, -17.173645 ], [ -65.596529, -17.173563 ], [ -65.594521, -17.172926 ], [ -65.590242, -17.171746 ], [ -65.590181, -17.17174 ], [ -65.590148, -17.17172 ], [ -65.584669, -17.17021 ], [ -65.584177, -17.169395 ], [ -65.5838, -17.169123 ], [ -65.583442, -17.168824 ], [ -65.583083, -17.168503 ], [ -65.58282, -17.168136 ], [ -65.582605, -17.167768 ], [ -65.58239, -17.167401 ], [ -65.582103, -17.16701 ], [ -65.581888, -17.166574 ], [ -65.581769, -17.166161 ], [ -65.581601, -17.16577 ], [ -65.581434, -17.165357 ], [ -65.581219, -17.164967 ], [ -65.580908, -17.164599 ], [ -65.580621, -17.164232 ], [ -65.580157, -17.163978 ], [ -65.576795, -17.162544 ], [ -65.57679, -17.161835 ], [ -65.576726, -17.161821 ], [ -65.576296, -17.161706 ], [ -65.575937, -17.161362 ], [ -65.575894, -17.161173 ], [ -65.575842, -17.160948 ], [ -65.575842, -17.160535 ], [ -65.57589, -17.160122 ], [ -65.575961, -17.159708 ], [ -65.576009, -17.159295 ], [ -65.576128, -17.158882 ], [ -65.576319, -17.158491 ], [ -65.576558, -17.158101 ], [ -65.576558, -17.157687 ], [ -65.57651, -17.157274 ], [ -65.57663, -17.156861 ], [ -65.576964, -17.156516 ], [ -65.577195, -17.156412 ], [ -65.577837, -17.15541 ], [ -65.5778, -17.155092 ], [ -65.5778, -17.154656 ], [ -65.577824, -17.154242 ], [ -65.578111, -17.153921 ], [ -65.578493, -17.153622 ], [ -65.578804, -17.153278 ], [ -65.578947, -17.152842 ], [ -65.578959, -17.152798 ], [ -65.578411, -17.150265 ], [ -65.574694, -17.147483 ], [ -65.571942, -17.148049 ], [ -65.569975, -17.145841 ], [ -65.568635, -17.141636 ], [ -65.564881, -17.137424 ], [ -65.56063, -17.134664 ], [ -65.55946, -17.132035 ], [ -65.556339, -17.130208 ], [ -65.55449, -17.126767 ], [ -65.554313, -17.12657 ], [ -65.55405, -17.126226 ], [ -65.553668, -17.125927 ], [ -65.553477, -17.125719 ], [ -65.548429, -17.123411 ], [ -65.545131, -17.118776 ], [ -65.5399, -17.111807 ], [ -65.539969, -17.111389 ], [ -65.538591, -17.111632 ], [ -65.537969, -17.112267 ], [ -65.536628, -17.113115 ], [ -65.536337, -17.114153 ], [ -65.536381, -17.114417 ], [ -65.536505, -17.116288 ], [ -65.53652, -17.116376 ], [ -65.536444, -17.116479 ], [ -65.536354, -17.116493 ], [ -65.536017, -17.117809 ], [ -65.536075, -17.11816 ], [ -65.536037, -17.119608 ], [ -65.535961, -17.11971 ], [ -65.534661, -17.121363 ], [ -65.534312, -17.122051 ], [ -65.534221, -17.122065 ], [ -65.534009, -17.12246 ], [ -65.533933, -17.122562 ], [ -65.533843, -17.122577 ], [ -65.534306, -17.123133 ], [ -65.534335, -17.123308 ], [ -65.534439, -17.123381 ], [ -65.534454, -17.123469 ], [ -65.534544, -17.123454 ], [ -65.534361, -17.124025 ], [ -65.534285, -17.124127 ], [ -65.5343, -17.124215 ], [ -65.533619, -17.125136 ], [ -65.533529, -17.125151 ], [ -65.532761, -17.125546 ], [ -65.532682, -17.126189 ], [ -65.532697, -17.126277 ], [ -65.532315, -17.12733 ], [ -65.531321, -17.128032 ], [ -65.531004, -17.128354 ], [ -65.530788, -17.12929 ], [ -65.530721, -17.130562 ], [ -65.531079, -17.131045 ], [ -65.531093, -17.131132 ], [ -65.531512, -17.131425 ], [ -65.531541, -17.1316 ], [ -65.531296, -17.132361 ], [ -65.531352, -17.133253 ], [ -65.530898, -17.133867 ], [ -65.530848, -17.134686 ], [ -65.530772, -17.134788 ], [ -65.529792, -17.135578 ], [ -65.529702, -17.135593 ], [ -65.529047, -17.137231 ], [ -65.528972, -17.137333 ], [ -65.528986, -17.137421 ], [ -65.528896, -17.137435 ], [ -65.527, -17.140353 ], [ -65.526575, -17.141143 ], [ -65.526619, -17.141406 ], [ -65.526543, -17.141509 ], [ -65.527029, -17.143322 ], [ -65.527563, -17.144316 ], [ -65.527668, -17.144389 ], [ -65.527784, -17.145091 ], [ -65.527514, -17.145135 ], [ -65.526743, -17.146071 ], [ -65.526106, -17.147256 ], [ -65.52612, -17.147343 ], [ -65.525814, -17.148294 ], [ -65.526259, -17.149303 ], [ -65.526288, -17.149479 ], [ -65.526393, -17.149552 ], [ -65.526524, -17.150341 ], [ -65.526614, -17.150327 ], [ -65.526672, -17.150678 ], [ -65.526777, -17.150751 ], [ -65.52682, -17.151014 ], [ -65.526782, -17.152462 ], [ -65.526692, -17.152476 ], [ -65.526715, -17.153734 ], [ -65.525839, -17.154597 ], [ -65.525854, -17.154685 ], [ -65.525501, -17.155913 ], [ -65.525516, -17.156001 ], [ -65.525643, -17.157332 ], [ -65.525582, -17.157522 ], [ -65.525431, -17.157726 ], [ -65.525446, -17.157814 ], [ -65.52537, -17.157917 ], [ -65.524808, -17.158999 ], [ -65.524581, -17.159306 ], [ -65.524171, -17.160183 ], [ -65.524081, -17.160198 ], [ -65.524095, -17.160286 ], [ -65.524113, -17.161221 ], [ -65.524436, -17.162947 ], [ -65.524389, -17.16389 ], [ -65.512353, -17.163092 ], [ -65.468415, -17.172621 ], [ -65.455757, -17.114625 ], [ -65.443363, -17.113574 ], [ -65.4402, -17.118823 ], [ -65.421135, -17.132168 ], [ -65.408477, -17.136962 ], [ -65.397548, -17.144733 ], [ -65.371311, -17.148006 ], [ -65.351137, -17.14629 ], [ -65.344745, -17.149075 ], [ -65.321916, -17.156005 ], [ -65.304259, -17.158908 ], [ -65.292221, -17.168765 ], [ -65.287223, -17.181107 ], [ -65.28662, -17.1932 ], [ -65.281802, -17.195007 ], [ -65.270481, -17.199914 ], [ -65.263309, -17.204475 ], [ -65.25655, -17.205942 ], [ -65.252643, -17.207747 ], [ -65.24924, -17.210025 ], [ -65.245283, -17.214713 ], [ -65.238362, -17.216045 ], [ -65.23465, -17.219212 ], [ -65.237357, -17.229363 ] ] ] ] } }
]
}
