{
"type": "FeatureCollection",
"name": "TOCO",
"crs": { "type": "name", "properties": { "name": "urn:ogc:def:crs:OGC:1.3:CRS84" } },
"bbox": [ -65.986878, -17.708646, -65.886463, -17.598993 ],                                                                        
"features": [
{ "type": "Feature", "properties": { "NOMBRE": "Toco", "NIVEL": "Municipios", "PROVINCIA": "German Jordan", "REGION": "Valles", "DEPARTAMENTO": "Cochabamba" }, "bbox": [ -65.986878, -17.708646, -65.886463, -17.598993 ], "geometry": { "type": "MultiPolygon", "coordinates": [ [ [ [ -65.898379, -17.672122 ], [ -65.901821, -17.675435 ], [ -65.910164, -17.673835 ], [ -65.916, -17.67076 ], [ -65.91859, -17.668958 ], [ -65.926476, -17.670635 ], [ -65.926482, -17.671023 ], [ -65.926413, -17.671355 ], [ -65.92647, -17.67154 ], [ -65.926469, -17.671597 ], [ -65.926537, -17.67184 ], [ -65.926592, -17.672174 ], [ -65.926829, -17.673235 ], [ -65.926826, -17.673453 ], [ -65.926848, -17.67358 ], [ -65.926857, -17.673787 ], [ -65.926879, -17.673891 ], [ -65.926876, -17.674132 ], [ -65.926695, -17.674968 ], [ -65.926656, -17.676841 ], [ -65.926911, -17.678259 ], [ -65.926918, -17.678569 ], [ -65.926995, -17.679019 ], [ -65.927121, -17.67948 ], [ -65.927283, -17.679851 ], [ -65.927446, -17.680175 ], [ -65.92747, -17.680198 ], [ -65.927738, -17.680731 ], [ -65.927873, -17.68133 ], [ -65.927871, -17.681491 ], [ -65.927905, -17.68163 ], [ -65.927898, -17.682066 ], [ -65.92786, -17.682215 ], [ -65.927841, -17.682732 ], [ -65.927874, -17.682928 ], [ -65.927909, -17.682963 ], [ -65.927921, -17.683009 ], [ -65.928107, -17.68338 ], [ -65.928453, -17.68435 ], [ -65.92846, -17.685488 ], [ -65.928494, -17.685638 ], [ -65.928492, -17.685788 ], [ -65.928514, -17.685914 ], [ -65.928544, -17.686317 ], [ -65.928556, -17.686317 ], [ -65.928646, -17.686687 ], [ -65.928646, -17.686744 ], [ -65.928681, -17.686813 ], [ -65.928748, -17.687113 ], [ -65.928991, -17.687749 ], [ -65.929072, -17.687911 ], [ -65.929309, -17.688167 ], [ -65.929345, -17.688168 ], [ -65.929511, -17.688297 ], [ -65.929952, -17.688475 ], [ -65.930348, -17.688481 ], [ -65.930565, -17.688461 ], [ -65.930719, -17.688426 ], [ -65.930768, -17.688662 ], [ -65.930688, -17.689026 ], [ -65.93055, -17.689472 ], [ -65.930339, -17.689952 ], [ -65.930312, -17.690101 ], [ -65.930237, -17.690307 ], [ -65.930236, -17.690422 ], [ -65.93017, -17.690812 ], [ -65.930069, -17.6913 ], [ -65.930097, -17.691601 ], [ -65.930102, -17.691946 ], [ -65.930473, -17.69263 ], [ -65.930926, -17.69286 ], [ -65.931242, -17.692941 ], [ -65.931627, -17.693108 ], [ -65.93214, -17.693105 ], [ -65.932583, -17.693214 ], [ -65.933338, -17.69326 ], [ -65.933734, -17.693311 ], [ -65.933959, -17.693487 ], [ -65.934043, -17.693523 ], [ -65.934289, -17.693894 ], [ -65.934477, -17.694207 ], [ -65.934652, -17.694543 ], [ -65.934767, -17.694878 ], [ -65.934869, -17.695259 ], [ -65.93492, -17.695914 ], [ -65.934931, -17.695926 ], [ -65.934938, -17.696294 ], [ -65.935016, -17.696686 ], [ -65.93512, -17.696952 ], [ -65.935411, -17.697588 ], [ -65.93547, -17.697658 ], [ -65.935719, -17.697868 ], [ -65.935826, -17.697939 ], [ -65.935862, -17.697939 ], [ -65.936076, -17.698046 ], [ -65.936196, -17.698082 ], [ -65.936244, -17.698083 ], [ -65.936244, -17.698094 ], [ -65.936698, -17.698216 ], [ -65.936973, -17.698323 ], [ -65.93734, -17.698662 ], [ -65.937554, -17.698803 ], [ -65.937696, -17.69892 ], [ -65.937922, -17.699026 ], [ -65.937946, -17.69905 ], [ -65.938233, -17.6991 ], [ -65.938569, -17.699116 ], [ -65.938774, -17.699073 ], [ -65.938907, -17.699017 ], [ -65.939027, -17.699008 ], [ -65.939171, -17.699021 ], [ -65.93948, -17.699221 ], [ -65.939622, -17.699338 ], [ -65.939882, -17.699629 ], [ -65.940576, -17.700616 ], [ -65.940871, -17.700965 ], [ -65.941132, -17.701164 ], [ -65.941337, -17.701245 ], [ -65.941643, -17.70133 ], [ -65.941824, -17.701427 ], [ -65.942028, -17.701453 ], [ -65.942232, -17.70141 ], [ -65.942413, -17.701343 ], [ -65.942461, -17.701344 ], [ -65.942508, -17.701436 ], [ -65.942568, -17.701449 ], [ -65.942808, -17.701429 ], [ -65.943038, -17.701341 ], [ -65.943171, -17.701273 ], [ -65.944449, -17.700855 ], [ -65.944774, -17.70079 ], [ -65.944931, -17.700735 ], [ -65.945172, -17.700681 ], [ -65.945436, -17.700662 ], [ -65.946134, -17.700545 ], [ -65.946447, -17.700469 ], [ -65.946797, -17.700359 ], [ -65.947387, -17.70023 ], [ -65.947579, -17.700221 ], [ -65.947675, -17.700188 ], [ -65.94816, -17.699907 ], [ -65.958133, -17.700654 ], [ -65.966341, -17.703768 ], [ -65.981687, -17.708606 ], [ -65.981818, -17.708646 ], [ -65.981935, -17.70863 ], [ -65.982106, -17.708446 ], [ -65.982151, -17.708191 ], [ -65.982188, -17.7081 ], [ -65.982188, -17.7081 ], [ -65.982189, -17.708059 ], [ -65.982189, -17.708054 ], [ -65.982264, -17.707802 ], [ -65.982424, -17.707517 ], [ -65.982608, -17.707301 ], [ -65.982911, -17.707052 ], [ -65.983044, -17.706997 ], [ -65.983322, -17.70684 ], [ -65.983479, -17.706796 ], [ -65.98366, -17.706707 ], [ -65.983819, -17.70648 ], [ -65.984048, -17.706196 ], [ -65.984192, -17.706054 ], [ -65.984292, -17.705884 ], [ -65.984535, -17.705558 ], [ -65.984734, -17.705233 ], [ -65.985005, -17.70485 ], [ -65.985276, -17.704398 ], [ -65.985597, -17.703906 ], [ -65.985636, -17.703711 ], [ -65.985774, -17.703276 ], [ -65.985874, -17.703014 ], [ -65.98595, -17.702762 ], [ -65.986136, -17.702305 ], [ -65.986388, -17.700594 ], [ -65.986522, -17.699807 ], [ -65.986636, -17.699254 ], [ -65.986637, -17.699254 ], [ -65.98664, -17.699018 ], [ -65.986559, -17.697936 ], [ -65.98656, -17.697931 ], [ -65.986564, -17.697591 ], [ -65.986565, -17.697586 ], [ -65.986593, -17.697254 ], [ -65.986673, -17.696714 ], [ -65.986729, -17.695347 ], [ -65.986794, -17.694958 ], [ -65.986794, -17.694957 ], [ -65.986798, -17.694721 ], [ -65.986798, -17.694716 ], [ -65.986878, -17.694179 ], [ -65.986869, -17.693963 ], [ -65.98686, -17.693782 ], [ -65.986769, -17.693587 ], [ -65.986537, -17.693703 ], [ -65.986362, -17.693733 ], [ -65.986064, -17.694021 ], [ -65.985581, -17.694233 ], [ -65.984929, -17.694488 ], [ -65.982989, -17.694989 ], [ -65.982241, -17.695266 ], [ -65.981433, -17.695531 ], [ -65.981169, -17.695585 ], [ -65.980192, -17.69587 ], [ -65.979806, -17.696002 ], [ -65.979589, -17.696103 ], [ -65.979118, -17.696268 ], [ -65.978651, -17.696525 ], [ -65.977997, -17.696801 ], [ -65.977685, -17.696939 ], [ -65.977503, -17.696942 ], [ -65.977272, -17.696955 ], [ -65.977165, -17.696919 ], [ -65.976985, -17.696894 ], [ -65.976697, -17.696878 ], [ -65.976589, -17.696854 ], [ -65.976421, -17.696851 ], [ -65.976016, -17.69665 ], [ -65.975778, -17.696509 ], [ -65.975139, -17.695925 ], [ -65.975033, -17.695751 ], [ -65.974504, -17.694997 ], [ -65.974386, -17.69488 ], [ -65.974314, -17.694845 ], [ -65.974232, -17.694752 ], [ -65.973196, -17.694128 ], [ -65.972875, -17.693974 ], [ -65.972552, -17.693843 ], [ -65.972183, -17.693642 ], [ -65.971744, -17.693326 ], [ -65.971483, -17.693081 ], [ -65.971483, -17.693076 ], [ -65.971484, -17.693035 ], [ -65.971202, -17.692606 ], [ -65.970913, -17.692071 ], [ -65.970463, -17.691457 ], [ -65.969853, -17.690449 ], [ -65.969348, -17.689729 ], [ -65.968745, -17.689054 ], [ -65.968157, -17.688287 ], [ -65.96777, -17.687638 ], [ -65.967665, -17.687418 ], [ -65.967184, -17.686664 ], [ -65.966395, -17.685653 ], [ -65.96583, -17.684898 ], [ -65.96549, -17.684295 ], [ -65.965409, -17.684121 ], [ -65.965246, -17.683722 ], [ -65.965124, -17.683443 ], [ -65.965075, -17.68335 ], [ -65.964939, -17.683098 ], [ -65.964893, -17.682973 ], [ -65.964848, -17.682903 ], [ -65.964817, -17.682847 ], [ -65.954851, -17.679203 ], [ -65.951195, -17.677828 ], [ -65.951041, -17.677711 ], [ -65.950946, -17.677664 ], [ -65.950946, -17.677659 ], [ -65.950946, -17.677618 ], [ -65.950709, -17.677408 ], [ -65.950556, -17.677233 ], [ -65.950533, -17.677187 ], [ -65.95045, -17.677105 ], [ -65.950391, -17.677012 ], [ -65.950309, -17.676919 ], [ -65.950098, -17.67656 ], [ -65.950018, -17.676271 ], [ -65.949903, -17.675936 ], [ -65.949744, -17.675685 ], [ -65.949668, -17.675489 ], [ -65.949547, -17.6753 ], [ -65.949456, -17.675118 ], [ -65.949395, -17.674964 ], [ -65.94929, -17.674825 ], [ -65.949243, -17.674671 ], [ -65.949167, -17.674489 ], [ -65.949165, -17.674349 ], [ -65.949147, -17.67418 ], [ -65.949085, -17.673956 ], [ -65.949067, -17.673774 ], [ -65.949001, -17.673296 ], [ -65.949001, -17.673294 ], [ -65.949001, -17.673292 ], [ -65.94921, -17.67245 ], [ -65.949386, -17.67189 ], [ -65.94946, -17.671753 ], [ -65.949486, -17.671638 ], [ -65.949582, -17.671401 ], [ -65.949656, -17.671263 ], [ -65.949707, -17.671199 ], [ -65.949816, -17.671141 ], [ -65.94998, -17.671065 ], [ -65.950291, -17.670899 ], [ -65.950376, -17.670701 ], [ -65.9504, -17.670543 ], [ -65.950356, -17.670418 ], [ -65.950356, -17.670413 ], [ -65.950356, -17.670413 ], [ -65.950358, -17.670349 ], [ -65.950272, -17.669936 ], [ -65.950216, -17.669787 ], [ -65.95013, -17.669396 ], [ -65.950063, -17.669223 ], [ -65.950006, -17.669142 ], [ -65.949984, -17.66905 ], [ -65.949893, -17.668888 ], [ -65.949736, -17.668484 ], [ -65.949644, -17.66782 ], [ -65.949644, -17.667815 ], [ -65.949644, -17.667815 ], [ -65.949677, -17.666948 ], [ -65.949759, -17.666505 ], [ -65.949926, -17.665972 ], [ -65.950014, -17.66578 ], [ -65.95008, -17.665542 ], [ -65.950156, -17.665339 ], [ -65.95018, -17.665339 ], [ -65.950206, -17.665248 ], [ -65.950407, -17.664808 ], [ -65.950445, -17.664695 ], [ -65.950594, -17.664425 ], [ -65.950681, -17.664301 ], [ -65.950718, -17.664211 ], [ -65.95088, -17.663941 ], [ -65.951104, -17.663501 ], [ -65.951105, -17.663467 ], [ -65.951561, -17.662839 ], [ -65.952216, -17.662319 ], [ -65.952457, -17.662188 ], [ -65.952953, -17.66177 ], [ -65.95355, -17.661494 ], [ -65.953955, -17.661179 ], [ -65.952624, -17.655332 ], [ -65.952625, -17.65533 ], [ -65.952624, -17.655327 ], [ -65.960478, -17.645205 ], [ -65.960673, -17.644946 ], [ -65.960456, -17.644695 ], [ -65.960361, -17.644607 ], [ -65.960283, -17.644526 ], [ -65.959841, -17.644081 ], [ -65.959117, -17.643515 ], [ -65.958569, -17.64301 ], [ -65.957627, -17.642096 ], [ -65.957335, -17.641872 ], [ -65.95702, -17.641578 ], [ -65.955993, -17.640708 ], [ -65.955749, -17.640462 ], [ -65.954975, -17.639506 ], [ -65.954908, -17.639103 ], [ -65.94961, -17.617412 ], [ -65.949524, -17.617043 ], [ -65.949379, -17.617122 ], [ -65.949259, -17.617124 ], [ -65.94914, -17.617151 ], [ -65.94902, -17.617153 ], [ -65.948741, -17.617183 ], [ -65.948622, -17.617184 ], [ -65.948425, -17.617213 ], [ -65.947747, -17.617196 ], [ -65.947508, -17.617247 ], [ -65.947257, -17.617275 ], [ -65.946993, -17.617349 ], [ -65.946827, -17.617356 ], [ -65.946647, -17.617397 ], [ -65.946421, -17.617414 ], [ -65.945943, -17.617482 ], [ -65.945716, -17.617499 ], [ -65.94549, -17.617493 ], [ -65.945247, -17.617501 ], [ -65.945051, -17.617504 ], [ -65.944911, -17.617515 ], [ -65.944852, -17.617516 ], [ -65.944768, -17.617495 ], [ -65.944705, -17.617493 ], [ -65.944675, -17.61749 ], [ -65.944479, -17.617491 ], [ -65.943941, -17.617592 ], [ -65.943476, -17.618094 ], [ -65.943403, -17.618195 ], [ -65.943267, -17.618493 ], [ -65.943137, -17.618571 ], [ -65.942848, -17.618575 ], [ -65.942782, -17.618576 ], [ -65.942611, -17.618566 ], [ -65.942388, -17.618582 ], [ -65.942086, -17.618612 ], [ -65.941506, -17.618532 ], [ -65.941164, -17.618525 ], [ -65.94098, -17.618527 ], [ -65.940662, -17.618406 ], [ -65.940775, -17.618094 ], [ -65.940799, -17.618072 ], [ -65.940839, -17.61789 ], [ -65.940955, -17.617528 ], [ -65.940982, -17.61738 ], [ -65.941047, -17.617165 ], [ -65.941074, -17.617017 ], [ -65.941138, -17.616824 ], [ -65.941218, -17.616484 ], [ -65.941234, -17.616313 ], [ -65.94126, -17.6162 ], [ -65.941336, -17.616007 ], [ -65.941377, -17.615814 ], [ -65.94144, -17.615656 ], [ -65.94148, -17.615463 ], [ -65.941518, -17.615384 ], [ -65.941547, -17.615179 ], [ -65.941553, -17.614917 ], [ -65.941522, -17.61471 ], [ -65.941525, -17.614596 ], [ -65.94146, -17.614343 ], [ -65.941403, -17.614228 ], [ -65.941105, -17.613741 ], [ -65.940805, -17.613368 ], [ -65.940541, -17.612961 ], [ -65.940325, -17.612511 ], [ -65.937798, -17.60539 ], [ -65.926745, -17.611015 ], [ -65.886524, -17.598993 ], [ -65.88939, -17.603747 ], [ -65.889426, -17.603915 ], [ -65.889424, -17.604018 ], [ -65.889445, -17.604098 ], [ -65.889443, -17.604201 ], [ -65.889455, -17.604201 ], [ -65.889488, -17.604305 ], [ -65.889472, -17.605937 ], [ -65.889445, -17.606096 ], [ -65.889356, -17.606334 ], [ -65.889328, -17.606493 ], [ -65.889148, -17.607025 ], [ -65.889039, -17.607628 ], [ -65.888851, -17.608491 ], [ -65.888846, -17.608685 ], [ -65.888779, -17.608991 ], [ -65.888756, -17.608991 ], [ -65.888748, -17.60931 ], [ -65.888718, -17.609561 ], [ -65.888713, -17.609743 ], [ -65.888661, -17.609947 ], [ -65.888658, -17.61005 ], [ -65.888495, -17.61088 ], [ -65.888439, -17.611244 ], [ -65.8884, -17.611368 ], [ -65.888385, -17.611493 ], [ -65.888322, -17.611663 ], [ -65.888194, -17.612516 ], [ -65.888177, -17.612744 ], [ -65.888151, -17.612801 ], [ -65.888065, -17.613415 ], [ -65.888025, -17.613585 ], [ -65.888022, -17.613722 ], [ -65.887984, -17.613824 ], [ -65.88798, -17.613961 ], [ -65.887928, -17.614142 ], [ -65.887925, -17.614279 ], [ -65.887816, -17.614859 ], [ -65.887685, -17.615347 ], [ -65.887657, -17.615529 ], [ -65.887579, -17.615789 ], [ -65.887505, -17.616393 ], [ -65.887499, -17.616644 ], [ -65.887461, -17.616711 ], [ -65.887508, -17.617238 ], [ -65.887478, -17.61847 ], [ -65.887448, -17.618732 ], [ -65.88739, -17.620626 ], [ -65.887332, -17.621059 ], [ -65.887326, -17.621321 ], [ -65.887296, -17.62156 ], [ -65.887291, -17.621765 ], [ -65.887266, -17.62189 ], [ -65.887227, -17.622047 ], [ -65.887168, -17.622165 ], [ -65.887108, -17.622244 ], [ -65.887048, -17.622324 ], [ -65.886907, -17.622443 ], [ -65.886746, -17.622543 ], [ -65.886463, -17.622723 ], [ -65.886672, -17.623073 ], [ -65.88686, -17.623324 ], [ -65.887006, -17.623537 ], [ -65.887216, -17.623906 ], [ -65.88764, -17.624572 ], [ -65.887743, -17.624746 ], [ -65.887799, -17.624896 ], [ -65.887844, -17.624965 ], [ -65.887866, -17.625057 ], [ -65.887934, -17.625207 ], [ -65.888055, -17.62561 ], [ -65.888256, -17.626175 ], [ -65.88831, -17.626382 ], [ -65.888733, -17.62758 ], [ -65.888949, -17.628522 ], [ -65.889019, -17.629049 ], [ -65.88897, -17.630601 ], [ -65.889042, -17.631036 ], [ -65.889054, -17.631037 ], [ -65.889213, -17.631383 ], [ -65.889361, -17.63165 ], [ -65.88936, -17.631673 ], [ -65.889431, -17.631709 ], [ -65.889465, -17.631755 ], [ -65.889676, -17.631909 ], [ -65.890146, -17.632161 ], [ -65.890392, -17.632315 ], [ -65.890474, -17.632397 ], [ -65.890497, -17.632398 ], [ -65.89066, -17.632562 ], [ -65.890903, -17.632865 ], [ -65.891049, -17.633223 ], [ -65.891136, -17.633533 ], [ -65.891187, -17.633911 ], [ -65.89121, -17.633935 ], [ -65.891204, -17.634677 ], [ -65.891223, -17.63486 ], [ -65.891216, -17.635157 ], [ -65.891265, -17.63558 ], [ -65.891341, -17.635914 ], [ -65.891476, -17.636237 ], [ -65.891923, -17.636933 ], [ -65.892119, -17.637189 ], [ -65.892245, -17.637387 ], [ -65.892488, -17.637713 ], [ -65.892696, -17.637958 ], [ -65.893091, -17.638356 ], [ -65.893453, -17.638662 ], [ -65.894294, -17.6393 ], [ -65.894677, -17.639698 ], [ -65.894769, -17.639872 ], [ -65.894935, -17.64039 ], [ -65.895088, -17.640953 ], [ -65.895218, -17.641938 ], [ -65.895231, -17.642407 ], [ -65.895258, -17.64275 ], [ -65.895413, -17.643759 ], [ -65.895623, -17.644895 ], [ -65.895798, -17.645527 ], [ -65.895889, -17.645723 ], [ -65.896021, -17.646172 ], [ -65.896089, -17.646311 ], [ -65.896189, -17.646588 ], [ -65.89654, -17.647327 ], [ -65.896803, -17.647791 ], [ -65.897143, -17.648484 ], [ -65.897201, -17.648554 ], [ -65.897223, -17.648635 ], [ -65.897679, -17.649469 ], [ -65.897746, -17.649642 ], [ -65.898023, -17.650037 ], [ -65.898148, -17.650268 ], [ -65.898218, -17.650327 ], [ -65.898426, -17.650584 ], [ -65.898764, -17.650878 ], [ -65.899163, -17.651128 ], [ -65.899593, -17.651538 ], [ -65.899813, -17.651829 ], [ -65.899984, -17.652108 ], [ -65.900052, -17.652258 ], [ -65.900118, -17.652488 ], [ -65.90017, -17.652809 ], [ -65.900159, -17.653277 ], [ -65.900066, -17.653674 ], [ -65.90006, -17.653914 ], [ -65.899966, -17.654368 ], [ -65.900038, -17.654804 ], [ -65.900107, -17.654931 ], [ -65.900162, -17.655104 ], [ -65.900197, -17.65515 ], [ -65.900275, -17.655369 ], [ -65.900557, -17.655993 ], [ -65.90082, -17.656456 ], [ -65.900819, -17.656514 ], [ -65.900945, -17.656699 ], [ -65.900978, -17.656814 ], [ -65.901023, -17.656907 ], [ -65.901077, -17.657137 ], [ -65.901117, -17.65748 ], [ -65.901114, -17.657594 ], [ -65.901073, -17.657799 ], [ -65.900996, -17.658025 ], [ -65.900934, -17.658149 ], [ -65.900894, -17.658308 ], [ -65.900691, -17.65884 ], [ -65.900678, -17.659365 ], [ -65.900602, -17.659557 ], [ -65.900599, -17.659682 ], [ -65.900533, -17.659943 ], [ -65.900532, -17.660012 ], [ -65.900494, -17.660102 ], [ -65.900453, -17.660295 ], [ -65.90025, -17.660838 ], [ -65.900114, -17.66104 ], [ -65.899965, -17.661311 ], [ -65.899903, -17.661389 ], [ -65.899828, -17.661524 ], [ -65.899765, -17.661682 ], [ -65.89954, -17.662111 ], [ -65.899505, -17.662121 ], [ -65.899352, -17.662505 ], [ -65.899316, -17.662527 ], [ -65.899315, -17.662573 ], [ -65.899241, -17.662697 ], [ -65.899126, -17.663002 ], [ -65.8991, -17.663116 ], [ -65.899089, -17.663561 ], [ -65.899077, -17.66356 ], [ -65.899117, -17.663858 ], [ -65.899376, -17.664504 ], [ -65.899374, -17.664573 ], [ -65.89945, -17.66486 ], [ -65.899432, -17.665134 ], [ -65.899261, -17.665815 ], [ -65.899258, -17.665906 ], [ -65.899207, -17.666053 ], [ -65.89917, -17.667091 ], [ -65.89923, -17.667584 ], [ -65.899234, -17.667892 ], [ -65.899255, -17.668007 ], [ -65.899252, -17.668132 ], [ -65.899345, -17.668717 ], [ -65.899411, -17.669427 ], [ -65.899445, -17.669507 ], [ -65.899439, -17.669747 ], [ -65.899471, -17.669931 ], [ -65.899416, -17.670483 ], [ -65.899283, -17.670838 ], [ -65.898336, -17.67208 ], [ -65.898379, -17.672122 ] ] ] ] } }
]
}
