{
"type": "FeatureCollection",
"name": "TOLATA",
"crs": { "type": "name", "properties": { "name": "urn:ogc:def:crs:OGC:1.3:CRS84" } },
"bbox": [ -66.085040, -17.564072, -65.940229, -17.476504 ],                                                                        
"features": [
{ "type": "Feature", "properties": { "NOMBRE": "Tolata", "NIVEL": "Municipios", "PROVINCIA": "German Jordan", "REGION": "Valles", "DEPARTAMENTO": "Cochabamba" }, "bbox": [ -66.08504, -17.564072, -65.940229, -17.476504 ], "geometry": { "type": "MultiPolygon", "coordinates": [ [ [ [ -65.946071, -17.479416 ], [ -65.946093, -17.479441 ], [ -65.946019, -17.480016 ], [ -65.945994, -17.480206 ], [ -65.945506, -17.481439 ], [ -65.945494, -17.481481 ], [ -65.945551, -17.482407 ], [ -65.946614, -17.484364 ], [ -65.946614, -17.484366 ], [ -65.946617, -17.484372 ], [ -65.946436, -17.485488 ], [ -65.94567, -17.487137 ], [ -65.943652, -17.489725 ], [ -65.941388, -17.492853 ], [ -65.942032, -17.494052 ], [ -65.942368, -17.494266 ], [ -65.943268, -17.494158 ], [ -65.944548, -17.494691 ], [ -65.94455, -17.494696 ], [ -65.944555, -17.494698 ], [ -65.945607, -17.497739 ], [ -65.94677, -17.499848 ], [ -65.947227, -17.50351 ], [ -65.947172, -17.503923 ], [ -65.947176, -17.50412 ], [ -65.947056, -17.50502 ], [ -65.947169, -17.505263 ], [ -65.947788, -17.505703 ], [ -65.94815, -17.505987 ], [ -65.948428, -17.506269 ], [ -65.948624, -17.506514 ], [ -65.948761, -17.506735 ], [ -65.948838, -17.506954 ], [ -65.948892, -17.507161 ], [ -65.94889, -17.507241 ], [ -65.948931, -17.507482 ], [ -65.948905, -17.508441 ], [ -65.94885, -17.508702 ], [ -65.948815, -17.509547 ], [ -65.948789, -17.50966 ], [ -65.948816, -17.509986 ], [ -65.948811, -17.51033 ], [ -65.948961, -17.510721 ], [ -65.958836, -17.527571 ], [ -65.959139, -17.528215 ], [ -65.95921, -17.528643 ], [ -65.959255, -17.528897 ], [ -65.959403, -17.529247 ], [ -65.959509, -17.529499 ], [ -65.959549, -17.529791 ], [ -65.959572, -17.529804 ], [ -65.959686, -17.530001 ], [ -65.959881, -17.530281 ], [ -65.960176, -17.530814 ], [ -65.960186, -17.530883 ], [ -65.960366, -17.531299 ], [ -65.960536, -17.531612 ], [ -65.96053, -17.531841 ], [ -65.960381, -17.532054 ], [ -65.960248, -17.53213 ], [ -65.960247, -17.532141 ], [ -65.95997, -17.532248 ], [ -65.959596, -17.532432 ], [ -65.959581, -17.532431 ], [ -65.959581, -17.532431 ], [ -65.959572, -17.532431 ], [ -65.9595, -17.532475 ], [ -65.95936, -17.532539 ], [ -65.959114, -17.532733 ], [ -65.958973, -17.532853 ], [ -65.958797, -17.532955 ], [ -65.958629, -17.533034 ], [ -65.958427, -17.533135 ], [ -65.958244, -17.533177 ], [ -65.958073, -17.533223 ], [ -65.9576, -17.533519 ], [ -65.957419, -17.533605 ], [ -65.957261, -17.533715 ], [ -65.957152, -17.533769 ], [ -65.957007, -17.533868 ], [ -65.956935, -17.533889 ], [ -65.956838, -17.533943 ], [ -65.956658, -17.533995 ], [ -65.95655, -17.534004 ], [ -65.956339, -17.534078 ], [ -65.951786, -17.535602 ], [ -65.940229, -17.540588 ], [ -65.940394, -17.54073 ], [ -65.940461, -17.540827 ], [ -65.940475, -17.540931 ], [ -65.940415, -17.541112 ], [ -65.940336, -17.541297 ], [ -65.940259, -17.541421 ], [ -65.940299, -17.541585 ], [ -65.940396, -17.541637 ], [ -65.940728, -17.5417 ], [ -65.940912, -17.541776 ], [ -65.941141, -17.541758 ], [ -65.941299, -17.541682 ], [ -65.94135, -17.54153 ], [ -65.941319, -17.541402 ], [ -65.941081, -17.541272 ], [ -65.940989, -17.541142 ], [ -65.941011, -17.540998 ], [ -65.94115, -17.540884 ], [ -65.941382, -17.540799 ], [ -65.941522, -17.540642 ], [ -65.941685, -17.540253 ], [ -65.941778, -17.540085 ], [ -65.941845, -17.540018 ], [ -65.941917, -17.539995 ], [ -65.942019, -17.539975 ], [ -65.942152, -17.540015 ], [ -65.942229, -17.540146 ], [ -65.942257, -17.540386 ], [ -65.942449, -17.540886 ], [ -65.942518, -17.541146 ], [ -65.942706, -17.541357 ], [ -65.943095, -17.541517 ], [ -65.943318, -17.541654 ], [ -65.943573, -17.541669 ], [ -65.94381, -17.541575 ], [ -65.94392, -17.541296 ], [ -65.94412, -17.541051 ], [ -65.944607, -17.54097 ], [ -65.945173, -17.541221 ], [ -65.945722, -17.541521 ], [ -65.94599, -17.541664 ], [ -65.946208, -17.541716 ], [ -65.946546, -17.541653 ], [ -65.94701, -17.541332 ], [ -65.94725, -17.541253 ], [ -65.948158, -17.541431 ], [ -65.948667, -17.54148 ], [ -65.949037, -17.541402 ], [ -65.949575, -17.541164 ], [ -65.949866, -17.540905 ], [ -65.950259, -17.540757 ], [ -65.950624, -17.540666 ], [ -65.950823, -17.540653 ], [ -65.950999, -17.540712 ], [ -65.951143, -17.540773 ], [ -65.951291, -17.54104 ], [ -65.951441, -17.541349 ], [ -65.951524, -17.541652 ], [ -65.951785, -17.541797 ], [ -65.952077, -17.541916 ], [ -65.952254, -17.541988 ], [ -65.952406, -17.54213 ], [ -65.952299, -17.542755 ], [ -65.952329, -17.543065 ], [ -65.952408, -17.543374 ], [ -65.952583, -17.543568 ], [ -65.95286, -17.543621 ], [ -65.953076, -17.543485 ], [ -65.951174, -17.546997 ], [ -65.951299, -17.547189 ], [ -65.951362, -17.547343 ], [ -65.951484, -17.547419 ], [ -65.951587, -17.547553 ], [ -65.951711, -17.547687 ], [ -65.951915, -17.547819 ], [ -65.95216, -17.548009 ], [ -65.952495, -17.548372 ], [ -65.952682, -17.548525 ], [ -65.952949, -17.548818 ], [ -65.953006, -17.54891 ], [ -65.953053, -17.548946 ], [ -65.953249, -17.549179 ], [ -65.954305, -17.550188 ], [ -65.954439, -17.55036 ], [ -65.954522, -17.550504 ], [ -65.954535, -17.550639 ], [ -65.954576, -17.550757 ], [ -65.954528, -17.550853 ], [ -65.95447, -17.551028 ], [ -65.954381, -17.551114 ], [ -65.95408, -17.551278 ], [ -65.95378, -17.551384 ], [ -65.952872, -17.551567 ], [ -65.952852, -17.551567 ], [ -65.952852, -17.551567 ], [ -65.952285, -17.551557 ], [ -65.951456, -17.551543 ], [ -65.951205, -17.551606 ], [ -65.951133, -17.551638 ], [ -65.951037, -17.551658 ], [ -65.950819, -17.551824 ], [ -65.950708, -17.552004 ], [ -65.950619, -17.55223 ], [ -65.950624, -17.552527 ], [ -65.950657, -17.552654 ], [ -65.950748, -17.552804 ], [ -65.950899, -17.552968 ], [ -65.951015, -17.553119 ], [ -65.951119, -17.553213 ], [ -65.951331, -17.553321 ], [ -65.951641, -17.55334 ], [ -65.951834, -17.553334 ], [ -65.953092, -17.552943 ], [ -65.953379, -17.552893 ], [ -65.953397, -17.552894 ], [ -65.953399, -17.552893 ], [ -65.95391, -17.552906 ], [ -65.954382, -17.553089 ], [ -65.954605, -17.553198 ], [ -65.954781, -17.553305 ], [ -65.954934, -17.553377 ], [ -65.955087, -17.553472 ], [ -65.955168, -17.553543 ], [ -65.955367, -17.553673 ], [ -65.955531, -17.553814 ], [ -65.955946, -17.55435 ], [ -65.955912, -17.556804 ], [ -65.955942, -17.557056 ], [ -65.956016, -17.557411 ], [ -65.956073, -17.557527 ], [ -65.956139, -17.557757 ], [ -65.956275, -17.558046 ], [ -65.956274, -17.558092 ], [ -65.956408, -17.558437 ], [ -65.956569, -17.559195 ], [ -65.956567, -17.559286 ], [ -65.956588, -17.559412 ], [ -65.956578, -17.559835 ], [ -65.956535, -17.560107 ], [ -65.956524, -17.560107 ], [ -65.956502, -17.561009 ], [ -65.956621, -17.561514 ], [ -65.956673, -17.561812 ], [ -65.956707, -17.561881 ], [ -65.956706, -17.56195 ], [ -65.956741, -17.561974 ], [ -65.956783, -17.562192 ], [ -65.956795, -17.562192 ], [ -65.956982, -17.562836 ], [ -65.957084, -17.563067 ], [ -65.957083, -17.5633 ], [ -65.957086, -17.563484 ], [ -65.957089, -17.563649 ], [ -65.957092, -17.563804 ], [ -65.957254, -17.563869 ], [ -65.957416, -17.563886 ], [ -65.957608, -17.563912 ], [ -65.958043, -17.563925 ], [ -65.958619, -17.563936 ], [ -65.95938, -17.564072 ], [ -65.959648, -17.564057 ], [ -65.960183, -17.563923 ], [ -65.960628, -17.563706 ], [ -65.961155, -17.563571 ], [ -65.961168, -17.563571 ], [ -65.961177, -17.563569 ], [ -65.961748, -17.563571 ], [ -65.962019, -17.56367 ], [ -65.962859, -17.563885 ], [ -65.963116, -17.563934 ], [ -65.963291, -17.563796 ], [ -65.963775, -17.563488 ], [ -65.963896, -17.563388 ], [ -65.965058, -17.562573 ], [ -65.965252, -17.562418 ], [ -65.965421, -17.562319 ], [ -65.965709, -17.562201 ], [ -65.965985, -17.562116 ], [ -65.966295, -17.562067 ], [ -65.966298, -17.562067 ], [ -65.966316, -17.562064 ], [ -65.967101, -17.562084 ], [ -65.967267, -17.562111 ], [ -65.967361, -17.562147 ], [ -65.967421, -17.562149 ], [ -65.967539, -17.562197 ], [ -65.967597, -17.562244 ], [ -65.967718, -17.562262 ], [ -65.967839, -17.56226 ], [ -65.967918, -17.562274 ], [ -65.967851, -17.561798 ], [ -65.967701, -17.560983 ], [ -65.967707, -17.560241 ], [ -65.967657, -17.55984 ], [ -65.967668, -17.558402 ], [ -65.967649, -17.558184 ], [ -65.967653, -17.558036 ], [ -65.967622, -17.557807 ], [ -65.967588, -17.557258 ], [ -65.967593, -17.556562 ], [ -65.967541, -17.555715 ], [ -65.967537, -17.554882 ], [ -65.967488, -17.554414 ], [ -65.967462, -17.554047 ], [ -65.967481, -17.554046 ], [ -65.967481, -17.554044 ], [ -65.97194, -17.553984 ], [ -65.972608, -17.553908 ], [ -65.972572, -17.556582 ], [ -65.972579, -17.557047 ], [ -65.97625, -17.557544 ], [ -65.976418, -17.557541 ], [ -65.976587, -17.557579 ], [ -65.977155, -17.557591 ], [ -65.977659, -17.557563 ], [ -65.978059, -17.557557 ], [ -65.978333, -17.557593 ], [ -65.979426, -17.557536 ], [ -65.979658, -17.557573 ], [ -65.980057, -17.557567 ], [ -65.980392, -17.557621 ], [ -65.980564, -17.557564 ], [ -65.980568, -17.557564 ], [ -65.980583, -17.557559 ], [ -65.98073, -17.557556 ], [ -65.980866, -17.557554 ], [ -65.980921, -17.557518 ], [ -65.980923, -17.557524 ], [ -65.98094, -17.557513 ], [ -65.982097, -17.561193 ], [ -65.996717, -17.557112 ], [ -65.997027, -17.556396 ], [ -65.997896, -17.555914 ], [ -65.998488, -17.555277 ], [ -65.99849, -17.554614 ], [ -66.000025, -17.553973 ], [ -66.000468, -17.553322 ], [ -66.000984, -17.552527 ], [ -66.001654, -17.552017 ], [ -66.002447, -17.551483 ], [ -66.003416, -17.550923 ], [ -66.004733, -17.550336 ], [ -66.005404, -17.549922 ], [ -66.006689, -17.549375 ], [ -66.007926, -17.548878 ], [ -66.009202, -17.548805 ], [ -66.010101, -17.548758 ], [ -66.011024, -17.549181 ], [ -66.011683, -17.549146 ], [ -66.012915, -17.548454 ], [ -66.013506, -17.547634 ], [ -66.014575, -17.546723 ], [ -66.016091, -17.546508 ], [ -66.018202, -17.546795 ], [ -66.02024, -17.546824 ], [ -66.021407, -17.547628 ], [ -66.022543, -17.548106 ], [ -66.023566, -17.547751 ], [ -66.024298, -17.547035 ], [ -66.025334, -17.546815 ], [ -66.026229, -17.546375 ], [ -66.026626, -17.546093 ], [ -66.028572, -17.545941 ], [ -66.030259, -17.545407 ], [ -66.031829, -17.545464 ], [ -66.033004, -17.54505 ], [ -66.033686, -17.544631 ], [ -66.034117, -17.544519 ], [ -66.034368, -17.543941 ], [ -66.036101, -17.543587 ], [ -66.036346, -17.543265 ], [ -66.03711, -17.543186 ], [ -66.037316, -17.543209 ], [ -66.037436, -17.543304 ], [ -66.037642, -17.54324 ], [ -66.037686, -17.543134 ], [ -66.038192, -17.542813 ], [ -66.038584, -17.542719 ], [ -66.039085, -17.542952 ], [ -66.039407, -17.54333 ], [ -66.039775, -17.544085 ], [ -66.039947, -17.544482 ], [ -66.04024, -17.544935 ], [ -66.040815, -17.54548 ], [ -66.041546, -17.545832 ], [ -66.042089, -17.546179 ], [ -66.042419, -17.546579 ], [ -66.043218, -17.547092 ], [ -66.04387, -17.547431 ], [ -66.043876, -17.547636 ], [ -66.04452, -17.548039 ], [ -66.044661, -17.548272 ], [ -66.044444, -17.548789 ], [ -66.044762, -17.548946 ], [ -66.045469, -17.548871 ], [ -66.046421, -17.549123 ], [ -66.046917, -17.54908 ], [ -66.047359, -17.549407 ], [ -66.048684, -17.549671 ], [ -66.048898, -17.550021 ], [ -66.049338, -17.549884 ], [ -66.049572, -17.550058 ], [ -66.049782, -17.550085 ], [ -66.049993, -17.550237 ], [ -66.050105, -17.550508 ], [ -66.050442, -17.550926 ], [ -66.050778, -17.551509 ], [ -66.051165, -17.551592 ], [ -66.051688, -17.551515 ], [ -66.052128, -17.551266 ], [ -66.052809, -17.551235 ], [ -66.053531, -17.551084 ], [ -66.053872, -17.550808 ], [ -66.054253, -17.550639 ], [ -66.054758, -17.550641 ], [ -66.055347, -17.550639 ], [ -66.05601, -17.550712 ], [ -66.056813, -17.550471 ], [ -66.057593, -17.55041 ], [ -66.057889, -17.550137 ], [ -66.058321, -17.550285 ], [ -66.058661, -17.550226 ], [ -66.059563, -17.54983 ], [ -66.06033, -17.54874 ], [ -66.060908, -17.548388 ], [ -66.061347, -17.547988 ], [ -66.06187, -17.547441 ], [ -66.062774, -17.547399 ], [ -66.063191, -17.54717 ], [ -66.063477, -17.546765 ], [ -66.063773, -17.546431 ], [ -66.064303, -17.546057 ], [ -66.064969, -17.545696 ], [ -66.066095, -17.545413 ], [ -66.066695, -17.545488 ], [ -66.067482, -17.545284 ], [ -66.067966, -17.545227 ], [ -66.068486, -17.54513 ], [ -66.068897, -17.544988 ], [ -66.069681, -17.545159 ], [ -66.070106, -17.545451 ], [ -66.070471, -17.545026 ], [ -66.070892, -17.544729 ], [ -66.071225, -17.544501 ], [ -66.071507, -17.544316 ], [ -66.071762, -17.54429 ], [ -66.071934, -17.544359 ], [ -66.072844, -17.544097 ], [ -66.073189, -17.544209 ], [ -66.073391, -17.544361 ], [ -66.073364, -17.544207 ], [ -66.073626, -17.543889 ], [ -66.074203, -17.543701 ], [ -66.074524, -17.543315 ], [ -66.074775, -17.542948 ], [ -66.075099, -17.542902 ], [ -66.075342, -17.542718 ], [ -66.075411, -17.542586 ], [ -66.075447, -17.542261 ], [ -66.076318, -17.54197 ], [ -66.076733, -17.542043 ], [ -66.076959, -17.541657 ], [ -66.077061, -17.541258 ], [ -66.077542, -17.540574 ], [ -66.077575, -17.539965 ], [ -66.077792, -17.539685 ], [ -66.078285, -17.539546 ], [ -66.078486, -17.539611 ], [ -66.07871, -17.539082 ], [ -66.079013, -17.538926 ], [ -66.079178, -17.538939 ], [ -66.079226, -17.538879 ], [ -66.079067, -17.538829 ], [ -66.079074, -17.53859 ], [ -66.079239, -17.538441 ], [ -66.079346, -17.538266 ], [ -66.079708, -17.53809 ], [ -66.080088, -17.537676 ], [ -66.079957, -17.537537 ], [ -66.07997, -17.537316 ], [ -66.080197, -17.537027 ], [ -66.080837, -17.536623 ], [ -66.080739, -17.536384 ], [ -66.082152, -17.5353 ], [ -66.082096, -17.535212 ], [ -66.082743, -17.534123 ], [ -66.083199, -17.53372 ], [ -66.08379, -17.533451 ], [ -66.084091, -17.533247 ], [ -66.084328, -17.532814 ], [ -66.084475, -17.53233 ], [ -66.084936, -17.531741 ], [ -66.08504, -17.53148 ], [ -66.084957, -17.531038 ], [ -66.085038, -17.530038 ], [ -66.084977, -17.529166 ], [ -66.084881, -17.528297 ], [ -66.079925, -17.527939 ], [ -66.077681, -17.524192 ], [ -66.072216, -17.524241 ], [ -66.066268, -17.523033 ], [ -66.057487, -17.516353 ], [ -66.051712, -17.518788 ], [ -66.050923, -17.520366 ], [ -66.050012, -17.520153 ], [ -66.049429, -17.521574 ], [ -66.046517, -17.520769 ], [ -66.04742, -17.515159 ], [ -66.04663, -17.510797 ], [ -66.04628, -17.510436 ], [ -66.046191, -17.509322 ], [ -66.046528, -17.508306 ], [ -66.046556, -17.506547 ], [ -66.043811, -17.497383 ], [ -66.035215, -17.496128 ], [ -66.021614, -17.498793 ], [ -66.019952, -17.503639 ], [ -66.01844, -17.507163 ], [ -66.002394, -17.503967 ], [ -66.00161, -17.503599 ], [ -65.992797, -17.498917 ], [ -65.991128, -17.4982 ], [ -65.989567, -17.498411 ], [ -65.98798, -17.499412 ], [ -65.98706, -17.50001 ], [ -65.986102, -17.500464 ], [ -65.982217, -17.500407 ], [ -65.975772, -17.497964 ], [ -65.976286, -17.496602 ], [ -65.976332, -17.495233 ], [ -65.975999, -17.4932 ], [ -65.975365, -17.492376 ], [ -65.972463, -17.490738 ], [ -65.970677, -17.485693 ], [ -65.952816, -17.476504 ], [ -65.950186, -17.478004 ], [ -65.946071, -17.479416 ] ] ] ] } }
]
}
