{
"type": "FeatureCollection",
"name": "VACAS",
"crs": { "type": "name", "properties": { "name": "urn:ogc:def:crs:OGC:1.3:CRS84" } },
"bbox": [ -65.695005, -17.708357, -65.407526, -17.491204 ],                                                                        
"features": [
{ "type": "Feature", "properties": { "NOMBRE": "Vacas", "NIVEL": "Municipios", "PROVINCIA": "Arani", "REGION": "Cono Sur", "DEPARTAMENTO": "Cochabamba" }, "bbox": [ -65.695005, -17.708357, -65.407526, -17.491204 ], "geometry": { "type": "MultiPolygon", "coordinates": [ [ [ [ -65.472535, -17.520657 ], [ -65.472034, -17.521014 ], [ -65.447561, -17.538418 ], [ -65.419476, -17.5554 ], [ -65.408041, -17.556123 ], [ -65.407526, -17.556382 ], [ -65.407728, -17.557644 ], [ -65.407709, -17.557978 ], [ -65.407724, -17.558151 ], [ -65.407872, -17.558449 ], [ -65.408128, -17.558815 ], [ -65.408435, -17.559354 ], [ -65.408598, -17.559847 ], [ -65.40873, -17.560675 ], [ -65.408869, -17.561203 ], [ -65.409213, -17.561799 ], [ -65.409605, -17.562394 ], [ -65.409959, -17.562875 ], [ -65.410385, -17.563355 ], [ -65.410822, -17.563777 ], [ -65.411366, -17.564199 ], [ -65.412562, -17.564961 ], [ -65.413624, -17.56554 ], [ -65.41407, -17.565813 ], [ -65.414301, -17.566053 ], [ -65.414766, -17.566705 ], [ -65.415123, -17.567439 ], [ -65.415577, -17.56816 ], [ -65.415893, -17.568515 ], [ -65.416256, -17.568811 ], [ -65.41663, -17.569004 ], [ -65.418004, -17.569638 ], [ -65.418366, -17.569877 ], [ -65.418621, -17.570117 ], [ -65.418866, -17.570518 ], [ -65.419016, -17.570908 ], [ -65.419192, -17.5716 ], [ -65.419287, -17.572252 ], [ -65.419288, -17.572355 ], [ -65.417805, -17.579745 ], [ -65.438613, -17.571003 ], [ -65.462624, -17.555885 ], [ -65.492347, -17.53352 ], [ -65.500208, -17.539632 ], [ -65.517309, -17.552552 ], [ -65.517266, -17.552608 ], [ -65.510333, -17.561724 ], [ -65.509378, -17.569267 ], [ -65.510647, -17.584491 ], [ -65.516761, -17.616505 ], [ -65.520258, -17.630475 ], [ -65.521983, -17.637982 ], [ -65.523037, -17.642033 ], [ -65.523319, -17.64436 ], [ -65.523461, -17.645613 ], [ -65.523535, -17.646449 ], [ -65.523241, -17.647767 ], [ -65.524319, -17.649068 ], [ -65.525385, -17.650116 ], [ -65.525558, -17.650574 ], [ -65.525587, -17.650998 ], [ -65.525528, -17.651998 ], [ -65.527204, -17.654828 ], [ -65.543095, -17.681131 ], [ -65.543183, -17.681233 ], [ -65.544339, -17.682574 ], [ -65.544516, -17.683162 ], [ -65.544694, -17.683612 ], [ -65.544895, -17.684327 ], [ -65.544999, -17.685179 ], [ -65.544923, -17.685937 ], [ -65.544641, -17.687051 ], [ -65.543899, -17.688769 ], [ -65.543679, -17.689538 ], [ -65.543273, -17.691202 ], [ -65.543137, -17.691937 ], [ -65.543074, -17.692523 ], [ -65.543058, -17.693431 ], [ -65.543076, -17.694524 ], [ -65.54307, -17.695708 ], [ -65.542761, -17.697523 ], [ -65.542793, -17.698294 ], [ -65.543051, -17.699561 ], [ -65.543181, -17.699987 ], [ -65.543228, -17.700252 ], [ -65.543287, -17.700471 ], [ -65.543286, -17.70069 ], [ -65.543261, -17.700851 ], [ -65.542971, -17.701124 ], [ -65.541907, -17.701775 ], [ -65.541951, -17.701806 ], [ -65.541969, -17.701794 ], [ -65.542226, -17.701968 ], [ -65.551639, -17.708357 ], [ -65.57771, -17.695326 ], [ -65.578655, -17.694934 ], [ -65.587324, -17.68537 ], [ -65.61193, -17.684747 ], [ -65.630481, -17.670541 ], [ -65.632719, -17.668705 ], [ -65.641838, -17.661499 ], [ -65.643264, -17.660671 ], [ -65.660762, -17.651808 ], [ -65.654665, -17.628974 ], [ -65.669297, -17.62135 ], [ -65.679744, -17.611295 ], [ -65.690677, -17.59794 ], [ -65.681702, -17.588243 ], [ -65.676217, -17.570368 ], [ -65.67598, -17.565662 ], [ -65.675477, -17.554209 ], [ -65.671239, -17.540659 ], [ -65.6938, -17.525514 ], [ -65.695005, -17.518633 ], [ -65.680049, -17.503642 ], [ -65.668218, -17.491204 ], [ -65.661837, -17.50018 ], [ -65.649293, -17.496902 ], [ -65.644296, -17.498853 ], [ -65.642077, -17.511098 ], [ -65.631311, -17.51431 ], [ -65.624934, -17.519896 ], [ -65.621852, -17.522393 ], [ -65.613179, -17.525201 ], [ -65.606837, -17.515435 ], [ -65.589827, -17.523362 ], [ -65.573905, -17.516563 ], [ -65.568853, -17.514643 ], [ -65.566233, -17.514232 ], [ -65.5637, -17.514569 ], [ -65.561708, -17.514379 ], [ -65.558344, -17.515107 ], [ -65.55451, -17.515082 ], [ -65.549332, -17.514374 ], [ -65.54604, -17.513352 ], [ -65.540025, -17.509664 ], [ -65.53305, -17.500985 ], [ -65.529551, -17.495516 ], [ -65.522197, -17.492036 ], [ -65.500678, -17.500622 ], [ -65.483892, -17.513005 ], [ -65.475013, -17.51929 ], [ -65.472535, -17.520657 ] ] ] ] } }
]
}
