{
"type": "FeatureCollection",
"name": "VILA_VILA",
"crs": { "type": "name", "properties": { "name": "urn:ogc:def:crs:OGC:1.3:CRS84" } },
"bbox": [ -65.831983, -18.143041, -65.541437, -17.823368 ],                                                                        
"features": [
{ "type": "Feature", "properties": { "NOMBRE": "Vila Vila", "NIVEL": "Municipios", "PROVINCIA": "Mizque", "REGION": "Cono Sur", "DEPARTAMENTO": "Cochabamba" }, "bbox": [ -65.831983, -18.143041, -65.541437, -17.823368 ], "geometry": { "type": "MultiPolygon", "coordinates": [ [ [ [ -65.648755, -17.882914 ], [ -65.648618, -17.882912 ], [ -65.648618, -17.882912 ], [ -65.632014, -17.886707 ], [ -65.631589, -17.886798 ], [ -65.631034, -17.887106 ], [ -65.609094, -17.902913 ], [ -65.609081, -17.9029 ], [ -65.609063, -17.902913 ], [ -65.609048, -17.902898 ], [ -65.572907, -17.91519 ], [ -65.562387, -17.928058 ], [ -65.562528, -17.928237 ], [ -65.566829, -17.932086 ], [ -65.567422, -17.954922 ], [ -65.560428, -17.966744 ], [ -65.560023, -17.967443 ], [ -65.563442, -17.980369 ], [ -65.54261, -17.998225 ], [ -65.546871, -18.003391 ], [ -65.553039, -18.010508 ], [ -65.552838, -18.010973 ], [ -65.548502, -18.021563 ], [ -65.547285, -18.050907 ], [ -65.546836, -18.051266 ], [ -65.543101, -18.056948 ], [ -65.543089, -18.056948 ], [ -65.542906, -18.057268 ], [ -65.542748, -18.057438 ], [ -65.542443, -18.05786 ], [ -65.542394, -18.057963 ], [ -65.542357, -18.057985 ], [ -65.541991, -18.058297 ], [ -65.541702, -18.058581 ], [ -65.541437, -18.058866 ], [ -65.541439, -18.05903 ], [ -65.541589, -18.059215 ], [ -65.541875, -18.059371 ], [ -65.542151, -18.059524 ], [ -65.542234, -18.05964 ], [ -65.542281, -18.059779 ], [ -65.542254, -18.060043 ], [ -65.542253, -18.060227 ], [ -65.542287, -18.060366 ], [ -65.542359, -18.06047 ], [ -65.54273, -18.060612 ], [ -65.542904, -18.060615 ], [ -65.543194, -18.06048 ], [ -65.543339, -18.060367 ], [ -65.543448, -18.060311 ], [ -65.543641, -18.060256 ], [ -65.544123, -18.060262 ], [ -65.544123, -18.060262 ], [ -65.544154, -18.060262 ], [ -65.544466, -18.060381 ], [ -65.545183, -18.060908 ], [ -65.545385, -18.061209 ], [ -65.545432, -18.061348 ], [ -65.545503, -18.061487 ], [ -65.545549, -18.061648 ], [ -65.54564, -18.062224 ], [ -65.545806, -18.062514 ], [ -65.545902, -18.062596 ], [ -65.545926, -18.062596 ], [ -65.546129, -18.062737 ], [ -65.546381, -18.062843 ], [ -65.546544, -18.062935 ], [ -65.546638, -18.062927 ], [ -65.546868, -18.062815 ], [ -65.546965, -18.062747 ], [ -65.547135, -18.062576 ], [ -65.547255, -18.06252 ], [ -65.547316, -18.062464 ], [ -65.547534, -18.062363 ], [ -65.547727, -18.062239 ], [ -65.548016, -18.062242 ], [ -65.548016, -18.062242 ], [ -65.548047, -18.062243 ], [ -65.548227, -18.062394 ], [ -65.548345, -18.062568 ], [ -65.548416, -18.062719 ], [ -65.548475, -18.062892 ], [ -65.548474, -18.062927 ], [ -65.54851, -18.062939 ], [ -65.548534, -18.062973 ], [ -65.548726, -18.063079 ], [ -65.548954, -18.063151 ], [ -65.549337, -18.063351 ], [ -65.549504, -18.063503 ], [ -65.549576, -18.063607 ], [ -65.549611, -18.063688 ], [ -65.549596, -18.064022 ], [ -65.549363, -18.064479 ], [ -65.549385, -18.064675 ], [ -65.54942, -18.06479 ], [ -65.549848, -18.065371 ], [ -65.549907, -18.065509 ], [ -65.549907, -18.065567 ], [ -65.549943, -18.065602 ], [ -65.549966, -18.065671 ], [ -65.549965, -18.065752 ], [ -65.549868, -18.065888 ], [ -65.54959, -18.066035 ], [ -65.549142, -18.066236 ], [ -65.548936, -18.066372 ], [ -65.548911, -18.066544 ], [ -65.54915, -18.066731 ], [ -65.549155, -18.066731 ], [ -65.549155, -18.066731 ], [ -65.549186, -18.066731 ], [ -65.549413, -18.066884 ], [ -65.549688, -18.067163 ], [ -65.549735, -18.067233 ], [ -65.549829, -18.067533 ], [ -65.549812, -18.067981 ], [ -65.549882, -18.068327 ], [ -65.550072, -18.068583 ], [ -65.550274, -18.068815 ], [ -65.550488, -18.06914 ], [ -65.550559, -18.069313 ], [ -65.550642, -18.069441 ], [ -65.550665, -18.069522 ], [ -65.550927, -18.069847 ], [ -65.551034, -18.06994 ], [ -65.551082, -18.069964 ], [ -65.551147, -18.069964 ], [ -65.551329, -18.069817 ], [ -65.551366, -18.069726 ], [ -65.551367, -18.069645 ], [ -65.551344, -18.06953 ], [ -65.551249, -18.069356 ], [ -65.551167, -18.069148 ], [ -65.551121, -18.068906 ], [ -65.551146, -18.068757 ], [ -65.551147, -18.068642 ], [ -65.551257, -18.068459 ], [ -65.551366, -18.068449 ], [ -65.551375, -18.068451 ], [ -65.551397, -18.068449 ], [ -65.551673, -18.068533 ], [ -65.551781, -18.068604 ], [ -65.551972, -18.068698 ], [ -65.552274, -18.068734 ], [ -65.552387, -18.068703 ], [ -65.552496, -18.068612 ], [ -65.552557, -18.068532 ], [ -65.55263, -18.068395 ], [ -65.552655, -18.068304 ], [ -65.552728, -18.068212 ], [ -65.552765, -18.068132 ], [ -65.55285, -18.068087 ], [ -65.55309, -18.06809 ], [ -65.553091, -18.068091 ], [ -65.553121, -18.068091 ], [ -65.553253, -18.068173 ], [ -65.553337, -18.068266 ], [ -65.553371, -18.068405 ], [ -65.553393, -18.068704 ], [ -65.553416, -18.068796 ], [ -65.553415, -18.068923 ], [ -65.553461, -18.069142 ], [ -65.55347, -18.069499 ], [ -65.55354, -18.069718 ], [ -65.553694, -18.069938 ], [ -65.553694, -18.069961 ], [ -65.553838, -18.069998 ], [ -65.554102, -18.070173 ], [ -65.554197, -18.07029 ], [ -65.554291, -18.070498 ], [ -65.55429, -18.07059 ], [ -65.554325, -18.070705 ], [ -65.55437, -18.071097 ], [ -65.554665, -18.071133 ], [ -65.554736, -18.071124 ], [ -65.554918, -18.070908 ], [ -65.555164, -18.070301 ], [ -65.555408, -18.069982 ], [ -65.55571, -18.069859 ], [ -65.555732, -18.069864 ], [ -65.555741, -18.06986 ], [ -65.555861, -18.069884 ], [ -65.556424, -18.070259 ], [ -65.556568, -18.07033 ], [ -65.55678, -18.070389 ], [ -65.55715, -18.070383 ], [ -65.557282, -18.07035 ], [ -65.557367, -18.070305 ], [ -65.557452, -18.070283 ], [ -65.557524, -18.070284 ], [ -65.557524, -18.070284 ], [ -65.557555, -18.070285 ], [ -65.557687, -18.070344 ], [ -65.557818, -18.070495 ], [ -65.557877, -18.070634 ], [ -65.5579, -18.070761 ], [ -65.557898, -18.070956 ], [ -65.557811, -18.071231 ], [ -65.557661, -18.071816 ], [ -65.557624, -18.071908 ], [ -65.557623, -18.072057 ], [ -65.55768, -18.072426 ], [ -65.557704, -18.072461 ], [ -65.557728, -18.072461 ], [ -65.55787, -18.072658 ], [ -65.558097, -18.07288 ], [ -65.558144, -18.072972 ], [ -65.558168, -18.072972 ], [ -65.558252, -18.073054 ], [ -65.558503, -18.073241 ], [ -65.558983, -18.073431 ], [ -65.559284, -18.073446 ], [ -65.559344, -18.07347 ], [ -65.55951, -18.073679 ], [ -65.559555, -18.074002 ], [ -65.559567, -18.074002 ], [ -65.559662, -18.074222 ], [ -65.559962, -18.074329 ], [ -65.56013, -18.074342 ], [ -65.56013, -18.074354 ], [ -65.560268, -18.074377 ], [ -65.560359, -18.074388 ], [ -65.560433, -18.074387 ], [ -65.560442, -18.074388 ], [ -65.560465, -18.074387 ], [ -65.593819, -18.077723 ], [ -65.594087, -18.077783 ], [ -65.6036, -18.084147 ], [ -65.603709, -18.084542 ], [ -65.613063, -18.104946 ], [ -65.613698, -18.105928 ], [ -65.622443, -18.116595 ], [ -65.639407, -18.142309 ], [ -65.644456, -18.140075 ], [ -65.649374, -18.143041 ], [ -65.653355, -18.141111 ], [ -65.655989, -18.136882 ], [ -65.662571, -18.135648 ], [ -65.66448, -18.131267 ], [ -65.670312, -18.128701 ], [ -65.672798, -18.123396 ], [ -65.677525, -18.123475 ], [ -65.683085, -18.118821 ], [ -65.686695, -18.11366 ], [ -65.689187, -18.104337 ], [ -65.690712, -18.093093 ], [ -65.696864, -18.095411 ], [ -65.698537, -18.093994 ], [ -65.700486, -18.093376 ], [ -65.702622, -18.092403 ], [ -65.703737, -18.091429 ], [ -65.704389, -18.089655 ], [ -65.706061, -18.08806 ], [ -65.708402, -18.085017 ], [ -65.710805, -18.081691 ], [ -65.71455, -18.079625 ], [ -65.718312, -18.078401 ], [ -65.720265, -18.077041 ], [ -65.722741, -18.076399 ], [ -65.723268, -18.075323 ], [ -65.726422, -18.072816 ], [ -65.727625, -18.071239 ], [ -65.728152, -18.069518 ], [ -65.729429, -18.068587 ], [ -65.730032, -18.066292 ], [ -65.731837, -18.063353 ], [ -65.733562, -18.063283 ], [ -65.736563, -18.062785 ], [ -65.738437, -18.063577 ], [ -65.740838, -18.063077 ], [ -65.741742, -18.060567 ], [ -65.742771, -18.058462 ], [ -65.744872, -18.057604 ], [ -65.74705, -18.055741 ], [ -65.748029, -18.053231 ], [ -65.749981, -18.051727 ], [ -65.751406, -18.051729 ], [ -65.753166, -18.052086 ], [ -65.755232, -18.050729 ], [ -65.756136, -18.048003 ], [ -65.757187, -18.047359 ], [ -65.762214, -18.045858 ], [ -65.765441, -18.04414 ], [ -65.768293, -18.042923 ], [ -65.769271, -18.040342 ], [ -65.772497, -18.040058 ], [ -65.777748, -18.039131 ], [ -65.785454, -18.03445 ], [ -65.785458, -18.031508 ], [ -65.783586, -18.028206 ], [ -65.785019, -18.025837 ], [ -65.786216, -18.023617 ], [ -65.787491, -18.023618 ], [ -65.789142, -18.023333 ], [ -65.789743, -18.021827 ], [ -65.789296, -18.019172 ], [ -65.790648, -18.017953 ], [ -65.793348, -18.01731 ], [ -65.795297, -18.017886 ], [ -65.798373, -18.016742 ], [ -65.799948, -18.016456 ], [ -65.800774, -18.015309 ], [ -65.8007, -18.014376 ], [ -65.802277, -18.012584 ], [ -65.804794, -18.012616 ], [ -65.806727, -18.012526 ], [ -65.812229, -18.009913 ], [ -65.816657, -18.005971 ], [ -65.817783, -18.005613 ], [ -65.819134, -18.004107 ], [ -65.821084, -18.003822 ], [ -65.824384, -18.002533 ], [ -65.826635, -18.00189 ], [ -65.827985, -18.000743 ], [ -65.829037, -17.999093 ], [ -65.830089, -17.99644 ], [ -65.831983, -17.992881 ], [ -65.829585, -17.988149 ], [ -65.829199, -17.987599 ], [ -65.828874, -17.98727 ], [ -65.828707, -17.987095 ], [ -65.828633, -17.986935 ], [ -65.828559, -17.986694 ], [ -65.828497, -17.986579 ], [ -65.828275, -17.985937 ], [ -65.827855, -17.984826 ], [ -65.827595, -17.984 ], [ -65.827396, -17.983312 ], [ -65.82726, -17.982957 ], [ -65.827089, -17.982614 ], [ -65.82689, -17.981983 ], [ -65.826887, -17.981673 ], [ -65.826921, -17.981535 ], [ -65.82676, -17.981053 ], [ -65.826433, -17.980699 ], [ -65.826046, -17.980334 ], [ -65.825816, -17.980152 ], [ -65.825731, -17.980049 ], [ -65.825523, -17.979614 ], [ -65.825301, -17.979087 ], [ -65.825297, -17.978674 ], [ -65.82532, -17.978628 ], [ -65.825318, -17.978467 ], [ -65.825341, -17.978375 ], [ -65.825341, -17.978294 ], [ -65.825375, -17.978167 ], [ -65.825384, -17.977903 ], [ -65.825442, -17.977696 ], [ -65.825436, -17.977167 ], [ -65.82541, -17.976926 ], [ -65.825359, -17.976674 ], [ -65.825323, -17.976651 ], [ -65.825286, -17.976594 ], [ -65.82519, -17.976514 ], [ -65.824816, -17.976298 ], [ -65.824539, -17.976163 ], [ -65.82443, -17.976094 ], [ -65.823828, -17.975846 ], [ -65.823238, -17.975563 ], [ -65.823154, -17.975506 ], [ -65.822973, -17.975427 ], [ -65.822563, -17.975155 ], [ -65.822116, -17.97479 ], [ -65.82179, -17.974563 ], [ -65.821416, -17.974336 ], [ -65.821211, -17.974234 ], [ -65.820633, -17.973985 ], [ -65.820476, -17.973895 ], [ -65.820188, -17.973805 ], [ -65.820103, -17.973759 ], [ -65.819779, -17.973658 ], [ -65.819779, -17.973647 ], [ -65.819755, -17.973647 ], [ -65.819574, -17.973545 ], [ -65.818491, -17.973094 ], [ -65.817659, -17.972675 ], [ -65.81708, -17.9723 ], [ -65.816778, -17.972049 ], [ -65.816742, -17.972003 ], [ -65.816645, -17.971935 ], [ -65.816379, -17.971684 ], [ -65.816197, -17.97149 ], [ -65.816087, -17.97133 ], [ -65.816002, -17.971158 ], [ -65.815526, -17.970358 ], [ -65.815464, -17.970209 ], [ -65.815025, -17.969442 ], [ -65.814939, -17.969259 ], [ -65.814585, -17.968641 ], [ -65.814451, -17.968469 ], [ -65.814414, -17.968378 ], [ -65.814208, -17.968103 ], [ -65.814183, -17.968046 ], [ -65.814171, -17.968046 ], [ -65.814171, -17.968023 ], [ -65.814097, -17.967886 ], [ -65.813903, -17.967634 ], [ -65.813903, -17.967588 ], [ -65.813853, -17.967451 ], [ -65.813695, -17.967188 ], [ -65.813683, -17.967188 ], [ -65.813535, -17.966833 ], [ -65.8134, -17.966569 ], [ -65.813347, -17.966053 ], [ -65.813437, -17.965466 ], [ -65.813529, -17.965155 ], [ -65.813611, -17.964982 ], [ -65.813634, -17.964901 ], [ -65.813693, -17.964797 ], [ -65.813716, -17.964705 ], [ -65.81381, -17.964555 ], [ -65.813986, -17.964209 ], [ -65.814116, -17.964001 ], [ -65.814257, -17.963736 ], [ -65.814315, -17.963563 ], [ -65.814323, -17.963195 ], [ -65.81426, -17.962874 ], [ -65.813952, -17.962152 ], [ -65.813831, -17.96187 ], [ -65.81377, -17.961718 ], [ -65.813746, -17.961515 ], [ -65.813552, -17.961248 ], [ -65.813341, -17.961007 ], [ -65.813121, -17.960561 ], [ -65.812998, -17.960263 ], [ -65.812753, -17.959782 ], [ -65.812522, -17.959496 ], [ -65.812048, -17.958822 ], [ -65.811781, -17.958514 ], [ -65.811757, -17.958514 ], [ -65.811684, -17.958434 ], [ -65.811684, -17.958399 ], [ -65.81166, -17.9584 ], [ -65.81149, -17.95816 ], [ -65.811466, -17.95816 ], [ -65.811465, -17.958137 ], [ -65.811405, -17.95808 ], [ -65.811405, -17.958045 ], [ -65.81121, -17.957771 ], [ -65.811075, -17.957519 ], [ -65.810369, -17.956444 ], [ -65.810295, -17.956272 ], [ -65.810137, -17.955986 ], [ -65.810123, -17.95586 ], [ -65.810038, -17.955722 ], [ -65.810001, -17.955596 ], [ -65.809952, -17.955528 ], [ -65.809951, -17.955413 ], [ -65.809569, -17.954462 ], [ -65.809434, -17.954187 ], [ -65.809397, -17.954003 ], [ -65.80882, -17.95272 ], [ -65.808551, -17.952228 ], [ -65.808454, -17.952091 ], [ -65.808345, -17.951988 ], [ -65.808344, -17.951954 ], [ -65.80804, -17.951531 ], [ -65.807978, -17.951267 ], [ -65.807941, -17.951187 ], [ -65.807935, -17.950624 ], [ -65.807909, -17.950463 ], [ -65.807835, -17.950199 ], [ -65.807774, -17.950096 ], [ -65.807748, -17.949982 ], [ -65.807638, -17.949753 ], [ -65.807601, -17.949638 ], [ -65.807356, -17.949134 ], [ -65.807148, -17.948768 ], [ -65.806978, -17.948505 ], [ -65.806953, -17.948436 ], [ -65.806868, -17.948333 ], [ -65.806782, -17.948104 ], [ -65.806758, -17.948104 ], [ -65.806598, -17.947726 ], [ -65.806305, -17.9472 ], [ -65.806281, -17.9472 ], [ -65.806207, -17.947016 ], [ -65.806036, -17.946684 ], [ -65.805949, -17.946421 ], [ -65.805899, -17.946145 ], [ -65.805894, -17.945732 ], [ -65.805917, -17.945617 ], [ -65.805916, -17.945502 ], [ -65.805949, -17.945226 ], [ -65.806112, -17.944811 ], [ -65.806159, -17.944753 ], [ -65.806418, -17.944291 ], [ -65.806689, -17.943875 ], [ -65.806995, -17.94331 ], [ -65.80716, -17.943044 ], [ -65.807254, -17.942929 ], [ -65.807396, -17.94279 ], [ -65.807504, -17.94272 ], [ -65.807551, -17.942708 ], [ -65.807875, -17.942706 ], [ -65.807878, -17.942707 ], [ -65.807906, -17.942706 ], [ -65.80813, -17.94275 ], [ -65.808163, -17.94275 ], [ -65.808198, -17.942715 ], [ -65.808222, -17.942715 ], [ -65.808222, -17.942692 ], [ -65.808305, -17.942588 ], [ -65.808468, -17.942161 ], [ -65.808561, -17.941873 ], [ -65.808596, -17.941816 ], [ -65.808596, -17.941793 ], [ -65.808691, -17.941746 ], [ -65.809446, -17.941729 ], [ -65.809528, -17.941556 ], [ -65.809564, -17.941533 ], [ -65.80963, -17.94098 ], [ -65.809746, -17.940623 ], [ -65.810099, -17.940103 ], [ -65.810289, -17.939872 ], [ -65.810443, -17.939722 ], [ -65.810537, -17.939583 ], [ -65.810964, -17.93912 ], [ -65.811427, -17.938749 ], [ -65.812273, -17.938306 ], [ -65.812654, -17.938142 ], [ -65.813036, -17.937955 ], [ -65.813227, -17.937885 ], [ -65.813417, -17.93778 ], [ -65.813691, -17.937583 ], [ -65.81394, -17.937363 ], [ -65.814046, -17.937235 ], [ -65.814176, -17.937016 ], [ -65.814269, -17.936763 ], [ -65.814326, -17.936532 ], [ -65.814443, -17.936279 ], [ -65.81469, -17.935829 ], [ -65.814864, -17.935253 ], [ -65.814885, -17.934988 ], [ -65.81486, -17.934896 ], [ -65.814859, -17.934804 ], [ -65.814784, -17.934472 ], [ -65.814698, -17.934265 ], [ -65.814695, -17.934024 ], [ -65.81467, -17.933898 ], [ -65.814668, -17.933726 ], [ -65.814629, -17.933496 ], [ -65.81458, -17.933393 ], [ -65.814543, -17.933244 ], [ -65.814336, -17.932912 ], [ -65.814045, -17.932638 ], [ -65.813659, -17.932354 ], [ -65.813575, -17.93232 ], [ -65.8132, -17.932036 ], [ -65.812896, -17.931555 ], [ -65.812871, -17.931463 ], [ -65.812834, -17.931395 ], [ -65.812821, -17.931326 ], [ -65.812736, -17.931189 ], [ -65.812736, -17.931143 ], [ -65.812712, -17.931143 ], [ -65.812711, -17.931108 ], [ -65.812275, -17.930652 ], [ -65.81202, -17.930343 ], [ -65.811752, -17.929863 ], [ -65.811702, -17.929668 ], [ -65.811686, -17.929346 ], [ -65.811709, -17.929219 ], [ -65.811732, -17.929185 ], [ -65.811755, -17.92907 ], [ -65.811802, -17.928943 ], [ -65.811919, -17.928735 ], [ -65.811953, -17.928517 ], [ -65.811917, -17.928482 ], [ -65.81176, -17.928426 ], [ -65.811292, -17.928315 ], [ -65.811118, -17.928294 ], [ -65.8107, -17.928297 ], [ -65.810569, -17.928332 ], [ -65.810281, -17.928334 ], [ -65.809982, -17.92836 ], [ -65.809965, -17.928358 ], [ -65.809951, -17.928359 ], [ -65.809735, -17.928338 ], [ -65.809567, -17.928281 ], [ -65.809446, -17.92819 ], [ -65.809276, -17.928019 ], [ -65.809227, -17.927939 ], [ -65.809227, -17.927847 ], [ -65.809271, -17.92756 ], [ -65.809329, -17.927375 ], [ -65.809377, -17.92734 ], [ -65.809542, -17.927109 ], [ -65.809601, -17.926971 ], [ -65.809658, -17.926764 ], [ -65.809681, -17.926614 ], [ -65.809679, -17.926499 ], [ -65.809593, -17.926236 ], [ -65.809519, -17.926098 ], [ -65.809253, -17.925847 ], [ -65.809166, -17.925549 ], [ -65.809102, -17.925182 ], [ -65.809101, -17.92509 ], [ -65.808713, -17.924656 ], [ -65.80864, -17.92453 ], [ -65.808604, -17.924508 ], [ -65.808529, -17.924175 ], [ -65.808502, -17.923934 ], [ -65.808427, -17.923601 ], [ -65.808329, -17.923429 ], [ -65.808182, -17.923097 ], [ -65.807487, -17.92193 ], [ -65.807398, -17.921471 ], [ -65.807396, -17.921299 ], [ -65.80743, -17.921137 ], [ -65.807473, -17.920666 ], [ -65.807468, -17.920126 ], [ -65.807442, -17.919931 ], [ -65.807366, -17.919609 ], [ -65.807318, -17.919575 ], [ -65.807318, -17.919552 ], [ -65.807294, -17.919541 ], [ -65.807196, -17.919358 ], [ -65.807075, -17.919209 ], [ -65.806954, -17.919107 ], [ -65.806495, -17.918823 ], [ -65.805942, -17.918574 ], [ -65.805474, -17.918486 ], [ -65.805065, -17.918328 ], [ -65.804764, -17.91818 ], [ -65.804546, -17.917987 ], [ -65.804255, -17.917633 ], [ -65.804098, -17.917507 ], [ -65.804061, -17.917439 ], [ -65.803953, -17.917371 ], [ -65.803723, -17.917165 ], [ -65.803589, -17.916959 ], [ -65.803419, -17.916742 ], [ -65.803221, -17.916123 ], [ -65.803206, -17.915836 ], [ -65.803118, -17.915469 ], [ -65.803019, -17.915205 ], [ -65.802994, -17.915091 ], [ -65.80292, -17.914907 ], [ -65.802883, -17.914758 ], [ -65.802711, -17.914323 ], [ -65.802479, -17.913945 ], [ -65.802333, -17.913739 ], [ -65.802285, -17.913694 ], [ -65.802247, -17.913568 ], [ -65.801918, -17.913007 ], [ -65.801638, -17.912595 ], [ -65.801421, -17.912413 ], [ -65.801047, -17.912232 ], [ -65.800506, -17.912017 ], [ -65.800037, -17.91186 ], [ -65.799785, -17.911747 ], [ -65.799616, -17.911691 ], [ -65.79958, -17.911633 ], [ -65.799374, -17.911474 ], [ -65.799192, -17.911257 ], [ -65.799022, -17.910994 ], [ -65.7989, -17.910753 ], [ -65.798825, -17.910467 ], [ -65.798726, -17.910226 ], [ -65.798653, -17.910123 ], [ -65.79858, -17.909963 ], [ -65.79847, -17.909791 ], [ -65.798301, -17.909597 ], [ -65.798312, -17.909585 ], [ -65.798191, -17.909391 ], [ -65.798045, -17.909231 ], [ -65.79802, -17.909162 ], [ -65.797548, -17.908695 ], [ -65.797343, -17.908558 ], [ -65.796983, -17.908457 ], [ -65.796528, -17.908449 ], [ -65.796335, -17.908393 ], [ -65.795928, -17.90835 ], [ -65.795495, -17.908227 ], [ -65.795507, -17.908215 ], [ -65.795515, -17.907813 ], [ -65.79556, -17.907594 ], [ -65.79557, -17.907376 ], [ -65.795604, -17.907134 ], [ -65.79565, -17.907019 ], [ -65.795685, -17.906869 ], [ -65.795766, -17.906674 ], [ -65.796002, -17.90627 ], [ -65.796154, -17.905947 ], [ -65.796212, -17.905751 ], [ -65.796371, -17.90498 ], [ -65.796801, -17.903735 ], [ -65.796872, -17.903597 ], [ -65.797057, -17.903009 ], [ -65.797133, -17.902239 ], [ -65.797131, -17.901997 ], [ -65.797164, -17.901779 ], [ -65.797404, -17.900674 ], [ -65.797517, -17.900064 ], [ -65.797576, -17.899902 ], [ -65.797646, -17.899799 ], [ -65.797658, -17.899798 ], [ -65.79769, -17.89943 ], [ -65.797688, -17.899189 ], [ -65.797772, -17.898108 ], [ -65.797771, -17.897947 ], [ -65.797792, -17.897706 ], [ -65.797826, -17.897533 ], [ -65.797847, -17.897269 ], [ -65.797881, -17.897073 ], [ -65.797951, -17.896831 ], [ -65.798314, -17.896093 ], [ -65.798571, -17.895459 ], [ -65.798767, -17.894779 ], [ -65.798788, -17.894503 ], [ -65.798982, -17.893571 ], [ -65.799111, -17.893271 ], [ -65.79918, -17.892972 ], [ -65.799309, -17.892718 ], [ -65.799366, -17.892511 ], [ -65.799564, -17.891981 ], [ -65.79967, -17.891785 ], [ -65.799846, -17.891393 ], [ -65.799949, -17.890944 ], [ -65.800255, -17.889332 ], [ -65.80036, -17.889044 ], [ -65.800547, -17.888652 ], [ -65.800747, -17.887122 ], [ -65.801088, -17.886557 ], [ -65.801998, -17.876252 ], [ -65.780816, -17.854743 ], [ -65.751741, -17.853537 ], [ -65.716359, -17.852337 ], [ -65.716103, -17.85232 ], [ -65.71591, -17.852302 ], [ -65.719641, -17.837051 ], [ -65.722629, -17.823368 ], [ -65.709246, -17.836908 ], [ -65.709145, -17.837012 ], [ -65.698782, -17.847284 ], [ -65.698697, -17.847326 ], [ -65.660962, -17.862566 ], [ -65.651681, -17.882067 ], [ -65.651213, -17.882196 ], [ -65.648786, -17.882915 ], [ -65.648755, -17.882914 ] ] ] ] } }
]
}
