{
"type": "FeatureCollection",
"name": "VILLA_RIVERO",
"crs": { "type": "name", "properties": { "name": "urn:ogc:def:crs:OGC:1.3:CRS84" } },
"bbox": [ -65.901117, -17.709325, -65.793408, -17.594642 ],                                                                        
"features": [
{ "type": "Feature", "properties": { "NOMBRE": "Villa Rivero", "NIVEL": "Municipios", "PROVINCIA": "Punata", "REGION": "Valles", "DEPARTAMENTO": "Cochabamba" }, "bbox": [ -65.901117, -17.709325, -65.793408, -17.594642 ], "geometry": { "type": "MultiPolygon", "coordinates": [ [ [ [ -65.813446, -17.596812 ], [ -65.810223, -17.597427 ], [ -65.80625, -17.598006 ], [ -65.798526, -17.599109 ], [ -65.796193, -17.603199 ], [ -65.793408, -17.610908 ], [ -65.794236, -17.611121 ], [ -65.795195, -17.612797 ], [ -65.795456, -17.613886 ], [ -65.796154, -17.614473 ], [ -65.79659, -17.615143 ], [ -65.796676, -17.615897 ], [ -65.796675, -17.616734 ], [ -65.796936, -17.617572 ], [ -65.797983, -17.618494 ], [ -65.799553, -17.620255 ], [ -65.8006, -17.620842 ], [ -65.802083, -17.622519 ], [ -65.803304, -17.623608 ], [ -65.804264, -17.624949 ], [ -65.805048, -17.625955 ], [ -65.806095, -17.626961 ], [ -65.80723, -17.627381 ], [ -65.807666, -17.627884 ], [ -65.808364, -17.628554 ], [ -65.809674, -17.628556 ], [ -65.81046, -17.629059 ], [ -65.810109, -17.630231 ], [ -65.810022, -17.630315 ], [ -65.809933, -17.631487 ], [ -65.81002, -17.632241 ], [ -65.810368, -17.633079 ], [ -65.810804, -17.633916 ], [ -65.810803, -17.634586 ], [ -65.810453, -17.635675 ], [ -65.810452, -17.63668 ], [ -65.810451, -17.637601 ], [ -65.81045, -17.638522 ], [ -65.810711, -17.639276 ], [ -65.810797, -17.640197 ], [ -65.81167, -17.640533 ], [ -65.812718, -17.64112 ], [ -65.813416, -17.641874 ], [ -65.814114, -17.642545 ], [ -65.814987, -17.643048 ], [ -65.814986, -17.643132 ], [ -65.815772, -17.644054 ], [ -65.816207, -17.644892 ], [ -65.816469, -17.645646 ], [ -65.817079, -17.646316 ], [ -65.817253, -17.647405 ], [ -65.817339, -17.648242 ], [ -65.817601, -17.648996 ], [ -65.817534, -17.649354 ], [ -65.817726, -17.649324 ], [ -65.818125, -17.649325 ], [ -65.818424, -17.649612 ], [ -65.818623, -17.650282 ], [ -65.819122, -17.650761 ], [ -65.81982, -17.650953 ], [ -65.82022, -17.650953 ], [ -65.820718, -17.651719 ], [ -65.820818, -17.652007 ], [ -65.820917, -17.652007 ], [ -65.821616, -17.65239 ], [ -65.822014, -17.653156 ], [ -65.822013, -17.654209 ], [ -65.822112, -17.65507 ], [ -65.822511, -17.655836 ], [ -65.823409, -17.656411 ], [ -65.824607, -17.656412 ], [ -65.825904, -17.656414 ], [ -65.826703, -17.656701 ], [ -65.826802, -17.657563 ], [ -65.827699, -17.658329 ], [ -65.828597, -17.658713 ], [ -65.829396, -17.659096 ], [ -65.830294, -17.659384 ], [ -65.830492, -17.660915 ], [ -65.831389, -17.662065 ], [ -65.831489, -17.662065 ], [ -65.831689, -17.662161 ], [ -65.832787, -17.662161 ], [ -65.833785, -17.661875 ], [ -65.834384, -17.662067 ], [ -65.834383, -17.662928 ], [ -65.834383, -17.663694 ], [ -65.834382, -17.664651 ], [ -65.834382, -17.664747 ], [ -65.834382, -17.664842 ], [ -65.834581, -17.665704 ], [ -65.83499, -17.666041 ], [ -65.83502, -17.666065 ], [ -65.835279, -17.666279 ], [ -65.836177, -17.666949 ], [ -65.836277, -17.666949 ], [ -65.836276, -17.667045 ], [ -65.837175, -17.667141 ], [ -65.838173, -17.666855 ], [ -65.839471, -17.666856 ], [ -65.840569, -17.667336 ], [ -65.841067, -17.668389 ], [ -65.841066, -17.669346 ], [ -65.841165, -17.670494 ], [ -65.841364, -17.671738 ], [ -65.842261, -17.673366 ], [ -65.842759, -17.67461 ], [ -65.843058, -17.675089 ], [ -65.842957, -17.675855 ], [ -65.843456, -17.676238 ], [ -65.843456, -17.676333 ], [ -65.843556, -17.676334 ], [ -65.843656, -17.676334 ], [ -65.843755, -17.677099 ], [ -65.843655, -17.677673 ], [ -65.843255, -17.678152 ], [ -65.843055, -17.678821 ], [ -65.843055, -17.678917 ], [ -65.843254, -17.679779 ], [ -65.843753, -17.679875 ], [ -65.844751, -17.679684 ], [ -65.844851, -17.67978 ], [ -65.84535, -17.679876 ], [ -65.847047, -17.679686 ], [ -65.847746, -17.680165 ], [ -65.847745, -17.681217 ], [ -65.847844, -17.682079 ], [ -65.847744, -17.682748 ], [ -65.848642, -17.683515 ], [ -65.848642, -17.68361 ], [ -65.848542, -17.683706 ], [ -65.848142, -17.684663 ], [ -65.848541, -17.685046 ], [ -65.84854, -17.685811 ], [ -65.84834, -17.686768 ], [ -65.849138, -17.687534 ], [ -65.850335, -17.688014 ], [ -65.851733, -17.687919 ], [ -65.852432, -17.688685 ], [ -65.85323, -17.688973 ], [ -65.854428, -17.689548 ], [ -65.854527, -17.690313 ], [ -65.854526, -17.69127 ], [ -65.855224, -17.692132 ], [ -65.855423, -17.693568 ], [ -65.855423, -17.69395 ], [ -65.855821, -17.694908 ], [ -65.855821, -17.695769 ], [ -65.85572, -17.696534 ], [ -65.85582, -17.697109 ], [ -65.855819, -17.697778 ], [ -65.856418, -17.698832 ], [ -65.856417, -17.69931 ], [ -65.856417, -17.699788 ], [ -65.856716, -17.700076 ], [ -65.856616, -17.70065 ], [ -65.856616, -17.701128 ], [ -65.857115, -17.701416 ], [ -65.857114, -17.702181 ], [ -65.856914, -17.702755 ], [ -65.856614, -17.703425 ], [ -65.856813, -17.703904 ], [ -65.857512, -17.704191 ], [ -65.858411, -17.704479 ], [ -65.859309, -17.705054 ], [ -65.859608, -17.705724 ], [ -65.859307, -17.707063 ], [ -65.859852, -17.707852 ], [ -65.860061, -17.708155 ], [ -65.860759, -17.709304 ], [ -65.860783, -17.709325 ], [ -65.876305, -17.708523 ], [ -65.880385, -17.705384 ], [ -65.877864, -17.697551 ], [ -65.881241, -17.697766 ], [ -65.884661, -17.696611 ], [ -65.886563, -17.694748 ], [ -65.88834, -17.693703 ], [ -65.889583, -17.693439 ], [ -65.891038, -17.692503 ], [ -65.891639, -17.691492 ], [ -65.891902, -17.687438 ], [ -65.893668, -17.684921 ], [ -65.893949, -17.683593 ], [ -65.893424, -17.681222 ], [ -65.893586, -17.678941 ], [ -65.894522, -17.676888 ], [ -65.898379, -17.672122 ], [ -65.898336, -17.67208 ], [ -65.899283, -17.670838 ], [ -65.899416, -17.670483 ], [ -65.899471, -17.669931 ], [ -65.899439, -17.669747 ], [ -65.899445, -17.669507 ], [ -65.899411, -17.669427 ], [ -65.899345, -17.668717 ], [ -65.899252, -17.668132 ], [ -65.899255, -17.668007 ], [ -65.899234, -17.667892 ], [ -65.89923, -17.667584 ], [ -65.89917, -17.667091 ], [ -65.899207, -17.666053 ], [ -65.899258, -17.665906 ], [ -65.899261, -17.665815 ], [ -65.899432, -17.665134 ], [ -65.89945, -17.66486 ], [ -65.899374, -17.664573 ], [ -65.899376, -17.664504 ], [ -65.899117, -17.663858 ], [ -65.899077, -17.66356 ], [ -65.899089, -17.663561 ], [ -65.8991, -17.663116 ], [ -65.899126, -17.663002 ], [ -65.899241, -17.662697 ], [ -65.899315, -17.662573 ], [ -65.899316, -17.662527 ], [ -65.899352, -17.662505 ], [ -65.899505, -17.662121 ], [ -65.89954, -17.662111 ], [ -65.899765, -17.661682 ], [ -65.899828, -17.661524 ], [ -65.899903, -17.661389 ], [ -65.899965, -17.661311 ], [ -65.900114, -17.66104 ], [ -65.90025, -17.660838 ], [ -65.900453, -17.660295 ], [ -65.900494, -17.660102 ], [ -65.900532, -17.660012 ], [ -65.900533, -17.659943 ], [ -65.900599, -17.659682 ], [ -65.900602, -17.659557 ], [ -65.900678, -17.659365 ], [ -65.900691, -17.65884 ], [ -65.900894, -17.658308 ], [ -65.900934, -17.658149 ], [ -65.900996, -17.658025 ], [ -65.901073, -17.657799 ], [ -65.901114, -17.657594 ], [ -65.901117, -17.65748 ], [ -65.901077, -17.657137 ], [ -65.901023, -17.656907 ], [ -65.900978, -17.656814 ], [ -65.900945, -17.656699 ], [ -65.900819, -17.656514 ], [ -65.90082, -17.656456 ], [ -65.900557, -17.655993 ], [ -65.900275, -17.655369 ], [ -65.900197, -17.65515 ], [ -65.900162, -17.655104 ], [ -65.900107, -17.654931 ], [ -65.900038, -17.654804 ], [ -65.899966, -17.654368 ], [ -65.90006, -17.653914 ], [ -65.900066, -17.653674 ], [ -65.900159, -17.653277 ], [ -65.90017, -17.652809 ], [ -65.900118, -17.652488 ], [ -65.900052, -17.652258 ], [ -65.899984, -17.652108 ], [ -65.899813, -17.651829 ], [ -65.899593, -17.651538 ], [ -65.899163, -17.651128 ], [ -65.898764, -17.650878 ], [ -65.898426, -17.650584 ], [ -65.898218, -17.650327 ], [ -65.898148, -17.650268 ], [ -65.898023, -17.650037 ], [ -65.897746, -17.649642 ], [ -65.897679, -17.649469 ], [ -65.897223, -17.648635 ], [ -65.897201, -17.648554 ], [ -65.897143, -17.648484 ], [ -65.896803, -17.647791 ], [ -65.89654, -17.647327 ], [ -65.896189, -17.646588 ], [ -65.896089, -17.646311 ], [ -65.896021, -17.646172 ], [ -65.895889, -17.645723 ], [ -65.895798, -17.645527 ], [ -65.895623, -17.644895 ], [ -65.895413, -17.643759 ], [ -65.895258, -17.64275 ], [ -65.895231, -17.642407 ], [ -65.895218, -17.641938 ], [ -65.895088, -17.640953 ], [ -65.894935, -17.64039 ], [ -65.894769, -17.639872 ], [ -65.894677, -17.639698 ], [ -65.894294, -17.6393 ], [ -65.893453, -17.638662 ], [ -65.893091, -17.638356 ], [ -65.892696, -17.637958 ], [ -65.892488, -17.637713 ], [ -65.892245, -17.637387 ], [ -65.892119, -17.637189 ], [ -65.891923, -17.636933 ], [ -65.891476, -17.636237 ], [ -65.891341, -17.635914 ], [ -65.891265, -17.63558 ], [ -65.891216, -17.635157 ], [ -65.891223, -17.63486 ], [ -65.891204, -17.634677 ], [ -65.89121, -17.633935 ], [ -65.891187, -17.633911 ], [ -65.891136, -17.633533 ], [ -65.891049, -17.633223 ], [ -65.890903, -17.632865 ], [ -65.89066, -17.632562 ], [ -65.890497, -17.632398 ], [ -65.890474, -17.632397 ], [ -65.890392, -17.632315 ], [ -65.890146, -17.632161 ], [ -65.889676, -17.631909 ], [ -65.889465, -17.631755 ], [ -65.889431, -17.631709 ], [ -65.88936, -17.631673 ], [ -65.889361, -17.63165 ], [ -65.889213, -17.631383 ], [ -65.889054, -17.631037 ], [ -65.889042, -17.631036 ], [ -65.88897, -17.630601 ], [ -65.889019, -17.629049 ], [ -65.888949, -17.628522 ], [ -65.888733, -17.62758 ], [ -65.88831, -17.626382 ], [ -65.888256, -17.626175 ], [ -65.888055, -17.62561 ], [ -65.887934, -17.625207 ], [ -65.887866, -17.625057 ], [ -65.887844, -17.624965 ], [ -65.887799, -17.624896 ], [ -65.887743, -17.624746 ], [ -65.88764, -17.624572 ], [ -65.887216, -17.623906 ], [ -65.887006, -17.623537 ], [ -65.88686, -17.623324 ], [ -65.886672, -17.623073 ], [ -65.886463, -17.622723 ], [ -65.886746, -17.622543 ], [ -65.886907, -17.622443 ], [ -65.887048, -17.622324 ], [ -65.887108, -17.622244 ], [ -65.887168, -17.622165 ], [ -65.887227, -17.622047 ], [ -65.887266, -17.62189 ], [ -65.887291, -17.621765 ], [ -65.887296, -17.62156 ], [ -65.887326, -17.621321 ], [ -65.887332, -17.621059 ], [ -65.88739, -17.620626 ], [ -65.887448, -17.618732 ], [ -65.887478, -17.61847 ], [ -65.887508, -17.617238 ], [ -65.887461, -17.616711 ], [ -65.887499, -17.616644 ], [ -65.887505, -17.616393 ], [ -65.887579, -17.615789 ], [ -65.887657, -17.615529 ], [ -65.887685, -17.615347 ], [ -65.887816, -17.614859 ], [ -65.887925, -17.614279 ], [ -65.887928, -17.614142 ], [ -65.88798, -17.613961 ], [ -65.887984, -17.613824 ], [ -65.888022, -17.613722 ], [ -65.888025, -17.613585 ], [ -65.888065, -17.613415 ], [ -65.888151, -17.612801 ], [ -65.888177, -17.612744 ], [ -65.888194, -17.612516 ], [ -65.888322, -17.611663 ], [ -65.888385, -17.611493 ], [ -65.8884, -17.611368 ], [ -65.888439, -17.611244 ], [ -65.888495, -17.61088 ], [ -65.888658, -17.61005 ], [ -65.888661, -17.609947 ], [ -65.888713, -17.609743 ], [ -65.888718, -17.609561 ], [ -65.888748, -17.60931 ], [ -65.888756, -17.608991 ], [ -65.888779, -17.608991 ], [ -65.888846, -17.608685 ], [ -65.888851, -17.608491 ], [ -65.889039, -17.607628 ], [ -65.889148, -17.607025 ], [ -65.889328, -17.606493 ], [ -65.889356, -17.606334 ], [ -65.889445, -17.606096 ], [ -65.889472, -17.605937 ], [ -65.889488, -17.604305 ], [ -65.889455, -17.604201 ], [ -65.889443, -17.604201 ], [ -65.889445, -17.604098 ], [ -65.889424, -17.604018 ], [ -65.889426, -17.603915 ], [ -65.88939, -17.603747 ], [ -65.886524, -17.598993 ], [ -65.866918, -17.597483 ], [ -65.82712, -17.595054 ], [ -65.820373, -17.594642 ], [ -65.813446, -17.596812 ] ] ] ] } }
]
}
