{
"type": "FeatureCollection",
"name": "VINTO",
"crs": { "type": "name", "properties": { "name": "urn:ogc:def:crs:OGC:1.3:CRS84" } },
"bbox": [ -66.493166, -17.425380, -66.302378, -17.250687 ],                                                                        
"features": [
{ "type": "Feature", "properties": { "NOMBRE": "Vinto", "NIVEL": "Municipios", "PROVINCIA": "Quillacollo", "REGION": "Metropolitana", "DEPARTAMENTO": "Cochabamba" }, "bbox": [ -66.493166, -17.42538, -66.302378, -17.250687 ], "geometry": { "type": "MultiPolygon", "coordinates": [ [ [ [ -66.364183, -17.287725 ], [ -66.36408, -17.287729 ], [ -66.364011, -17.287731 ], [ -66.363962, -17.287738 ], [ -66.36388, -17.287721 ], [ -66.363858, -17.287677 ], [ -66.36393, -17.287639 ], [ -66.363954, -17.287587 ], [ -66.363909, -17.287559 ], [ -66.363853, -17.287551 ], [ -66.363813, -17.287558 ], [ -66.363721, -17.287566 ], [ -66.363705, -17.287527 ], [ -66.363671, -17.287525 ], [ -66.363619, -17.287478 ], [ -66.363559, -17.287453 ], [ -66.36349, -17.287436 ], [ -66.363437, -17.28744 ], [ -66.363446, -17.287418 ], [ -66.363482, -17.287394 ], [ -66.363371, -17.287373 ], [ -66.363284, -17.287359 ], [ -66.363197, -17.287358 ], [ -66.363148, -17.287298 ], [ -66.363187, -17.287227 ], [ -66.363101, -17.287142 ], [ -66.363026, -17.287177 ], [ -66.362976, -17.287152 ], [ -66.362886, -17.287161 ], [ -66.362804, -17.287134 ], [ -66.36275, -17.287067 ], [ -66.362657, -17.287061 ], [ -66.362517, -17.287086 ], [ -66.362403, -17.287252 ], [ -66.36234, -17.287323 ], [ -66.362191, -17.287309 ], [ -66.36203, -17.287235 ], [ -66.361931, -17.287234 ], [ -66.361795, -17.287125 ], [ -66.36166, -17.287051 ], [ -66.361584, -17.28711 ], [ -66.36157, -17.287253 ], [ -66.361493, -17.287372 ], [ -66.361357, -17.28737 ], [ -66.361281, -17.287441 ], [ -66.36123, -17.287536 ], [ -66.361019, -17.287485 ], [ -66.361068, -17.287533 ], [ -66.361117, -17.28763 ], [ -66.360999, -17.287618 ], [ -66.360888, -17.287621 ], [ -66.360813, -17.287613 ], [ -66.360718, -17.287613 ], [ -66.360694, -17.287562 ], [ -66.360778, -17.287476 ], [ -66.360715, -17.287492 ], [ -66.360637, -17.287507 ], [ -66.360564, -17.287568 ], [ -66.360475, -17.287622 ], [ -66.360463, -17.287511 ], [ -66.360363, -17.287334 ], [ -66.360077, -17.287343 ], [ -66.360036, -17.287308 ], [ -66.359936, -17.287347 ], [ -66.359653, -17.287353 ], [ -66.359431, -17.287363 ], [ -66.359224, -17.287373 ], [ -66.3589, -17.287342 ], [ -66.358708, -17.287429 ], [ -66.35869, -17.28762 ], [ -66.358842, -17.28772 ], [ -66.358774, -17.287839 ], [ -66.358428, -17.287903 ], [ -66.357585, -17.287949 ], [ -66.356939, -17.288016 ], [ -66.356371, -17.28805 ], [ -66.35586, -17.28811 ], [ -66.355701, -17.287849 ], [ -66.355484, -17.287761 ], [ -66.355032, -17.287822 ], [ -66.354853, -17.287792 ], [ -66.354574, -17.287904 ], [ -66.354452, -17.288131 ], [ -66.35409, -17.28804 ], [ -66.353839, -17.288017 ], [ -66.353524, -17.288432 ], [ -66.353338, -17.288518 ], [ -66.352871, -17.28856 ], [ -66.352699, -17.288668 ], [ -66.352539, -17.28907 ], [ -66.352414, -17.289206 ], [ -66.352311, -17.289497 ], [ -66.351757, -17.289871 ], [ -66.351163, -17.290067 ], [ -66.33677, -17.289206 ], [ -66.322676, -17.321745 ], [ -66.323607, -17.325502 ], [ -66.323613, -17.325731 ], [ -66.32381, -17.325861 ], [ -66.32375, -17.325993 ], [ -66.324414, -17.326316 ], [ -66.326874, -17.326483 ], [ -66.327953, -17.326563 ], [ -66.32852, -17.326634 ], [ -66.328569, -17.326667 ], [ -66.327546, -17.327729 ], [ -66.326822, -17.328794 ], [ -66.325492, -17.330461 ], [ -66.325444, -17.331177 ], [ -66.324911, -17.331923 ], [ -66.324638, -17.332708 ], [ -66.32411, -17.333131 ], [ -66.323727, -17.333807 ], [ -66.323527, -17.334451 ], [ -66.322998, -17.335159 ], [ -66.320159, -17.337223 ], [ -66.319377, -17.337763 ], [ -66.318581, -17.338612 ], [ -66.318542, -17.338762 ], [ -66.318356, -17.33951 ], [ -66.318207, -17.340478 ], [ -66.317198, -17.341601 ], [ -66.317176, -17.342077 ], [ -66.317316, -17.342724 ], [ -66.317274, -17.343046 ], [ -66.316824, -17.343384 ], [ -66.31681, -17.344151 ], [ -66.316389, -17.344862 ], [ -66.316303, -17.345649 ], [ -66.316032, -17.346327 ], [ -66.315796, -17.347184 ], [ -66.315722, -17.348056 ], [ -66.315763, -17.349441 ], [ -66.315678, -17.350121 ], [ -66.315433, -17.351623 ], [ -66.31558, -17.352606 ], [ -66.315143, -17.355481 ], [ -66.313478, -17.359441 ], [ -66.310593, -17.359267 ], [ -66.309482, -17.367732 ], [ -66.309528, -17.368415 ], [ -66.309375, -17.369829 ], [ -66.309336, -17.370669 ], [ -66.309302, -17.370818 ], [ -66.309203, -17.373865 ], [ -66.309169, -17.374129 ], [ -66.309172, -17.374417 ], [ -66.309208, -17.377157 ], [ -66.309107, -17.378383 ], [ -66.309209, -17.380216 ], [ -66.309226, -17.382019 ], [ -66.309223, -17.382185 ], [ -66.309305, -17.382497 ], [ -66.309236, -17.382827 ], [ -66.309103, -17.383054 ], [ -66.309014, -17.383218 ], [ -66.308717, -17.383396 ], [ -66.308408, -17.383662 ], [ -66.308408, -17.383685 ], [ -66.308241, -17.383801 ], [ -66.308134, -17.383848 ], [ -66.308122, -17.383871 ], [ -66.307406, -17.384331 ], [ -66.30621, -17.384631 ], [ -66.305068, -17.384797 ], [ -66.304423, -17.384684 ], [ -66.303966, -17.3846 ], [ -66.303666, -17.384451 ], [ -66.303813, -17.401603 ], [ -66.303894, -17.403175 ], [ -66.302627, -17.404233 ], [ -66.302708, -17.40511 ], [ -66.302378, -17.405169 ], [ -66.302548, -17.406381 ], [ -66.302825, -17.406737 ], [ -66.303996, -17.407105 ], [ -66.304219, -17.407289 ], [ -66.304708, -17.407945 ], [ -66.304756, -17.408524 ], [ -66.304607, -17.409019 ], [ -66.304222, -17.409014 ], [ -66.304229, -17.409194 ], [ -66.304549, -17.409172 ], [ -66.304591, -17.409488 ], [ -66.304871, -17.409664 ], [ -66.306332, -17.422912 ], [ -66.305979, -17.42538 ], [ -66.306419, -17.424858 ], [ -66.315514, -17.416454 ], [ -66.316513, -17.414372 ], [ -66.316648, -17.414398 ], [ -66.317123, -17.414489 ], [ -66.317194, -17.414138 ], [ -66.317391, -17.414194 ], [ -66.318075, -17.411844 ], [ -66.318095, -17.411775 ], [ -66.318292, -17.4111 ], [ -66.319295, -17.410084 ], [ -66.319363, -17.409922 ], [ -66.319671, -17.410071 ], [ -66.320247, -17.40932 ], [ -66.320163, -17.409229 ], [ -66.320335, -17.40905 ], [ -66.32078, -17.40884 ], [ -66.320755, -17.40864 ], [ -66.321246, -17.40853 ], [ -66.321522, -17.408949 ], [ -66.321741, -17.408789 ], [ -66.321494, -17.408253 ], [ -66.32159, -17.408155 ], [ -66.321913, -17.407292 ], [ -66.322122, -17.407115 ], [ -66.322645, -17.408374 ], [ -66.322812, -17.409602 ], [ -66.32309, -17.409792 ], [ -66.323731, -17.41148 ], [ -66.323824, -17.411716 ], [ -66.325028, -17.4111 ], [ -66.325769, -17.410756 ], [ -66.326452, -17.410576 ], [ -66.326578, -17.410543 ], [ -66.326642, -17.410329 ], [ -66.326935, -17.409338 ], [ -66.327018, -17.408552 ], [ -66.327322, -17.408356 ], [ -66.32747, -17.408071 ], [ -66.327697, -17.407803 ], [ -66.32858, -17.407562 ], [ -66.328878, -17.407481 ], [ -66.329452, -17.407238 ], [ -66.330408, -17.406834 ], [ -66.331085, -17.406612 ], [ -66.331942, -17.406451 ], [ -66.332709, -17.406173 ], [ -66.333055, -17.406094 ], [ -66.333105, -17.406083 ], [ -66.333286, -17.405973 ], [ -66.333516, -17.40578 ], [ -66.333578, -17.405728 ], [ -66.333888, -17.405413 ], [ -66.334047, -17.40536 ], [ -66.334437, -17.405147 ], [ -66.334492, -17.405158 ], [ -66.334895, -17.40529 ], [ -66.335578, -17.405377 ], [ -66.335898, -17.405459 ], [ -66.336481, -17.405576 ], [ -66.336995, -17.40565 ], [ -66.337242, -17.405628 ], [ -66.337479, -17.405634 ], [ -66.337795, -17.405744 ], [ -66.338128, -17.405783 ], [ -66.338486, -17.405857 ], [ -66.338847, -17.405899 ], [ -66.339194, -17.405961 ], [ -66.339143, -17.406214 ], [ -66.340586, -17.406612 ], [ -66.342997, -17.407069 ], [ -66.347671, -17.407808 ], [ -66.347736, -17.407818 ], [ -66.348881, -17.408023 ], [ -66.347812, -17.409111 ], [ -66.3474, -17.408943 ], [ -66.346664, -17.409773 ], [ -66.347893, -17.410015 ], [ -66.348742, -17.409159 ], [ -66.349267, -17.409293 ], [ -66.349971, -17.409419 ], [ -66.349655, -17.409776 ], [ -66.349993, -17.409862 ], [ -66.34963, -17.410246 ], [ -66.349, -17.410246 ], [ -66.348754, -17.410288 ], [ -66.348595, -17.410241 ], [ -66.348484, -17.41062 ], [ -66.348229, -17.411482 ], [ -66.348635, -17.411407 ], [ -66.348973, -17.411465 ], [ -66.349316, -17.411336 ], [ -66.349606, -17.411275 ], [ -66.349803, -17.411314 ], [ -66.349963, -17.411262 ], [ -66.350154, -17.411226 ], [ -66.350237, -17.411211 ], [ -66.350435, -17.411151 ], [ -66.350654, -17.410991 ], [ -66.350712, -17.410973 ], [ -66.351001, -17.411023 ], [ -66.351362, -17.410838 ], [ -66.351344, -17.410817 ], [ -66.351554, -17.410641 ], [ -66.351648, -17.410571 ], [ -66.35168, -17.4103 ], [ -66.351688, -17.410278 ], [ -66.351946, -17.410132 ], [ -66.352387, -17.410156 ], [ -66.352519, -17.410194 ], [ -66.352603, -17.410195 ], [ -66.352631, -17.410195 ], [ -66.352743, -17.41026 ], [ -66.352818, -17.410288 ], [ -66.352846, -17.410288 ], [ -66.353197, -17.410094 ], [ -66.353418, -17.410198 ], [ -66.353633, -17.410307 ], [ -66.353814, -17.410374 ], [ -66.354057, -17.410465 ], [ -66.354159, -17.410453 ], [ -66.354354, -17.410414 ], [ -66.354736, -17.410533 ], [ -66.354827, -17.410568 ], [ -66.355124, -17.410632 ], [ -66.355528, -17.410757 ], [ -66.355727, -17.410796 ], [ -66.356338, -17.410964 ], [ -66.356557, -17.411199 ], [ -66.356677, -17.411368 ], [ -66.35685, -17.41143 ], [ -66.357002, -17.411453 ], [ -66.357062, -17.4115 ], [ -66.35723, -17.411571 ], [ -66.357423, -17.411672 ], [ -66.357613, -17.411772 ], [ -66.357753, -17.411844 ], [ -66.357879, -17.411894 ], [ -66.35802, -17.412047 ], [ -66.358095, -17.412096 ], [ -66.358268, -17.412129 ], [ -66.358396, -17.412153 ], [ -66.358507, -17.412173 ], [ -66.358661, -17.412165 ], [ -66.35877, -17.412154 ], [ -66.358858, -17.412187 ], [ -66.358907, -17.412326 ], [ -66.358995, -17.412429 ], [ -66.359533, -17.41245 ], [ -66.359813, -17.412548 ], [ -66.360202, -17.412686 ], [ -66.360603, -17.413183 ], [ -66.360902, -17.413371 ], [ -66.361213, -17.413389 ], [ -66.361338, -17.413522 ], [ -66.361891, -17.413565 ], [ -66.36239, -17.413955 ], [ -66.362815, -17.41425 ], [ -66.363169, -17.414275 ], [ -66.363411, -17.414407 ], [ -66.363857, -17.41436 ], [ -66.364357, -17.414496 ], [ -66.364455, -17.41401 ], [ -66.364611, -17.413558 ], [ -66.365092, -17.413014 ], [ -66.365472, -17.412518 ], [ -66.366217, -17.412229 ], [ -66.366725, -17.411913 ], [ -66.3675, -17.411684 ], [ -66.368276, -17.411384 ], [ -66.369155, -17.410822 ], [ -66.37006, -17.410236 ], [ -66.370686, -17.409934 ], [ -66.371575, -17.409154 ], [ -66.371637, -17.40909 ], [ -66.371711, -17.408809 ], [ -66.371875, -17.408253 ], [ -66.372074, -17.40798 ], [ -66.372375, -17.407563 ], [ -66.372718, -17.407079 ], [ -66.373144, -17.406688 ], [ -66.373622, -17.406336 ], [ -66.373852, -17.405909 ], [ -66.374453, -17.405678 ], [ -66.374978, -17.405481 ], [ -66.375129, -17.405424 ], [ -66.375832, -17.404979 ], [ -66.376639, -17.404249 ], [ -66.376655, -17.404225 ], [ -66.376906, -17.403858 ], [ -66.376916, -17.403141 ], [ -66.377637, -17.402678 ], [ -66.378012, -17.402188 ], [ -66.378924, -17.401692 ], [ -66.379297, -17.401094 ], [ -66.38002, -17.400171 ], [ -66.38036, -17.399853 ], [ -66.380965, -17.399359 ], [ -66.381012, -17.398679 ], [ -66.381541, -17.398184 ], [ -66.381697, -17.397756 ], [ -66.382076, -17.397367 ], [ -66.382345, -17.396833 ], [ -66.382803, -17.396122 ], [ -66.383264, -17.395196 ], [ -66.384093, -17.394633 ], [ -66.385076, -17.39375 ], [ -66.386026, -17.392615 ], [ -66.38645, -17.391653 ], [ -66.38735, -17.389285 ], [ -66.388567, -17.387997 ], [ -66.389719, -17.387487 ], [ -66.390568, -17.387283 ], [ -66.391372, -17.38672 ], [ -66.392352, -17.386064 ], [ -66.393125, -17.385978 ], [ -66.393997, -17.385942 ], [ -66.394695, -17.385807 ], [ -66.395074, -17.385406 ], [ -66.395995, -17.385442 ], [ -66.39716, -17.385768 ], [ -66.398013, -17.385253 ], [ -66.398197, -17.384587 ], [ -66.398048, -17.384031 ], [ -66.39807, -17.383624 ], [ -66.398922, -17.383236 ], [ -66.399292, -17.383262 ], [ -66.399907, -17.383502 ], [ -66.399827, -17.383637 ], [ -66.399484, -17.383783 ], [ -66.39947, -17.383914 ], [ -66.399581, -17.38428 ], [ -66.39984, -17.384284 ], [ -66.399849, -17.384284 ], [ -66.399858, -17.384285 ], [ -66.400141, -17.384358 ], [ -66.400641, -17.384748 ], [ -66.400756, -17.384786 ], [ -66.40091, -17.384812 ], [ -66.401043, -17.384825 ], [ -66.401187, -17.384833 ], [ -66.401346, -17.384756 ], [ -66.401413, -17.384711 ], [ -66.40162, -17.384577 ], [ -66.401752, -17.384475 ], [ -66.401912, -17.384336 ], [ -66.40184, -17.383917 ], [ -66.402474, -17.383793 ], [ -66.402909, -17.383679 ], [ -66.403212, -17.383518 ], [ -66.40327, -17.383482 ], [ -66.403476, -17.38335 ], [ -66.40352, -17.383298 ], [ -66.404202, -17.382409 ], [ -66.405162, -17.381904 ], [ -66.405253, -17.38184 ], [ -66.405263, -17.38183 ], [ -66.405951, -17.381152 ], [ -66.406004, -17.381088 ], [ -66.406216, -17.380758 ], [ -66.406591, -17.380587 ], [ -66.407059, -17.380596 ], [ -66.407191, -17.380581 ], [ -66.408127, -17.380184 ], [ -66.412485, -17.379959 ], [ -66.413111, -17.38007 ], [ -66.414038, -17.380197 ], [ -66.415053, -17.380235 ], [ -66.415827, -17.381089 ], [ -66.416916, -17.382288 ], [ -66.417983, -17.383465 ], [ -66.418322, -17.383699 ], [ -66.418514, -17.38427 ], [ -66.419241, -17.384783 ], [ -66.419534, -17.384971 ], [ -66.419763, -17.385199 ], [ -66.419916, -17.385332 ], [ -66.419996, -17.38568 ], [ -66.420232, -17.385894 ], [ -66.420382, -17.386391 ], [ -66.420579, -17.386586 ], [ -66.420814, -17.386805 ], [ -66.42084, -17.387023 ], [ -66.420865, -17.387152 ], [ -66.42093, -17.387741 ], [ -66.421004, -17.387873 ], [ -66.421265, -17.388267 ], [ -66.421398, -17.388556 ], [ -66.421686, -17.389336 ], [ -66.422115, -17.38982 ], [ -66.422655, -17.390352 ], [ -66.423158, -17.390825 ], [ -66.423836, -17.391088 ], [ -66.424024, -17.39113 ], [ -66.423872, -17.390816 ], [ -66.423782, -17.390518 ], [ -66.423722, -17.390244 ], [ -66.423784, -17.389774 ], [ -66.423964, -17.389711 ], [ -66.424272, -17.389706 ], [ -66.424477, -17.38967 ], [ -66.424765, -17.389602 ], [ -66.424917, -17.389355 ], [ -66.42507, -17.389128 ], [ -66.425323, -17.389096 ], [ -66.425479, -17.389014 ], [ -66.425709, -17.388954 ], [ -66.426216, -17.389028 ], [ -66.426556, -17.388956 ], [ -66.427136, -17.388734 ], [ -66.427619, -17.388396 ], [ -66.427583, -17.388071 ], [ -66.427845, -17.387883 ], [ -66.428206, -17.387732 ], [ -66.428271, -17.387494 ], [ -66.428473, -17.387293 ], [ -66.428913, -17.386941 ], [ -66.429066, -17.386739 ], [ -66.429544, -17.386327 ], [ -66.42976, -17.386055 ], [ -66.430038, -17.385736 ], [ -66.430366, -17.38537 ], [ -66.430334, -17.385023 ], [ -66.430262, -17.384795 ], [ -66.430355, -17.384402 ], [ -66.43061, -17.383975 ], [ -66.430962, -17.383741 ], [ -66.431264, -17.383397 ], [ -66.431771, -17.383329 ], [ -66.432302, -17.383257 ], [ -66.432494, -17.382906 ], [ -66.432646, -17.382741 ], [ -66.432648, -17.382571 ], [ -66.432667, -17.382435 ], [ -66.432741, -17.38227 ], [ -66.432815, -17.382127 ], [ -66.432865, -17.381987 ], [ -66.432853, -17.381803 ], [ -66.432873, -17.381654 ], [ -66.432968, -17.381468 ], [ -66.43306, -17.381337 ], [ -66.433182, -17.381231 ], [ -66.433476, -17.380973 ], [ -66.433631, -17.380889 ], [ -66.433748, -17.380732 ], [ -66.433825, -17.380571 ], [ -66.433823, -17.380424 ], [ -66.433784, -17.380188 ], [ -66.433786, -17.380003 ], [ -66.433876, -17.379825 ], [ -66.433912, -17.379519 ], [ -66.433907, -17.379226 ], [ -66.433839, -17.378896 ], [ -66.4338, -17.378733 ], [ -66.433774, -17.378624 ], [ -66.433744, -17.378451 ], [ -66.433772, -17.378305 ], [ -66.433802, -17.378146 ], [ -66.433777, -17.378002 ], [ -66.433822, -17.377853 ], [ -66.433876, -17.377671 ], [ -66.433887, -17.377617 ], [ -66.433974, -17.377567 ], [ -66.434056, -17.377456 ], [ -66.434125, -17.377259 ], [ -66.434193, -17.377107 ], [ -66.434219, -17.376956 ], [ -66.434231, -17.376868 ], [ -66.434193, -17.376776 ], [ -66.434179, -17.376703 ], [ -66.434144, -17.376635 ], [ -66.434118, -17.376586 ], [ -66.434142, -17.376448 ], [ -66.434148, -17.37637 ], [ -66.434163, -17.37626 ], [ -66.434214, -17.376172 ], [ -66.434243, -17.376099 ], [ -66.434313, -17.375985 ], [ -66.434393, -17.375831 ], [ -66.434546, -17.375688 ], [ -66.434627, -17.375593 ], [ -66.434676, -17.375524 ], [ -66.43474, -17.375491 ], [ -66.434804, -17.375459 ], [ -66.434837, -17.37538 ], [ -66.434864, -17.375251 ], [ -66.434907, -17.37509 ], [ -66.434931, -17.374984 ], [ -66.434995, -17.374882 ], [ -66.435098, -17.374746 ], [ -66.435128, -17.37466 ], [ -66.435089, -17.374528 ], [ -66.435075, -17.374441 ], [ -66.435067, -17.374302 ], [ -66.435096, -17.374222 ], [ -66.435161, -17.374167 ], [ -66.435269, -17.374176 ], [ -66.435428, -17.374201 ], [ -66.435586, -17.374083 ], [ -66.435744, -17.37403 ], [ -66.435863, -17.37395 ], [ -66.435937, -17.373831 ], [ -66.43597, -17.373638 ], [ -66.435943, -17.373538 ], [ -66.435967, -17.373441 ], [ -66.436049, -17.373421 ], [ -66.436102, -17.373395 ], [ -66.436141, -17.373339 ], [ -66.436169, -17.373188 ], [ -66.436176, -17.373119 ], [ -66.43622, -17.37301 ], [ -66.436258, -17.372894 ], [ -66.436281, -17.372795 ], [ -66.436276, -17.372741 ], [ -66.436219, -17.372717 ], [ -66.436219, -17.372655 ], [ -66.436223, -17.372578 ], [ -66.436197, -17.372515 ], [ -66.436223, -17.372443 ], [ -66.436277, -17.372367 ], [ -66.436336, -17.372207 ], [ -66.436437, -17.372103 ], [ -66.436518, -17.372063 ], [ -66.436627, -17.372036 ], [ -66.436721, -17.372032 ], [ -66.436778, -17.372009 ], [ -66.436921, -17.372006 ], [ -66.436939, -17.372001 ], [ -66.437002, -17.371956 ], [ -66.437091, -17.371959 ], [ -66.437215, -17.371974 ], [ -66.437306, -17.371986 ], [ -66.437362, -17.371941 ], [ -66.437437, -17.371905 ], [ -66.437474, -17.37182 ], [ -66.437501, -17.371698 ], [ -66.437492, -17.371604 ], [ -66.437544, -17.371446 ], [ -66.437568, -17.371338 ], [ -66.437619, -17.371238 ], [ -66.437637, -17.371104 ], [ -66.43769, -17.370992 ], [ -66.437758, -17.370863 ], [ -66.437787, -17.370736 ], [ -66.437816, -17.370631 ], [ -66.43782, -17.370538 ], [ -66.437794, -17.370422 ], [ -66.437792, -17.370299 ], [ -66.437782, -17.370196 ], [ -66.437816, -17.370055 ], [ -66.437842, -17.369981 ], [ -66.437911, -17.369896 ], [ -66.437999, -17.36981 ], [ -66.438075, -17.369734 ], [ -66.43818, -17.36964 ], [ -66.438247, -17.369434 ], [ -66.438329, -17.369284 ], [ -66.438435, -17.369167 ], [ -66.438575, -17.369108 ], [ -66.438697, -17.368998 ], [ -66.4388, -17.368881 ], [ -66.438892, -17.368756 ], [ -66.43896, -17.368568 ], [ -66.439007, -17.368355 ], [ -66.439091, -17.368254 ], [ -66.43925, -17.368127 ], [ -66.439438, -17.367996 ], [ -66.439519, -17.367913 ], [ -66.439594, -17.36782 ], [ -66.439734, -17.367701 ], [ -66.439923, -17.367582 ], [ -66.440046, -17.36749 ], [ -66.440116, -17.367376 ], [ -66.440101, -17.367262 ], [ -66.440064, -17.367168 ], [ -66.440152, -17.366999 ], [ -66.440255, -17.366857 ], [ -66.440296, -17.366825 ], [ -66.440487, -17.366688 ], [ -66.440575, -17.366604 ], [ -66.440659, -17.366441 ], [ -66.440729, -17.366357 ], [ -66.440873, -17.366274 ], [ -66.441043, -17.366195 ], [ -66.441197, -17.366155 ], [ -66.441285, -17.366155 ], [ -66.441354, -17.366132 ], [ -66.441455, -17.366046 ], [ -66.441615, -17.366028 ], [ -66.441749, -17.36598 ], [ -66.44188, -17.36587 ], [ -66.441933, -17.365813 ], [ -66.441965, -17.365698 ], [ -66.441985, -17.365563 ], [ -66.441989, -17.365471 ], [ -66.441949, -17.365353 ], [ -66.441897, -17.365183 ], [ -66.441836, -17.365069 ], [ -66.441801, -17.364952 ], [ -66.441803, -17.364824 ], [ -66.441918, -17.364682 ], [ -66.442073, -17.36459 ], [ -66.442247, -17.364551 ], [ -66.442318, -17.364461 ], [ -66.442295, -17.364294 ], [ -66.442193, -17.364158 ], [ -66.442248, -17.363941 ], [ -66.442357, -17.363898 ], [ -66.442551, -17.363897 ], [ -66.442589, -17.363874 ], [ -66.442618, -17.363853 ], [ -66.442684, -17.363799 ], [ -66.442709, -17.363758 ], [ -66.442693, -17.363728 ], [ -66.442657, -17.363684 ], [ -66.442549, -17.36358 ], [ -66.442742, -17.36359 ], [ -66.442952, -17.363623 ], [ -66.443122, -17.363609 ], [ -66.443302, -17.363518 ], [ -66.443354, -17.363322 ], [ -66.443153, -17.36312 ], [ -66.442919, -17.362966 ], [ -66.442718, -17.362681 ], [ -66.442747, -17.362659 ], [ -66.442819, -17.362446 ], [ -66.442874, -17.362291 ], [ -66.442774, -17.361998 ], [ -66.442798, -17.36174 ], [ -66.442982, -17.361593 ], [ -66.443173, -17.361495 ], [ -66.443478, -17.361338 ], [ -66.443636, -17.36134 ], [ -66.443666, -17.361264 ], [ -66.443696, -17.361208 ], [ -66.4437, -17.361104 ], [ -66.443733, -17.360891 ], [ -66.443709, -17.360649 ], [ -66.443714, -17.36049 ], [ -66.443756, -17.360315 ], [ -66.443879, -17.360126 ], [ -66.444006, -17.360081 ], [ -66.444318, -17.360001 ], [ -66.444446, -17.360006 ], [ -66.444872, -17.360027 ], [ -66.444873, -17.359953 ], [ -66.444891, -17.359799 ], [ -66.44489, -17.359672 ], [ -66.444768, -17.359572 ], [ -66.444785, -17.359379 ], [ -66.444928, -17.359153 ], [ -66.44526, -17.359084 ], [ -66.44534, -17.35907 ], [ -66.4454, -17.35905 ], [ -66.445427, -17.359035 ], [ -66.445502, -17.358983 ], [ -66.445514, -17.35897 ], [ -66.445538, -17.358937 ], [ -66.445554, -17.358874 ], [ -66.445557, -17.358721 ], [ -66.445676, -17.358603 ], [ -66.445713, -17.35849 ], [ -66.445623, -17.358371 ], [ -66.445655, -17.35819 ], [ -66.445741, -17.358115 ], [ -66.445943, -17.358047 ], [ -66.446029, -17.358016 ], [ -66.446061, -17.358 ], [ -66.446092, -17.357979 ], [ -66.446261, -17.357783 ], [ -66.446348, -17.357631 ], [ -66.446464, -17.35732 ], [ -66.446607, -17.357003 ], [ -66.446938, -17.356922 ], [ -66.447031, -17.356949 ], [ -66.447204, -17.357007 ], [ -66.447361, -17.356942 ], [ -66.447462, -17.356813 ], [ -66.447599, -17.356511 ], [ -66.447775, -17.356326 ], [ -66.447945, -17.356154 ], [ -66.448194, -17.356097 ], [ -66.448228, -17.356007 ], [ -66.448262, -17.355859 ], [ -66.448432, -17.355437 ], [ -66.448807, -17.355288 ], [ -66.448886, -17.355259 ], [ -66.448999, -17.355212 ], [ -66.449207, -17.3551 ], [ -66.449324, -17.354972 ], [ -66.449387, -17.354802 ], [ -66.44952, -17.354387 ], [ -66.449985, -17.35397 ], [ -66.450611, -17.353588 ], [ -66.451002, -17.353314 ], [ -66.451238, -17.353182 ], [ -66.451492, -17.353059 ], [ -66.451733, -17.353135 ], [ -66.452224, -17.352976 ], [ -66.452655, -17.352907 ], [ -66.452987, -17.353153 ], [ -66.453238, -17.353186 ], [ -66.453872, -17.352873 ], [ -66.454393, -17.352875 ], [ -66.454663, -17.352685 ], [ -66.454981, -17.352649 ], [ -66.455342, -17.35267 ], [ -66.455836, -17.352783 ], [ -66.456152, -17.352689 ], [ -66.456469, -17.352579 ], [ -66.456828, -17.352338 ], [ -66.457297, -17.352268 ], [ -66.457683, -17.352126 ], [ -66.457875, -17.35188 ], [ -66.458156, -17.351787 ], [ -66.458394, -17.351687 ], [ -66.458472, -17.351381 ], [ -66.458432, -17.35117 ], [ -66.45837, -17.350947 ], [ -66.458476, -17.350719 ], [ -66.458694, -17.350682 ], [ -66.458844, -17.35058 ], [ -66.458896, -17.350439 ], [ -66.459005, -17.350302 ], [ -66.459193, -17.350264 ], [ -66.459209, -17.350106 ], [ -66.459147, -17.349877 ], [ -66.459245, -17.349709 ], [ -66.45937, -17.349544 ], [ -66.459609, -17.349414 ], [ -66.459716, -17.349255 ], [ -66.459669, -17.349055 ], [ -66.459583, -17.348875 ], [ -66.459604, -17.348713 ], [ -66.459714, -17.348357 ], [ -66.459898, -17.34796 ], [ -66.460164, -17.347773 ], [ -66.460406, -17.347594 ], [ -66.460539, -17.347329 ], [ -66.46049, -17.346926 ], [ -66.460507, -17.346643 ], [ -66.460565, -17.346381 ], [ -66.46059, -17.346036 ], [ -66.460783, -17.345772 ], [ -66.461027, -17.345588 ], [ -66.461134, -17.345377 ], [ -66.461221, -17.345137 ], [ -66.461438, -17.344974 ], [ -66.461735, -17.344727 ], [ -66.461863, -17.344511 ], [ -66.461979, -17.344209 ], [ -66.462173, -17.344088 ], [ -66.462368, -17.344073 ], [ -66.46251, -17.343903 ], [ -66.46258, -17.343803 ], [ -66.462579, -17.343675 ], [ -66.462517, -17.343526 ], [ -66.462544, -17.343431 ], [ -66.462593, -17.34336 ], [ -66.462799, -17.343279 ], [ -66.462892, -17.343256 ], [ -66.46296, -17.343179 ], [ -66.463058, -17.343152 ], [ -66.46314, -17.343059 ], [ -66.463214, -17.342949 ], [ -66.463341, -17.342846 ], [ -66.463421, -17.342696 ], [ -66.463469, -17.342583 ], [ -66.463485, -17.342489 ], [ -66.46356, -17.342428 ], [ -66.463665, -17.342334 ], [ -66.463755, -17.342281 ], [ -66.463918, -17.342221 ], [ -66.464043, -17.342101 ], [ -66.464143, -17.342028 ], [ -66.464154, -17.341891 ], [ -66.464152, -17.341745 ], [ -66.464227, -17.341522 ], [ -66.46453, -17.341305 ], [ -66.464612, -17.341259 ], [ -66.464724, -17.341228 ], [ -66.464794, -17.341131 ], [ -66.464956, -17.340983 ], [ -66.465028, -17.340948 ], [ -66.465132, -17.340854 ], [ -66.465213, -17.340745 ], [ -66.465237, -17.340581 ], [ -66.465471, -17.340392 ], [ -66.465778, -17.340294 ], [ -66.465928, -17.34023 ], [ -66.466034, -17.340145 ], [ -66.466057, -17.340063 ], [ -66.466068, -17.339973 ], [ -66.466156, -17.339927 ], [ -66.466226, -17.339847 ], [ -66.466251, -17.339716 ], [ -66.466274, -17.339611 ], [ -66.466299, -17.339528 ], [ -66.466402, -17.339331 ], [ -66.466725, -17.338986 ], [ -66.466935, -17.338771 ], [ -66.467065, -17.338584 ], [ -66.467208, -17.338194 ], [ -66.467332, -17.337913 ], [ -66.467489, -17.337791 ], [ -66.467626, -17.337617 ], [ -66.467697, -17.337474 ], [ -66.467646, -17.337283 ], [ -66.467696, -17.337104 ], [ -66.467834, -17.336951 ], [ -66.467943, -17.336849 ], [ -66.468186, -17.336714 ], [ -66.468278, -17.336418 ], [ -66.468324, -17.336085 ], [ -66.468329, -17.335851 ], [ -66.468539, -17.335544 ], [ -66.46869, -17.335404 ], [ -66.468807, -17.33524 ], [ -66.468851, -17.335124 ], [ -66.46889, -17.334839 ], [ -66.468972, -17.334501 ], [ -66.469013, -17.33442 ], [ -66.469015, -17.334346 ], [ -66.469038, -17.334313 ], [ -66.469218, -17.334295 ], [ -66.469385, -17.334353 ], [ -66.469501, -17.33439 ], [ -66.46961, -17.334363 ], [ -66.469708, -17.334365 ], [ -66.469798, -17.334384 ], [ -66.469885, -17.334456 ], [ -66.469866, -17.334632 ], [ -66.469801, -17.334743 ], [ -66.46991, -17.334845 ], [ -66.470138, -17.334886 ], [ -66.470291, -17.334943 ], [ -66.470372, -17.334981 ], [ -66.470497, -17.335067 ], [ -66.470701, -17.335165 ], [ -66.470832, -17.335145 ], [ -66.470933, -17.335111 ], [ -66.471018, -17.335055 ], [ -66.471379, -17.334878 ], [ -66.471483, -17.334828 ], [ -66.471672, -17.334791 ], [ -66.4717, -17.334774 ], [ -66.471831, -17.334664 ], [ -66.471866, -17.334591 ], [ -66.471947, -17.334458 ], [ -66.472049, -17.334375 ], [ -66.472201, -17.334356 ], [ -66.472255, -17.334322 ], [ -66.472275, -17.334311 ], [ -66.472437, -17.334223 ], [ -66.472449, -17.334217 ], [ -66.47252, -17.334177 ], [ -66.472555, -17.334165 ], [ -66.472586, -17.334167 ], [ -66.472676, -17.33419 ], [ -66.472782, -17.334196 ], [ -66.472851, -17.334187 ], [ -66.473012, -17.334145 ], [ -66.47321, -17.334059 ], [ -66.47328, -17.334053 ], [ -66.473419, -17.334081 ], [ -66.473576, -17.334084 ], [ -66.473646, -17.33407 ], [ -66.473725, -17.33404 ], [ -66.473761, -17.334013 ], [ -66.473834, -17.33407 ], [ -66.473966, -17.334188 ], [ -66.474005, -17.334255 ], [ -66.474097, -17.334362 ], [ -66.47417, -17.334405 ], [ -66.474287, -17.334394 ], [ -66.474372, -17.334388 ], [ -66.47451, -17.334406 ], [ -66.47461, -17.334432 ], [ -66.474708, -17.334452 ], [ -66.474834, -17.334442 ], [ -66.474985, -17.334437 ], [ -66.475063, -17.334424 ], [ -66.475183, -17.334389 ], [ -66.47534, -17.334371 ], [ -66.475481, -17.334377 ], [ -66.475596, -17.33436 ], [ -66.475849, -17.334346 ], [ -66.475948, -17.334318 ], [ -66.475994, -17.334309 ], [ -66.476069, -17.334344 ], [ -66.476236, -17.334386 ], [ -66.476312, -17.334443 ], [ -66.476434, -17.334493 ], [ -66.476511, -17.334493 ], [ -66.476588, -17.334534 ], [ -66.476667, -17.334573 ], [ -66.476737, -17.334584 ], [ -66.476802, -17.334597 ], [ -66.476878, -17.334609 ], [ -66.476944, -17.334606 ], [ -66.477039, -17.334607 ], [ -66.477249, -17.334621 ], [ -66.477261, -17.334608 ], [ -66.477461, -17.334503 ], [ -66.477568, -17.334468 ], [ -66.477656, -17.334473 ], [ -66.477668, -17.334475 ], [ -66.47774, -17.334497 ], [ -66.477845, -17.334531 ], [ -66.477955, -17.334489 ], [ -66.478157, -17.334465 ], [ -66.478307, -17.334444 ], [ -66.478404, -17.334287 ], [ -66.478501, -17.334201 ], [ -66.478592, -17.334125 ], [ -66.47874, -17.334026 ], [ -66.478769, -17.334005 ], [ -66.478875, -17.333879 ], [ -66.478998, -17.333798 ], [ -66.479098, -17.333737 ], [ -66.47922, -17.333706 ], [ -66.479251, -17.333691 ], [ -66.479372, -17.333637 ], [ -66.479614, -17.333618 ], [ -66.479633, -17.333612 ], [ -66.479709, -17.333575 ], [ -66.479737, -17.33354 ], [ -66.479783, -17.33349 ], [ -66.47984, -17.333476 ], [ -66.479881, -17.333466 ], [ -66.479923, -17.333437 ], [ -66.479965, -17.333393 ], [ -66.479983, -17.333357 ], [ -66.479989, -17.333315 ], [ -66.48001, -17.333253 ], [ -66.480052, -17.333182 ], [ -66.480082, -17.333121 ], [ -66.480248, -17.332922 ], [ -66.480284, -17.332897 ], [ -66.480397, -17.332852 ], [ -66.480417, -17.332836 ], [ -66.48045, -17.332831 ], [ -66.480482, -17.332805 ], [ -66.480503, -17.332775 ], [ -66.480526, -17.332739 ], [ -66.480553, -17.332726 ], [ -66.480576, -17.332718 ], [ -66.480596, -17.332715 ], [ -66.480643, -17.33271 ], [ -66.480662, -17.33271 ], [ -66.480682, -17.332716 ], [ -66.480705, -17.332741 ], [ -66.480721, -17.332762 ], [ -66.480749, -17.332781 ], [ -66.480778, -17.332793 ], [ -66.480812, -17.332789 ], [ -66.480819, -17.332768 ], [ -66.480838, -17.332728 ], [ -66.480868, -17.332701 ], [ -66.480895, -17.332679 ], [ -66.480921, -17.332649 ], [ -66.480937, -17.332633 ], [ -66.480977, -17.332592 ], [ -66.481015, -17.332567 ], [ -66.481039, -17.332531 ], [ -66.481062, -17.332489 ], [ -66.481088, -17.332475 ], [ -66.481105, -17.332449 ], [ -66.481118, -17.332419 ], [ -66.481136, -17.332393 ], [ -66.481154, -17.332356 ], [ -66.481172, -17.33232 ], [ -66.481188, -17.332294 ], [ -66.481224, -17.332285 ], [ -66.481236, -17.332284 ], [ -66.481258, -17.332284 ], [ -66.481331, -17.332266 ], [ -66.481376, -17.332244 ], [ -66.481393, -17.332205 ], [ -66.481393, -17.332163 ], [ -66.481406, -17.332119 ], [ -66.481415, -17.332083 ], [ -66.481431, -17.33206 ], [ -66.481475, -17.332044 ], [ -66.481521, -17.332037 ], [ -66.481569, -17.33204 ], [ -66.481645, -17.332028 ], [ -66.48171, -17.331999 ], [ -66.481763, -17.331971 ], [ -66.481796, -17.33194 ], [ -66.481837, -17.331929 ], [ -66.481896, -17.331916 ], [ -66.48195, -17.331922 ], [ -66.481982, -17.331916 ], [ -66.482054, -17.331885 ], [ -66.482105, -17.331895 ], [ -66.482161, -17.331876 ], [ -66.482224, -17.331817 ], [ -66.48225, -17.331748 ], [ -66.482266, -17.33167 ], [ -66.482306, -17.331652 ], [ -66.482359, -17.331631 ], [ -66.482402, -17.331604 ], [ -66.482438, -17.331575 ], [ -66.482483, -17.331539 ], [ -66.48252, -17.331508 ], [ -66.482554, -17.331475 ], [ -66.482609, -17.331447 ], [ -66.482635, -17.331387 ], [ -66.482659, -17.33132 ], [ -66.482677, -17.331285 ], [ -66.482701, -17.331238 ], [ -66.48275, -17.331198 ], [ -66.482771, -17.331129 ], [ -66.482816, -17.331098 ], [ -66.482899, -17.331078 ], [ -66.482991, -17.331039 ], [ -66.483082, -17.331029 ], [ -66.483186, -17.331003 ], [ -66.483239, -17.330971 ], [ -66.483334, -17.330906 ], [ -66.48337, -17.330868 ], [ -66.483433, -17.330839 ], [ -66.483492, -17.330788 ], [ -66.48355, -17.330759 ], [ -66.483576, -17.330715 ], [ -66.483627, -17.330655 ], [ -66.48368, -17.330594 ], [ -66.483765, -17.330543 ], [ -66.483832, -17.330512 ], [ -66.483906, -17.330488 ], [ -66.484012, -17.330391 ], [ -66.484058, -17.330297 ], [ -66.484072, -17.330212 ], [ -66.484117, -17.330121 ], [ -66.484152, -17.330061 ], [ -66.484194, -17.329966 ], [ -66.484252, -17.329921 ], [ -66.484327, -17.329887 ], [ -66.484424, -17.329831 ], [ -66.484523, -17.329706 ], [ -66.484539, -17.329628 ], [ -66.484468, -17.329569 ], [ -66.484376, -17.329537 ], [ -66.484342, -17.329488 ], [ -66.484413, -17.32941 ], [ -66.484444, -17.329337 ], [ -66.48446, -17.329209 ], [ -66.484497, -17.329116 ], [ -66.484521, -17.328997 ], [ -66.48458, -17.328875 ], [ -66.484616, -17.328763 ], [ -66.484702, -17.328593 ], [ -66.484738, -17.328533 ], [ -66.484685, -17.328442 ], [ -66.484705, -17.328362 ], [ -66.484839, -17.328111 ], [ -66.484869, -17.327947 ], [ -66.484812, -17.3278 ], [ -66.484707, -17.327693 ], [ -66.484811, -17.327584 ], [ -66.484835, -17.327478 ], [ -66.484875, -17.327386 ], [ -66.484925, -17.327318 ], [ -66.48505, -17.327314 ], [ -66.485129, -17.327228 ], [ -66.48525, -17.327233 ], [ -66.48535, -17.327163 ], [ -66.485453, -17.327233 ], [ -66.485497, -17.327213 ], [ -66.485503, -17.327105 ], [ -66.485581, -17.327088 ], [ -66.485721, -17.327122 ], [ -66.485846, -17.326955 ], [ -66.485939, -17.326886 ], [ -66.485952, -17.326759 ], [ -66.485997, -17.326668 ], [ -66.486037, -17.326555 ], [ -66.486191, -17.326423 ], [ -66.486328, -17.326195 ], [ -66.486534, -17.326103 ], [ -66.486688, -17.32595 ], [ -66.486767, -17.325853 ], [ -66.486889, -17.325795 ], [ -66.486969, -17.325741 ], [ -66.487064, -17.325674 ], [ -66.48715, -17.32558 ], [ -66.487265, -17.325539 ], [ -66.487365, -17.32549 ], [ -66.487476, -17.325465 ], [ -66.487541, -17.325435 ], [ -66.487598, -17.325391 ], [ -66.487638, -17.325389 ], [ -66.487792, -17.325269 ], [ -66.48777, -17.325173 ], [ -66.487737, -17.325029 ], [ -66.487716, -17.324897 ], [ -66.487729, -17.324811 ], [ -66.48772, -17.324723 ], [ -66.487762, -17.324582 ], [ -66.487812, -17.324447 ], [ -66.487846, -17.324361 ], [ -66.487802, -17.324223 ], [ -66.487825, -17.324095 ], [ -66.487805, -17.323982 ], [ -66.487791, -17.323893 ], [ -66.487793, -17.323829 ], [ -66.487766, -17.323766 ], [ -66.487815, -17.323696 ], [ -66.487888, -17.323641 ], [ -66.487945, -17.323565 ], [ -66.487952, -17.323469 ], [ -66.48797, -17.323356 ], [ -66.487958, -17.32327 ], [ -66.488028, -17.323113 ], [ -66.488125, -17.323012 ], [ -66.488201, -17.322878 ], [ -66.488257, -17.322761 ], [ -66.4883, -17.322622 ], [ -66.488358, -17.322543 ], [ -66.488379, -17.322472 ], [ -66.488413, -17.322443 ], [ -66.488464, -17.322404 ], [ -66.488454, -17.322345 ], [ -66.488419, -17.322315 ], [ -66.488456, -17.322235 ], [ -66.488474, -17.32219 ], [ -66.488504, -17.322093 ], [ -66.488548, -17.321943 ], [ -66.488586, -17.321822 ], [ -66.488649, -17.321711 ], [ -66.488744, -17.321653 ], [ -66.488826, -17.321604 ], [ -66.488931, -17.321538 ], [ -66.489113, -17.321497 ], [ -66.489235, -17.321415 ], [ -66.489383, -17.321343 ], [ -66.489483, -17.321193 ], [ -66.489577, -17.321113 ], [ -66.489628, -17.321057 ], [ -66.489677, -17.320975 ], [ -66.48972, -17.320892 ], [ -66.489815, -17.320765 ], [ -66.489859, -17.320656 ], [ -66.489939, -17.320555 ], [ -66.490038, -17.320432 ], [ -66.490078, -17.320408 ], [ -66.490162, -17.320256 ], [ -66.490228, -17.320125 ], [ -66.490217, -17.320027 ], [ -66.490268, -17.319902 ], [ -66.490377, -17.319809 ], [ -66.490431, -17.319729 ], [ -66.490556, -17.319635 ], [ -66.490639, -17.319567 ], [ -66.490725, -17.319543 ], [ -66.490783, -17.319477 ], [ -66.490879, -17.319385 ], [ -66.490965, -17.319268 ], [ -66.491036, -17.319174 ], [ -66.491081, -17.319114 ], [ -66.491324, -17.319032 ], [ -66.491521, -17.318905 ], [ -66.49176, -17.318752 ], [ -66.491999, -17.318633 ], [ -66.492266, -17.318497 ], [ -66.492444, -17.318373 ], [ -66.492643, -17.318217 ], [ -66.492814, -17.318157 ], [ -66.493166, -17.317934 ], [ -66.484423, -17.296106 ], [ -66.466683, -17.291909 ], [ -66.453766, -17.27422 ], [ -66.45382, -17.265402 ], [ -66.433309, -17.261402 ], [ -66.418162, -17.250687 ], [ -66.408475, -17.258675 ], [ -66.408261, -17.258666 ], [ -66.40814, -17.258741 ], [ -66.407906, -17.258781 ], [ -66.407805, -17.25889 ], [ -66.407634, -17.258993 ], [ -66.407553, -17.259092 ], [ -66.407388, -17.259167 ], [ -66.407219, -17.259155 ], [ -66.40699, -17.259183 ], [ -66.406949, -17.259396 ], [ -66.406939, -17.2596 ], [ -66.406925, -17.25976 ], [ -66.406925, -17.259786 ], [ -66.406903, -17.259956 ], [ -66.406879, -17.260017 ], [ -66.406822, -17.260211 ], [ -66.406749, -17.260288 ], [ -66.406658, -17.260338 ], [ -66.406603, -17.260372 ], [ -66.406484, -17.260505 ], [ -66.406418, -17.260578 ], [ -66.40635, -17.260665 ], [ -66.406341, -17.26077 ], [ -66.406369, -17.260862 ], [ -66.406385, -17.260987 ], [ -66.406475, -17.261134 ], [ -66.406537, -17.261212 ], [ -66.406628, -17.261325 ], [ -66.406835, -17.261468 ], [ -66.406943, -17.261595 ], [ -66.407016, -17.261661 ], [ -66.407145, -17.261815 ], [ -66.407198, -17.261867 ], [ -66.407322, -17.26206 ], [ -66.40739, -17.262185 ], [ -66.407455, -17.262243 ], [ -66.407512, -17.262354 ], [ -66.407643, -17.262483 ], [ -66.407792, -17.262613 ], [ -66.407892, -17.262745 ], [ -66.407889, -17.26281 ], [ -66.407854, -17.262962 ], [ -66.407755, -17.263075 ], [ -66.407527, -17.263228 ], [ -66.407402, -17.263359 ], [ -66.407139, -17.263359 ], [ -66.407019, -17.263472 ], [ -66.406871, -17.263518 ], [ -66.406715, -17.263512 ], [ -66.406577, -17.263582 ], [ -66.406418, -17.263773 ], [ -66.406145, -17.263909 ], [ -66.406112, -17.263826 ], [ -66.405931, -17.263752 ], [ -66.405719, -17.263665 ], [ -66.405579, -17.263654 ], [ -66.405452, -17.263822 ], [ -66.405354, -17.263938 ], [ -66.405236, -17.26418 ], [ -66.405145, -17.264318 ], [ -66.405005, -17.264537 ], [ -66.404862, -17.264804 ], [ -66.404737, -17.264834 ], [ -66.404591, -17.264795 ], [ -66.404481, -17.264825 ], [ -66.404353, -17.265074 ], [ -66.404171, -17.265151 ], [ -66.403854, -17.265304 ], [ -66.403703, -17.265403 ], [ -66.403614, -17.265672 ], [ -66.403584, -17.265838 ], [ -66.403461, -17.26608 ], [ -66.403324, -17.266135 ], [ -66.403156, -17.266204 ], [ -66.403024, -17.266289 ], [ -66.402788, -17.266304 ], [ -66.402424, -17.266282 ], [ -66.40201, -17.266274 ], [ -66.40171, -17.266325 ], [ -66.401507, -17.266321 ], [ -66.401342, -17.266329 ], [ -66.401133, -17.266392 ], [ -66.400859, -17.266481 ], [ -66.400643, -17.266578 ], [ -66.400291, -17.266986 ], [ -66.400137, -17.267112 ], [ -66.399916, -17.267211 ], [ -66.39981, -17.267311 ], [ -66.399662, -17.267469 ], [ -66.3995, -17.267609 ], [ -66.399295, -17.267713 ], [ -66.39917, -17.267718 ], [ -66.398986, -17.267684 ], [ -66.398888, -17.267655 ], [ -66.398788, -17.267723 ], [ -66.398586, -17.267772 ], [ -66.398365, -17.267691 ], [ -66.398289, -17.267691 ], [ -66.398165, -17.267753 ], [ -66.398285, -17.267959 ], [ -66.398446, -17.268118 ], [ -66.398788, -17.268456 ], [ -66.398908, -17.268627 ], [ -66.398959, -17.268768 ], [ -66.399038, -17.268938 ], [ -66.399046, -17.269097 ], [ -66.398852, -17.269258 ], [ -66.398675, -17.269394 ], [ -66.398595, -17.269528 ], [ -66.398521, -17.269619 ], [ -66.398514, -17.269722 ], [ -66.398599, -17.269929 ], [ -66.398627, -17.270023 ], [ -66.398622, -17.270118 ], [ -66.398564, -17.270255 ], [ -66.398554, -17.270362 ], [ -66.398627, -17.27052 ], [ -66.398777, -17.270661 ], [ -66.399003, -17.270793 ], [ -66.39908, -17.270886 ], [ -66.399196, -17.270951 ], [ -66.399248, -17.271067 ], [ -66.399191, -17.271433 ], [ -66.399182, -17.271655 ], [ -66.399198, -17.27191 ], [ -66.399245, -17.272139 ], [ -66.399281, -17.272356 ], [ -66.399311, -17.272606 ], [ -66.399325, -17.272798 ], [ -66.399356, -17.272925 ], [ -66.399445, -17.273068 ], [ -66.399454, -17.273219 ], [ -66.39942, -17.273417 ], [ -66.399425, -17.273568 ], [ -66.399464, -17.273657 ], [ -66.399537, -17.273688 ], [ -66.399634, -17.27369 ], [ -66.399652, -17.273719 ], [ -66.399722, -17.273737 ], [ -66.399843, -17.273748 ], [ -66.399926, -17.273794 ], [ -66.399898, -17.273904 ], [ -66.399856, -17.273975 ], [ -66.39981, -17.273975 ], [ -66.399764, -17.274023 ], [ -66.399742, -17.274102 ], [ -66.399632, -17.274224 ], [ -66.399533, -17.274271 ], [ -66.399365, -17.274429 ], [ -66.399293, -17.274549 ], [ -66.399357, -17.274625 ], [ -66.399342, -17.274712 ], [ -66.399122, -17.274943 ], [ -66.399103, -17.27501 ], [ -66.398923, -17.275102 ], [ -66.398776, -17.275242 ], [ -66.398723, -17.275323 ], [ -66.398708, -17.275411 ], [ -66.398795, -17.275436 ], [ -66.398841, -17.275524 ], [ -66.398783, -17.275595 ], [ -66.39867, -17.275832 ], [ -66.398601, -17.276063 ], [ -66.398604, -17.276188 ], [ -66.398485, -17.276441 ], [ -66.398374, -17.276582 ], [ -66.398356, -17.276671 ], [ -66.398375, -17.276793 ], [ -66.398363, -17.277061 ], [ -66.398595, -17.277318 ], [ -66.398606, -17.277421 ], [ -66.39869, -17.277576 ], [ -66.398756, -17.277614 ], [ -66.398914, -17.277732 ], [ -66.398975, -17.277921 ], [ -66.398988, -17.278061 ], [ -66.399109, -17.278246 ], [ -66.39911, -17.278415 ], [ -66.399063, -17.278578 ], [ -66.398939, -17.278636 ], [ -66.398893, -17.278678 ], [ -66.398713, -17.278802 ], [ -66.39875, -17.27887 ], [ -66.398725, -17.278926 ], [ -66.398723, -17.278968 ], [ -66.398656, -17.279038 ], [ -66.398582, -17.279093 ], [ -66.398684, -17.27922 ], [ -66.398617, -17.27926 ], [ -66.398494, -17.279296 ], [ -66.398466, -17.279378 ], [ -66.398524, -17.27949 ], [ -66.398464, -17.279599 ], [ -66.398389, -17.279654 ], [ -66.398271, -17.279616 ], [ -66.398021, -17.279625 ], [ -66.397513, -17.279725 ], [ -66.397253, -17.279818 ], [ -66.397059, -17.279861 ], [ -66.396917, -17.280014 ], [ -66.396699, -17.280098 ], [ -66.396499, -17.280104 ], [ -66.396418, -17.280092 ], [ -66.396196, -17.280062 ], [ -66.396029, -17.280012 ], [ -66.395793, -17.279876 ], [ -66.395743, -17.279786 ], [ -66.39555, -17.279756 ], [ -66.395415, -17.279833 ], [ -66.395279, -17.27991 ], [ -66.395234, -17.279974 ], [ -66.394854, -17.280024 ], [ -66.394664, -17.280011 ], [ -66.394499, -17.279984 ], [ -66.394235, -17.279996 ], [ -66.393918, -17.280011 ], [ -66.393719, -17.280362 ], [ -66.393331, -17.280451 ], [ -66.393149, -17.280548 ], [ -66.393051, -17.280661 ], [ -66.393158, -17.281049 ], [ -66.393158, -17.281477 ], [ -66.393128, -17.281866 ], [ -66.393112, -17.282301 ], [ -66.393113, -17.282722 ], [ -66.393062, -17.283313 ], [ -66.39312, -17.28382 ], [ -66.393114, -17.284043 ], [ -66.39309, -17.28434 ], [ -66.392992, -17.28459 ], [ -66.392996, -17.284886 ], [ -66.393062, -17.285315 ], [ -66.392978, -17.285571 ], [ -66.392871, -17.285537 ], [ -66.392723, -17.285555 ], [ -66.392395, -17.285608 ], [ -66.392381, -17.285574 ], [ -66.392202, -17.285644 ], [ -66.391987, -17.285693 ], [ -66.391942, -17.285686 ], [ -66.391779, -17.285691 ], [ -66.391648, -17.285701 ], [ -66.391489, -17.285699 ], [ -66.391299, -17.285683 ], [ -66.391214, -17.285676 ], [ -66.391114, -17.285648 ], [ -66.390992, -17.285583 ], [ -66.39091, -17.285543 ], [ -66.390813, -17.285537 ], [ -66.390798, -17.285584 ], [ -66.390719, -17.285587 ], [ -66.390597, -17.285556 ], [ -66.390481, -17.285632 ], [ -66.390439, -17.285613 ], [ -66.390402, -17.285603 ], [ -66.390321, -17.285594 ], [ -66.390237, -17.285568 ], [ -66.390204, -17.285596 ], [ -66.390121, -17.285617 ], [ -66.389994, -17.285624 ], [ -66.389888, -17.285618 ], [ -66.389763, -17.285615 ], [ -66.389701, -17.285581 ], [ -66.389668, -17.285555 ], [ -66.389577, -17.285501 ], [ -66.389503, -17.285479 ], [ -66.38945, -17.285459 ], [ -66.38933, -17.285452 ], [ -66.389255, -17.285433 ], [ -66.389196, -17.285428 ], [ -66.389164, -17.285427 ], [ -66.389102, -17.28543 ], [ -66.38915, -17.285464 ], [ -66.389125, -17.285501 ], [ -66.389069, -17.285543 ], [ -66.389053, -17.285577 ], [ -66.389025, -17.285631 ], [ -66.388961, -17.285635 ], [ -66.388918, -17.285642 ], [ -66.388896, -17.285665 ], [ -66.388777, -17.28571 ], [ -66.388756, -17.285733 ], [ -66.388673, -17.285775 ], [ -66.388604, -17.285791 ], [ -66.38855, -17.285798 ], [ -66.388502, -17.285796 ], [ -66.388459, -17.285831 ], [ -66.388423, -17.285845 ], [ -66.388334, -17.285841 ], [ -66.388267, -17.285842 ], [ -66.388182, -17.285863 ], [ -66.388115, -17.285853 ], [ -66.388054, -17.285842 ], [ -66.38799, -17.28581 ], [ -66.387894, -17.285805 ], [ -66.387785, -17.285798 ], [ -66.387727, -17.285803 ], [ -66.387664, -17.28586 ], [ -66.387628, -17.285862 ], [ -66.387583, -17.285861 ], [ -66.387588, -17.285885 ], [ -66.387563, -17.285901 ], [ -66.387487, -17.285918 ], [ -66.387399, -17.285931 ], [ -66.387342, -17.285973 ], [ -66.38726, -17.285988 ], [ -66.387208, -17.28603 ], [ -66.387173, -17.286056 ], [ -66.387162, -17.286071 ], [ -66.387064, -17.286121 ], [ -66.387033, -17.286125 ], [ -66.386953, -17.286125 ], [ -66.386928, -17.286156 ], [ -66.386901, -17.286184 ], [ -66.386852, -17.286206 ], [ -66.386778, -17.28622 ], [ -66.386722, -17.286289 ], [ -66.386666, -17.286342 ], [ -66.38657, -17.28638 ], [ -66.386482, -17.286463 ], [ -66.386397, -17.286495 ], [ -66.386354, -17.286507 ], [ -66.386317, -17.28654 ], [ -66.386248, -17.286568 ], [ -66.386195, -17.286583 ], [ -66.386146, -17.286619 ], [ -66.385977, -17.286678 ], [ -66.385909, -17.286694 ], [ -66.385878, -17.286711 ], [ -66.385848, -17.286755 ], [ -66.385801, -17.286814 ], [ -66.385745, -17.286824 ], [ -66.385696, -17.286823 ], [ -66.385651, -17.286822 ], [ -66.385549, -17.286812 ], [ -66.385454, -17.286772 ], [ -66.385417, -17.286749 ], [ -66.385359, -17.286736 ], [ -66.385271, -17.28673 ], [ -66.385225, -17.286729 ], [ -66.385167, -17.28673 ], [ -66.385055, -17.28674 ], [ -66.38496, -17.286752 ], [ -66.384845, -17.286764 ], [ -66.384767, -17.286773 ], [ -66.38468, -17.286771 ], [ -66.384635, -17.286785 ], [ -66.384593, -17.286807 ], [ -66.384572, -17.286777 ], [ -66.384496, -17.286791 ], [ -66.384467, -17.286821 ], [ -66.384404, -17.286809 ], [ -66.384371, -17.286759 ], [ -66.38429, -17.286749 ], [ -66.384077, -17.286761 ], [ -66.383971, -17.286735 ], [ -66.383892, -17.286721 ], [ -66.383867, -17.286731 ], [ -66.38368, -17.286734 ], [ -66.383627, -17.286754 ], [ -66.383474, -17.286803 ], [ -66.383326, -17.286842 ], [ -66.383266, -17.286855 ], [ -66.383207, -17.286908 ], [ -66.383142, -17.286913 ], [ -66.383096, -17.286944 ], [ -66.383039, -17.286987 ], [ -66.382967, -17.287018 ], [ -66.382919, -17.287056 ], [ -66.382722, -17.287114 ], [ -66.382586, -17.287108 ], [ -66.382533, -17.287083 ], [ -66.382446, -17.287055 ], [ -66.382333, -17.287044 ], [ -66.382263, -17.287042 ], [ -66.382234, -17.287064 ], [ -66.382192, -17.2871 ], [ -66.382172, -17.287134 ], [ -66.382127, -17.287159 ], [ -66.382062, -17.287213 ], [ -66.381963, -17.287213 ], [ -66.381876, -17.287211 ], [ -66.381855, -17.287241 ], [ -66.381837, -17.287282 ], [ -66.381779, -17.287368 ], [ -66.381646, -17.287431 ], [ -66.38155, -17.287503 ], [ -66.381359, -17.287587 ], [ -66.381306, -17.287631 ], [ -66.381174, -17.287712 ], [ -66.381183, -17.287848 ], [ -66.381157, -17.287919 ], [ -66.381133, -17.287993 ], [ -66.381133, -17.288166 ], [ -66.381118, -17.288218 ], [ -66.381056, -17.288287 ], [ -66.380996, -17.288295 ], [ -66.380877, -17.288301 ], [ -66.380777, -17.288295 ], [ -66.380633, -17.288315 ], [ -66.380516, -17.288321 ], [ -66.380383, -17.288373 ], [ -66.380333, -17.288369 ], [ -66.380216, -17.288382 ], [ -66.38012, -17.288398 ], [ -66.37995, -17.288386 ], [ -66.379849, -17.288365 ], [ -66.379762, -17.288332 ], [ -66.379699, -17.288273 ], [ -66.379646, -17.288262 ], [ -66.379452, -17.288227 ], [ -66.379304, -17.288206 ], [ -66.379042, -17.2882 ], [ -66.37896, -17.288195 ], [ -66.378789, -17.288178 ], [ -66.378667, -17.288158 ], [ -66.378568, -17.288098 ], [ -66.378494, -17.288034 ], [ -66.378389, -17.287963 ], [ -66.378262, -17.287919 ], [ -66.378134, -17.287899 ], [ -66.377935, -17.287863 ], [ -66.377842, -17.287847 ], [ -66.377773, -17.287854 ], [ -66.377674, -17.287881 ], [ -66.377601, -17.287864 ], [ -66.377447, -17.28781 ], [ -66.377318, -17.287729 ], [ -66.377178, -17.287678 ], [ -66.377075, -17.287687 ], [ -66.377002, -17.287727 ], [ -66.376923, -17.287796 ], [ -66.376684, -17.287767 ], [ -66.376402, -17.287764 ], [ -66.376317, -17.287774 ], [ -66.376131, -17.28778 ], [ -66.375819, -17.287784 ], [ -66.375731, -17.287767 ], [ -66.375658, -17.287779 ], [ -66.375518, -17.287797 ], [ -66.375394, -17.287813 ], [ -66.375214, -17.28784 ], [ -66.375063, -17.287867 ], [ -66.374956, -17.287883 ], [ -66.37489, -17.287884 ], [ -66.374751, -17.287948 ], [ -66.374732, -17.28794 ], [ -66.374574, -17.288018 ], [ -66.374468, -17.288049 ], [ -66.374356, -17.288088 ], [ -66.374258, -17.288087 ], [ -66.374196, -17.288097 ], [ -66.374165, -17.288095 ], [ -66.374075, -17.288112 ], [ -66.374018, -17.288136 ], [ -66.37393, -17.288196 ], [ -66.373866, -17.288269 ], [ -66.373766, -17.288324 ], [ -66.373524, -17.288317 ], [ -66.373418, -17.288298 ], [ -66.373327, -17.288288 ], [ -66.373213, -17.288275 ], [ -66.373113, -17.288235 ], [ -66.372943, -17.288175 ], [ -66.372844, -17.288151 ], [ -66.372727, -17.288134 ], [ -66.372597, -17.288095 ], [ -66.372484, -17.288094 ], [ -66.372317, -17.288135 ], [ -66.372246, -17.288125 ], [ -66.372149, -17.288177 ], [ -66.372001, -17.288142 ], [ -66.371861, -17.288179 ], [ -66.371735, -17.288223 ], [ -66.371634, -17.288293 ], [ -66.371487, -17.288372 ], [ -66.371402, -17.288399 ], [ -66.371293, -17.288418 ], [ -66.371235, -17.288423 ], [ -66.371164, -17.288433 ], [ -66.371017, -17.288449 ], [ -66.370917, -17.288447 ], [ -66.370817, -17.28843 ], [ -66.370733, -17.288431 ], [ -66.370682, -17.288432 ], [ -66.370583, -17.28841 ], [ -66.370506, -17.288378 ], [ -66.370346, -17.28836 ], [ -66.370134, -17.288355 ], [ -66.370042, -17.288371 ], [ -66.369964, -17.2884 ], [ -66.369851, -17.288426 ], [ -66.369799, -17.288474 ], [ -66.369786, -17.288494 ], [ -66.369683, -17.288569 ], [ -66.36954, -17.288627 ], [ -66.369384, -17.288716 ], [ -66.369278, -17.288802 ], [ -66.369122, -17.289017 ], [ -66.369004, -17.289205 ], [ -66.368981, -17.289276 ], [ -66.368919, -17.289377 ], [ -66.368889, -17.289426 ], [ -66.368841, -17.289517 ], [ -66.368785, -17.289715 ], [ -66.368717, -17.289832 ], [ -66.36866, -17.28983 ], [ -66.36859, -17.289814 ], [ -66.368513, -17.289803 ], [ -66.368383, -17.289789 ], [ -66.368272, -17.28977 ], [ -66.368152, -17.289756 ], [ -66.367971, -17.289703 ], [ -66.36789, -17.289664 ], [ -66.367875, -17.289619 ], [ -66.367886, -17.289579 ], [ -66.367925, -17.289547 ], [ -66.367936, -17.289495 ], [ -66.367969, -17.289454 ], [ -66.36799, -17.289416 ], [ -66.367951, -17.289326 ], [ -66.367882, -17.289278 ], [ -66.367746, -17.28926 ], [ -66.367636, -17.289254 ], [ -66.367554, -17.289234 ], [ -66.367341, -17.289122 ], [ -66.367197, -17.289018 ], [ -66.367069, -17.28894 ], [ -66.366889, -17.288888 ], [ -66.36672, -17.288823 ], [ -66.366605, -17.28875 ], [ -66.366516, -17.288694 ], [ -66.366456, -17.288638 ], [ -66.366387, -17.288559 ], [ -66.366278, -17.28848 ], [ -66.366124, -17.2884 ], [ -66.365978, -17.288324 ], [ -66.365863, -17.288248 ], [ -66.365785, -17.288187 ], [ -66.365729, -17.288174 ], [ -66.365673, -17.288161 ], [ -66.365636, -17.288137 ], [ -66.365562, -17.2881 ], [ -66.3655, -17.288082 ], [ -66.365457, -17.288057 ], [ -66.365396, -17.287996 ], [ -66.365253, -17.287971 ], [ -66.36516, -17.28797 ], [ -66.36511, -17.287999 ], [ -66.365023, -17.287962 ], [ -66.364949, -17.287955 ], [ -66.364831, -17.287905 ], [ -66.364738, -17.287874 ], [ -66.364708, -17.287856 ], [ -66.364602, -17.287837 ], [ -66.364497, -17.287805 ], [ -66.364378, -17.287774 ], [ -66.364282, -17.287744 ], [ -66.364183, -17.287725 ] ] ] ] } }
]
}
